PointPosition
version=1
nRows=601
nColumns=4
inDegrees=no
No description.
endheader
time	state_0	state_1	state_2
      0.00000000	      0.00857700	     -0.00321842	     -0.09478690
      0.00055768	      0.00858219	     -0.00335809	     -0.09478690
      0.00111536	      0.00858751	     -0.00349583	     -0.09478690
      0.00167304	      0.00859297	     -0.00363169	     -0.09478690
      0.00223072	      0.00859857	     -0.00376571	     -0.09478690
      0.00278840	      0.00860429	     -0.00389794	     -0.09478690
      0.00334608	      0.00861013	     -0.00402843	     -0.09478690
      0.00390377	      0.00861609	     -0.00415724	     -0.09478690
      0.00446145	      0.00862215	     -0.00428440	     -0.09478690
      0.00501913	      0.00862833	     -0.00440997	     -0.09478690
      0.00557681	      0.00863461	     -0.00453398	     -0.09478690
      0.00613449	      0.00864098	     -0.00465649	     -0.09478690
      0.00669217	      0.00864745	     -0.00477753	     -0.09478690
      0.00724985	      0.00865401	     -0.00489714	     -0.09478690
      0.00780753	      0.00866065	     -0.00501538	     -0.09478690
      0.00836521	      0.00866737	     -0.00513227	     -0.09478690
      0.00892289	      0.00867416	     -0.00524786	     -0.09478690
      0.00948057	      0.00868103	     -0.00536220	     -0.09478690
      0.01003825	      0.00868797	     -0.00547530	     -0.09478690
      0.01059593	      0.00869497	     -0.00558722	     -0.09478690
      0.01115362	      0.00870204	     -0.00569799	     -0.09478690
      0.01171130	      0.00870916	     -0.00580763	     -0.09478690
      0.01226898	      0.00871633	     -0.00591620	     -0.09478690
      0.01282666	      0.00872356	     -0.00602371	     -0.09478690
      0.01338434	      0.00873084	     -0.00613020	     -0.09478690
      0.01394202	      0.00873816	     -0.00623570	     -0.09478690
      0.01449970	      0.00874553	     -0.00634023	     -0.09478690
      0.01505738	      0.00875293	     -0.00644383	     -0.09478690
      0.01561506	      0.00876038	     -0.00654653	     -0.09478690
      0.01617274	      0.00876786	     -0.00664834	     -0.09478690
      0.01673042	      0.00877537	     -0.00674930	     -0.09478690
      0.01728810	      0.00878291	     -0.00684943	     -0.09478690
      0.01784578	      0.00879049	     -0.00694875	     -0.09478690
      0.01840346	      0.00879809	     -0.00704729	     -0.09478690
      0.01896115	      0.00880571	     -0.00714506	     -0.09478690
      0.01951883	      0.00881336	     -0.00724209	     -0.09478690
      0.02007651	      0.00882103	     -0.00733840	     -0.09478690
      0.02063419	      0.00882872	     -0.00743400	     -0.09478690
      0.02119187	      0.00883643	     -0.00752893	     -0.09478690
      0.02174955	      0.00884415	     -0.00762318	     -0.09478690
      0.02230723	      0.00885189	     -0.00771679	     -0.09478690
      0.02286491	      0.00885964	     -0.00780976	     -0.09478690
      0.02342259	      0.00886741	     -0.00790211	     -0.09478690
      0.02398027	      0.00887518	     -0.00799386	     -0.09478690
      0.02453795	      0.00888296	     -0.00808501	     -0.09478690
      0.02509563	      0.00889075	     -0.00817559	     -0.09478690
      0.02565331	      0.00889855	     -0.00826560	     -0.09478690
      0.02621100	      0.00890636	     -0.00835505	     -0.09478690
      0.02676868	      0.00891416	     -0.00844396	     -0.09478690
      0.02732636	      0.00892198	     -0.00853233	     -0.09478690
      0.02788404	      0.00892980	     -0.00862018	     -0.09478690
      0.02844172	      0.00893762	     -0.00870751	     -0.09478690
      0.02899940	      0.00894544	     -0.00879433	     -0.09478690
      0.02955708	      0.00895326	     -0.00888064	     -0.09478690
      0.03011476	      0.00896109	     -0.00896645	     -0.09478690
      0.03067244	      0.00896891	     -0.00905178	     -0.09478690
      0.03123012	      0.00897674	     -0.00913662	     -0.09478690
      0.03178780	      0.00898457	     -0.00922097	     -0.09478690
      0.03234548	      0.00899240	     -0.00930485	     -0.09478690
      0.03290316	      0.00900023	     -0.00938826	     -0.09478690
      0.03346085	      0.00900806	     -0.00947119	     -0.09478690
      0.03401853	      0.00901589	     -0.00955365	     -0.09478690
      0.03457621	      0.00902372	     -0.00963565	     -0.09478690
      0.03513389	      0.00903156	     -0.00971718	     -0.09478690
      0.03569157	      0.00903940	     -0.00979825	     -0.09478690
      0.03624925	      0.00904725	     -0.00987886	     -0.09478690
      0.03680693	      0.00905510	     -0.00995900	     -0.09478690
      0.03736461	      0.00906296	     -0.01003868	     -0.09478690
      0.03792229	      0.00907082	     -0.01011789	     -0.09478690
      0.03847997	      0.00907870	     -0.01019664	     -0.09478690
      0.03903765	      0.00908658	     -0.01027492	     -0.09478690
      0.03959533	      0.00909448	     -0.01035273	     -0.09478690
      0.04015301	      0.00910238	     -0.01043008	     -0.09478690
      0.04071069	      0.00911029	     -0.01050695	     -0.09478690
      0.04126838	      0.00911820	     -0.01058335	     -0.09478690
      0.04182606	      0.00912610	     -0.01065928	     -0.09478690
      0.04238374	      0.00913399	     -0.01073473	     -0.09478690
      0.04294142	      0.00914185	     -0.01080969	     -0.09478690
      0.04349910	      0.00914966	     -0.01088418	     -0.09478690
      0.04405678	      0.00915740	     -0.01095818	     -0.09478690
      0.04461446	      0.00916506	     -0.01103168	     -0.09478690
      0.04517214	      0.00917262	     -0.01110468	     -0.09478690
      0.04572982	      0.00918004	     -0.01117717	     -0.09478690
      0.04628750	      0.00918731	     -0.01124914	     -0.09478690
      0.04684518	      0.00919443	     -0.01132059	     -0.09478690
      0.04740286	      0.00920137	     -0.01139148	     -0.09478690
      0.04796054	      0.00920812	     -0.01146183	     -0.09478690
      0.04851823	      0.00921468	     -0.01153161	     -0.09478690
      0.04907591	      0.00922106	     -0.01160082	     -0.09478690
      0.04963359	      0.00922723	     -0.01166944	     -0.09478690
      0.05019127	      0.00923322	     -0.01173747	     -0.09478690
      0.05074895	      0.00923902	     -0.01180490	     -0.09478690
      0.05130663	      0.00924462	     -0.01187172	     -0.09478690
      0.05186431	      0.00925005	     -0.01193793	     -0.09478690
      0.05242199	      0.00925528	     -0.01200353	     -0.09478690
      0.05297967	      0.00926034	     -0.01206850	     -0.09478690
      0.05353735	      0.00926521	     -0.01213285	     -0.09478690
      0.05409503	      0.00926990	     -0.01219657	     -0.09478690
      0.05465271	      0.00927441	     -0.01225965	     -0.09478690
      0.05521039	      0.00927875	     -0.01232211	     -0.09478690
      0.05576808	      0.00928291	     -0.01238393	     -0.09478690
      0.05632576	      0.00928689	     -0.01244511	     -0.09478690
      0.05688344	      0.00929070	     -0.01250566	     -0.09478690
      0.05744112	      0.00929434	     -0.01256557	     -0.09478690
      0.05799880	      0.00929779	     -0.01262484	     -0.09478690
      0.05855648	      0.00930108	     -0.01268347	     -0.09478690
      0.05911416	      0.00930419	     -0.01274146	     -0.09478690
      0.05967184	      0.00930712	     -0.01279881	     -0.09478690
      0.06022952	      0.00930988	     -0.01285552	     -0.09478690
      0.06078720	      0.00931247	     -0.01291160	     -0.09478690
      0.06134488	      0.00931488	     -0.01296703	     -0.09478690
      0.06190256	      0.00931712	     -0.01302182	     -0.09478690
      0.06246024	      0.00931918	     -0.01307598	     -0.09478690
      0.06301792	      0.00932107	     -0.01312951	     -0.09478690
      0.06357561	      0.00932278	     -0.01318239	     -0.09478690
      0.06413329	      0.00932432	     -0.01323464	     -0.09478690
      0.06469097	      0.00932569	     -0.01328626	     -0.09478690
      0.06524865	      0.00932688	     -0.01333725	     -0.09478690
      0.06580633	      0.00932790	     -0.01338761	     -0.09478690
      0.06636401	      0.00932874	     -0.01343733	     -0.09478690
      0.06692169	      0.00932941	     -0.01348643	     -0.09478690
      0.06747937	      0.00932990	     -0.01353490	     -0.09478690
      0.06803705	      0.00933022	     -0.01358275	     -0.09478690
      0.06859473	      0.00933037	     -0.01362998	     -0.09478690
      0.06915241	      0.00933034	     -0.01367658	     -0.09478690
      0.06971009	      0.00933013	     -0.01372256	     -0.09478690
      0.07026777	      0.00932975	     -0.01376792	     -0.09478690
      0.07082546	      0.00932920	     -0.01381267	     -0.09478690
      0.07138314	      0.00932847	     -0.01385680	     -0.09478690
      0.07194082	      0.00932756	     -0.01390032	     -0.09478690
      0.07249850	      0.00932648	     -0.01394322	     -0.09478690
      0.07305618	      0.00932523	     -0.01398552	     -0.09478690
      0.07361386	      0.00932380	     -0.01402720	     -0.09478690
      0.07417154	      0.00932219	     -0.01406828	     -0.09478690
      0.07472922	      0.00932041	     -0.01410875	     -0.09478690
      0.07528690	      0.00931846	     -0.01414862	     -0.09478690
      0.07584458	      0.00931633	     -0.01418788	     -0.09478690
      0.07640226	      0.00931402	     -0.01422654	     -0.09478690
      0.07695994	      0.00931154	     -0.01426460	     -0.09478690
      0.07751762	      0.00930889	     -0.01430206	     -0.09478690
      0.07807531	      0.00930605	     -0.01433892	     -0.09478690
      0.07863299	      0.00930305	     -0.01437519	     -0.09478690
      0.07919067	      0.00929986	     -0.01441086	     -0.09478690
      0.07974835	      0.00929650	     -0.01444593	     -0.09478690
      0.08030603	      0.00929296	     -0.01448042	     -0.09478690
      0.08086371	      0.00928925	     -0.01451431	     -0.09478690
      0.08142139	      0.00928536	     -0.01454760	     -0.09478690
      0.08197907	      0.00928130	     -0.01458031	     -0.09478690
      0.08253675	      0.00927705	     -0.01461243	     -0.09478690
      0.08309443	      0.00927263	     -0.01464396	     -0.09478690
      0.08365211	      0.00926804	     -0.01467490	     -0.09478690
      0.08420979	      0.00926326	     -0.01470526	     -0.09478690
      0.08476747	      0.00925831	     -0.01473502	     -0.09478690
      0.08532515	      0.00925318	     -0.01476421	     -0.09478690
      0.08588284	      0.00924787	     -0.01479281	     -0.09478690
      0.08644052	      0.00924239	     -0.01482082	     -0.09478690
      0.08699820	      0.00923672	     -0.01484826	     -0.09478690
      0.08755588	      0.00923088	     -0.01487511	     -0.09478690
      0.08811356	      0.00922486	     -0.01490138	     -0.09478690
      0.08867124	      0.00921866	     -0.01492707	     -0.09478690
      0.08922892	      0.00921228	     -0.01495218	     -0.09478690
      0.08978660	      0.00920572	     -0.01497671	     -0.09478690
      0.09034428	      0.00919898	     -0.01500066	     -0.09478690
      0.09090196	      0.00919207	     -0.01502404	     -0.09478690
      0.09145964	      0.00918498	     -0.01504683	     -0.09478690
      0.09201732	      0.00917771	     -0.01506905	     -0.09478690
      0.09257500	      0.00917026	     -0.01509069	     -0.09478690
      0.09313269	      0.00916263	     -0.01511175	     -0.09478690
      0.09369037	      0.00915483	     -0.01513223	     -0.09478690
      0.09424805	      0.00914684	     -0.01515213	     -0.09478690
      0.09480573	      0.00913868	     -0.01517145	     -0.09478690
      0.09536341	      0.00913034	     -0.01519018	     -0.09478690
      0.09592109	      0.00912181	     -0.01520834	     -0.09478690
      0.09647877	      0.00911312	     -0.01522590	     -0.09478690
      0.09703645	      0.00910424	     -0.01524288	     -0.09478690
      0.09759413	      0.00909518	     -0.01525928	     -0.09478690
      0.09815181	      0.00908595	     -0.01527508	     -0.09478690
      0.09870949	      0.00907654	     -0.01529030	     -0.09478690
      0.09926717	      0.00906695	     -0.01530493	     -0.09478690
      0.09982485	      0.00905719	     -0.01531896	     -0.09478690
      0.10038254	      0.00904725	     -0.01533241	     -0.09478690
      0.10094022	      0.00903714	     -0.01534525	     -0.09478690
      0.10149790	      0.00902685	     -0.01535751	     -0.09478690
      0.10205558	      0.00901639	     -0.01536916	     -0.09478690
      0.10261326	      0.00900576	     -0.01538022	     -0.09478690
      0.10317094	      0.00899495	     -0.01539068	     -0.09478690
      0.10372862	      0.00898396	     -0.01540054	     -0.09478690
      0.10428630	      0.00897281	     -0.01540979	     -0.09478690
      0.10484398	      0.00896148	     -0.01541843	     -0.09478690
      0.10540166	      0.00894999	     -0.01542647	     -0.09478690
      0.10595934	      0.00893832	     -0.01543389	     -0.09478690
      0.10651702	      0.00892648	     -0.01544071	     -0.09478690
      0.10707470	      0.00891446	     -0.01544690	     -0.09478690
      0.10763238	      0.00890228	     -0.01545247	     -0.09478690
      0.10819007	      0.00888993	     -0.01545742	     -0.09478690
      0.10874775	      0.00887741	     -0.01546173	     -0.09478690
      0.10930543	      0.00886472	     -0.01546542	     -0.09478690
      0.10986311	      0.00885186	     -0.01546846	     -0.09478690
      0.11042079	      0.00883883	     -0.01547086	     -0.09478690
      0.11097847	      0.00882563	     -0.01547262	     -0.09478690
      0.11153615	      0.00881226	     -0.01547372	     -0.09478690
      0.11209383	      0.00879872	     -0.01547416	     -0.09478690
      0.11265151	      0.00878501	     -0.01547393	     -0.09478690
      0.11320919	      0.00877113	     -0.01547303	     -0.09478690
      0.11376687	      0.00875708	     -0.01547145	     -0.09478690
      0.11432455	      0.00874286	     -0.01546919	     -0.09478690
      0.11488223	      0.00872846	     -0.01546623	     -0.09478690
      0.11543992	      0.00871390	     -0.01546256	     -0.09478690
      0.11599760	      0.00869916	     -0.01545819	     -0.09478690
      0.11655528	      0.00868425	     -0.01545309	     -0.09478690
      0.11711296	      0.00866917	     -0.01544727	     -0.09478690
      0.11767064	      0.00865391	     -0.01544071	     -0.09478690
      0.11822832	      0.00863848	     -0.01543340	     -0.09478690
      0.11878600	      0.00862287	     -0.01542533	     -0.09478690
      0.11934368	      0.00860709	     -0.01541649	     -0.09478690
      0.11990136	      0.00859113	     -0.01540688	     -0.09478690
      0.12045904	      0.00857498	     -0.01539647	     -0.09478690
      0.12101672	      0.00855866	     -0.01538526	     -0.09478690
      0.12157440	      0.00854216	     -0.01537324	     -0.09478690
      0.12213208	      0.00852548	     -0.01536040	     -0.09478690
      0.12268977	      0.00850861	     -0.01534671	     -0.09478690
      0.12324745	      0.00849156	     -0.01533217	     -0.09478690
      0.12380513	      0.00847433	     -0.01531677	     -0.09478690
      0.12436281	      0.00845691	     -0.01530049	     -0.09478690
      0.12492049	      0.00843930	     -0.01528333	     -0.09478690
      0.12547817	      0.00842150	     -0.01526525	     -0.09478690
      0.12603585	      0.00840351	     -0.01524626	     -0.09478690
      0.12659353	      0.00838534	     -0.01522633	     -0.09478690
      0.12715121	      0.00836697	     -0.01520545	     -0.09478690
      0.12770889	      0.00834840	     -0.01518361	     -0.09478690
      0.12826657	      0.00832965	     -0.01516079	     -0.09478690
      0.12882425	      0.00831069	     -0.01513697	     -0.09478690
      0.12938193	      0.00829154	     -0.01511214	     -0.09478690
      0.12993961	      0.00827220	     -0.01508628	     -0.09478690
      0.13049730	      0.00825265	     -0.01505938	     -0.09478690
      0.13105498	      0.00823290	     -0.01503142	     -0.09478690
      0.13161266	      0.00821295	     -0.01500237	     -0.09478690
      0.13217034	      0.00819280	     -0.01497224	     -0.09478690
      0.13272802	      0.00817245	     -0.01494099	     -0.09478690
      0.13328570	      0.00815188	     -0.01490861	     -0.09478690
      0.13384338	      0.00813112	     -0.01487509	     -0.09478690
      0.13440106	      0.00811014	     -0.01484040	     -0.09478690
      0.13495874	      0.00808896	     -0.01480452	     -0.09478690
      0.13551642	      0.00806757	     -0.01476745	     -0.09478690
      0.13607410	      0.00804597	     -0.01472916	     -0.09478690
      0.13663178	      0.00802416	     -0.01468963	     -0.09478690
      0.13718946	      0.00800213	     -0.01464884	     -0.09478690
      0.13774715	      0.00797990	     -0.01460679	     -0.09478690
      0.13830483	      0.00795745	     -0.01456344	     -0.09478690
      0.13886251	      0.00793479	     -0.01451878	     -0.09478690
      0.13942019	      0.00791192	     -0.01447279	     -0.09478690
      0.13997787	      0.00788883	     -0.01442545	     -0.09478690
      0.14053555	      0.00786552	     -0.01437674	     -0.09478690
      0.14109323	      0.00784201	     -0.01432665	     -0.09478690
      0.14165091	      0.00781828	     -0.01427515	     -0.09478690
      0.14220859	      0.00779433	     -0.01422223	     -0.09478690
      0.14276627	      0.00777017	     -0.01416786	     -0.09478690
      0.14332395	      0.00774580	     -0.01411203	     -0.09478690
      0.14388163	      0.00772121	     -0.01405472	     -0.09478690
      0.14443931	      0.00769641	     -0.01399590	     -0.09478690
      0.14499700	      0.00767140	     -0.01393557	     -0.09478690
      0.14555468	      0.00764617	     -0.01387369	     -0.09478690
      0.14611236	      0.00762074	     -0.01381025	     -0.09478690
      0.14667004	      0.00759509	     -0.01374523	     -0.09478690
      0.14722772	      0.00756924	     -0.01367861	     -0.09478690
      0.14778540	      0.00754318	     -0.01361038	     -0.09478690
      0.14834308	      0.00751692	     -0.01354050	     -0.09478690
      0.14890076	      0.00749045	     -0.01346897	     -0.09478690
      0.14945844	      0.00746379	     -0.01339575	     -0.09478690
      0.15001612	      0.00743692	     -0.01332084	     -0.09478690
      0.15057380	      0.00740986	     -0.01324421	     -0.09478690
      0.15113148	      0.00738259	     -0.01316583	     -0.09478690
      0.15168916	      0.00735513	     -0.01308570	     -0.09478690
      0.15224684	      0.00732746	     -0.01300377	     -0.09478690
      0.15280453	      0.00729960	     -0.01292003	     -0.09478690
      0.15336221	      0.00727152	     -0.01283446	     -0.09478690
      0.15391989	      0.00724325	     -0.01274704	     -0.09478690
      0.15447757	      0.00721476	     -0.01265773	     -0.09478690
      0.15503525	      0.00718606	     -0.01256652	     -0.09478690
      0.15559293	      0.00715714	     -0.01247338	     -0.09478690
      0.15615061	      0.00712801	     -0.01237829	     -0.09478690
      0.15670829	      0.00709866	     -0.01228122	     -0.09478690
      0.15726597	      0.00706908	     -0.01218215	     -0.09478690
      0.15782365	      0.00703928	     -0.01208106	     -0.09478690
      0.15838133	      0.00700924	     -0.01197791	     -0.09478690
      0.15893901	      0.00697897	     -0.01187270	     -0.09478690
      0.15949669	      0.00694846	     -0.01176538	     -0.09478690
      0.16005438	      0.00691770	     -0.01165594	     -0.09478690
      0.16061206	      0.00688669	     -0.01154436	     -0.09478690
      0.16116974	      0.00685543	     -0.01143060	     -0.09478690
      0.16172742	      0.00682391	     -0.01131466	     -0.09478690
      0.16228510	      0.00679215	     -0.01119651	     -0.09478690
      0.16284278	      0.00676014	     -0.01107618	     -0.09478690
      0.16340046	      0.00672789	     -0.01095367	     -0.09478690
      0.16395814	      0.00669540	     -0.01082900	     -0.09478690
      0.16451582	      0.00666271	     -0.01070219	     -0.09478690
      0.16507350	      0.00662981	     -0.01057327	     -0.09478690
      0.16563118	      0.00659673	     -0.01044228	     -0.09478690
      0.16618886	      0.00656347	     -0.01030924	     -0.09478690
      0.16674654	      0.00653005	     -0.01017421	     -0.09478690
      0.16730423	      0.00649648	     -0.01003722	     -0.09478690
      0.16786191	      0.00646280	     -0.00989831	     -0.09478690
      0.16841959	      0.00642901	     -0.00975752	     -0.09478690
      0.16897727	      0.00639513	     -0.00961490	     -0.09478690
      0.16953495	      0.00636120	     -0.00947047	     -0.09478690
      0.17009263	      0.00632724	     -0.00932428	     -0.09478690
      0.17065031	      0.00629325	     -0.00917635	     -0.09478690
      0.17120799	      0.00625928	     -0.00902673	     -0.09478690
      0.17176567	      0.00622538	     -0.00887550	     -0.09478690
      0.17232335	      0.00619172	     -0.00872277	     -0.09478690
      0.17288103	      0.00615857	     -0.00856871	     -0.09478690
      0.17343871	      0.00612631	     -0.00841350	     -0.09478690
      0.17399639	      0.00609541	     -0.00825734	     -0.09478690
      0.17455407	      0.00606639	     -0.00810045	     -0.09478690
      0.17511176	      0.00603987	     -0.00794306	     -0.09478690
      0.17566944	      0.00601646	     -0.00778540	     -0.09478690
      0.17622712	      0.00599680	     -0.00762770	     -0.09478690
      0.17678480	      0.00598153	     -0.00747020	     -0.09478690
      0.17734248	      0.00597118	     -0.00731313	     -0.09478690
      0.17790016	      0.00596639	     -0.00715668	     -0.09478690
      0.17845784	      0.00596948	     -0.00699985	     -0.09478690
      0.17901552	      0.00598410	     -0.00684078	     -0.09478690
      0.17957320	      0.00601490	     -0.00667723	     -0.09478690
      0.18013088	      0.00606669	     -0.00650733	     -0.09478690
      0.18068856	      0.00614387	     -0.00633068	     -0.09478690
      0.18124624	      0.00625020	     -0.00614794	     -0.09478690
      0.18180392	      0.00638818	     -0.00596052	     -0.09478690
      0.18236161	      0.00655912	     -0.00576988	     -0.09478690
      0.18291929	      0.00676299	     -0.00557742	     -0.09478690
      0.18347697	      0.00699995	     -0.00538419	     -0.09478690
      0.18403465	      0.00727070	     -0.00519073	     -0.09478690
      0.18459233	      0.00757617	     -0.00499738	     -0.09478690
      0.18515001	      0.00791756	     -0.00480422	     -0.09478690
      0.18570769	      0.00829608	     -0.00461128	     -0.09478690
      0.18626537	      0.00871290	     -0.00441851	     -0.09478690
      0.18682305	      0.00916907	     -0.00422584	     -0.09478690
      0.18738073	      0.00966548	     -0.00403323	     -0.09478690
      0.18793841	      0.01020295	     -0.00384061	     -0.09478690
      0.18849609	      0.01078206	     -0.00364794	     -0.09478690
      0.18905377	      0.01140333	     -0.00345517	     -0.09478690
      0.18961146	      0.01206707	     -0.00326227	     -0.09478690
      0.19016914	      0.01277347	     -0.00306920	     -0.09478690
      0.19072682	      0.01352250	     -0.00287595	     -0.09478690
      0.19128450	      0.01431397	     -0.00268254	     -0.09478690
      0.19184218	      0.01514748	     -0.00248901	     -0.09478690
      0.19239986	      0.01602251	     -0.00229542	     -0.09478690
      0.19295754	      0.01693841	     -0.00210182	     -0.09478690
      0.19351522	      0.01789448	     -0.00190827	     -0.09478690
      0.19407290	      0.01888995	     -0.00171482	     -0.09478690
      0.19463058	      0.01992402	     -0.00152148	     -0.09478690
      0.19518826	      0.02099586	     -0.00132828	     -0.09478690
      0.19574594	      0.02210463	     -0.00113525	     -0.09478690
      0.19630362	      0.02324947	     -0.00094239	     -0.09478690
      0.19686130	      0.02442952	     -0.00074969	     -0.09478690
      0.19741899	      0.02564395	     -0.00055716	     -0.09478690
      0.19797667	      0.02689191	     -0.00036479	     -0.09478690
      0.19853435	      0.02817257	     -0.00017255	     -0.09478690
      0.19909203	      0.02948514	      0.00001958	     -0.09478690
      0.19964971	      0.03082882	      0.00021162	     -0.09478690
      0.20020739	      0.03220282	      0.00040358	     -0.09478690
      0.20076507	      0.03360640	      0.00059549	     -0.09478690
      0.20132275	      0.03503879	      0.00078737	     -0.09478690
      0.20188043	      0.03649927	      0.00097922	     -0.09478690
      0.20243811	      0.03798714	      0.00117107	     -0.09478690
      0.20299579	      0.03950169	      0.00136291	     -0.09478690
      0.20355347	      0.04104227	      0.00155476	     -0.09478690
      0.20411115	      0.04260821	      0.00174661	     -0.09478690
      0.20466884	      0.04419889	      0.00193848	     -0.09478690
      0.20522652	      0.04581370	      0.00213036	     -0.09478690
      0.20578420	      0.04745206	      0.00232225	     -0.09478690
      0.20634188	      0.04911340	      0.00251415	     -0.09478690
      0.20689956	      0.05079720	      0.00270605	     -0.09478690
      0.20745724	      0.05250292	      0.00289796	     -0.09478690
      0.20801492	      0.05423008	      0.00308988	     -0.09478690
      0.20857260	      0.05597820	      0.00328179	     -0.09478690
      0.20913028	      0.05774683	      0.00347370	     -0.09478690
      0.20968796	      0.05953554	      0.00366561	     -0.09478690
      0.21024564	      0.06134391	      0.00385750	     -0.09478690
      0.21080332	      0.06317155	      0.00404937	     -0.09478690
      0.21136100	      0.06501809	      0.00424122	     -0.09478690
      0.21191869	      0.06688316	      0.00443306	     -0.09478690
      0.21247637	      0.06876643	      0.00462486	     -0.09478690
      0.21303405	      0.07066757	      0.00481663	     -0.09478690
      0.21359173	      0.07258627	      0.00500837	     -0.09478690
      0.21414941	      0.07452223	      0.00520008	     -0.09478690
      0.21470709	      0.07647516	      0.00539174	     -0.09478690
      0.21526477	      0.07844480	      0.00558337	     -0.09478690
      0.21582245	      0.08043087	      0.00577495	     -0.09478690
      0.21638013	      0.08243312	      0.00596649	     -0.09478690
      0.21693781	      0.08445130	      0.00615798	     -0.09478690
      0.21749549	      0.08648517	      0.00634943	     -0.09478690
      0.21805317	      0.08853448	      0.00654083	     -0.09478690
      0.21861085	      0.09059901	      0.00673218	     -0.09478690
      0.21916853	      0.09267852	      0.00692349	     -0.09478690
      0.21972622	      0.09477279	      0.00711475	     -0.09478690
      0.22028390	      0.09688157	      0.00730597	     -0.09478690
      0.22084158	      0.09900464	      0.00749714	     -0.09478690
      0.22139926	      0.10114176	      0.00768827	     -0.09478690
      0.22195694	      0.10329271	      0.00787935	     -0.09478690
      0.22251462	      0.10545724	      0.00807039	     -0.09478690
      0.22307230	      0.10763511	      0.00826139	     -0.09478690
      0.22362998	      0.10982608	      0.00845236	     -0.09478690
      0.22418766	      0.11202990	      0.00864328	     -0.09478690
      0.22474534	      0.11424632	      0.00883417	     -0.09478690
      0.22530302	      0.11647508	      0.00902502	     -0.09478690
      0.22586070	      0.11871592	      0.00921584	     -0.09478690
      0.22641838	      0.12096857	      0.00940663	     -0.09478690
      0.22697607	      0.12323276	      0.00959738	     -0.09478690
      0.22753375	      0.12550821	      0.00978811	     -0.09478690
      0.22809143	      0.12779466	      0.00997881	     -0.09478690
      0.22864911	      0.13009180	      0.01016948	     -0.09478690
      0.22920679	      0.13239937	      0.01036012	     -0.09478690
      0.22976447	      0.13471706	      0.01055074	     -0.09478690
      0.23032215	      0.13704460	      0.01074133	     -0.09478690
      0.23087983	      0.13938167	      0.01093189	     -0.09478690
      0.23143751	      0.14172799	      0.01112243	     -0.09478690
      0.23199519	      0.14408326	      0.01131295	     -0.09478690
      0.23255287	      0.14644719	      0.01150344	     -0.09478690
      0.23311055	      0.14881946	      0.01169391	     -0.09478690
      0.23366823	      0.15119979	      0.01188435	     -0.09478690
      0.23422592	      0.15358787	      0.01207477	     -0.09478690
      0.23478360	      0.15598341	      0.01226517	     -0.09478690
      0.23534128	      0.15838612	      0.01245554	     -0.09478690
      0.23589896	      0.16079569	      0.01264589	     -0.09478690
      0.23645664	      0.16321184	      0.01283622	     -0.09478690
      0.23701432	      0.16563427	      0.01302652	     -0.09478690
      0.23757200	      0.16806271	      0.01321680	     -0.09478690
      0.23812968	      0.17049686	      0.01340707	     -0.09478690
      0.23868736	      0.17293645	      0.01359731	     -0.09478690
      0.23924504	      0.17538120	      0.01378753	     -0.09478690
      0.23980272	      0.17783083	      0.01397774	     -0.09478690
      0.24036040	      0.18028507	      0.01416793	     -0.09478690
      0.24091808	      0.18274366	      0.01435810	     -0.09478690
      0.24147577	      0.18520634	      0.01454826	     -0.09478690
      0.24203345	      0.18767285	      0.01473841	     -0.09478690
      0.24259113	      0.19014293	      0.01492854	     -0.09478690
      0.24314881	      0.19261633	      0.01511866	     -0.09478690
      0.24370649	      0.19509281	      0.01530877	     -0.09478690
      0.24426417	      0.19757212	      0.01549887	     -0.09478690
      0.24482185	      0.20005402	      0.01568896	     -0.09478690
      0.24537953	      0.20253829	      0.01587904	     -0.09478690
      0.24593721	      0.20502468	      0.01606910	     -0.09478690
      0.24649489	      0.20751298	      0.01625915	     -0.09478690
      0.24705257	      0.21000296	      0.01644919	     -0.09478690
      0.24761025	      0.21249440	      0.01663920	     -0.09478690
      0.24816793	      0.21498709	      0.01682919	     -0.09478690
      0.24872561	      0.21748082	      0.01701916	     -0.09478690
      0.24928330	      0.21997539	      0.01720911	     -0.09478690
      0.24984098	      0.22247060	      0.01739902	     -0.09478690
      0.25039866	      0.22496624	      0.01758889	     -0.09478690
      0.25095634	      0.22746215	      0.01777873	     -0.09478690
      0.25151402	      0.22995812	      0.01796852	     -0.09478690
      0.25207170	      0.23245399	      0.01815826	     -0.09478690
      0.25262938	      0.23494958	      0.01834795	     -0.09478690
      0.25318706	      0.23744472	      0.01853758	     -0.09478690
      0.25374474	      0.23993926	      0.01872715	     -0.09478690
      0.25430242	      0.24243303	      0.01891666	     -0.09478690
      0.25486010	      0.24492588	      0.01910611	     -0.09478690
      0.25541778	      0.24741766	      0.01929550	     -0.09478690
      0.25597546	      0.24990824	      0.01948483	     -0.09478690
      0.25653315	      0.25239747	      0.01967411	     -0.09478690
      0.25709083	      0.25488523	      0.01986335	     -0.09478690
      0.25764851	      0.25737138	      0.02005257	     -0.09478690
      0.25820619	      0.25985581	      0.02024177	     -0.09478690
      0.25876387	      0.26233839	      0.02043097	     -0.09478690
      0.25932155	      0.26481901	      0.02062021	     -0.09478690
      0.25987923	      0.26729757	      0.02080951	     -0.09478690
      0.26043691	      0.26977395	      0.02099890	     -0.09478690
      0.26099459	      0.27224806	      0.02118841	     -0.09478690
      0.26155227	      0.27471980	      0.02137810	     -0.09478690
      0.26210995	      0.27718908	      0.02156801	     -0.09478690
      0.26266763	      0.27965580	      0.02175818	     -0.09478690
      0.26322531	      0.28211988	      0.02194869	     -0.09478690
      0.26378300	      0.28458124	      0.02213959	     -0.09478690
      0.26434068	      0.28703980	      0.02233096	     -0.09478690
      0.26489836	      0.28949547	      0.02252286	     -0.09478690
      0.26545604	      0.29194818	      0.02271538	     -0.09478690
      0.26601372	      0.29439786	      0.02290859	     -0.09478690
      0.26657140	      0.29684444	      0.02310260	     -0.09478690
      0.26712908	      0.29928785	      0.02329748	     -0.09478690
      0.26768676	      0.30172801	      0.02349334	     -0.09478690
      0.26824444	      0.30416487	      0.02369027	     -0.09478690
      0.26880212	      0.30659834	      0.02388838	     -0.09478690
      0.26935980	      0.30902837	      0.02408776	     -0.09478690
      0.26991748	      0.31145488	      0.02428853	     -0.09478690
      0.27047516	      0.31387781	      0.02449079	     -0.09478690
      0.27103284	      0.31629709	      0.02469463	     -0.09478690
      0.27159053	      0.31871263	      0.02490017	     -0.09478690
      0.27214821	      0.32112434	      0.02510751	     -0.09478690
      0.27270589	      0.32353210	      0.02531674	     -0.09478690
      0.27326357	      0.32593572	      0.02552795	     -0.09478690
      0.27382125	      0.32833502	      0.02574124	     -0.09478690
      0.27437893	      0.33072975	      0.02595666	     -0.09478690
      0.27493661	      0.33311964	      0.02617424	     -0.09478690
      0.27549429	      0.33550436	      0.02639397	     -0.09478690
      0.27605197	      0.33788350	      0.02661580	     -0.09478690
      0.27660965	      0.34025661	      0.02683959	     -0.09478690
      0.27716733	      0.34262313	      0.02706513	     -0.09478690
      0.27772501	      0.34498236	      0.02729209	     -0.09478690
      0.27828269	      0.34733352	      0.02752000	     -0.09478690
      0.27884038	      0.34967554	      0.02774819	     -0.09478690
      0.27939806	      0.35200726	      0.02797581	     -0.09478690
      0.27995574	      0.35432710	      0.02820170	     -0.09478690
      0.28051342	      0.35663332	      0.02842445	     -0.09478690
      0.28107110	      0.35892370	      0.02864229	     -0.09478690
      0.28162878	      0.36119579	      0.02885317	     -0.09478690
      0.28218646	      0.36344667	      0.02905470	     -0.09478690
      0.28274414	      0.36567324	      0.02924429	     -0.09478690
      0.28330182	      0.36787212	      0.02941929	     -0.09478690
      0.28385950	      0.37003990	      0.02957704	     -0.09478690
      0.28441718	      0.37217315	      0.02971509	     -0.09478690
      0.28497486	      0.37426847	      0.02983107	     -0.09478690
      0.28553254	      0.37632216	      0.02992247	     -0.09478690
      0.28609023	      0.37833015	      0.02998638	     -0.09478690
      0.28664791	      0.38028695	      0.03001846	     -0.09478690
      0.28720559	      0.38218602	      0.03001323	     -0.09478690
      0.28776327	      0.38401885	      0.02996327	     -0.09478690
      0.28832095	      0.38577606	      0.02986023	     -0.09478690
      0.28887863	      0.38744743	      0.02969511	     -0.09478690
      0.28943631	      0.38902284	      0.02945903	     -0.09478690
      0.28999399	      0.39049316	      0.02914428	     -0.09478690
      0.29055167	      0.39185015	      0.02874420	     -0.09478690
      0.29110935	      0.39308782	      0.02825458	     -0.09478690
      0.29166703	      0.39420138	      0.02767268	     -0.09478690
      0.29222471	      0.39518859	      0.02699846	     -0.09478690
      0.29278239	      0.39604836	      0.02623326	     -0.09478690
      0.29334007	      0.39678179	      0.02538051	     -0.09478690
      0.29389776	      0.39739081	      0.02444457	     -0.09478690
      0.29445544	      0.39787893	      0.02343139	     -0.09478690
      0.29501312	      0.39824845	      0.02234563	     -0.09478690
      0.29557080	      0.39851025	      0.02120195	     -0.09478690
      0.29612848	      0.39869303	      0.02003492	     -0.09478690
      0.29668616	      0.39883500	      0.01888809	     -0.09478690
      0.29724384	      0.39895790	      0.01778502	     -0.09478690
      0.29780152	      0.39906539	      0.01672841	     -0.09478690
      0.29835920	      0.39916061	      0.01572027	     -0.09478690
      0.29891688	      0.39924473	      0.01476113	     -0.09478690
      0.29947456	      0.39931891	      0.01385272	     -0.09478690
      0.30003224	      0.39938390	      0.01299903	     -0.09478690
      0.30058992	      0.39944018	      0.01220504	     -0.09478690
      0.30114761	      0.39948779	      0.01147476	     -0.09478690
      0.30170529	      0.39952669	      0.01081042	     -0.09478690
      0.30226297	      0.39955705	      0.01021014	     -0.09478690
      0.30282065	      0.39957929	      0.00966995	     -0.09478690
      0.30337833	      0.39959425	      0.00918349	     -0.09478690
      0.30393601	      0.39960286	      0.00874403	     -0.09478690
      0.30449369	      0.39960615	      0.00834479	     -0.09478690
      0.30505137	      0.39960506	      0.00797922	     -0.09478690
      0.30560905	      0.39960046	      0.00764147	     -0.09478690
      0.30616673	      0.39959316	      0.00732612	     -0.09478690
      0.30672441	      0.39958382	      0.00702864	     -0.09478690
      0.30728209	      0.39957307	      0.00674498	     -0.09478690
      0.30783977	      0.39956139	      0.00647200	     -0.09478690
      0.30839746	      0.39954922	      0.00620696	     -0.09478690
      0.30895514	      0.39953687	      0.00594793	     -0.09478690
      0.30951282	      0.39952462	      0.00569326	     -0.09478690
      0.31007050	      0.39951265	      0.00544191	     -0.09478690
      0.31062818	      0.39950111	      0.00519303	     -0.09478690
      0.31118586	      0.39949010	      0.00494616	     -0.09478690
      0.31174354	      0.39947968	      0.00470099	     -0.09478690
      0.31230122	      0.39946990	      0.00445740	     -0.09478690
      0.31285890	      0.39946077	      0.00421536	     -0.09478690
      0.31341658	      0.39945229	      0.00397495	     -0.09478690
      0.31397426	      0.39944446	      0.00373626	     -0.09478690
      0.31453194	      0.39943726	      0.00349945	     -0.09478690
      0.31508962	      0.39943068	      0.00326467	     -0.09478690
      0.31564730	      0.39942470	      0.00303207	     -0.09478690
      0.31620499	      0.39941929	      0.00280181	     -0.09478690
      0.31676267	      0.39941443	      0.00257403	     -0.09478690
      0.31732035	      0.39941011	      0.00234884	     -0.09478690
      0.31787803	      0.39940629	      0.00212637	     -0.09478690
      0.31843571	      0.39940296	      0.00190671	     -0.09478690
      0.31899339	      0.39940011	      0.00168993	     -0.09478690
      0.31955107	      0.39939770	      0.00147610	     -0.09478690
      0.32010875	      0.39939572	      0.00126527	     -0.09478690
      0.32066643	      0.39939417	      0.00105746	     -0.09478690
      0.32122411	      0.39939301	      0.00085270	     -0.09478690
      0.32178179	      0.39939223	      0.00065100	     -0.09478690
      0.32233947	      0.39939183	      0.00045235	     -0.09478690
      0.32289715	      0.39939179	      0.00025674	     -0.09478690
      0.32345484	      0.39939209	      0.00006416	     -0.09478690
      0.32401252	      0.39939272	     -0.00012543	     -0.09478690
      0.32457020	      0.39939368	     -0.00031206	     -0.09478690
      0.32512788	      0.39939494	     -0.00049575	     -0.09478690
      0.32568556	      0.39939650	     -0.00067657	     -0.09478690
      0.32624324	      0.39939834	     -0.00085454	     -0.09478690
      0.32680092	      0.39940047	     -0.00102972	     -0.09478690
      0.32735860	      0.39940285	     -0.00120216	     -0.09478690
      0.32791628	      0.39940550	     -0.00137190	     -0.09478690
      0.32847396	      0.39940839	     -0.00153900	     -0.09478690
      0.32903164	      0.39941152	     -0.00170351	     -0.09478690
      0.32958932	      0.39941487	     -0.00186549	     -0.09478690
      0.33014700	      0.39941844	     -0.00202500	     -0.09478690
      0.33070469	      0.39942223	     -0.00218208	     -0.09478690
      0.33126237	      0.39942621	     -0.00233679	     -0.09478690
      0.33182005	      0.39943039	     -0.00248919	     -0.09478690
      0.33237773	      0.39943475	     -0.00263933	     -0.09478690
      0.33293541	      0.39943929	     -0.00278727	     -0.09478690
      0.33349309	      0.39944400	     -0.00293307	     -0.09478690
      0.33405077	      0.39944888	     -0.00307676	     -0.09478690
      0.33460845	      0.39945391	     -0.00321842	     -0.09478690
