moco_WoC_Solution_iter01_metabolic
nRows=601
nColumns=6
inDegrees=no
Body mass(kg)=80.0000
Distance(m)=0.4305
Total metabolic energy(J)=284.1771
Avg metabolic rate(W)=715.8725
endheader
time	met_rate_W	act_rate_W	maint_rate_W	short_rate_W	mech_rate_W
0.000000	883.111335	91.941433	120.604694	211.118512	363.460773
0.000662	881.746778	93.951044	123.070223	220.894650	347.844819
0.001323	881.221784	96.146768	125.660671	232.349114	331.078964
0.001985	880.147725	98.092408	127.929315	244.597321	313.542073
0.002646	879.331889	100.162801	130.275280	257.322875	295.583864
0.003308	877.619729	101.805495	132.079189	270.256193	277.491196
0.003970	876.110690	103.536561	133.933504	283.137362	259.514890
0.004631	873.400439	104.661121	135.107237	295.749936	241.892924
0.005293	870.827878	105.831631	136.304021	307.891173	224.810852
0.005954	913.690337	129.884383	159.814264	332.567340	195.433029
0.006616	977.367228	168.075485	189.139936	380.515598	143.643578
0.007278	937.994201	146.554689	174.283120	426.137198	95.024999
0.007939	905.871547	130.379487	161.255862	450.729201	67.510975
0.008601	888.828851	123.386504	154.313367	462.193487	52.937420
0.009263	873.696927	117.792827	148.178922	465.511009	46.213984
0.009924	864.988718	115.279463	145.718503	464.909419	43.079356
0.010586	856.672072	113.143719	143.444400	463.458411	40.622876
0.011247	849.333601	111.682561	141.736512	460.769889	39.143336
0.011909	842.280090	110.446143	140.137284	456.829670	38.869997
0.012571	834.827623	109.081336	138.421934	451.276383	40.057539
0.013232	827.500729	107.835625	136.766342	444.108738	42.806874
0.013894	819.934664	106.559406	135.123513	435.243005	47.030431
0.014555	812.374129	105.380919	133.534395	424.944946	52.537800
0.015217	805.153724	104.579800	132.278803	413.314169	59.009994
0.015879	797.787743	103.909190	131.080318	400.697948	66.101786
0.016540	791.007534	103.842408	130.362351	387.406315	73.275934
0.017202	783.843270	103.938517	129.735242	374.328063	79.475914
0.017863	777.221754	104.882321	129.892303	362.751155	83.471414
0.018525	769.888201	105.991083	130.136983	352.057953	85.419427
0.019187	762.357552	107.686911	131.026597	340.914295	86.147081
0.019848	754.323826	109.505318	131.978213	322.073021	93.506853
0.020510	747.029310	111.213856	133.018632	296.872222	108.279355
0.021172	748.714150	112.988203	134.096685	283.377052	121.828607
0.021833	751.972785	114.255165	134.810014	273.861814	133.057295
0.022495	753.355304	115.559184	135.550505	264.419869	141.846302
0.023156	751.327755	116.354091	135.855433	255.228743	147.866902
0.023818	746.896550	117.173519	136.182981	246.198605	151.269442
0.024480	739.360864	117.497545	136.104965	237.422388	152.228235
0.025141	730.060567	117.837653	136.045717	228.896258	151.148167
0.025803	718.622918	117.645003	135.602386	220.764051	148.469480
0.026464	706.598014	117.462477	135.174435	213.129258	144.698570
0.027126	693.971431	116.875278	134.511988	206.151116	140.318087
0.027788	681.947833	116.298259	133.863863	199.931845	135.758462
0.028449	670.625830	115.502361	133.123278	194.549599	131.372215
0.029111	660.616425	114.722523	132.399114	190.018599	127.411480
0.029772	651.814832	113.803227	131.614952	186.300851	124.041685
0.030434	644.475691	112.906486	130.849650	183.324903	121.348656
0.031096	638.280749	111.889792	130.001432	180.989364	119.360401
0.031757	633.363289	110.898944	129.172510	179.192132	118.064778
0.032419	629.402570	109.850056	128.272672	177.824716	117.424004
0.033081	626.426046	108.826633	127.390785	176.792448	117.388101
0.033742	624.228254	107.819762	126.479295	176.005606	117.897998
0.034404	622.730940	106.836339	125.584116	175.390243	118.896721
0.035065	621.802757	105.893900	124.685236	174.879255	120.322605
0.035727	621.335915	104.973252	123.801524	174.418566	122.122330
0.036389	621.175372	104.055835	122.903335	173.958363	124.238926
0.037050	621.260493	103.159434	121.998813	173.458626	126.625876
0.037712	621.377187	102.197759	121.048090	172.880731	129.233916
0.038373	621.602654	101.257230	120.112076	172.193270	132.024316
0.039035	621.632395	100.191723	119.104270	171.364623	134.956806
0.039697	621.642718	99.148870	118.110268	170.368343	138.000906
0.040358	621.318939	97.960850	117.039613	169.177227	141.127394
0.041020	620.877585	96.798737	115.982057	167.767942	144.315286
0.041681	620.059042	95.518661	114.861136	166.116923	147.548844
0.042343	619.056292	94.268304	113.752263	164.204433	150.817663
0.043005	617.707813	92.958490	112.604774	162.012129	154.118379
0.043666	618.572363	91.680518	111.469134	161.412846	157.449461
0.044328	620.078337	90.380064	110.295957	162.495002	160.814249
0.044989	621.906127	89.111082	109.133833	163.429401	164.214885
0.045651	623.681235	87.844027	107.941689	164.222395	167.654878
0.046313	625.398841	86.606269	106.759702	164.882976	171.135240
0.046974	627.075703	85.395302	105.582272	165.419719	174.656045
0.047636	628.856044	84.210230	104.413457	165.843174	178.215334
0.048298	630.310164	82.920529	103.086919	166.161353	181.805203
0.048959	631.718680	81.658080	101.770735	166.377131	185.415423
0.049621	632.503213	80.168549	100.144636	166.554586	189.029759
0.050282	633.243047	78.714353	98.535300	166.808862	192.629838
0.050944	633.199112	76.977396	96.538404	166.986569	196.193164
0.051606	633.104961	75.292371	94.571101	167.104621	199.695680
0.052267	632.656260	73.515468	92.484626	167.174730	203.118730
0.052929	632.144476	71.794276	90.430681	167.200796	206.444793
0.053590	630.687774	69.776327	87.902104	167.180006	209.647424
0.054252	629.183749	67.852565	85.437766	167.108868	212.698664
0.054914	628.997458	66.479781	83.902061	166.991337	215.610594
0.055575	628.760228	65.132898	82.375469	166.835289	218.403635
0.056237	628.748747	63.918796	81.079866	166.643127	221.083835
0.056898	629.350184	62.724490	79.788032	167.153771	223.657425
0.057560	629.874762	61.525546	78.478441	167.719264	226.123996
0.058222	630.282799	60.345097	77.174524	168.253927	228.481327
0.058883	630.350731	59.169197	75.857172	168.569237	230.727051
0.059545	630.301886	58.010344	74.545921	168.860105	232.857431
0.060207	629.980667	56.881712	73.258164	168.943359	234.869423
0.060868	629.534737	55.768278	71.976488	169.002855	236.759243
0.061530	628.889057	54.695004	70.737507	168.904657	238.524197
0.062191	628.320001	53.635252	69.504423	168.991475	240.161382
0.062853	627.555326	52.629172	68.339928	168.889563	241.669457
0.063515	626.658766	51.634848	67.180811	168.768970	243.047233
0.064176	625.804350	50.747902	66.177065	168.557349	244.295474
0.064838	625.148439	49.869428	65.176934	168.660547	245.415358
0.065499	624.277451	49.079953	64.309366	168.455773	246.406620
0.066161	623.273823	48.297431	63.444743	168.236865	247.269525
0.066823	622.083846	47.571630	62.664000	167.822271	248.001219
0.067484	620.756200	46.852592	61.886414	167.393574	248.599480
0.068146	619.240293	46.196935	61.201083	166.762582	249.056196
0.068807	617.572269	45.548518	60.519765	166.116891	249.364302
0.069469	615.701084	44.980238	59.953918	165.234582	249.510328
0.070131	613.657681	44.420649	59.393872	164.339746	249.482248
0.070792	611.402031	43.906568	58.895312	163.328107	249.251801
0.071454	608.966452	43.402187	58.403740	162.348777	248.792503
0.072116	606.320966	42.915945	57.932677	161.365447	248.088732
0.072777	603.495339	42.439629	57.469032	160.443224	247.126454
0.073439	600.462851	41.970414	57.010368	159.546093	245.920236
0.074100	597.253105	41.511066	56.559255	158.683433	244.484966
0.074762	593.838764	41.052060	56.104339	157.828688	242.840751
0.075424	590.252676	40.602738	55.656965	156.974287	241.007328
0.076085	586.463514	40.148704	55.199783	156.092288	239.013061
0.076747	582.509950	39.704088	54.750041	155.163310	236.884622
0.077408	579.016258	39.252762	54.289190	154.816621	234.651696
0.078070	575.356231	38.810560	53.835642	154.368309	232.337734
0.078732	571.523123	38.373065	53.387443	153.766506	229.994217
0.079393	567.586665	37.944605	52.946583	153.025916	227.669837
0.080055	563.713427	37.578277	52.581077	152.008770	225.547804
0.080716	560.135383	37.228185	52.227271	150.881930	223.802761
0.081378	556.750652	36.882492	51.885460	149.588702	222.401022
0.082040	553.514453	36.549328	51.553484	148.115310	221.305520
0.082701	550.306095	36.214525	51.236073	146.502180	220.364447
0.083363	547.017611	35.889498	50.927203	144.777141	219.436444
0.084025	543.564812	35.588056	50.673598	142.939908	218.376902
0.084686	539.781411	35.297457	50.429252	141.018860	217.049756
0.085348	535.498153	35.112838	50.380849	138.788335	215.229527
0.086009	530.495717	34.958282	50.352760	136.502009	212.694826
0.086671	526.123726	35.284393	51.004620	134.115245	209.729863
0.087333	521.585132	35.639952	51.680133	131.664997	206.608399
0.087994	517.116873	36.106645	52.489186	129.150126	203.377183
0.088656	512.608203	36.601307	53.320764	126.609002	200.081495
0.089317	507.860426	37.031394	54.038932	124.067125	196.725770
0.089979	503.066150	37.480858	54.773132	121.499953	193.313843
0.090641	497.926246	37.810140	55.330173	118.938816	189.847982
0.091302	492.730884	38.151045	55.897335	116.352277	186.330636
0.091964	487.127733	38.338386	56.248536	113.776847	182.764135
0.092625	481.467453	38.532763	56.606219	111.177456	179.151078
0.093287	475.287219	38.524717	56.666391	108.601553	175.494578
0.093949	469.057053	38.522135	56.731611	106.005499	171.797813
0.094610	462.520913	38.407998	56.637335	103.414881	168.060701
0.095272	456.255127	38.299545	56.548012	101.124086	164.283484
0.095933	449.959122	38.169363	56.430867	98.901187	160.457705
0.096595	443.657877	38.044867	56.318490	96.718699	156.575821
0.097257	437.317638	37.944272	56.236682	94.574431	152.562253
0.097918	430.880550	37.849045	56.050730	92.633549	148.347226
0.098580	424.471951	37.828236	55.955857	91.293441	143.394417
0.099242	418.032417	37.814594	55.865206	91.140854	137.211764
0.099903	411.612103	37.866894	55.858600	92.171626	129.714984
0.100565	405.149208	37.927412	55.856746	94.522136	120.842914
0.101226	398.681642	38.027821	55.907089	97.987550	110.759183
0.101888	392.157480	38.135903	55.961722	102.430113	99.629741
0.102550	385.615396	38.263590	56.038220	107.725119	87.588471
0.103211	379.005694	38.398612	56.118540	113.717398	74.771211
0.103873	372.365116	38.540657	56.203478	120.291010	61.331060
0.104534	365.638075	38.689523	56.291602	127.239301	47.417458
0.105196	359.998992	38.843761	56.347298	135.552069	33.213076
0.105858	354.609177	39.004005	56.335673	144.131633	18.888186
0.106519	349.268317	39.174079	56.337338	152.802546	4.605262
0.107181	343.942388	39.349328	56.341177	161.420157	-9.487453
0.107842	338.678150	39.529986	56.354263	169.742531	-23.245551
0.108504	333.426089	39.714960	56.365300	177.616230	-36.540649
0.109166	328.263368	39.911260	56.391167	184.959960	-49.250672
0.109827	323.953587	40.110931	56.418088	192.487845	-61.269685
0.110489	321.599888	40.327229	56.472666	201.142106	-72.509547
0.111151	319.520279	40.546258	56.527985	209.219512	-82.895036
0.111812	317.590268	40.773153	56.598138	216.510306	-92.361558
0.112474	315.776057	41.002490	56.668991	222.939804	-100.856104
0.113135	314.082816	41.242291	56.756635	228.434722	-108.341791
0.113797	312.443097	41.484458	56.845072	232.917800	-114.790933
0.114459	310.820128	41.741435	56.954906	236.321856	-120.190382
0.115120	309.097734	42.000823	57.065804	238.572759	-124.538393
0.115782	307.236004	42.277599	57.201719	239.607772	-127.849878
0.116443	305.214868	42.556850	57.339207	239.474710	-130.155478
0.117105	303.082437	42.843908	57.492659	238.252991	-131.506978
0.117767	300.542828	43.133344	57.648470	235.734264	-131.973199
0.118428	297.525796	43.403833	57.793665	231.967853	-131.639538
0.119090	294.050355	43.676224	57.942186	227.031277	-130.599325
0.119751	289.956761	43.899521	58.051685	220.965179	-128.959621
0.120413	285.243381	44.123950	58.165652	213.822482	-126.868702
0.121075	279.484580	44.274006	58.216710	205.543013	-124.549148
0.121736	272.372749	44.424598	58.274113	196.042260	-122.365573
0.122398	263.900075	44.467147	58.236807	185.278241	-120.849496
0.123060	255.863322	44.510123	58.209028	176.722777	-120.651552
0.123721	256.252702	44.382640	58.028753	179.768009	-122.486008
0.124383	256.622482	44.256839	57.862446	185.422052	-126.909969
0.125044	257.018133	43.920947	57.506678	193.837339	-134.246810
0.125706	257.128972	43.590769	57.169533	204.846773	-144.478055
0.126368	262.756102	43.089396	56.677358	224.309449	-157.319969
0.127029	276.531534	42.599505	56.206697	253.966335	-172.240562
0.127691	289.637723	42.027010	55.660782	284.493152	-188.541576
0.128352	301.840863	41.470189	55.136005	314.631677	-205.390926
0.129014	312.463069	40.906811	54.604480	342.811960	-221.846374
0.129676	321.234609	40.360207	54.090932	367.767701	-236.988271
0.130337	328.419779	39.989938	53.757615	388.620398	-250.004983
0.130999	333.753748	39.628824	53.435275	404.858766	-260.275140
0.131660	335.997189	39.147040	52.976232	397.400670	-249.501540
0.132322	336.025630	38.680197	52.522133	364.948489	-216.134770
0.132984	335.374447	38.360952	52.219778	328.836545	-180.131534
0.133645	334.128822	38.050278	51.917268	295.127974	-147.090870
0.134307	332.965572	37.977791	51.879279	265.698857	-118.698096
0.134968	331.516674	37.906824	51.839348	240.231039	-94.606898
0.135630	330.068556	37.929812	51.904944	218.521616	-74.546556
0.136292	328.384637	37.953131	51.968887	200.130444	-58.020746
0.136953	326.606430	38.020600	52.082032	184.609711	-44.536145
0.137615	324.674115	38.088192	52.193915	171.477437	-33.580649
0.138277	322.557583	38.135051	52.280193	160.274159	-24.681086
0.138938	320.302318	38.182032	52.365438	150.591701	-17.422154
0.139600	317.914597	38.185342	52.398514	142.078072	-11.454361
0.140261	315.486404	38.188928	52.430785	134.460829	-6.507788
0.140923	312.907000	38.173122	52.439531	127.584666	-2.365262
0.141585	310.240956	38.157683	52.447641	121.260897	1.166485
0.142246	307.392125	38.129169	52.439944	115.214072	4.285476
0.142908	304.371330	38.101083	52.431691	109.140375	7.264431
0.143569	301.047525	38.020407	52.359982	102.717518	10.397810
0.144231	297.510622	37.940720	52.287926	95.630729	13.960181
0.144893	293.564797	37.784296	52.121376	87.688930	18.113713
0.145554	291.841658	37.630142	51.955048	80.426676	22.777418
0.146216	292.291003	37.418639	51.714738	77.710662	27.717955
0.146877	293.377116	37.210538	51.475279	75.287218	32.550566
0.147539	295.043241	36.967887	51.188175	73.093304	36.925585
0.148201	296.106981	36.729225	50.902460	71.006767	40.592303
0.148862	296.362014	36.508761	50.635005	68.895771	43.444823
0.149524	295.723748	36.291298	50.368555	66.673728	45.507239
0.150186	294.355719	36.103524	50.137012	64.292754	46.869826
0.150847	292.294995	35.917744	49.906049	61.751599	47.658329
0.151509	289.647843	35.739858	49.684200	59.108524	47.991210
0.152170	286.539710	35.563753	49.463053	56.413569	47.976347
0.152832	283.132161	35.403272	49.261880	53.666416	47.701789
0.153494	279.497109	35.244301	49.061430	50.909550	47.239360
0.154155	275.748172	35.096084	48.875026	48.160843	46.645118
0.154817	271.934081	34.949203	48.689379	45.427764	45.963060
0.155478	268.066016	34.788231	48.484849	42.719137	45.226578
0.156140	264.517561	34.628763	48.281331	40.347436	44.461495
0.156802	261.005082	34.451684	48.053256	38.052441	43.689506
0.157463	257.582013	34.276155	47.826287	35.825870	42.927744
0.158125	254.387088	34.084098	47.575898	33.836135	42.189670
0.158786	251.376775	33.893760	47.326790	31.987319	41.485868
0.159448	248.512942	33.706814	47.080776	30.231971	40.824301
0.160110	245.811780	33.521649	46.835498	28.586575	40.210967
0.160771	243.311389	33.375026	46.641484	26.993121	39.652983
0.161433	241.008932	33.229587	46.448433	25.523045	39.155877
0.162095	238.932168	33.123576	46.308394	24.105180	38.724837
0.162756	237.274095	33.018235	46.168885	22.833496	38.363756
0.163418	236.340215	32.941006	46.067124	22.449550	38.074569
0.164079	235.534697	32.864254	45.965709	22.090589	37.858239
0.164741	234.898837	32.810600	45.894693	21.725152	37.713956
0.165403	234.378223	32.757374	45.823972	21.391317	37.640206
0.166064	233.990131	32.710092	45.764291	21.113722	37.634843
0.166726	233.698909	32.663432	45.705039	20.868947	37.695231
0.167387	233.639649	32.661993	45.704472	20.704991	37.803606
0.168049	233.667105	32.662845	45.705546	20.597758	37.944278
0.168711	233.923409	32.963718	46.058725	20.165633	38.065901
0.169372	234.319165	33.272918	46.417421	20.253239	38.125828
0.170034	237.905227	34.905762	48.235953	20.590313	37.936292
0.170695	241.663044	36.655463	50.118234	21.329408	37.351729
0.171357	245.556037	38.520840	52.052590	22.344683	36.459311
0.172019	249.593881	40.504081	54.050063	23.531072	35.359342
0.172680	252.465402	41.950497	55.462450	24.702050	34.226181
0.173342	255.394864	43.455429	56.906310	25.718768	33.208583
0.174004	257.275360	44.449732	57.834312	26.478965	32.415425
0.174665	259.187089	45.469705	58.776447	26.925131	31.919802
0.175327	260.470234	46.170768	59.407469	27.045376	31.746423
0.175988	261.785554	46.884695	60.045813	26.851747	31.897316
0.176650	262.877485	47.476323	60.566795	26.383030	32.345198
0.177312	264.038784	48.077055	61.093062	25.680766	33.057502
0.177973	265.404724	48.690257	61.630446	24.793993	33.991819
0.178635	267.110343	49.312432	62.173026	23.749418	35.110691
0.179296	269.220775	50.013021	62.785983	23.206259	36.377321
0.179958	271.376692	50.724089	63.404918	22.649994	37.762480
0.180620	273.770562	51.531452	64.110209	22.050639	39.241322
0.181281	276.324995	52.351232	64.822473	21.419252	40.795177
0.181943	279.075547	53.256866	65.611606	20.763550	42.409633
0.182604	281.862520	54.176524	66.408512	20.088312	44.074053
0.183266	284.785932	55.160455	67.262200	19.396331	45.780661
0.183928	287.745624	56.159403	68.124126	18.689391	47.523533
0.184589	290.802589	57.203770	69.027125	17.968378	49.298595
0.185251	293.892531	58.263535	69.938506	17.234130	51.102555
0.185912	297.052383	59.354068	70.880566	16.487183	52.933376
0.186574	300.244040	60.459896	71.830910	15.728358	54.789309
0.187236	303.474720	61.582796	72.797201	14.957105	56.668726
0.187897	307.541110	62.720692	73.771581	14.163944	58.570065
0.188559	311.863859	63.862385	74.740120	14.293332	60.490574
0.189221	316.221520	65.018756	75.716527	14.908421	62.427463
0.189882	320.573876	66.176154	76.678107	15.502256	64.377232
0.190544	324.953101	67.348106	77.647442	16.082649	66.336444
0.191205	329.363915	68.534058	78.630827	16.651140	68.304299
0.191867	333.792263	69.734094	79.621679	17.208561	70.280168
0.192529	338.323435	70.947675	80.636630	17.756111	72.265489
0.193190	343.041403	72.174670	81.658683	18.295030	74.261784
0.193852	347.770242	73.405865	82.686393	18.826384	76.269739
0.194513	352.529714	74.650021	83.720954	19.351230	78.290089
0.195175	357.311737	75.899516	84.759893	19.870516	80.323196
0.195837	362.125337	77.161547	85.805438	20.385145	82.369430
0.196498	366.976771	78.431182	86.866281	20.896195	84.430190
0.197160	371.865657	79.712868	87.933494	21.404687	86.506770
0.197821	376.804038	81.000254	89.016776	21.911661	88.600677
0.198483	381.794723	82.299285	90.106267	22.418104	90.713315
0.199145	386.833184	83.602477	91.205387	22.924834	92.845425
0.199806	391.917909	84.916997	92.310580	23.432624	94.997745
0.200468	397.034728	86.234639	93.420084	23.942090	97.170458
0.201130	402.191520	87.563309	94.535502	24.453795	99.363769
0.201791	407.373746	88.894077	95.651702	24.968185	101.577528
0.202453	412.595188	90.235564	96.773632	25.485646	103.811596
0.203114	417.837857	91.577953	97.893262	26.006467	106.065558
0.203776	423.119142	92.930743	99.018414	26.530881	108.339004
0.204438	428.417231	94.283028	100.138688	27.059046	110.631323
0.205099	433.752607	95.645383	101.264259	27.591069	112.941896
0.205761	439.101127	97.006486	102.383157	28.126998	115.269947
0.206422	444.484970	98.377333	103.507121	28.666841	117.614689
0.207084	449.881514	99.747140	104.625200	29.210596	119.975388
0.207746	455.311384	101.126386	105.748129	29.758225	122.351282
0.208407	460.754099	102.505097	106.866286	30.309696	124.741681
0.209069	466.228184	103.892962	107.989090	30.864944	127.145869
0.209730	471.716249	105.281249	109.108711	31.423921	129.563224
0.210392	477.233879	106.678425	110.232790	31.986555	131.993107
0.211054	482.757198	108.076443	111.346261	32.552786	134.434962
0.211715	488.305367	109.483096	112.460962	33.122536	136.888215
0.212377	493.867427	110.890884	113.574159	33.695730	139.352349
0.213039	499.455760	112.307067	114.691409	34.272275	141.826832
0.213700	505.056600	113.724185	115.807136	34.852072	144.311152
0.214362	510.682152	115.149464	116.926754	35.435001	146.804783
0.215023	516.318717	116.575747	118.044534	36.020927	149.307162
0.215685	521.978324	118.009968	119.166051	36.609709	151.817722
0.216347	527.643461	119.443549	120.283416	37.201200	154.335733
0.217008	533.329518	120.884844	121.404366	37.795325	156.860449
0.217670	539.017072	122.324317	122.520173	38.392197	159.391086
0.218331	544.723256	123.771283	123.639420	38.992266	161.926846
0.218993	550.424710	125.214329	124.751529	39.596483	164.466829
0.219655	556.142113	126.664639	125.866932	40.206301	167.010106
0.220316	561.850932	128.110628	126.974298	40.823272	169.555644
0.220978	567.572652	129.563668	128.084826	41.448250	172.102408
0.221639	573.281979	131.012022	129.186777	42.080706	174.649292
0.222301	579.000868	132.467225	130.291771	42.718887	177.195183
0.222963	584.702117	133.916239	131.387473	43.360619	179.738998
0.223624	590.409819	135.371901	132.486102	44.004088	182.279647
0.224286	596.094649	136.820241	133.573906	44.648040	184.815942
0.224947	601.783775	138.275042	134.664537	45.291739	187.346701
0.225609	607.446522	139.721340	135.742923	45.934705	189.870711
0.226271	613.113475	141.173931	136.824052	46.576613	192.386773
0.226932	618.751332	142.616699	137.891234	47.217131	194.893654
0.227594	624.392289	144.065613	138.961095	47.855953	197.390141
0.228256	629.997099	145.502949	140.015247	48.492697	199.874965
0.228917	635.598954	146.946299	141.072032	49.126996	202.346878
0.229579	641.160318	148.378531	142.115022	49.758462	204.804845
0.230240	646.712634	149.816637	143.160593	50.386747	207.247862
0.230902	652.223676	151.243323	144.195997	51.011595	209.675595
0.231564	657.723239	152.675664	145.233866	51.632819	212.087737
0.232225	663.174059	154.095067	146.257936	52.250069	214.483342
0.232887	668.610707	155.519969	147.284414	52.863063	216.861503
0.233548	673.992350	156.930374	148.294940	53.471437	219.221329
0.234210	679.357471	158.346156	149.307849	54.074892	221.561971
0.234872	684.646707	159.739424	150.294211	54.673111	223.882715
0.235533	689.917698	161.138031	151.283008	55.265847	226.182869
0.236195	695.098376	162.509192	152.237700	55.852806	228.461769
0.236856	700.259613	163.885777	153.194988	56.433769	230.718780
0.237518	705.369340	165.250033	154.142207	57.008661	232.954214
0.238180	710.460764	166.619545	155.091958	57.577510	235.168425
0.238841	715.508159	167.978193	156.035239	58.140425	237.362339
0.239503	720.540402	169.341871	156.980939	58.697620	239.536896
0.240165	725.535321	170.694936	157.922112	59.249326	241.693319
0.240826	730.518812	172.052772	158.865562	59.795875	243.832824
0.241488	735.447245	173.391138	159.791707	60.337457	245.956137
0.242149	740.365035	174.734176	160.720133	60.874333	248.063966
0.242811	745.236448	176.059915	161.637260	61.406660	250.156713
0.243473	750.095549	177.390171	162.556629	61.934658	252.234776
0.244134	754.915603	178.704831	163.471329	62.458459	254.298275
0.244796	759.722450	180.023775	164.388174	62.978254	256.347335
0.245457	764.489718	181.325517	165.301606	63.494172	258.381799
0.246119	769.243909	182.631303	166.217082	64.006391	260.401528
0.246781	773.980013	183.926598	167.143354	64.515149	262.406490
0.247442	778.703426	185.225558	168.071449	65.020736	264.396688
0.248104	783.442190	186.525277	169.031356	65.523574	266.372392
0.248765	788.169000	187.828156	169.992738	66.024139	268.333912
0.249427	792.924475	189.135914	170.993546	66.523005	270.281477
0.250089	797.669015	190.446438	171.995562	67.020781	272.215360
0.250750	802.438199	191.759981	173.033339	67.518230	274.135458
0.251412	807.197503	193.076090	174.072213	68.016089	276.041727
0.252074	811.974727	194.392599	175.141649	68.515380	277.933563
0.252735	816.742782	195.711621	176.212195	69.016882	279.810457
0.253397	821.518722	197.027198	177.307130	69.521196	281.671499
0.254058	826.284456	198.345339	178.403278	70.028176	283.515901
0.254720	831.035835	199.650522	179.510576	70.539861	285.343055
0.255382	835.799715	200.958346	180.619224	71.077807	287.152458
0.256043	840.567903	202.238732	181.720314	71.672763	288.944155
0.256705	845.354264	203.521774	182.822854	72.299404	290.718236
0.257366	850.060425	204.761764	183.898824	72.932446	292.475340
0.258028	854.759045	206.004319	184.976272	73.570270	294.216080
0.258690	859.346581	207.190067	186.010185	74.212579	295.941595
0.259351	863.927162	208.378186	187.045530	74.858315	297.652930
0.260013	868.363297	209.494672	188.019842	75.504900	299.351642
0.260674	872.790142	210.613230	188.995466	76.150065	301.039108
0.261336	877.043895	211.648720	189.894843	76.790793	302.717246
0.261998	881.285778	212.685912	190.795352	77.424491	304.387724
0.262659	885.329042	213.630375	191.605517	78.048147	306.052720
0.263321	889.358188	214.576146	192.416610	78.659107	307.714085
0.263983	893.168818	215.421766	193.126253	79.254701	309.373936
0.264644	896.963572	216.268352	193.836646	79.832516	311.034019
0.265306	900.527735	217.010317	194.438951	80.390551	312.696060
0.265967	904.074895	217.753024	195.041909	80.926942	314.361420
0.266629	907.397557	218.394903	195.539623	81.440590	316.031185
0.267291	910.702856	219.037447	196.037989	81.930460	317.706156
0.267952	913.801341	219.587880	196.440120	82.396334	319.386780
0.268614	916.882911	220.139034	196.842990	82.838073	321.073307
0.269275	919.793487	220.614692	197.168359	83.256294	322.765510
0.269937	922.688279	221.091196	197.494601	83.651814	324.463071
0.270599	925.461498	221.514955	197.768960	84.025939	326.165236
0.271260	928.220715	221.939672	198.044314	84.380375	327.871262
0.271922	930.911549	222.336021	198.294861	84.716840	329.580131
0.272583	933.590776	222.733377	198.546474	85.037698	331.290930
0.273245	936.247972	223.123667	198.795828	85.344754	333.002721
0.273907	938.896600	223.514947	199.046266	85.640699	334.714742
0.274568	941.554355	223.912813	199.308749	85.927165	336.426342
0.275230	944.207032	224.311614	199.572304	86.206861	338.137066
0.275891	946.886215	224.723812	199.854885	86.481095	339.846623
0.276553	949.563947	225.136882	200.138514	86.752359	341.554941
0.277215	952.276432	225.565667	200.443506	87.021556	343.262096
0.277876	954.990827	225.995269	200.749523	87.290907	344.968237
0.278538	957.743054	226.440486	201.076930	87.560984	346.673599
0.279200	960.500027	226.886473	201.405343	87.833694	348.378506
0.279861	963.295232	227.346857	201.754141	88.109284	350.083326
0.280523	966.097475	227.807973	202.103930	88.389336	351.788477
0.281184	968.936747	228.281806	202.472622	88.673676	353.494390
0.281846	971.784184	228.756344	202.842299	88.963046	355.201517
0.282508	974.663893	229.241580	203.228892	89.255316	356.910305
0.283169	977.550425	229.727501	203.616469	89.550632	358.621193
0.283831	980.489539	230.222156	204.018807	89.872604	360.334602
0.284492	983.498747	230.717484	204.422135	90.260230	362.050925
0.285154	986.557330	231.219118	204.837570	90.675754	363.770515
0.285816	989.623944	231.721416	205.254007	91.094281	365.493683
0.286477	992.711339	232.227746	205.679871	91.516556	367.220688
0.287139	995.809711	232.734737	206.106753	91.944340	368.951740
0.287800	998.925660	233.243139	206.539780	92.378220	370.687011
0.288462	1002.053514	233.752208	206.973849	92.818239	372.426615
0.289124	1005.196344	234.261472	207.412543	93.264335	374.170602
0.289785	1008.350954	234.771407	207.852305	93.716362	375.918972
0.290447	1011.517097	235.280149	208.294956	94.174199	377.671669
0.291109	1014.694637	235.789573	208.738709	94.637681	379.428589
0.291770	1017.879727	236.296268	209.183421	95.106678	381.189599
0.292432	1021.075699	236.803667	209.629276	95.581023	382.954522
0.293093	1024.274046	237.306185	210.073711	96.060590	384.723165
0.293755	1027.482686	237.809441	210.519341	96.545220	386.495306
0.294417	1030.690666	238.306698	210.962380	97.034792	388.270688
0.295078	1033.908256	238.804735	211.406672	97.529160	390.049040
0.295740	1037.121988	239.295615	211.847166	98.028208	391.830061
0.296401	1040.344584	239.787320	212.288976	98.531804	393.613440
0.297063	1043.563140	240.271921	212.727673	99.039838	395.398823
0.297725	1046.789713	240.757393	213.167754	99.552183	397.185849
0.298386	1050.010528	241.235112	213.604642	100.068737	398.974135
0.299048	1053.238498	241.713759	214.042989	100.589381	400.763299
0.299709	1056.443288	242.181326	214.474684	101.111362	402.546200
0.300371	1059.664694	242.649877	214.908076	101.640003	404.336352
0.301033	1062.865719	243.104425	215.332118	102.172407	406.126034
0.301694	1066.071911	243.560016	215.757771	102.708462	407.914787
0.302356	1069.253201	243.999851	216.172507	103.248065	409.702100
0.303018	1072.438595	244.440793	216.588938	103.791109	411.487478
0.303679	1075.594638	244.864335	216.992906	104.337495	413.270374
0.304341	1078.753671	245.289053	217.398658	104.887120	415.050257
0.305002	1081.879944	245.695220	217.791034	105.439884	416.826525
0.305664	1085.008001	246.102636	218.185284	105.995691	418.598598
0.306326	1088.101373	246.490953	218.566243	106.554437	420.365807
0.306987	1091.195182	246.880587	218.949166	107.116024	422.127506
0.307649	1094.252985	247.250741	219.319465	107.680348	423.882955
0.308310	1097.309729	247.622276	219.691817	108.247308	425.631438
0.308972	1100.333322	247.976541	220.053873	108.816817	427.372201
0.309634	1103.354399	248.332259	220.418078	109.388797	429.104530
0.310295	1106.345977	248.672584	220.775523	109.963169	430.827575
0.310957	1109.333419	249.014436	221.135214	110.539863	432.540530
0.311618	1112.295693	249.343528	221.491796	111.118822	434.242429
0.312280	1115.252099	249.674243	221.850740	111.700007	435.932379
0.312942	1118.188043	249.995218	222.210562	112.283385	437.609110
0.313603	1121.114746	250.317938	222.571683	112.868954	439.271478
0.314265	1124.024417	250.633472	222.937941	113.456686	440.917352
0.314926	1126.922301	250.950894	223.306823	114.046590	442.544838
0.315588	1129.810376	251.264819	223.690182	114.638622	444.150144
0.316250	1132.679903	251.580826	224.076338	115.232782	445.729920
0.316911	1135.618783	251.928606	224.538082	115.828708	447.270727
0.317573	1138.514890	252.279304	225.003248	116.426126	448.760844
0.318235	1141.544010	252.697980	225.603721	117.024512	450.180527
0.318896	1144.498151	253.122520	226.209821	117.623481	451.512872
0.319558	1147.433462	253.565145	226.868061	118.223448	452.755852
0.320219	1150.295001	254.015374	227.533241	118.824898	453.908392
0.320881	1153.107657	254.470550	228.229753	119.428669	454.973816
0.321543	1155.857594	254.934339	228.933958	120.035638	455.955825
0.322204	1158.563309	255.400314	229.665568	120.646868	456.859485
0.322866	1161.220779	255.875667	230.405431	121.263456	457.690071
0.323527	1163.839102	256.349267	231.166765	121.886632	458.454034
0.324189	1166.425783	256.832754	231.936708	122.517659	459.157867
0.324851	1168.997928	257.317185	232.732547	123.157942	459.809324
0.325512	1171.555796	257.811543	233.536998	123.808868	460.415911
0.326174	1174.127905	258.310470	234.374303	124.471911	460.985921
0.326835	1176.702493	258.819007	235.219954	125.148463	461.527091
0.327497	1179.287784	259.322828	236.087294	125.839937	462.046937
0.328159	1181.891215	259.835981	236.962733	126.547677	462.552359
0.328820	1184.496934	260.333664	237.846823	127.273103	463.049720
0.329482	1187.135563	260.840474	238.738815	128.017594	463.544834
0.330144	1189.779420	261.326808	239.633175	128.782499	464.043264
0.330805	1192.469806	261.822170	240.535294	129.569165	464.550179
0.331467	1195.184997	262.300367	241.442925	130.378771	465.070831
0.332128	1197.959596	262.787701	242.358268	131.212561	465.610296
0.332790	1200.766460	263.255749	243.275963	132.071542	466.173961
0.333452	1203.645992	263.733290	244.201433	132.956825	466.767117
0.334113	1206.541929	264.178421	245.113626	133.869293	467.395214
0.334775	1209.523902	264.633435	246.033665	134.809928	468.063512
0.335436	1212.497799	265.038790	246.920625	135.779479	468.777132
0.336098	1215.570089	265.454222	247.815389	136.778755	469.540866
0.336760	1218.611563	265.803860	248.659128	137.808285	470.359192
0.337421	1221.761666	266.163503	249.510479	138.868623	471.236154
0.338083	1224.865201	266.445183	250.298204	139.960093	472.175255
0.338744	1228.084414	266.736606	251.093234	141.083010	473.179512
0.339406	1231.247243	266.941947	251.817184	142.237522	474.251274
0.340068	1234.529175	267.156685	252.548079	143.423731	475.392395
0.340729	1237.747891	267.280261	253.203759	144.641606	476.604021
0.341391	1241.085854	267.412869	253.865999	145.891033	477.886826
0.342053	1244.349518	267.448177	254.448717	147.171789	479.240642
0.342714	1247.729581	267.492151	255.037593	148.483524	480.664863
0.343376	1251.021013	267.432515	255.542387	149.825714	482.158082
0.344037	1254.423138	267.381174	256.052914	151.197653	483.718497
0.344699	1257.718521	267.219505	256.474261	152.598373	485.343595
0.345361	1261.116002	267.065764	256.900893	154.026673	487.030519
0.346022	1264.384582	266.794428	257.232625	155.481000	488.775814
0.346684	1267.743774	266.530664	257.569168	156.959526	490.575741
0.347345	1270.948187	266.141671	257.804591	158.459975	492.426088
0.348007	1274.228957	265.759921	258.044327	159.979744	494.322420
0.348669	1277.325708	265.245041	258.176304	161.515677	496.259955
0.349330	1280.482025	264.737120	258.312075	163.064192	498.233750
0.349992	1283.422111	264.087987	258.333092	164.621058	500.238610
0.350653	1286.402705	263.445586	258.357362	166.181775	502.269239
0.351315	1289.131797	262.653573	258.259420	167.742282	504.320166
0.351977	1291.879974	261.868139	258.164173	169.301470	506.385870
0.352638	1294.337794	260.924333	257.938787	170.862492	508.460697
0.353300	1296.790483	259.987046	257.715524	172.426667	510.538982
0.353961	1298.911543	258.882168	257.353669	173.984152	512.614943
0.354623	1301.008384	257.783866	256.993358	175.519796	514.682820
0.355285	1302.746274	256.508060	256.485288	177.021696	516.736744
0.355946	1304.451677	255.239029	255.978186	178.482021	518.770893
0.356608	1305.752754	253.782965	255.314138	179.894068	520.779429
0.357270	1306.979038	252.334047	254.650492	181.251486	522.756576
0.357931	1307.743089	250.688115	253.820358	182.547714	524.696853
0.358593	1308.403340	249.049904	252.990089	183.776228	526.594837
0.359254	1308.547182	247.199313	251.980124	184.930285	528.443966
0.359916	1308.562016	245.357317	250.969549	186.003237	530.237812
0.360578	1308.017089	243.294893	249.769293	186.988004	531.970510
0.361239	1307.318850	241.242231	248.568014	187.877816	533.636274
0.361901	1306.019145	238.960577	247.167068	188.666017	535.230918
0.362562	1304.546203	236.690185	245.764766	189.346464	536.750213
0.363224	1302.412874	234.175928	244.146354	189.911741	538.184284
0.363886	1300.074420	231.675042	242.526513	190.354875	539.523443
0.364547	1297.020430	228.920040	240.678295	190.669125	540.758451
0.365209	1293.732804	226.181081	238.828796	190.848264	541.880180
0.365870	1289.669751	223.175861	236.737063	190.885787	542.876602
0.366532	1285.340648	220.190165	234.644575	190.775597	543.735936
0.367194	1280.220816	216.939876	232.310220	190.515639	544.460794
0.367855	1274.840608	213.712815	229.975636	190.104658	545.053337
0.368517	1268.626658	210.208330	227.380867	189.538928	545.504558
0.369179	1262.133727	206.732124	224.787144	188.815283	545.805482
0.369840	1254.754347	202.968811	221.919722	187.929841	545.942715
0.370502	1247.070380	199.240215	219.055373	186.879117	545.903087
0.371163	1238.581736	195.256533	215.947061	185.670815	545.715751
0.371825	1229.869681	191.313562	212.843532	184.314348	545.408166
0.372487	1220.430054	187.132668	209.499349	182.816606	544.993446
0.373148	1210.817992	183.000268	206.163028	181.185742	544.483662
0.373810	1200.341194	178.550380	202.506486	179.426704	543.875200
0.374471	1189.711504	174.160189	198.862497	177.545194	543.163284
0.375133	1177.986954	169.334679	194.788751	175.545785	542.336915
0.375795	1166.126624	164.586415	190.735080	173.433559	541.385718
0.376456	1153.797424	159.754234	186.530755	171.214560	540.302018
0.377118	1141.344484	155.008054	182.352393	168.895179	539.078050
0.377779	1128.481701	150.219326	178.048956	166.481742	537.705400
0.378441	1115.500764	145.524107	173.777349	163.980781	536.175763
0.379103	1100.707116	140.054035	168.750035	161.392699	534.458820
0.379764	1085.850968	134.725259	163.776999	158.728466	532.561127
0.380426	1071.719229	129.464210	158.781274	156.857649	530.470192
0.381088	1058.848796	124.354923	153.849114	156.440294	528.182272
0.381749	1044.758044	118.770436	148.352433	155.987409	525.669111
0.382411	1030.726094	113.389312	142.949641	155.494252	522.904700
0.383072	1015.249431	107.419442	137.115823	154.953898	519.768238
0.383734	999.821217	101.834520	131.483925	154.359857	516.151158
0.384396	987.963032	98.291634	127.910215	153.718580	512.051134
0.385057	975.981591	95.001670	124.483267	153.036290	507.469199
0.385719	961.835511	91.006826	120.146104	152.305026	502.386710
0.386380	948.084318	87.425998	116.054369	151.822170	496.791271
0.387042	935.480266	83.756064	111.620562	153.403280	490.710200
0.387704	932.113659	80.643438	107.525078	163.783501	484.171842
0.388365	928.446196	80.112156	106.621085	168.451715	477.271811
0.389027	924.728160	79.739485	105.825142	173.076786	470.097698
0.389688	920.670884	79.865269	105.667754	176.443994	462.705202
0.390350	916.592236	80.120047	105.601174	179.735245	455.147490
0.391012	912.136055	80.816233	106.304873	181.501745	447.525304
0.391673	907.793537	81.569470	107.045373	183.258393	439.932771
0.392335	903.059847	82.258567	107.767247	184.635230	432.411626
0.392997	898.447874	82.988490	108.515441	185.956326	425.000768
0.393658	893.620526	83.611152	109.191205	187.162162	417.669454
0.394320	888.897532	84.262840	109.885958	188.376017	410.386417
0.394981	887.534202	86.122021	112.693611	190.881223	401.851248
0.395643	886.779013	88.306507	115.746696	195.889795	390.850053
0.396305	884.966739	90.127566	118.227085	202.744538	377.881651
0.396966	883.505808	92.133369	120.838630	211.087114	363.460773
