PointPosition
version=1
nRows=601
nColumns=4
inDegrees=no
No description.
endheader
time	state_0	state_1	state_2
      0.00000000	     -0.31751341	      0.04250972	      0.09478690
      0.00055741	     -0.31529410	      0.04136962	      0.09478690
      0.00111481	     -0.31306584	      0.04022580	      0.09478690
      0.00167222	     -0.31082861	      0.03907851	      0.09478690
      0.00222962	     -0.30858239	      0.03792803	      0.09478690
      0.00278703	     -0.30632719	      0.03677461	      0.09478690
      0.00334444	     -0.30406299	      0.03561853	      0.09478690
      0.00390184	     -0.30178979	      0.03446006	      0.09478690
      0.00445925	     -0.29950761	      0.03329947	      0.09478690
      0.00501665	     -0.29721647	      0.03213704	      0.09478690
      0.00557406	     -0.29491645	      0.03097302	      0.09478690
      0.00613146	     -0.29260764	      0.02980770	      0.09478690
      0.00668887	     -0.29029028	      0.02864132	      0.09478690
      0.00724628	     -0.28796474	      0.02747412	      0.09478690
      0.00780368	     -0.28563175	      0.02630628	      0.09478690
      0.00836109	     -0.28329239	      0.02513793	      0.09478690
      0.00891849	     -0.28094885	      0.02396905	      0.09478690
      0.00947590	     -0.27860415	      0.02279947	      0.09478690
      0.01003331	     -0.27626403	      0.02162862	      0.09478690
      0.01059071	     -0.27393618	      0.02045561	      0.09478690
      0.01114812	     -0.27163325	      0.01927880	      0.09478690
      0.01170552	     -0.26937091	      0.01809605	      0.09478690
      0.01226293	     -0.26716977	      0.01690458	      0.09478690
      0.01282034	     -0.26505162	      0.01570144	      0.09478690
      0.01337774	     -0.26304805	      0.01448261	      0.09478690
      0.01393515	     -0.26120296	      0.01324265	      0.09478690
      0.01449255	     -0.25959077	      0.01197386	      0.09478690
      0.01504996	     -0.25830014	      0.01066948	      0.09478690
      0.01560736	     -0.25739637	      0.00933390	      0.09478690
      0.01616477	     -0.25693773	      0.00797772	      0.09478690
      0.01672218	     -0.25676417	      0.00665394	      0.09478690
      0.01727958	     -0.25662360	      0.00542203	      0.09478690
      0.01783699	     -0.25648571	      0.00429213	      0.09478690
      0.01839439	     -0.25636577	      0.00326440	      0.09478690
      0.01895180	     -0.25625483	      0.00233891	      0.09478690
      0.01950921	     -0.25615611	      0.00151235	      0.09478690
      0.02006661	     -0.25606597	      0.00077986	      0.09478690
      0.02062402	     -0.25598486	      0.00013534	      0.09478690
      0.02118142	     -0.25591076	     -0.00042815	      0.09478690
      0.02173883	     -0.25584335	     -0.00091775	      0.09478690
      0.02229624	     -0.25578138	     -0.00134067	      0.09478690
      0.02285364	     -0.25572433	     -0.00170383	      0.09478690
      0.02341105	     -0.25567138	     -0.00201375	      0.09478690
      0.02396845	     -0.25562204	     -0.00227651	      0.09478690
      0.02452586	     -0.25557574	     -0.00249755	      0.09478690
      0.02508327	     -0.25553207	     -0.00268188	      0.09478690
      0.02564067	     -0.25549065	     -0.00283384	      0.09478690
      0.02619808	     -0.25545115	     -0.00295739	      0.09478690
      0.02675548	     -0.25541329	     -0.00305591	      0.09478690
      0.02731289	     -0.25537683	     -0.00313244	      0.09478690
      0.02787029	     -0.25534157	     -0.00318956	      0.09478690
      0.02842770	     -0.25530733	     -0.00322958	      0.09478690
      0.02898511	     -0.25527397	     -0.00325442	      0.09478690
      0.02954251	     -0.25524133	     -0.00326586	      0.09478690
      0.03009992	     -0.25520933	     -0.00326534	      0.09478690
      0.03065732	     -0.25517784	     -0.00325421	      0.09478690
      0.03121473	     -0.25514681	     -0.00323357	      0.09478690
      0.03177214	     -0.25511613	     -0.00320443	      0.09478690
      0.03232954	     -0.25508577	     -0.00316764	      0.09478690
      0.03288695	     -0.25505565	     -0.00312397	      0.09478690
      0.03344435	     -0.25502573	     -0.00307405	      0.09478690
      0.03400176	     -0.25499597	     -0.00301848	      0.09478690
      0.03455917	     -0.25496633	     -0.00295775	      0.09478690
      0.03511657	     -0.25493678	     -0.00289229	      0.09478690
      0.03567398	     -0.25490728	     -0.00282249	      0.09478690
      0.03623138	     -0.25487781	     -0.00274869	      0.09478690
      0.03678879	     -0.25484834	     -0.00267117	      0.09478690
      0.03734619	     -0.25481884	     -0.00259020	      0.09478690
      0.03790360	     -0.25478930	     -0.00250600	      0.09478690
      0.03846101	     -0.25475969	     -0.00241877	      0.09478690
      0.03901841	     -0.25472998	     -0.00232868	      0.09478690
      0.03957582	     -0.25470016	     -0.00223589	      0.09478690
      0.04013322	     -0.25467021	     -0.00214052	      0.09478690
      0.04069063	     -0.25464009	     -0.00204271	      0.09478690
      0.04124804	     -0.25460979	     -0.00194255	      0.09478690
      0.04180544	     -0.25457929	     -0.00184014	      0.09478690
      0.04236285	     -0.25454856	     -0.00173556	      0.09478690
      0.04292025	     -0.25451756	     -0.00162889	      0.09478690
      0.04347766	     -0.25448629	     -0.00152019	      0.09478690
      0.04403507	     -0.25445471	     -0.00140953	      0.09478690
      0.04459247	     -0.25442279	     -0.00129694	      0.09478690
      0.04514988	     -0.25439050	     -0.00118247	      0.09478690
      0.04570728	     -0.25435781	     -0.00106617	      0.09478690
      0.04626469	     -0.25432468	     -0.00094804	      0.09478690
      0.04682209	     -0.25429108	     -0.00082811	      0.09478690
      0.04737950	     -0.25425696	     -0.00070639	      0.09478690
      0.04793691	     -0.25422227	     -0.00058285	      0.09478690
      0.04849431	     -0.25418697	     -0.00045750	      0.09478690
      0.04905172	     -0.25415099	     -0.00033031	      0.09478690
      0.04960912	     -0.25411426	     -0.00020127	      0.09478690
      0.05016653	     -0.25407672	     -0.00007034	      0.09478690
      0.05072394	     -0.25403828	      0.00006248	      0.09478690
      0.05128134	     -0.25399886	      0.00019722	      0.09478690
      0.05183875	     -0.25395835	      0.00033391	      0.09478690
      0.05239615	     -0.25391665	      0.00047255	      0.09478690
      0.05295356	     -0.25387363	      0.00061315	      0.09478690
      0.05351097	     -0.25382917	      0.00075571	      0.09478690
      0.05406837	     -0.25378310	      0.00090024	      0.09478690
      0.05462578	     -0.25373498	      0.00104677	      0.09478690
      0.05518318	     -0.25368411	      0.00119539	      0.09478690
      0.05574059	     -0.25362947	      0.00134622	      0.09478690
      0.05629800	     -0.25356993	      0.00149943	      0.09478690
      0.05685540	     -0.25350433	      0.00165512	      0.09478690
      0.05741281	     -0.25343158	      0.00181342	      0.09478690
      0.05797021	     -0.25335078	      0.00197433	      0.09478690
      0.05852762	     -0.25326115	      0.00213785	      0.09478690
      0.05908502	     -0.25316221	      0.00230387	      0.09478690
      0.05964243	     -0.25305347	      0.00247224	      0.09478690
      0.06019984	     -0.25293409	      0.00264276	      0.09478690
      0.06075724	     -0.25280310	      0.00281527	      0.09478690
      0.06131465	     -0.25265967	      0.00298960	      0.09478690
      0.06187205	     -0.25250305	      0.00316560	      0.09478690
      0.06242946	     -0.25233265	      0.00334315	      0.09478690
      0.06298687	     -0.25214795	      0.00352214	      0.09478690
      0.06354427	     -0.25194860	      0.00370247	      0.09478690
      0.06410168	     -0.25173428	      0.00388405	      0.09478690
      0.06465908	     -0.25150483	      0.00406682	      0.09478690
      0.06521649	     -0.25126012	      0.00425071	      0.09478690
      0.06577390	     -0.25100017	      0.00443565	      0.09478690
      0.06633130	     -0.25072500	      0.00462156	      0.09478690
      0.06688871	     -0.25043476	      0.00480834	      0.09478690
      0.06744611	     -0.25012962	      0.00499587	      0.09478690
      0.06800352	     -0.24980982	      0.00518405	      0.09478690
      0.06856092	     -0.24947560	      0.00537278	      0.09478690
      0.06911833	     -0.24912726	      0.00556196	      0.09478690
      0.06967574	     -0.24876508	      0.00575148	      0.09478690
      0.07023314	     -0.24838936	      0.00594129	      0.09478690
      0.07079055	     -0.24800041	      0.00613131	      0.09478690
      0.07134795	     -0.24759854	      0.00632150	      0.09478690
      0.07190536	     -0.24718405	      0.00651182	      0.09478690
      0.07246277	     -0.24675727	      0.00670226	      0.09478690
      0.07302017	     -0.24631850	      0.00689283	      0.09478690
      0.07357758	     -0.24586804	      0.00708355	      0.09478690
      0.07413498	     -0.24540621	      0.00727445	      0.09478690
      0.07469239	     -0.24493331	      0.00746559	      0.09478690
      0.07524980	     -0.24444965	      0.00765702	      0.09478690
      0.07580720	     -0.24395554	      0.00784880	      0.09478690
      0.07636461	     -0.24345127	      0.00804096	      0.09478690
      0.07692201	     -0.24293717	      0.00823356	      0.09478690
      0.07747942	     -0.24241352	      0.00842664	      0.09478690
      0.07803682	     -0.24188066	      0.00862024	      0.09478690
      0.07859423	     -0.24133888	      0.00881440	      0.09478690
      0.07915164	     -0.24078851	      0.00900914	      0.09478690
      0.07970904	     -0.24022986	      0.00920448	      0.09478690
      0.08026645	     -0.23966325	      0.00940044	      0.09478690
      0.08082385	     -0.23908900	      0.00959703	      0.09478690
      0.08138126	     -0.23850743	      0.00979427	      0.09478690
      0.08193867	     -0.23791886	      0.00999215	      0.09478690
      0.08249607	     -0.23732361	      0.01019067	      0.09478690
      0.08305348	     -0.23672201	      0.01038983	      0.09478690
      0.08361088	     -0.23611435	      0.01058961	      0.09478690
      0.08416829	     -0.23550097	      0.01078999	      0.09478690
      0.08472570	     -0.23488216	      0.01099096	      0.09478690
      0.08528310	     -0.23425825	      0.01119248	      0.09478690
      0.08584051	     -0.23362955	      0.01139455	      0.09478690
      0.08639791	     -0.23299635	      0.01159711	      0.09478690
      0.08695532	     -0.23235896	      0.01180014	      0.09478690
      0.08751273	     -0.23171769	      0.01200359	      0.09478690
      0.08807013	     -0.23107283	      0.01220744	      0.09478690
      0.08862754	     -0.23042468	      0.01241162	      0.09478690
      0.08918494	     -0.22977353	      0.01261611	      0.09478690
      0.08974235	     -0.22911969	      0.01282086	      0.09478690
      0.09029975	     -0.22846343	      0.01302581	      0.09478690
      0.09085716	     -0.22780504	      0.01323091	      0.09478690
      0.09141457	     -0.22714480	      0.01343613	      0.09478690
      0.09197197	     -0.22648300	      0.01364139	      0.09478690
      0.09252938	     -0.22581989	      0.01384667	      0.09478690
      0.09308678	     -0.22515576	      0.01405189	      0.09478690
      0.09364419	     -0.22449086	      0.01425702	      0.09478690
      0.09420160	     -0.22382546	      0.01446200	      0.09478690
      0.09475900	     -0.22315980	      0.01466679	      0.09478690
      0.09531641	     -0.22249414	      0.01487133	      0.09478690
      0.09587381	     -0.22182872	      0.01507558	      0.09478690
      0.09643122	     -0.22116376	      0.01527950	      0.09478690
      0.09698863	     -0.22049951	      0.01548304	      0.09478690
      0.09754603	     -0.21983618	      0.01568616	      0.09478690
      0.09810344	     -0.21917400	      0.01588883	      0.09478690
      0.09866084	     -0.21851316	      0.01609101	      0.09478690
      0.09921825	     -0.21785388	      0.01629266	      0.09478690
      0.09977565	     -0.21719634	      0.01649377	      0.09478690
      0.10033306	     -0.21654074	      0.01669429	      0.09478690
      0.10089047	     -0.21588726	      0.01689420	      0.09478690
      0.10144787	     -0.21523608	      0.01709348	      0.09478690
      0.10200528	     -0.21458735	      0.01729210	      0.09478690
      0.10256268	     -0.21394123	      0.01749003	      0.09478690
      0.10312009	     -0.21329789	      0.01768727	      0.09478690
      0.10367750	     -0.21265746	      0.01788380	      0.09478690
      0.10423490	     -0.21202010	      0.01807960	      0.09478690
      0.10479231	     -0.21138594	      0.01827467	      0.09478690
      0.10534971	     -0.21075512	      0.01846903	      0.09478690
      0.10590712	     -0.21012779	      0.01866267	      0.09478690
      0.10646453	     -0.20950406	      0.01885562	      0.09478690
      0.10702193	     -0.20888409	      0.01904790	      0.09478690
      0.10757934	     -0.20826799	      0.01923955	      0.09478690
      0.10813674	     -0.20765590	      0.01943059	      0.09478690
      0.10869415	     -0.20704792	      0.01962105	      0.09478690
      0.10925155	     -0.20644418	      0.01981096	      0.09478690
      0.10980896	     -0.20584477	      0.02000036	      0.09478690
      0.11036637	     -0.20524979	      0.02018927	      0.09478690
      0.11092377	     -0.20465933	      0.02037771	      0.09478690
      0.11148118	     -0.20407346	      0.02056571	      0.09478690
      0.11203858	     -0.20349226	      0.02075327	      0.09478690
      0.11259599	     -0.20291578	      0.02094040	      0.09478690
      0.11315340	     -0.20234407	      0.02112711	      0.09478690
      0.11371080	     -0.20177716	      0.02131340	      0.09478690
      0.11426821	     -0.20121510	      0.02149927	      0.09478690
      0.11482561	     -0.20065787	      0.02168468	      0.09478690
      0.11538302	     -0.20010540	      0.02186950	      0.09478690
      0.11594043	     -0.19955760	      0.02205364	      0.09478690
      0.11649783	     -0.19901448	      0.02223703	      0.09478690
      0.11705524	     -0.19847603	      0.02241970	      0.09478690
      0.11761264	     -0.19794229	      0.02260164	      0.09478690
      0.11817005	     -0.19741325	      0.02278288	      0.09478690
      0.11872745	     -0.19688892	      0.02296341	      0.09478690
      0.11928486	     -0.19636931	      0.02314326	      0.09478690
      0.11984227	     -0.19585440	      0.02332243	      0.09478690
      0.12039967	     -0.19534417	      0.02350094	      0.09478690
      0.12095708	     -0.19483861	      0.02367880	      0.09478690
      0.12151448	     -0.19433767	      0.02385601	      0.09478690
      0.12207189	     -0.19384132	      0.02403260	      0.09478690
      0.12262930	     -0.19334952	      0.02420858	      0.09478690
      0.12318670	     -0.19286222	      0.02438396	      0.09478690
      0.12374411	     -0.19237936	      0.02455875	      0.09478690
      0.12430151	     -0.19190086	      0.02473297	      0.09478690
      0.12485892	     -0.19142668	      0.02490665	      0.09478690
      0.12541633	     -0.19095672	      0.02507980	      0.09478690
      0.12597373	     -0.19049091	      0.02525244	      0.09478690
      0.12653114	     -0.19002917	      0.02542460	      0.09478690
      0.12708854	     -0.18957139	      0.02559631	      0.09478690
      0.12764595	     -0.18911750	      0.02576758	      0.09478690
      0.12820336	     -0.18866738	      0.02593846	      0.09478690
      0.12876076	     -0.18822093	      0.02610897	      0.09478690
      0.12931817	     -0.18777805	      0.02627915	      0.09478690
      0.12987557	     -0.18733863	      0.02644904	      0.09478690
      0.13043298	     -0.18690255	      0.02661868	      0.09478690
      0.13099038	     -0.18646969	      0.02678812	      0.09478690
      0.13154779	     -0.18603993	      0.02695741	      0.09478690
      0.13210520	     -0.18561316	      0.02712658	      0.09478690
      0.13266260	     -0.18518925	      0.02729571	      0.09478690
      0.13322001	     -0.18476807	      0.02746485	      0.09478690
      0.13377741	     -0.18434949	      0.02763406	      0.09478690
      0.13433482	     -0.18393339	      0.02780341	      0.09478690
      0.13489223	     -0.18351965	      0.02797297	      0.09478690
      0.13544963	     -0.18310815	      0.02814282	      0.09478690
      0.13600704	     -0.18269875	      0.02831304	      0.09478690
      0.13656444	     -0.18229134	      0.02848373	      0.09478690
      0.13712185	     -0.18188580	      0.02865497	      0.09478690
      0.13767926	     -0.18148200	      0.02882687	      0.09478690
      0.13823666	     -0.18107980	      0.02899950	      0.09478690
      0.13879407	     -0.18067908	      0.02917298	      0.09478690
      0.13935147	     -0.18027969	      0.02934739	      0.09478690
      0.13990888	     -0.17988149	      0.02952282	      0.09478690
      0.14046628	     -0.17948432	      0.02969937	      0.09478690
      0.14102369	     -0.17908803	      0.02987713	      0.09478690
      0.14158110	     -0.17869247	      0.03005619	      0.09478690
      0.14213850	     -0.17829747	      0.03023666	      0.09478690
      0.14269591	     -0.17790288	      0.03041861	      0.09478690
      0.14325331	     -0.17750853	      0.03060215	      0.09478690
      0.14381072	     -0.17711426	      0.03078737	      0.09478690
      0.14436813	     -0.17671992	      0.03097435	      0.09478690
      0.14492553	     -0.17632533	      0.03116320	      0.09478690
      0.14548294	     -0.17593033	      0.03135400	      0.09478690
      0.14604034	     -0.17553478	      0.03154684	      0.09478690
      0.14659775	     -0.17513850	      0.03174182	      0.09478690
      0.14715516	     -0.17474134	      0.03193902	      0.09478690
      0.14771256	     -0.17434315	      0.03213852	      0.09478690
      0.14826997	     -0.17394377	      0.03234042	      0.09478690
      0.14882737	     -0.17354305	      0.03254480	      0.09478690
      0.14938478	     -0.17314086	      0.03275173	      0.09478690
      0.14994218	     -0.17273704	      0.03296128	      0.09478690
      0.15049959	     -0.17233146	      0.03317354	      0.09478690
      0.15105700	     -0.17192400	      0.03338857	      0.09478690
      0.15161440	     -0.17151452	      0.03360642	      0.09478690
      0.15217181	     -0.17110292	      0.03382716	      0.09478690
      0.15272921	     -0.17068909	      0.03405085	      0.09478690
      0.15328662	     -0.17027292	      0.03427752	      0.09478690
      0.15384403	     -0.16985433	      0.03450721	      0.09478690
      0.15440143	     -0.16943322	      0.03473998	      0.09478690
      0.15495884	     -0.16900953	      0.03497583	      0.09478690
      0.15551624	     -0.16858318	      0.03521481	      0.09478690
      0.15607365	     -0.16815411	      0.03545692	      0.09478690
      0.15663106	     -0.16772226	      0.03570220	      0.09478690
      0.15718846	     -0.16728759	      0.03595065	      0.09478690
      0.15774587	     -0.16685005	      0.03620229	      0.09478690
      0.15830327	     -0.16640960	      0.03645711	      0.09478690
      0.15886068	     -0.16596621	      0.03671513	      0.09478690
      0.15941809	     -0.16551984	      0.03697635	      0.09478690
      0.15997549	     -0.16507047	      0.03724076	      0.09478690
      0.16053290	     -0.16461807	      0.03750836	      0.09478690
      0.16109030	     -0.16416263	      0.03777914	      0.09478690
      0.16164771	     -0.16370413	      0.03805310	      0.09478690
      0.16220511	     -0.16324255	      0.03833023	      0.09478690
      0.16276252	     -0.16277788	      0.03861051	      0.09478690
      0.16331993	     -0.16231010	      0.03889392	      0.09478690
      0.16387733	     -0.16183922	      0.03918046	      0.09478690
      0.16443474	     -0.16136521	      0.03947010	      0.09478690
      0.16499214	     -0.16088807	      0.03976283	      0.09478690
      0.16554955	     -0.16040779	      0.04005861	      0.09478690
      0.16610696	     -0.15992437	      0.04035744	      0.09478690
      0.16666436	     -0.15943780	      0.04065929	      0.09478690
      0.16722177	     -0.15894807	      0.04096412	      0.09478690
      0.16777917	     -0.15845519	      0.04127192	      0.09478690
      0.16833658	     -0.15795914	      0.04158264	      0.09478690
      0.16889399	     -0.15745992	      0.04189627	      0.09478690
      0.16945139	     -0.15695752	      0.04221277	      0.09478690
      0.17000880	     -0.15645195	      0.04253211	      0.09478690
      0.17056620	     -0.15594319	      0.04285424	      0.09478690
      0.17112361	     -0.15543125	      0.04317914	      0.09478690
      0.17168101	     -0.15491612	      0.04350676	      0.09478690
      0.17223842	     -0.15439778	      0.04383707	      0.09478690
      0.17279583	     -0.15387625	      0.04417003	      0.09478690
      0.17335323	     -0.15335151	      0.04450559	      0.09478690
      0.17391064	     -0.15282356	      0.04484371	      0.09478690
      0.17446804	     -0.15229239	      0.04518435	      0.09478690
      0.17502545	     -0.15175800	      0.04552747	      0.09478690
      0.17558286	     -0.15122039	      0.04587302	      0.09478690
      0.17614026	     -0.15067954	      0.04622096	      0.09478690
      0.17669767	     -0.15013545	      0.04657123	      0.09478690
      0.17725507	     -0.14958811	      0.04692380	      0.09478690
      0.17781248	     -0.14903753	      0.04727861	      0.09478690
      0.17836989	     -0.14848369	      0.04763562	      0.09478690
      0.17892729	     -0.14792658	      0.04799477	      0.09478690
      0.17948470	     -0.14736619	      0.04835602	      0.09478690
      0.18004210	     -0.14680252	      0.04871932	      0.09478690
      0.18059951	     -0.14623556	      0.04908460	      0.09478690
      0.18115691	     -0.14566529	      0.04945183	      0.09478690
      0.18171432	     -0.14509170	      0.04982094	      0.09478690
      0.18227173	     -0.14451479	      0.05019187	      0.09478690
      0.18282913	     -0.14393453	      0.05056459	      0.09478690
      0.18338654	     -0.14335092	      0.05093902	      0.09478690
      0.18394394	     -0.14276393	      0.05131512	      0.09478690
      0.18450135	     -0.14217356	      0.05169282	      0.09478690
      0.18505876	     -0.14157979	      0.05207208	      0.09478690
      0.18561616	     -0.14098260	      0.05245284	      0.09478690
      0.18617357	     -0.14038198	      0.05283504	      0.09478690
      0.18673097	     -0.13977790	      0.05321863	      0.09478690
      0.18728838	     -0.13917034	      0.05360355	      0.09478690
      0.18784579	     -0.13855929	      0.05398975	      0.09478690
      0.18840319	     -0.13794472	      0.05437718	      0.09478690
      0.18896060	     -0.13732662	      0.05476579	      0.09478690
      0.18951800	     -0.13670496	      0.05515553	      0.09478690
      0.19007541	     -0.13607972	      0.05554635	      0.09478690
      0.19063282	     -0.13545087	      0.05593820	      0.09478690
      0.19119022	     -0.13481840	      0.05633104	      0.09478690
      0.19174763	     -0.13418226	      0.05672482	      0.09478690
      0.19230503	     -0.13354244	      0.05711950	      0.09478690
      0.19286244	     -0.13289892	      0.05751503	      0.09478690
      0.19341984	     -0.13225165	      0.05791137	      0.09478690
      0.19397725	     -0.13160060	      0.05830848	      0.09478690
      0.19453466	     -0.13094576	      0.05870631	      0.09478690
      0.19509206	     -0.13028709	      0.05910484	      0.09478690
      0.19564947	     -0.12962455	      0.05950401	      0.09478690
      0.19620687	     -0.12895811	      0.05990379	      0.09478690
      0.19676428	     -0.12828775	      0.06030414	      0.09478690
      0.19732169	     -0.12761342	      0.06070503	      0.09478690
      0.19787909	     -0.12693509	      0.06110642	      0.09478690
      0.19843650	     -0.12625274	      0.06150827	      0.09478690
      0.19899390	     -0.12556632	      0.06191054	      0.09478690
      0.19955131	     -0.12487581	      0.06231321	      0.09478690
      0.20010872	     -0.12418116	      0.06271623	      0.09478690
      0.20066612	     -0.12348235	      0.06311958	      0.09478690
      0.20122353	     -0.12277934	      0.06352322	      0.09478690
      0.20178093	     -0.12207209	      0.06392712	      0.09478690
      0.20233834	     -0.12136058	      0.06433124	      0.09478690
      0.20289574	     -0.12064477	      0.06473557	      0.09478690
      0.20345315	     -0.11992461	      0.06514005	      0.09478690
      0.20401056	     -0.11920009	      0.06554467	      0.09478690
      0.20456796	     -0.11847117	      0.06594940	      0.09478690
      0.20512537	     -0.11773781	      0.06635420	      0.09478690
      0.20568277	     -0.11699997	      0.06675904	      0.09478690
      0.20624018	     -0.11625764	      0.06716390	      0.09478690
      0.20679759	     -0.11551076	      0.06756874	      0.09478690
      0.20735499	     -0.11475932	      0.06797355	      0.09478690
      0.20791240	     -0.11400327	      0.06837828	      0.09478690
      0.20846980	     -0.11324259	      0.06878291	      0.09478690
      0.20902721	     -0.11247724	      0.06918742	      0.09478690
      0.20958462	     -0.11170719	      0.06959177	      0.09478690
      0.21014202	     -0.11093241	      0.06999595	      0.09478690
      0.21069943	     -0.11015288	      0.07039991	      0.09478690
      0.21125683	     -0.10936854	      0.07080364	      0.09478690
      0.21181424	     -0.10857939	      0.07120711	      0.09478690
      0.21237164	     -0.10778539	      0.07161028	      0.09478690
      0.21292905	     -0.10698650	      0.07201314	      0.09478690
      0.21348646	     -0.10618271	      0.07241566	      0.09478690
      0.21404386	     -0.10537397	      0.07281781	      0.09478690
      0.21460127	     -0.10456027	      0.07321956	      0.09478690
      0.21515867	     -0.10374157	      0.07362089	      0.09478690
      0.21571608	     -0.10291784	      0.07402177	      0.09478690
      0.21627349	     -0.10208906	      0.07442217	      0.09478690
      0.21683089	     -0.10125520	      0.07482208	      0.09478690
      0.21738830	     -0.10041624	      0.07522146	      0.09478690
      0.21794570	     -0.09957214	      0.07562028	      0.09478690
      0.21850311	     -0.09872288	      0.07601853	      0.09478690
      0.21906052	     -0.09786844	      0.07641617	      0.09478690
      0.21961792	     -0.09700880	      0.07681318	      0.09478690
      0.22017533	     -0.09614392	      0.07720953	      0.09478690
      0.22073273	     -0.09527380	      0.07760519	      0.09478690
      0.22129014	     -0.09439840	      0.07800014	      0.09478690
      0.22184754	     -0.09351770	      0.07839436	      0.09478690
      0.22240495	     -0.09263168	      0.07878781	      0.09478690
      0.22296236	     -0.09174033	      0.07918046	      0.09478690
      0.22351976	     -0.09084362	      0.07957230	      0.09478690
      0.22407717	     -0.08994153	      0.07996330	      0.09478690
      0.22463457	     -0.08903404	      0.08035342	      0.09478690
      0.22519198	     -0.08812114	      0.08074264	      0.09478690
      0.22574939	     -0.08720281	      0.08113093	      0.09478690
      0.22630679	     -0.08627903	      0.08151827	      0.09478690
      0.22686420	     -0.08534978	      0.08190462	      0.09478690
      0.22742160	     -0.08441505	      0.08228997	      0.09478690
      0.22797901	     -0.08347483	      0.08267428	      0.09478690
      0.22853642	     -0.08252909	      0.08305753	      0.09478690
      0.22909382	     -0.08157783	      0.08343968	      0.09478690
      0.22965123	     -0.08062104	      0.08382071	      0.09478690
      0.23020863	     -0.07965869	      0.08420059	      0.09478690
      0.23076604	     -0.07869079	      0.08457930	      0.09478690
      0.23132345	     -0.07771731	      0.08495680	      0.09478690
      0.23188085	     -0.07673825	      0.08533306	      0.09478690
      0.23243826	     -0.07575359	      0.08570806	      0.09478690
      0.23299566	     -0.07476334	      0.08608177	      0.09478690
      0.23355307	     -0.07376747	      0.08645416	      0.09478690
      0.23411047	     -0.07276599	      0.08682520	      0.09478690
      0.23466788	     -0.07175888	      0.08719486	      0.09478690
      0.23522529	     -0.07074614	      0.08756311	      0.09478690
      0.23578269	     -0.06972777	      0.08792993	      0.09478690
      0.23634010	     -0.06870375	      0.08829528	      0.09478690
      0.23689750	     -0.06767409	      0.08865913	      0.09478690
      0.23745491	     -0.06663877	      0.08902145	      0.09478690
      0.23801232	     -0.06559781	      0.08938222	      0.09478690
      0.23856972	     -0.06455119	      0.08974140	      0.09478690
      0.23912713	     -0.06349891	      0.09009896	      0.09478690
      0.23968453	     -0.06244098	      0.09045487	      0.09478690
      0.24024194	     -0.06137739	      0.09080911	      0.09478690
      0.24079935	     -0.06030814	      0.09116164	      0.09478690
      0.24135675	     -0.05923324	      0.09151242	      0.09478690
      0.24191416	     -0.05815268	      0.09186144	      0.09478690
      0.24247156	     -0.05706648	      0.09220865	      0.09478690
      0.24302897	     -0.05597462	      0.09255403	      0.09478690
      0.24358637	     -0.05487713	      0.09289754	      0.09478690
      0.24414378	     -0.05377399	      0.09323915	      0.09478690
      0.24470119	     -0.05266523	      0.09357884	      0.09478690
      0.24525859	     -0.05155084	      0.09391656	      0.09478690
      0.24581600	     -0.05043083	      0.09425229	      0.09478690
      0.24637340	     -0.04930520	      0.09458599	      0.09478690
      0.24693081	     -0.04817398	      0.09491762	      0.09478690
      0.24748822	     -0.04703717	      0.09524717	      0.09478690
      0.24804562	     -0.04589477	      0.09557459	      0.09478690
      0.24860303	     -0.04474680	      0.09589984	      0.09478690
      0.24916043	     -0.04359327	      0.09622291	      0.09478690
      0.24971784	     -0.04243420	      0.09654374	      0.09478690
      0.25027525	     -0.04126959	      0.09686231	      0.09478690
      0.25083265	     -0.04009947	      0.09717857	      0.09478690
      0.25139006	     -0.03892384	      0.09749249	      0.09478690
      0.25194746	     -0.03774271	      0.09780401	      0.09478690
      0.25250487	     -0.03655609	      0.09811307	      0.09478690
      0.25306227	     -0.03536400	      0.09841959	      0.09478690
      0.25361968	     -0.03416643	      0.09872350	      0.09478690
      0.25417709	     -0.03296339	      0.09902470	      0.09478690
      0.25473449	     -0.03175486	      0.09932306	      0.09478690
      0.25529190	     -0.03054085	      0.09961847	      0.09478690
      0.25584930	     -0.02932135	      0.09991078	      0.09478690
      0.25640671	     -0.02809634	      0.10019985	      0.09478690
      0.25696412	     -0.02686582	      0.10048550	      0.09478690
      0.25752152	     -0.02562975	      0.10076758	      0.09478690
      0.25807893	     -0.02438813	      0.10104589	      0.09478690
      0.25863633	     -0.02314093	      0.10132024	      0.09478690
      0.25919374	     -0.02188813	      0.10159044	      0.09478690
      0.25975115	     -0.02062972	      0.10185628	      0.09478690
      0.26030855	     -0.01936565	      0.10211754	      0.09478690
      0.26086596	     -0.01809592	      0.10237403	      0.09478690
      0.26142336	     -0.01682049	      0.10262551	      0.09478690
      0.26198077	     -0.01553934	      0.10287176	      0.09478690
      0.26253818	     -0.01425245	      0.10311256	      0.09478690
      0.26309558	     -0.01295978	      0.10334768	      0.09478690
      0.26365299	     -0.01166132	      0.10357690	      0.09478690
      0.26421039	     -0.01035705	      0.10379997	      0.09478690
      0.26476780	     -0.00904693	      0.10401668	      0.09478690
      0.26532520	     -0.00773095	      0.10422679	      0.09478690
      0.26588261	     -0.00640907	      0.10443007	      0.09478690
      0.26644002	     -0.00508129	      0.10462630	      0.09478690
      0.26699742	     -0.00374758	      0.10481524	      0.09478690
      0.26755483	     -0.00240791	      0.10499667	      0.09478690
      0.26811223	     -0.00106227	      0.10517037	      0.09478690
      0.26866964	      0.00028936	      0.10533611	      0.09478690
      0.26922705	      0.00164700	      0.10549368	      0.09478690
      0.26978445	      0.00301066	      0.10564285	      0.09478690
      0.27034186	      0.00438037	      0.10578342	      0.09478690
      0.27089926	      0.00575614	      0.10591517	      0.09478690
      0.27145667	      0.00713798	      0.10603790	      0.09478690
      0.27201408	      0.00852591	      0.10615140	      0.09478690
      0.27257148	      0.00991994	      0.10625547	      0.09478690
      0.27312889	      0.01132009	      0.10634991	      0.09478690
      0.27368629	      0.01272637	      0.10643454	      0.09478690
      0.27424370	      0.01413878	      0.10650917	      0.09478690
      0.27480110	      0.01555735	      0.10657361	      0.09478690
      0.27535851	      0.01698208	      0.10662768	      0.09478690
      0.27591592	      0.01841299	      0.10667121	      0.09478690
      0.27647332	      0.01985008	      0.10670404	      0.09478690
      0.27703073	      0.02129336	      0.10672598	      0.09478690
      0.27758813	      0.02274285	      0.10673689	      0.09478690
      0.27814554	      0.02419855	      0.10673660	      0.09478690
      0.27870295	      0.02566047	      0.10672498	      0.09478690
      0.27926035	      0.02712863	      0.10670186	      0.09478690
      0.27981776	      0.02860304	      0.10666711	      0.09478690
      0.28037516	      0.03008369	      0.10662060	      0.09478690
      0.28093257	      0.03157061	      0.10656219	      0.09478690
      0.28148998	      0.03306381	      0.10649175	      0.09478690
      0.28204738	      0.03456329	      0.10640918	      0.09478690
      0.28260479	      0.03606907	      0.10631434	      0.09478690
      0.28316219	      0.03758116	      0.10620713	      0.09478690
      0.28371960	      0.03909956	      0.10608744	      0.09478690
      0.28427700	      0.04062430	      0.10595517	      0.09478690
      0.28483441	      0.04215539	      0.10581022	      0.09478690
      0.28539182	      0.04369283	      0.10565251	      0.09478690
      0.28594922	      0.04523664	      0.10548194	      0.09478690
      0.28650663	      0.04678685	      0.10529843	      0.09478690
      0.28706403	      0.04834346	      0.10510190	      0.09478690
      0.28762144	      0.04990648	      0.10489229	      0.09478690
      0.28817885	      0.05147595	      0.10466951	      0.09478690
      0.28873625	      0.05305187	      0.10443351	      0.09478690
      0.28929366	      0.05463427	      0.10418422	      0.09478690
      0.28985106	      0.05622316	      0.10392159	      0.09478690
      0.29040847	      0.05781856	      0.10364556	      0.09478690
      0.29096588	      0.05942050	      0.10335608	      0.09478690
      0.29152328	      0.06102900	      0.10305311	      0.09478690
      0.29208069	      0.06264407	      0.10273661	      0.09478690
      0.29263809	      0.06426576	      0.10240654	      0.09478690
      0.29319550	      0.06589407	      0.10206286	      0.09478690
      0.29375290	      0.06752904	      0.10170555	      0.09478690
      0.29431031	      0.06917068	      0.10133458	      0.09478690
      0.29486772	      0.07081903	      0.10094994	      0.09478690
      0.29542512	      0.07247412	      0.10055160	      0.09478690
      0.29598253	      0.07413597	      0.10013955	      0.09478690
      0.29653993	      0.07580461	      0.09971380	      0.09478690
      0.29709734	      0.07748006	      0.09927433	      0.09478690
      0.29765475	      0.07916236	      0.09882115	      0.09478690
      0.29821215	      0.08085153	      0.09835428	      0.09478690
      0.29876956	      0.08254761	      0.09787374	      0.09478690
      0.29932696	      0.08425062	      0.09737953	      0.09478690
      0.29988437	      0.08596059	      0.09687169	      0.09478690
      0.30044178	      0.08767756	      0.09635024	      0.09478690
      0.30099918	      0.08940155	      0.09581523	      0.09478690
      0.30155659	      0.09113259	      0.09526669	      0.09478690
      0.30211399	      0.09287073	      0.09470466	      0.09478690
      0.30267140	      0.09461598	      0.09412919	      0.09478690
      0.30322881	      0.09636838	      0.09354034	      0.09478690
      0.30378621	      0.09812798	      0.09293814	      0.09478690
      0.30434362	      0.09989480	      0.09232266	      0.09478690
      0.30490102	      0.10166888	      0.09169394	      0.09478690
      0.30545843	      0.10345026	      0.09105205	      0.09478690
      0.30601583	      0.10523898	      0.09039705	      0.09478690
      0.30657324	      0.10703507	      0.08972900	      0.09478690
      0.30713065	      0.10883858	      0.08904798	      0.09478690
      0.30768805	      0.11064954	      0.08835406	      0.09478690
      0.30824546	      0.11246799	      0.08764733	      0.09478690
      0.30880286	      0.11429398	      0.08692786	      0.09478690
      0.30936027	      0.11612753	      0.08619575	      0.09478690
      0.30991768	      0.11796869	      0.08545109	      0.09478690
      0.31047508	      0.11981751	      0.08469399	      0.09478690
      0.31103249	      0.12167401	      0.08392455	      0.09478690
      0.31158989	      0.12353824	      0.08314287	      0.09478690
      0.31214730	      0.12541024	      0.08234908	      0.09478690
      0.31270471	      0.12729005	      0.08154330	      0.09478690
      0.31326211	      0.12917772	      0.08072565	      0.09478690
      0.31381952	      0.13107327	      0.07989627	      0.09478690
      0.31437692	      0.13297675	      0.07905528	      0.09478690
      0.31493433	      0.13488822	      0.07820283	      0.09478690
      0.31549173	      0.13680771	      0.07733904	      0.09478690
      0.31604914	      0.13873526	      0.07646407	      0.09478690
      0.31660655	      0.14067092	      0.07557804	      0.09478690
      0.31716395	      0.14261473	      0.07468112	      0.09478690
      0.31772136	      0.14456671	      0.07377344	      0.09478690
      0.31827876	      0.14652691	      0.07285519	      0.09478690
      0.31883617	      0.14849537	      0.07192653	      0.09478690
      0.31939358	      0.15047211	      0.07098764	      0.09478690
      0.31995098	      0.15245718	      0.07003870	      0.09478690
      0.32050839	      0.15445060	      0.06907989	      0.09478690
      0.32106579	      0.15645242	      0.06811141	      0.09478690
      0.32162320	      0.15846266	      0.06713344	      0.09478690
      0.32218061	      0.16048137	      0.06614618	      0.09478690
      0.32273801	      0.16250853	      0.06514982	      0.09478690
      0.32329542	      0.16454418	      0.06414457	      0.09478690
      0.32385282	      0.16658833	      0.06313063	      0.09478690
      0.32441023	      0.16864101	      0.06210821	      0.09478690
      0.32496763	      0.17070226	      0.06107752	      0.09478690
      0.32552504	      0.17277210	      0.06003877	      0.09478690
      0.32608245	      0.17485055	      0.05899219	      0.09478690
      0.32663985	      0.17693764	      0.05793798	      0.09478690
      0.32719726	      0.17903339	      0.05687639	      0.09478690
      0.32775466	      0.18113784	      0.05580763	      0.09478690
      0.32831207	      0.18325100	      0.05473193	      0.09478690
      0.32886948	      0.18537289	      0.05364953	      0.09478690
      0.32942688	      0.18750355	      0.05256066	      0.09478690
      0.32998429	      0.18964298	      0.05146555	      0.09478690
      0.33054169	      0.19179121	      0.05036446	      0.09478690
      0.33109910	      0.19394826	      0.04925762	      0.09478690
      0.33165651	      0.19611416	      0.04814527	      0.09478690
      0.33221391	      0.19828891	      0.04702767	      0.09478690
      0.33277132	      0.20047254	      0.04590506	      0.09478690
      0.33332872	      0.20266506	      0.04477769	      0.09478690
      0.33388613	      0.20486649	      0.04364583	      0.09478690
      0.33444354	      0.20707685	      0.04250972	      0.09478690
