PointVelocity
version=1
nRows=601
nColumns=4
inDegrees=no
No description.
endheader
time	state_0	state_1	state_2
      0.00000000	      0.97543046	     -0.14683407	      0.00000000
      0.00300474	      0.98655720	     -0.15233109	      0.00000000
      0.00600947	      0.99783199	     -0.15781929	      0.00000000
      0.00901421	      1.00939440	     -0.16332656	      0.00000000
      0.01201895	      1.02126141	     -0.16889146	      0.00000000
      0.01502368	      1.03342326	     -0.17448329	      0.00000000
      0.01802842	      1.04588880	     -0.18007563	      0.00000000
      0.02103316	      1.05854300	     -0.18557414	      0.00000000
      0.02403789	      1.07132888	     -0.19096165	      0.00000000
      0.02704263	      1.08396341	     -0.19606239	      0.00000000
      0.03004737	      1.09628261	     -0.20076004	      0.00000000
      0.03305210	      1.10762956	     -0.20456761	      0.00000000
      0.03605684	      1.11716041	     -0.20691905	      0.00000000
      0.03906158	      1.12365236	     -0.20689987	      0.00000000
      0.04206631	      1.12697647	     -0.20419069	      0.00000000
      0.04507105	      1.12924862	     -0.19978338	      0.00000000
      0.04807579	      1.12968601	     -0.19296784	      0.00000000
      0.05108052	      1.12604782	     -0.18239687	      0.00000000
      0.05408526	      1.11831364	     -0.16800384	      0.00000000
      0.05709000	      1.10725329	     -0.15043237	      0.00000000
      0.06009473	      1.09328777	     -0.13009343	      0.00000000
      0.06309947	      1.07731125	     -0.10784229	      0.00000000
      0.06610421	      1.06005510	     -0.08441410	      0.00000000
      0.06910894	      1.04219496	     -0.06053625	      0.00000000
      0.07211368	      1.02437108	     -0.03690615	      0.00000000
      0.07511842	      1.00691883	     -0.01396595	      0.00000000
      0.07812315	      0.99019577	      0.00781640	      0.00000000
      0.08112789	      0.97426052	      0.02825998	      0.00000000
      0.08413263	      0.95922417	      0.04714741	      0.00000000
      0.08713736	      0.94499774	      0.06444242	      0.00000000
      0.09014210	      0.93151117	      0.08003534	      0.00000000
      0.09314684	      0.91863803	      0.09395805	      0.00000000
      0.09615157	      0.90631065	      0.10626042	      0.00000000
      0.09915631	      0.89442766	      0.11705479	      0.00000000
      0.10216105	      0.88289653	      0.12648585	      0.00000000
      0.10516578	      0.87150461	      0.13448291	      0.00000000
      0.10817052	      0.85989095	      0.14071294	      0.00000000
      0.11117526	      0.84797278	      0.14512647	      0.00000000
      0.11417999	      0.83580204	      0.14791600	      0.00000000
      0.11718473	      0.82375297	      0.14989809	      0.00000000
      0.12018947	      0.81221047	      0.15185196	      0.00000000
      0.12319420	      0.80129358	      0.15384225	      0.00000000
      0.12619894	      0.79100971	      0.15582738	      0.00000000
      0.12920368	      0.78125084	      0.15766797	      0.00000000
      0.13220841	      0.77197677	      0.15933686	      0.00000000
      0.13521315	      0.76310375	      0.16079374	      0.00000000
      0.13821789	      0.75454696	      0.16200031	      0.00000000
      0.14122262	      0.74625103	      0.16292397	      0.00000000
      0.14422736	      0.73817650	      0.16353316	      0.00000000
      0.14723210	      0.73032148	      0.16381524	      0.00000000
      0.15023683	      0.72267856	      0.16375323	      0.00000000
      0.15324157	      0.71523409	      0.16335015	      0.00000000
      0.15624631	      0.70795685	      0.16260313	      0.00000000
      0.15925104	      0.70082077	      0.16152503	      0.00000000
      0.16225578	      0.69380859	      0.16012894	      0.00000000
      0.16526052	      0.68692099	      0.15844153	      0.00000000
      0.16826525	      0.68015600	      0.15648666	      0.00000000
      0.17126999	      0.67351784	      0.15428902	      0.00000000
      0.17427473	      0.66700672	      0.15187076	      0.00000000
      0.17727946	      0.66062462	      0.14925324	      0.00000000
      0.18028420	      0.65437457	      0.14645809	      0.00000000
      0.18328894	      0.64826012	      0.14350875	      0.00000000
      0.18629367	      0.64228622	      0.14042904	      0.00000000
      0.18929841	      0.63645213	      0.13724411	      0.00000000
      0.19230315	      0.63075654	      0.13397944	      0.00000000
      0.19530788	      0.62519115	      0.13065813	      0.00000000
      0.19831262	      0.61974892	      0.12730447	      0.00000000
      0.20131736	      0.61441981	      0.12393574	      0.00000000
      0.20432209	      0.60919476	      0.12056975	      0.00000000
      0.20732683	      0.60406470	      0.11721675	      0.00000000
      0.21033157	      0.59902011	      0.11388651	      0.00000000
      0.21333630	      0.59405435	      0.11058821	      0.00000000
      0.21634104	      0.58916095	      0.10733175	      0.00000000
      0.21934578	      0.58433716	      0.10413249	      0.00000000
      0.22235051	      0.57958039	      0.10100768	      0.00000000
      0.22535525	      0.57488845	      0.09797453	      0.00000000
      0.22835999	      0.57025862	      0.09505162	      0.00000000
      0.23136472	      0.56568559	      0.09224655	      0.00000000
      0.23436946	      0.56116338	      0.08956807	      0.00000000
      0.23737420	      0.55668451	      0.08701051	      0.00000000
      0.24037893	      0.55224143	      0.08457034	      0.00000000
      0.24338367	      0.54782713	      0.08223408	      0.00000000
      0.24638841	      0.54343430	      0.07999133	      0.00000000
      0.24939314	      0.53905608	      0.07782517	      0.00000000
      0.25239788	      0.53468376	      0.07572065	      0.00000000
      0.25540262	      0.53031042	      0.07365640	      0.00000000
      0.25840735	      0.52592650	      0.07160896	      0.00000000
      0.26141209	      0.52153044	      0.06955719	      0.00000000
      0.26441683	      0.51711897	      0.06747680	      0.00000000
      0.26742156	      0.51270232	      0.06536382	      0.00000000
      0.27042630	      0.50828937	      0.06321459	      0.00000000
      0.27343104	      0.50390094	      0.06104625	      0.00000000
      0.27643577	      0.49955824	      0.05887485	      0.00000000
      0.27944051	      0.49528370	      0.05671854	      0.00000000
      0.28244525	      0.49109323	      0.05458880	      0.00000000
      0.28544998	      0.48700868	      0.05249680	      0.00000000
      0.28845472	      0.48305955	      0.05045452	      0.00000000
      0.29145946	      0.47927768	      0.04848169	      0.00000000
      0.29446419	      0.47569623	      0.04659964	      0.00000000
      0.29746893	      0.47233292	      0.04482883	      0.00000000
      0.30047367	      0.46920972	      0.04319187	      0.00000000
      0.30347840	      0.46632125	      0.04169570	      0.00000000
      0.30648314	      0.46365390	      0.04034514	      0.00000000
      0.30948788	      0.46119374	      0.03913159	      0.00000000
      0.31249261	      0.45894525	      0.03805550	      0.00000000
      0.31549735	      0.45691274	      0.03710316	      0.00000000
      0.31850209	      0.45510410	      0.03626338	      0.00000000
      0.32150682	      0.45348441	      0.03550272	      0.00000000
      0.32451156	      0.45199781	      0.03477898	      0.00000000
      0.32751630	      0.45058334	      0.03405623	      0.00000000
      0.33052103	      0.44918948	      0.03330010	      0.00000000
      0.33352577	      0.44781606	      0.03251492	      0.00000000
      0.33653051	      0.44647803	      0.03170844	      0.00000000
      0.33953524	      0.44520172	      0.03091082	      0.00000000
      0.34253998	      0.44400247	      0.03014207	      0.00000000
      0.34554472	      0.44285842	      0.02942419	      0.00000000
      0.34854945	      0.44175015	      0.02878682	      0.00000000
      0.35155419	      0.44063616	      0.02824090	      0.00000000
      0.35455893	      0.43954182	      0.02780686	      0.00000000
      0.35756366	      0.43833760	      0.02747113	      0.00000000
      0.36056840	      0.43669146	      0.02715055	      0.00000000
      0.36357314	      0.43431416	      0.02672838	      0.00000000
      0.36657787	      0.43098184	      0.02605095	      0.00000000
      0.36958261	      0.42749969	      0.02552794	      0.00000000
      0.37258734	      0.42492943	      0.02595921	      0.00000000
      0.37559208	      0.42300416	      0.02745539	      0.00000000
      0.37859682	      0.42118349	      0.02960683	      0.00000000
      0.38160155	      0.41927312	      0.03184324	      0.00000000
      0.38460629	      0.41714101	      0.03388977	      0.00000000
      0.38761103	      0.41478358	      0.03564639	      0.00000000
      0.39061576	      0.41219770	      0.03699040	      0.00000000
      0.39362050	      0.40947083	      0.03793926	      0.00000000
      0.39662524	      0.40668643	      0.03847643	      0.00000000
      0.39962997	      0.40396116	      0.03865882	      0.00000000
      0.40263471	      0.40141518	      0.03852678	      0.00000000
      0.40563945	      0.39914077	      0.03813870	      0.00000000
      0.40864418	      0.39724223	      0.03754728	      0.00000000
      0.41164892	      0.39575388	      0.03678148	      0.00000000
      0.41465366	      0.39471248	      0.03587307	      0.00000000
      0.41765839	      0.39407966	      0.03482793	      0.00000000
      0.42066313	      0.39382911	      0.03365123	      0.00000000
      0.42366787	      0.39390325	      0.03232923	      0.00000000
      0.42667260	      0.39425171	      0.03085511	      0.00000000
      0.42967734	      0.39482444	      0.02921741	      0.00000000
      0.43268208	      0.39556747	      0.02740639	      0.00000000
      0.43568681	      0.39643848	      0.02541388	      0.00000000
      0.43869155	      0.39738808	      0.02323170	      0.00000000
      0.44169629	      0.39838413	      0.02085800	      0.00000000
      0.44470102	      0.39938501	      0.01828917	      0.00000000
      0.44770576	      0.40037092	      0.01553291	      0.00000000
      0.45071050	      0.40131265	      0.01259403	      0.00000000
      0.45371523	      0.40220896	      0.00949357	      0.00000000
      0.45671997	      0.40305170	      0.00625033	      0.00000000
      0.45972471	      0.40386452	      0.00289863	      0.00000000
      0.46272944	      0.40466967	     -0.00052855	      0.00000000
      0.46573418	      0.40551115	     -0.00399052	      0.00000000
      0.46873892	      0.40642128	     -0.00743312	      0.00000000
      0.47174365	      0.40747146	     -0.01084586	      0.00000000
      0.47474839	      0.40878727	     -0.01425840	      0.00000000
      0.47775313	      0.41042216	     -0.01767751	      0.00000000
      0.48075786	      0.41240642	     -0.02108625	      0.00000000
      0.48376260	      0.41462717	     -0.02439296	      0.00000000
      0.48676734	      0.41695189	     -0.02748344	      0.00000000
      0.48977207	      0.41926554	     -0.03028688	      0.00000000
      0.49277681	      0.42149763	     -0.03276211	      0.00000000
      0.49578155	      0.42365807	     -0.03494960	      0.00000000
      0.49878628	      0.42572461	     -0.03688084	      0.00000000
      0.50179102	      0.42772540	     -0.03859082	      0.00000000
      0.50479576	      0.42970141	     -0.04009414	      0.00000000
      0.50780049	      0.43170208	     -0.04140048	      0.00000000
      0.51080523	      0.43377327	     -0.04252207	      0.00000000
      0.51380997	      0.43592452	     -0.04348738	      0.00000000
      0.51681470	      0.43814816	     -0.04433495	      0.00000000
      0.51981944	      0.44042843	     -0.04509712	      0.00000000
      0.52282418	      0.44276956	     -0.04579561	      0.00000000
      0.52582891	      0.44518336	     -0.04644028	      0.00000000
      0.52883365	      0.44767865	     -0.04704688	      0.00000000
      0.53183839	      0.45025596	     -0.04762746	      0.00000000
      0.53484312	      0.45291468	     -0.04819622	      0.00000000
      0.53784786	      0.45564702	     -0.04876073	      0.00000000
      0.54085260	      0.45844496	     -0.04933021	      0.00000000
      0.54385733	      0.46130492	     -0.04990387	      0.00000000
      0.54686207	      0.46422468	     -0.05048219	      0.00000000
      0.54986681	      0.46721285	     -0.05105655	      0.00000000
      0.55287154	      0.47027840	     -0.05161902	      0.00000000
      0.55587628	      0.47343677	     -0.05215860	      0.00000000
      0.55888102	      0.47670261	     -0.05266514	      0.00000000
      0.56188575	      0.48009037	     -0.05313110	      0.00000000
      0.56489049	      0.48361355	     -0.05355004	      0.00000000
      0.56789523	      0.48728408	     -0.05391713	      0.00000000
      0.57089996	      0.49111507	     -0.05422426	      0.00000000
      0.57390470	      0.49511682	     -0.05446861	      0.00000000
      0.57690944	      0.49929905	     -0.05464812	      0.00000000
      0.57991417	      0.50366827	     -0.05476825	      0.00000000
      0.58291891	      0.50823130	     -0.05483274	      0.00000000
      0.58592365	      0.51299239	     -0.05485075	      0.00000000
      0.58892838	      0.51795447	     -0.05482957	      0.00000000
      0.59193312	      0.52312044	     -0.05478198	      0.00000000
      0.59493786	      0.52849183	     -0.05471969	      0.00000000
      0.59794259	      0.53407388	     -0.05466025	      0.00000000
      0.60094733	      0.53987234	     -0.05462094	      0.00000000
      0.60395207	      0.54589279	     -0.05462187	      0.00000000
      0.60695680	      0.55214083	     -0.05468301	      0.00000000
      0.60996154	      0.55861240	     -0.05482227	      0.00000000
      0.61296628	      0.56530176	     -0.05505725	      0.00000000
      0.61597101	      0.57219358	     -0.05540170	      0.00000000
      0.61897575	      0.57927153	     -0.05586965	      0.00000000
      0.62198049	      0.58652084	     -0.05647287	      0.00000000
      0.62498522	      0.59392596	     -0.05722390	      0.00000000
      0.62798996	      0.60148261	     -0.05813407	      0.00000000
      0.63099470	      0.60918429	     -0.05921514	      0.00000000
      0.63399943	      0.61703843	     -0.06047714	      0.00000000
      0.63700417	      0.62504866	     -0.06193016	      0.00000000
      0.64000891	      0.63323065	     -0.06358212	      0.00000000
      0.64301364	      0.64159559	     -0.06544079	      0.00000000
      0.64601838	      0.65016387	     -0.06751213	      0.00000000
      0.64902312	      0.65895139	     -0.06980189	      0.00000000
      0.65202785	      0.66798097	     -0.07231457	      0.00000000
      0.65503259	      0.67727128	     -0.07505445	      0.00000000
      0.65803733	      0.68684543	     -0.07802432	      0.00000000
      0.66104206	      0.69672679	     -0.08122685	      0.00000000
      0.66404680	      0.70693040	     -0.08466509	      0.00000000
      0.66705154	      0.71747211	     -0.08834117	      0.00000000
      0.67005627	      0.72836663	     -0.09224757	      0.00000000
      0.67306101	      0.73961997	     -0.09637669	      0.00000000
      0.67606575	      0.75124033	     -0.10072286	      0.00000000
      0.67907048	      0.76325166	     -0.10528538	      0.00000000
      0.68207522	      0.77565180	     -0.11004918	      0.00000000
      0.68507996	      0.78841421	     -0.11498685	      0.00000000
      0.68808469	      0.80153838	     -0.12008382	      0.00000000
      0.69108943	      0.81505883	     -0.12534233	      0.00000000
      0.69409417	      0.82901304	     -0.13076828	      0.00000000
      0.69709890	      0.84343322	     -0.13635646	      0.00000000
      0.70010364	      0.85833290	     -0.14210898	      0.00000000
      0.70310838	      0.87377442	     -0.14804671	      0.00000000
      0.70611311	      0.88966167	     -0.15415648	      0.00000000
      0.70911785	      0.90588873	     -0.16044210	      0.00000000
      0.71212259	      0.92215828	     -0.16680891	      0.00000000
      0.71512732	      0.93832319	     -0.17321972	      0.00000000
      0.71813206	      0.95414403	     -0.17951243	      0.00000000
      0.72113680	      0.96936457	     -0.18558456	      0.00000000
      0.72414153	      0.98309803	     -0.19088266	      0.00000000
      0.72714627	      0.99429437	     -0.19480834	      0.00000000
      0.73015101	      1.00227891	     -0.19665518	      0.00000000
      0.73315574	      1.00464177	     -0.19493066	      0.00000000
      0.73616048	      1.00090442	     -0.18872212	      0.00000000
      0.73916522	      0.99495395	     -0.17869035	      0.00000000
      0.74216995	      0.98726322	     -0.16505931	      0.00000000
      0.74517469	      0.97549791	     -0.14735569	      0.00000000
      0.74817943	      0.96066181	     -0.12701939	      0.00000000
      0.75118416	      0.94351065	     -0.10496920	      0.00000000
      0.75418890	      0.92484004	     -0.08200274	      0.00000000
      0.75719364	      0.90555316	     -0.05896640	      0.00000000
      0.76019837	      0.88607891	     -0.03630679	      0.00000000
      0.76320311	      0.86694828	     -0.01456346	      0.00000000
      0.76620785	      0.84823885	      0.00606954	      0.00000000
      0.76921258	      0.83012100	      0.02531719	      0.00000000
      0.77221732	      0.81251955	      0.04312288	      0.00000000
      0.77522206	      0.79541037	      0.05933303	      0.00000000
      0.77822679	      0.77874774	      0.07398862	      0.00000000
      0.78123153	      0.76256745	      0.08717862	      0.00000000
      0.78423627	      0.74695509	      0.09908642	      0.00000000
      0.78724100	      0.73194659	      0.10979439	      0.00000000
      0.79024574	      0.71754707	      0.11927460	      0.00000000
      0.79325048	      0.70380999	      0.12752290	      0.00000000
      0.79625521	      0.69077524	      0.13459306	      0.00000000
      0.79925995	      0.67846475	      0.14054309	      0.00000000
      0.80226469	      0.66685009	      0.14546645	      0.00000000
      0.80526942	      0.65591734	      0.14945035	      0.00000000
      0.80827416	      0.64561796	      0.15258511	      0.00000000
      0.81127890	      0.63590989	      0.15495943	      0.00000000
      0.81428363	      0.62672737	      0.15664375	      0.00000000
      0.81728837	      0.61800376	      0.15770982	      0.00000000
      0.82029311	      0.60967356	      0.15820648	      0.00000000
      0.82329784	      0.60166723	      0.15818592	      0.00000000
      0.82630258	      0.59394757	      0.15768554	      0.00000000
      0.82930732	      0.58647428	      0.15674603	      0.00000000
      0.83231205	      0.57925156	      0.15540329	      0.00000000
      0.83531679	      0.57228409	      0.15369649	      0.00000000
      0.83832153	      0.56559278	      0.15166283	      0.00000000
      0.84132626	      0.55918821	      0.14934043	      0.00000000
      0.84433100	      0.55307484	      0.14676257	      0.00000000
      0.84733574	      0.54726094	      0.14396421	      0.00000000
      0.85034047	      0.54174205	      0.14097285	      0.00000000
      0.85334521	      0.53651613	      0.13781813	      0.00000000
      0.85634995	      0.53156129	      0.13451945	      0.00000000
      0.85935468	      0.52685564	      0.13109726	      0.00000000
      0.86235942	      0.52236488	      0.12756254	      0.00000000
      0.86536416	      0.51805504	      0.12392721	      0.00000000
      0.86836889	      0.51389709	      0.12019981	      0.00000000
      0.87137363	      0.50986231	      0.11638976	      0.00000000
      0.87437837	      0.50593780	      0.11250894	      0.00000000
      0.87738310	      0.50210982	      0.10856949	      0.00000000
      0.88038784	      0.49837871	      0.10458686	      0.00000000
      0.88339258	      0.49474338	      0.10057636	      0.00000000
      0.88639731	      0.49120821	      0.09655342	      0.00000000
      0.88940205	      0.48777469	      0.09253280	      0.00000000
      0.89240679	      0.48444670	      0.08852718	      0.00000000
      0.89541152	      0.48122833	      0.08454994	      0.00000000
      0.89841626	      0.47812638	      0.08061188	      0.00000000
      0.90142100	      0.47514855	      0.07672483	      0.00000000
      0.90442573	      0.47230118	      0.07289653	      0.00000000
      0.90743047	      0.46959170	      0.06913590	      0.00000000
      0.91043521	      0.46701961	      0.06544587	      0.00000000
      0.91343994	      0.46458139	      0.06182904	      0.00000000
      0.91644468	      0.46227163	      0.05828431	      0.00000000
      0.91944942	      0.46008671	      0.05481147	      0.00000000
      0.92245415	      0.45803016	      0.05141127	      0.00000000
      0.92545889	      0.45610537	      0.04808439	      0.00000000
      0.92846363	      0.45432330	      0.04483452	      0.00000000
      0.93146836	      0.45269720	      0.04166580	      0.00000000
      0.93447310	      0.45123765	      0.03858359	      0.00000000
      0.93747784	      0.44995803	      0.03559386	      0.00000000
      0.94048257	      0.44885181	      0.03269873	      0.00000000
      0.94348731	      0.44791462	      0.02990076	      0.00000000
      0.94649205	      0.44711418	      0.02719557	      0.00000000
      0.94949678	      0.44642016	      0.02457905	      0.00000000
      0.95250152	      0.44578410	      0.02204266	      0.00000000
      0.95550626	      0.44515994	      0.01957802	      0.00000000
      0.95851099	      0.44450120	      0.01717827	      0.00000000
      0.96151573	      0.44376747	      0.01483779	      0.00000000
      0.96452047	      0.44291530	      0.01255344	      0.00000000
      0.96752520	      0.44187265	      0.01031331	      0.00000000
      0.97052994	      0.44061680	      0.00812273	      0.00000000
      0.97353468	      0.43914134	      0.00599578	      0.00000000
      0.97653941	      0.43749953	      0.00396485	      0.00000000
      0.97954415	      0.43575288	      0.00206172	      0.00000000
      0.98254889	      0.43392414	      0.00030431	      0.00000000
      0.98555362	      0.43200063	     -0.00129436	      0.00000000
      0.98855836	      0.42993152	     -0.00273883	      0.00000000
      0.99156310	      0.42769404	     -0.00402529	      0.00000000
      0.99456783	      0.42526698	     -0.00516751	      0.00000000
      0.99757257	      0.42260628	     -0.00620153	      0.00000000
      1.00057731	      0.41971791	     -0.00712710	      0.00000000
      1.00358204	      0.41663766	     -0.00790996	      0.00000000
      1.00658678	      0.41342794	     -0.00851006	      0.00000000
      1.00959152	      0.41012635	     -0.00891096	      0.00000000
      1.01259625	      0.40675798	     -0.00912224	      0.00000000
      1.01560099	      0.40335085	     -0.00914680	      0.00000000
      1.01860573	      0.39992976	     -0.00899853	      0.00000000
      1.02161046	      0.39652663	     -0.00868669	      0.00000000
      1.02461520	      0.39316027	     -0.00822755	      0.00000000
      1.02761994	      0.38984647	     -0.00763686	      0.00000000
      1.03062467	      0.38658537	     -0.00693560	      0.00000000
      1.03362941	      0.38338115	     -0.00614388	      0.00000000
      1.03663415	      0.38023055	     -0.00528261	      0.00000000
      1.03963888	      0.37713179	     -0.00437240	      0.00000000
      1.04264362	      0.37407985	     -0.00343190	      0.00000000
      1.04564836	      0.37106651	     -0.00248100	      0.00000000
      1.04865309	      0.36809136	     -0.00153490	      0.00000000
      1.05165783	      0.36515175	     -0.00061051	      0.00000000
      1.05466257	      0.36226721	      0.00028432	      0.00000000
      1.05766730	      0.35946978	      0.00114312	      0.00000000
      1.06067204	      0.35678177	      0.00196509	      0.00000000
      1.06367678	      0.35421013	      0.00274647	      0.00000000
      1.06668151	      0.35174357	      0.00348278	      0.00000000
      1.06968625	      0.34937847	      0.00416900	      0.00000000
      1.07269099	      0.34711124	      0.00480101	      0.00000000
      1.07569572	      0.34494107	      0.00537471	      0.00000000
      1.07870046	      0.34286486	      0.00588841	      0.00000000
      1.08170520	      0.34087763	      0.00634005	      0.00000000
      1.08470993	      0.33897169	      0.00672967	      0.00000000
      1.08771467	      0.33714053	      0.00705685	      0.00000000
      1.09071941	      0.33537779	      0.00732254	      0.00000000
      1.09372414	      0.33367686	      0.00752735	      0.00000000
      1.09672888	      0.33203237	      0.00767290	      0.00000000
      1.09973362	      0.33043869	      0.00776062	      0.00000000
      1.10273835	      0.32889224	      0.00779271	      0.00000000
      1.10574309	      0.32738893	      0.00777125	      0.00000000
      1.10874783	      0.32592719	      0.00769871	      0.00000000
      1.11175256	      0.32450496	      0.00757743	      0.00000000
      1.11475730	      0.32312278	      0.00740996	      0.00000000
      1.11776203	      0.32178049	      0.00719866	      0.00000000
      1.12076677	      0.32048066	      0.00694627	      0.00000000
      1.12377151	      0.31922634	      0.00665560	      0.00000000
      1.12677624	      0.31802127	      0.00632993	      0.00000000
      1.12978098	      0.31687034	      0.00597278	      0.00000000
      1.13278572	      0.31577315	      0.00558718	      0.00000000
      1.13579045	      0.31472770	      0.00517593	      0.00000000
      1.13879519	      0.31372733	      0.00474084	      0.00000000
      1.14179993	      0.31276650	      0.00428397	      0.00000000
      1.14480466	      0.31184007	      0.00380705	      0.00000000
      1.14780940	      0.31094351	      0.00331214	      0.00000000
      1.15081414	      0.31007372	      0.00280077	      0.00000000
      1.15381887	      0.30922653	      0.00227434	      0.00000000
      1.15682361	      0.30840028	      0.00173352	      0.00000000
      1.15982835	      0.30759378	      0.00117920	      0.00000000
      1.16283308	      0.30680788	      0.00061186	      0.00000000
      1.16583782	      0.30604301	      0.00003211	      0.00000000
      1.16884256	      0.30529938	     -0.00055977	      0.00000000
      1.17184729	      0.30457682	     -0.00116347	      0.00000000
      1.17485203	      0.30387456	     -0.00177895	      0.00000000
      1.17785677	      0.30319106	     -0.00240623	      0.00000000
      1.18086150	      0.30252656	     -0.00304521	      0.00000000
      1.18386624	      0.30188119	     -0.00369581	      0.00000000
      1.18687098	      0.30125892	     -0.00435722	      0.00000000
      1.18987571	      0.30066390	     -0.00502870	      0.00000000
      1.19288045	      0.30010231	     -0.00570864	      0.00000000
      1.19588519	      0.29957984	     -0.00639544	      0.00000000
      1.19888992	      0.29910140	     -0.00708713	      0.00000000
      1.20189466	      0.29867278	     -0.00778177	      0.00000000
      1.20489940	      0.29829593	     -0.00847772	      0.00000000
      1.20790413	      0.29797210	     -0.00917362	      0.00000000
      1.21090887	      0.29769911	     -0.00986827	      0.00000000
      1.21391361	      0.29747507	     -0.01056040	      0.00000000
      1.21691834	      0.29729881	     -0.01124809	      0.00000000
      1.21992308	      0.29717027	     -0.01192906	      0.00000000
      1.22292782	      0.29709062	     -0.01260090	      0.00000000
      1.22593255	      0.29706029	     -0.01326124	      0.00000000
      1.22893729	      0.29707998	     -0.01390878	      0.00000000
      1.23194203	      0.29715053	     -0.01454248	      0.00000000
      1.23494676	      0.29727273	     -0.01516177	      0.00000000
      1.23795150	      0.29744760	     -0.01576582	      0.00000000
      1.24095624	      0.29767509	     -0.01635339	      0.00000000
      1.24396097	      0.29795572	     -0.01692271	      0.00000000
      1.24696571	      0.29828736	     -0.01747269	      0.00000000
      1.24997045	      0.29866724	     -0.01800256	      0.00000000
      1.25297518	      0.29909127	     -0.01851286	      0.00000000
      1.25597992	      0.29955480	     -0.01900458	      0.00000000
      1.25898466	      0.30005647	     -0.01947782	      0.00000000
      1.26198939	      0.30059558	     -0.01993229	      0.00000000
      1.26499413	      0.30117557	     -0.02036557	      0.00000000
      1.26799887	      0.30180059	     -0.02077428	      0.00000000
      1.27100360	      0.30247350	     -0.02115635	      0.00000000
      1.27400834	      0.30319685	     -0.02150909	      0.00000000
      1.27701308	      0.30396750	     -0.02183610	      0.00000000
      1.28001781	      0.30478157	     -0.02214111	      0.00000000
      1.28302255	      0.30563284	     -0.02243397	      0.00000000
      1.28602729	      0.30651536	     -0.02272459	      0.00000000
      1.28903202	      0.30742696	     -0.02302284	      0.00000000
      1.29203676	      0.30836632	     -0.02333818	      0.00000000
      1.29504150	      0.30933586	     -0.02367493	      0.00000000
      1.29804623	      0.31033790	     -0.02403740	      0.00000000
      1.30105097	      0.31137384	     -0.02442540	      0.00000000
      1.30405571	      0.31244434	     -0.02483921	      0.00000000
      1.30706044	      0.31354762	     -0.02527839	      0.00000000
      1.31006518	      0.31468168	     -0.02574304	      0.00000000
      1.31306992	      0.31584483	     -0.02623491	      0.00000000
      1.31607465	      0.31703559	     -0.02675633	      0.00000000
      1.31907939	      0.31825501	     -0.02731004	      0.00000000
      1.32208413	      0.31950457	     -0.02789915	      0.00000000
      1.32508886	      0.32078674	     -0.02852389	      0.00000000
      1.32809360	      0.32210408	     -0.02918496	      0.00000000
      1.33109834	      0.32345697	     -0.02987815	      0.00000000
      1.33410307	      0.32484572	     -0.03059966	      0.00000000
      1.33710781	      0.32626761	     -0.03134209	      0.00000000
      1.34011255	      0.32771914	     -0.03209943	      0.00000000
      1.34311728	      0.32919784	     -0.03286272	      0.00000000
      1.34612202	      0.33070003	     -0.03362283	      0.00000000
      1.34912676	      0.33222969	     -0.03436936	      0.00000000
      1.35213149	      0.33379256	     -0.03509254	      0.00000000
      1.35513623	      0.33540003	     -0.03578237	      0.00000000
      1.35814097	      0.33706607	     -0.03642634	      0.00000000
      1.36114570	      0.33879352	     -0.03701768	      0.00000000
      1.36415044	      0.34057848	     -0.03755247	      0.00000000
      1.36715518	      0.34241132	     -0.03803081	      0.00000000
      1.37015991	      0.34428867	     -0.03844749	      0.00000000
      1.37316465	      0.34620821	     -0.03880279	      0.00000000
      1.37616939	      0.34816763	     -0.03910521	      0.00000000
      1.37917412	      0.35016201	     -0.03935489	      0.00000000
      1.38217886	      0.35218535	     -0.03953648	      0.00000000
      1.38518360	      0.35422619	     -0.03964297	      0.00000000
      1.38818833	      0.35627248	     -0.03968367	      0.00000000
      1.39119307	      0.35831928	     -0.03967135	      0.00000000
      1.39419781	      0.36036335	     -0.03960632	      0.00000000
      1.39720254	      0.36240275	     -0.03948678	      0.00000000
      1.40020728	      0.36443249	     -0.03931770	      0.00000000
      1.40321202	      0.36645211	     -0.03910333	      0.00000000
      1.40621675	      0.36846259	     -0.03884500	      0.00000000
      1.40922149	      0.37046607	     -0.03854067	      0.00000000
      1.41222623	      0.37246310	     -0.03818985	      0.00000000
      1.41523096	      0.37445373	     -0.03779056	      0.00000000
      1.41823570	      0.37643764	     -0.03734032	      0.00000000
      1.42124044	      0.37841536	     -0.03683677	      0.00000000
      1.42424517	      0.38038813	     -0.03627772	      0.00000000
      1.42724991	      0.38235788	     -0.03566263	      0.00000000
      1.43025465	      0.38432582	     -0.03499062	      0.00000000
      1.43325938	      0.38629292	     -0.03426280	      0.00000000
      1.43626412	      0.38826050	     -0.03347979	      0.00000000
      1.43926886	      0.39022959	     -0.03264417	      0.00000000
      1.44227359	      0.39220153	     -0.03175824	      0.00000000
      1.44527833	      0.39417608	     -0.03082581	      0.00000000
      1.44828307	      0.39615269	     -0.02985056	      0.00000000
      1.45128780	      0.39812995	     -0.02883670	      0.00000000
      1.45429254	      0.40010634	     -0.02778877	      0.00000000
      1.45729728	      0.40208179	     -0.02671016	      0.00000000
      1.46030201	      0.40405427	     -0.02560498	      0.00000000
      1.46330675	      0.40602929	     -0.02447373	      0.00000000
      1.46631149	      0.40801772	     -0.02331548	      0.00000000
      1.46931622	      0.41002991	     -0.02212849	      0.00000000
      1.47232096	      0.41207935	     -0.02091054	      0.00000000
      1.47532570	      0.41415552	     -0.01966636	      0.00000000
      1.47833043	      0.41623225	     -0.01840614	      0.00000000
      1.48133517	      0.41829038	     -0.01713666	      0.00000000
      1.48433991	      0.42033102	     -0.01585717	      0.00000000
      1.48734464	      0.42236390	     -0.01456367	      0.00000000
      1.49034938	      0.42438708	     -0.01325688	      0.00000000
      1.49335412	      0.42639372	     -0.01194006	      0.00000000
      1.49635885	      0.42837931	     -0.01061515	      0.00000000
      1.49936359	      0.43034011	     -0.00928455	      0.00000000
      1.50236833	      0.43227155	     -0.00795076	      0.00000000
      1.50537306	      0.43417216	     -0.00661612	      0.00000000
      1.50837780	      0.43604030	     -0.00528278	      0.00000000
      1.51138254	      0.43787781	     -0.00395242	      0.00000000
      1.51438727	      0.43968586	     -0.00262664	      0.00000000
      1.51739201	      0.44146758	     -0.00130716	      0.00000000
      1.52039675	      0.44322513	      0.00000415	      0.00000000
      1.52340148	      0.44496218	      0.00130517	      0.00000000
      1.52640622	      0.44668237	      0.00259406	      0.00000000
      1.52941096	      0.44839038	      0.00386846	      0.00000000
      1.53241569	      0.45009081	      0.00512629	      0.00000000
      1.53542043	      0.45178794	      0.00636413	      0.00000000
      1.53842517	      0.45348582	      0.00757875	      0.00000000
      1.54142990	      0.45518768	      0.00876525	      0.00000000
      1.54443464	      0.45689658	      0.00991888	      0.00000000
      1.54743938	      0.45861544	      0.01103375	      0.00000000
      1.55044411	      0.46034689	      0.01210397	      0.00000000
      1.55344885	      0.46209493	      0.01312385	      0.00000000
      1.55645359	      0.46386478	      0.01408867	      0.00000000
      1.55945832	      0.46566077	      0.01499287	      0.00000000
      1.56246306	      0.46748576	      0.01582984	      0.00000000
      1.56546780	      0.46934174	      0.01659258	      0.00000000
      1.56847253	      0.47123070	      0.01727372	      0.00000000
      1.57147727	      0.47315710	      0.01786878	      0.00000000
      1.57448201	      0.47512570	      0.01837280	      0.00000000
      1.57748674	      0.47714420	      0.01878569	      0.00000000
      1.58049148	      0.47922002	      0.01910616	      0.00000000
      1.58349622	      0.48136198	      0.01933848	      0.00000000
      1.58650095	      0.48357944	      0.01948628	      0.00000000
      1.58950569	      0.48588028	      0.01955764	      0.00000000
      1.59251043	      0.48827259	      0.01956027	      0.00000000
      1.59551516	      0.49076090	      0.01950288	      0.00000000
      1.59851990	      0.49334936	      0.01939355	      0.00000000
      1.60152464	      0.49604097	      0.01923862	      0.00000000
      1.60452937	      0.49883998	      0.01904486	      0.00000000
      1.60753411	      0.50175139	      0.01881612	      0.00000000
      1.61053885	      0.50478275	      0.01855887	      0.00000000
      1.61354358	      0.50793661	      0.01827218	      0.00000000
      1.61654832	      0.51121328	      0.01795331	      0.00000000
      1.61955306	      0.51460880	      0.01759443	      0.00000000
      1.62255779	      0.51812079	      0.01718940	      0.00000000
      1.62556253	      0.52174790	      0.01673318	      0.00000000
      1.62856727	      0.52548888	      0.01622119	      0.00000000
      1.63157200	      0.52934481	      0.01565081	      0.00000000
      1.63457674	      0.53331633	      0.01501907	      0.00000000
      1.63758148	      0.53740628	      0.01432389	      0.00000000
      1.64058621	      0.54161725	      0.01356225	      0.00000000
      1.64359095	      0.54595319	      0.01273286	      0.00000000
      1.64659569	      0.55041808	      0.01183494	      0.00000000
      1.64960042	      0.55501545	      0.01086905	      0.00000000
      1.65260516	      0.55974851	      0.00983510	      0.00000000
      1.65560990	      0.56461937	      0.00873320	      0.00000000
      1.65861463	      0.56963031	      0.00756342	      0.00000000
      1.66161937	      0.57478302	      0.00632588	      0.00000000
      1.66462411	      0.58007931	      0.00502070	      0.00000000
      1.66762884	      0.58552053	      0.00364785	      0.00000000
      1.67063358	      0.59110806	      0.00220730	      0.00000000
      1.67363832	      0.59684281	      0.00069868	      0.00000000
      1.67664305	      0.60272560	     -0.00087839	      0.00000000
      1.67964779	      0.60875699	     -0.00252450	      0.00000000
      1.68265253	      0.61493743	     -0.00424023	      0.00000000
      1.68565726	      0.62126747	     -0.00602603	      0.00000000
      1.68866200	      0.62774751	     -0.00788229	      0.00000000
      1.69166674	      0.63437829	     -0.00980907	      0.00000000
      1.69467147	      0.64116051	     -0.01180630	      0.00000000
      1.69767621	      0.64809491	     -0.01387405	      0.00000000
      1.70068095	      0.65518226	     -0.01601218	      0.00000000
      1.70368568	      0.66242247	     -0.01822172	      0.00000000
      1.70669042	      0.66981580	     -0.02050320	      0.00000000
      1.70969516	      0.67736014	     -0.02285958	      0.00000000
      1.71269989	      0.68505353	     -0.02529362	      0.00000000
      1.71570463	      0.69289114	     -0.02781064	      0.00000000
      1.71870937	      0.70086754	     -0.03041662	      0.00000000
      1.72171410	      0.70897745	     -0.03311702	      0.00000000
      1.72471884	      0.71721274	     -0.03592011	      0.00000000
      1.72772358	      0.72557619	     -0.03882351	      0.00000000
      1.73072831	      0.73407512	     -0.04181966	      0.00000000
      1.73373305	      0.74272304	     -0.04489796	      0.00000000
      1.73673779	      0.75153030	     -0.04805107	      0.00000000
      1.73974252	      0.76050176	     -0.05127971	      0.00000000
      1.74274726	      0.76964207	     -0.05458398	      0.00000000
      1.74575200	      0.77894923	     -0.05797080	      0.00000000
      1.74875673	      0.78842308	     -0.06144493	      0.00000000
      1.75176147	      0.79805703	     -0.06501613	      0.00000000
      1.75476621	      0.80784602	     -0.06869351	      0.00000000
      1.75777094	      0.81777748	     -0.07248957	      0.00000000
      1.76077568	      0.82783993	     -0.07641687	      0.00000000
      1.76378042	      0.83801555	     -0.08048758	      0.00000000
      1.76678515	      0.84828683	     -0.08471448	      0.00000000
      1.76978989	      0.85863588	     -0.08910550	      0.00000000
      1.77279463	      0.86904476	     -0.09367037	      0.00000000
      1.77579936	      0.87950271	     -0.09840976	      0.00000000
      1.77880410	      0.88999782	     -0.10332763	      0.00000000
      1.78180884	      0.90052891	     -0.10841391	      0.00000000
      1.78481357	      0.91109239	     -0.11366190	      0.00000000
      1.78781831	      0.92169415	     -0.11904574	      0.00000000
      1.79082305	      0.93233211	     -0.12454085	      0.00000000
      1.79382778	      0.94301894	     -0.13010689	      0.00000000
      1.79683252	      0.95374979	     -0.13570165	      0.00000000
      1.79983726	      0.96456546	     -0.14128598	      0.00000000
      1.80284199	      0.97545455	     -0.14683795	      0.00000000
