PointAcceleration
version=1
nRows=601
nColumns=4
inDegrees=no
No description.
endheader
time	state_0	state_1	state_2
      0.00000000	     -1.65779309	     -8.14284499	      0.00000000
      0.00112008	     -1.68694232	     -8.16532391	      0.00000000
      0.00224016	     -1.72092449	     -8.18823202	      0.00000000
      0.00336024	     -1.76155451	     -8.21022795	      0.00000000
      0.00448032	     -1.80818978	     -8.23089799	      0.00000000
      0.00560040	     -1.86061752	     -8.24958465	      0.00000000
      0.00672048	     -1.91812306	     -8.26584067	      0.00000000
      0.00784056	     -1.96065756	     -8.26685430	      0.00000000
      0.00896064	     -2.02562222	     -8.27726671	      0.00000000
      0.01008072	     -2.09303079	     -8.28435154	      0.00000000
      0.01120080	     -2.16237701	     -8.28798644	      0.00000000
      0.01232088	     -2.23340724	     -8.28820449	      0.00000000
      0.01344096	     -2.30619502	     -8.28506512	      0.00000000
      0.01456104	     -2.38106272	     -8.27872440	      0.00000000
      0.01568112	     -2.45840307	     -8.26939952	      0.00000000
      0.01680120	     -2.53877440	     -8.25725043	      0.00000000
      0.01792128	     -2.62267890	     -8.24257945	      0.00000000
      0.01904136	     -2.71105312	     -8.22520804	      0.00000000
      0.02016144	     -2.80519102	     -8.20471463	      0.00000000
      0.02128152	     -2.90765083	     -8.18015607	      0.00000000
      0.02240160	     -3.02235474	     -8.15002354	      0.00000000
      0.02352168	     -3.15639134	     -8.11245795	      0.00000000
      0.02464176	     -3.32019336	     -8.06448768	      0.00000000
      0.02576184	     -3.53076875	     -8.00114825	      0.00000000
      0.02688192	     -3.81052992	     -7.91519269	      0.00000000
      0.02800200	     -4.18783294	     -7.79519363	      0.00000000
      0.02912208	     -4.69110845	     -7.62898200	      0.00000000
      0.03024216	     -5.33469227	     -7.40748645	      0.00000000
      0.03136224	     -6.11526623	     -7.13210631	      0.00000000
      0.03248232	     -7.01450311	     -6.81194443	      0.00000000
      0.03360240	     -8.05563458	     -6.42986266	      0.00000000
      0.03472248	     -9.32067806	     -5.87196432	      0.00000000
      0.03584256	    -10.83364159	     -5.11573186	      0.00000000
      0.03696264	    -12.44421374	     -4.24144640	      0.00000000
      0.03808272	    -13.84202771	     -3.35073630	      0.00000000
      0.03920280	    -14.83060035	     -2.52083457	      0.00000000
      0.04032288	    -15.38099716	     -1.78873822	      0.00000000
      0.04144296	    -15.61102908	     -1.15248408	      0.00000000
      0.04256304	    -12.89956355	     -1.37081406	      0.00000000
      0.04368312	    -13.23537523	     -0.53480322	      0.00000000
      0.04480320	    -13.86842256	      0.33983383	      0.00000000
      0.04592328	    -14.65292979	      1.23517234	      0.00000000
      0.04704336	    -15.54659740	      2.14396815	      0.00000000
      0.04816344	    -16.39144414	      3.00588090	      0.00000000
      0.04928352	    -17.21066490	      3.83056394	      0.00000000
      0.05040360	    -17.94020930	      4.58801169	      0.00000000
      0.05152368	    -18.58881128	      5.27885213	      0.00000000
      0.05264376	    -19.13743012	      5.89102891	      0.00000000
      0.05376384	    -19.59031399	      6.42378102	      0.00000000
      0.05488392	    -19.94496465	      6.87379012	      0.00000000
      0.05600400	    -20.20682431	      7.24267265	      0.00000000
      0.05712408	    -20.37993397	      7.53205450	      0.00000000
      0.05824416	    -20.47167574	      7.74634572	      0.00000000
      0.05936424	    -20.48881091	      7.89010009	      0.00000000
      0.06048432	    -20.43982715	      7.96966606	      0.00000000
      0.06160440	    -20.33230501	      7.99107571	      0.00000000
      0.06272448	    -20.17474444	      7.96151973	      0.00000000
      0.06384456	    -19.97424022	      7.88740550	      0.00000000
      0.06496464	    -19.73853583	      7.77574740	      0.00000000
      0.06608472	    -19.47384636	      7.63246228	      0.00000000
      0.06720480	    -19.18662956	      7.46373558	      0.00000000
      0.06832488	    -18.88187637	      7.27461317	      0.00000000
      0.06944496	    -18.56461126	      7.07014722	      0.00000000
      0.07056504	    -18.23858589	      6.85434476	      0.00000000
      0.07168513	    -17.90745721	      6.63106035	      0.00000000
      0.07280521	    -17.57387030	      6.40327624	      0.00000000
      0.07392529	    -17.24029928	      6.17373674	      0.00000000
      0.07504537	    -16.90851793	      5.94453945	      0.00000000
      0.07616545	    -16.58007875	      5.71750534	      0.00000000
      0.07728553	    -16.25609848	      5.49401842	      0.00000000
      0.07840561	    -15.93745882	      5.27518708	      0.00000000
      0.07952569	    -15.62477237	      5.06183961	      0.00000000
      0.08064577	    -15.31843528	      4.85455471	      0.00000000
      0.08176585	    -15.01874581	      4.65379190	      0.00000000
      0.08288593	    -14.72579985	      4.45979039	      0.00000000
      0.08400601	    -14.43967096	      4.27275374	      0.00000000
      0.08512609	    -14.16026108	      4.09270291	      0.00000000
      0.08624617	    -13.88747064	      3.91965143	      0.00000000
      0.08736625	    -13.62106240	      3.75346609	      0.00000000
      0.08848633	    -13.36082348	      3.59402385	      0.00000000
      0.08960641	    -13.10643048	      3.44108589	      0.00000000
      0.09072649	    -12.85756411	      3.29440331	      0.00000000
      0.09184657	    -12.61383000	      3.15364276	      0.00000000
      0.09296665	    -12.37485187	      3.01846400	      0.00000000
      0.09408673	    -12.14020001	      2.88846010	      0.00000000
      0.09520681	    -11.90948171	      2.76321139	      0.00000000
      0.09632689	    -11.68225719	      2.64225280	      0.00000000
      0.09744697	    -11.45808409	      2.52510175	      0.00000000
      0.09856705	    -11.23651215	      2.41124024	      0.00000000
      0.09968713	    -11.01713774	      2.30018166	      0.00000000
      0.10080721	    -10.79955570	      2.19141166	      0.00000000
      0.10192729	    -10.58341613	      2.08447293	      0.00000000
      0.10304737	    -10.36837845	      1.97889022	      0.00000000
      0.10416745	    -10.15416102	      1.87425406	      0.00000000
      0.10528753	     -9.94049821	      1.77013224	      0.00000000
      0.10640761	     -9.72722103	      1.66620704	      0.00000000
      0.10752769	     -9.51418060	      1.56216901	      0.00000000
      0.10864777	     -9.30128958	      1.45781268	      0.00000000
      0.10976785	     -9.08849409	      1.35295315	      0.00000000
      0.11088793	     -8.87578239	      1.24745969	      0.00000000
      0.11200801	     -8.66316666	      1.14119235	      0.00000000
      0.11312809	     -8.45073143	      1.03406145	      0.00000000
      0.11424817	     -8.23716340	      0.92547031	      0.00000000
      0.11536825	     -8.02569148	      0.81637017	      0.00000000
      0.11648833	     -7.81478750	      0.70623375	      0.00000000
      0.11760841	     -7.60465588	      0.59510245	      0.00000000
      0.11872849	     -7.39550888	      0.48304036	      0.00000000
      0.11984857	     -7.18755591	      0.37010016	      0.00000000
      0.12096865	     -6.98102009	      0.25635001	      0.00000000
      0.12208873	     -6.77612490	      0.14185783	      0.00000000
      0.12320881	     -6.57310131	      0.02671659	      0.00000000
      0.12432889	     -6.37216948	     -0.08897076	      0.00000000
      0.12544897	     -6.17355664	     -0.20507533	      0.00000000
      0.12656905	     -5.97746860	     -0.32146372	      0.00000000
      0.12768913	     -5.78411597	     -0.43797781	      0.00000000
      0.12880921	     -5.59368929	     -0.55445866	      0.00000000
      0.12992929	     -5.40637443	     -0.67072738	      0.00000000
      0.13104937	     -5.22235258	     -0.78659688	      0.00000000
      0.13216945	     -5.04178189	     -0.90187110	      0.00000000
      0.13328953	     -4.86485765	     -1.01631814	      0.00000000
      0.13440961	     -4.69172830	     -1.12971352	      0.00000000
      0.13552969	     -4.52265706	     -1.24174561	      0.00000000
      0.13664977	     -4.35790040	     -1.35209573	      0.00000000
      0.13776985	     -4.19767793	     -1.46042396	      0.00000000
      0.13888993	     -4.04213834	     -1.56643002	      0.00000000
      0.14001001	     -3.89132827	     -1.66985815	      0.00000000
      0.14113009	     -3.74524448	     -1.77050139	      0.00000000
      0.14225017	     -3.60381240	     -1.86821423	      0.00000000
      0.14337025	     -3.46693988	     -1.96288404	      0.00000000
      0.14449033	     -3.33449865	     -2.05443179	      0.00000000
      0.14561041	     -3.20638621	     -2.14271625	      0.00000000
      0.14673049	     -3.08250115	     -2.22747434	      0.00000000
      0.14785057	     -2.96286278	     -2.30806059	      0.00000000
      0.14897065	     -2.84752892	     -2.38333669	      0.00000000
      0.15009073	     -2.73669271	     -2.45144250	      0.00000000
      0.15121081	     -2.63049533	     -2.51014783	      0.00000000
      0.15233089	     -2.52879501	     -2.55768153	      0.00000000
      0.15345097	     -2.43114433	     -2.59381275	      0.00000000
      0.15457105	     -2.33658268	     -2.62053978	      0.00000000
      0.15569113	     -2.24423378	     -2.64120082	      0.00000000
      0.15681121	     -2.15340598	     -2.65914723	      0.00000000
      0.15793129	     -2.06377778	     -2.67673565	      0.00000000
      0.15905137	     -1.97532904	     -2.69514855	      0.00000000
      0.16017145	     -1.88809352	     -2.71482101	      0.00000000
      0.16129153	     -1.80219893	     -2.73574476	      0.00000000
      0.16241161	     -1.71771011	     -2.75779041	      0.00000000
      0.16353169	     -1.63470607	     -2.78078579	      0.00000000
      0.16465177	     -1.55322868	     -2.80459206	      0.00000000
      0.16577185	     -1.47331584	     -2.82909907	      0.00000000
      0.16689193	     -1.39499546	     -2.85422944	      0.00000000
      0.16801201	     -1.31828056	     -2.87992559	      0.00000000
      0.16913209	     -1.24319205	     -2.90614995	      0.00000000
      0.17025217	     -1.16974945	     -2.93287776	      0.00000000
      0.17137225	     -1.09797400	     -2.96009348	      0.00000000
      0.17249233	     -1.02788299	     -2.98778682	      0.00000000
      0.17361241	     -0.95949350	     -3.01595053	      0.00000000
      0.17473249	     -0.89281950	     -3.04458031	      0.00000000
      0.17585257	     -0.82787212	     -3.07367052	      0.00000000
      0.17697265	     -0.76466013	     -3.10321793	      0.00000000
      0.17809273	     -0.70318645	     -3.13321466	      0.00000000
      0.17921281	     -0.64345263	     -3.16365538	      0.00000000
      0.18033289	     -0.58545326	     -3.19452886	      0.00000000
      0.18145297	     -0.52918238	     -3.22582661	      0.00000000
      0.18257305	     -0.47462831	     -3.25753521	      0.00000000
      0.18369313	     -0.42177920	     -3.28964401	      0.00000000
      0.18481321	     -0.37062087	     -3.32213957	      0.00000000
      0.18593329	     -0.32113919	     -3.35501135	      0.00000000
      0.18705337	     -0.27331654	     -3.38824611	      0.00000000
      0.18817345	     -0.22713604	     -3.42183357	      0.00000000
      0.18929353	     -0.18257437	     -3.45575890	      0.00000000
      0.19041361	     -0.13960941	     -3.49001007	      0.00000000
      0.19153369	     -0.09821218	     -3.52456917	      0.00000000
      0.19265377	     -0.05835489	     -3.55942091	      0.00000000
      0.19377385	     -0.02000203	     -3.59454404	      0.00000000
      0.19489393	      0.01688008	     -3.62991981	      0.00000000
      0.19601401	      0.05233279	     -3.66552458	      0.00000000
      0.19713409	      0.08639541	     -3.70133686	      0.00000000
      0.19825417	      0.11911417	     -3.73733161	      0.00000000
      0.19937425	      0.15053393	     -3.77348505	      0.00000000
      0.20049433	      0.18069989	     -3.80977313	      0.00000000
      0.20161441	      0.20965677	     -3.84617220	      0.00000000
      0.20273449	      0.23744518	     -3.88266157	      0.00000000
      0.20385457	      0.26410566	     -3.91922036	      0.00000000
      0.20497465	      0.28967143	     -3.95583319	      0.00000000
      0.20609473	      0.31417607	     -3.99248435	      0.00000000
      0.20721481	      0.33764511	     -4.02916403	      0.00000000
      0.20833489	      0.36010465	     -4.06586228	      0.00000000
      0.20945497	      0.38157530	     -4.10257255	      0.00000000
      0.21057505	      0.40207801	     -4.13928860	      0.00000000
      0.21169513	      0.42163334	     -4.17600325	      0.00000000
      0.21281521	      0.44026150	     -4.21271017	      0.00000000
      0.21393530	      0.45798764	     -4.24939801	      0.00000000
      0.21505538	      0.47483587	     -4.28605650	      0.00000000
      0.21617546	      0.49083617	     -4.32266946	      0.00000000
      0.21729554	      0.50601724	     -4.35922157	      0.00000000
      0.21841562	      0.52041208	     -4.39569389	      0.00000000
      0.21953570	      0.53405239	     -4.43206772	      0.00000000
      0.22065578	      0.54697182	     -4.46832486	      0.00000000
      0.22177586	      0.55920319	     -4.50444640	      0.00000000
      0.22289594	      0.57077894	     -4.54041864	      0.00000000
      0.22401602	      0.58173163	     -4.57622633	      0.00000000
      0.22513610	      0.59209140	     -4.61186349	      0.00000000
      0.22625618	      0.60188961	     -4.64732235	      0.00000000
      0.22737626	      0.61115196	     -4.68260632	      0.00000000
      0.22849634	      0.61990605	     -4.71771762	      0.00000000
      0.22961642	      0.62816960	     -4.75266597	      0.00000000
      0.23073650	      0.63596159	     -4.78746111	      0.00000000
      0.23185658	      0.64329063	     -4.82210841	      0.00000000
      0.23297666	      0.65016495	     -4.85661511	      0.00000000
      0.23409674	      0.65659107	     -4.89097350	      0.00000000
      0.23521682	      0.66257491	     -4.92518013	      0.00000000
      0.23633690	      0.66813319	     -4.95922153	      0.00000000
      0.23745698	      0.67328310	     -4.99308901	      0.00000000
      0.23857706	      0.67805581	     -5.02677761	      0.00000000
      0.23969714	      0.68248337	     -5.06028242	      0.00000000
      0.24081722	      0.68660235	     -5.09360925	      0.00000000
      0.24193730	      0.69044964	     -5.12676039	      0.00000000
      0.24305738	      0.69405493	     -5.15974460	      0.00000000
      0.24417746	      0.69744740	     -5.19256983	      0.00000000
      0.24529754	      0.70064733	     -5.22524011	      0.00000000
      0.24641762	      0.70367534	     -5.25776183	      0.00000000
      0.24753770	      0.70655063	     -5.29013560	      0.00000000
      0.24865778	      0.70929412	     -5.32236559	      0.00000000
      0.24977786	      0.71193050	     -5.35445728	      0.00000000
      0.25089794	      0.71448584	     -5.38641807	      0.00000000
      0.25201802	      0.71698909	     -5.41825962	      0.00000000
      0.25313810	      0.71946971	     -5.44999416	      0.00000000
      0.25425818	      0.72195734	     -5.48163415	      0.00000000
      0.25537826	      0.72448202	     -5.51319304	      0.00000000
      0.25649834	      0.72707227	     -5.54468011	      0.00000000
      0.25761842	      0.72975703	     -5.57610632	      0.00000000
      0.25873850	      0.73256349	     -5.60747678	      0.00000000
      0.25985858	      0.73551905	     -5.63879850	      0.00000000
      0.26097866	      0.73865042	     -5.67007385	      0.00000000
      0.26209874	      0.74198431	     -5.70130680	      0.00000000
      0.26321882	      0.74554807	     -5.73250129	      0.00000000
      0.26433890	      0.74936903	     -5.76366198	      0.00000000
      0.26545898	      0.75347538	     -5.79479941	      0.00000000
      0.26657906	      0.75789564	     -5.82592409	      0.00000000
      0.26769914	      0.76265790	     -5.85705511	      0.00000000
      0.26881922	      0.76779121	     -5.88821154	      0.00000000
      0.26993930	      0.77332111	     -5.91941916	      0.00000000
      0.27105938	      0.77927427	     -5.95070418	      0.00000000
      0.27217946	      0.78567027	     -5.98209577	      0.00000000
      0.27329954	      0.79252912	     -6.01362371	      0.00000000
      0.27441962	      0.79986348	     -6.04531983	      0.00000000
      0.27553970	      0.80768613	     -6.07721676	      0.00000000
      0.27665978	      0.81600704	     -6.10935260	      0.00000000
      0.27777986	      0.82483767	     -6.14176708	      0.00000000
      0.27889994	      0.83418917	     -6.17450912	      0.00000000
      0.28002002	      0.84407437	     -6.20762956	      0.00000000
      0.28114010	      0.85450153	     -6.24118869	      0.00000000
      0.28226018	      0.86547791	     -6.27524798	      0.00000000
      0.28338026	      0.87700624	     -6.30987895	      0.00000000
      0.28450034	      0.88911049	     -6.34516837	      0.00000000
      0.28562042	      0.89603783	     -6.38104669	      0.00000000
      0.28674050	      0.90862196	     -6.41834841	      0.00000000
      0.28786058	      0.92175797	     -6.45658480	      0.00000000
      0.28898066	      0.93542574	     -6.49584411	      0.00000000
      0.29010074	      0.94962687	     -6.53621431	      0.00000000
      0.29122082	      0.96434314	     -6.57777663	      0.00000000
      0.29234090	      0.97958795	     -6.62061029	      0.00000000
      0.29346098	      0.99538008	     -6.66480461	      0.00000000
      0.29458106	      1.01173676	     -6.71042909	      0.00000000
      0.29570114	      1.02865734	     -6.75754792	      0.00000000
      0.29682122	      1.04613692	     -6.80620685	      0.00000000
      0.29794130	      1.06417855	     -6.85645820	      0.00000000
      0.29906138	      1.08280269	     -6.90834693	      0.00000000
      0.30018146	      1.10202521	     -6.96192445	      0.00000000
      0.30130154	      1.12186469	     -7.01723542	      0.00000000
      0.30242162	      1.14233653	     -7.07432449	      0.00000000
      0.30354170	      1.16345510	     -7.13322490	      0.00000000
      0.30466178	      1.18523775	     -7.19397483	      0.00000000
      0.30578186	      1.20769666	     -7.25659249	      0.00000000
      0.30690194	      1.23084286	     -7.32109986	      0.00000000
      0.30802202	      1.25467614	     -7.38748422	      0.00000000
      0.30914210	      1.27919268	     -7.45573499	      0.00000000
      0.31026218	      1.30437625	     -7.52580370	      0.00000000
      0.31138226	      1.33019056	     -7.59764605	      0.00000000
      0.31250234	      1.35659376	     -7.67119094	      0.00000000
      0.31362242	      1.38355321	     -7.74636253	      0.00000000
      0.31474250	      1.41097279	     -7.82308483	      0.00000000
      0.31586258	      1.43874342	     -7.90127292	      0.00000000
      0.31698266	      1.46666593	     -7.98086245	      0.00000000
      0.31810274	      1.49454305	     -8.06176276	      0.00000000
      0.31922282	      1.52211679	     -8.14390769	      0.00000000
      0.32034290	      1.54912689	     -8.22720035	      0.00000000
      0.32146298	      1.57523101	     -8.31158150	      0.00000000
      0.32258306	      1.60006948	     -8.39695795	      0.00000000
      0.32370314	      1.62318564	     -8.48324887	      0.00000000
      0.32482322	      1.64410181	     -8.57033970	      0.00000000
      0.32594330	      1.66220927	     -8.65802759	      0.00000000
      0.32706338	      1.67683372	     -8.74605644	      0.00000000
      0.32818346	      1.68707068	     -8.83389756	      0.00000000
      0.32930354	      1.69181404	     -8.92087117	      0.00000000
      0.33042362	      1.68962250	     -9.00588393	      0.00000000
      0.33154370	      1.67867770	     -9.08754738	      0.00000000
      0.33266378	      1.65650563	     -9.16396877	      0.00000000
      0.33378386	      1.62040815	     -9.23285555	      0.00000000
      0.33490394	      1.56779676	     -9.29189047	      0.00000000
      0.33602402	      1.49514150	     -9.33818306	      0.00000000
      0.33714410	      1.39907163	     -9.36885063	      0.00000000
      0.33826418	      1.27670949	     -9.38101514	      0.00000000
      0.33938426	      1.12658262	     -9.37234391	      0.00000000
      0.34050434	      0.94951007	     -9.34169667	      0.00000000
      0.34162442	      0.74923616	     -9.28949353	      0.00000000
      0.34274450	      0.53257653	     -9.21838724	      0.00000000
      0.34386458	      0.30837832	     -9.13261329	      0.00000000
      0.34498466	      0.08545135	     -9.03719100	      0.00000000
      0.34610474	     -0.13020679	     -8.93588365	      0.00000000
      0.34722482	     -0.33808911	     -8.82925213	      0.00000000
      0.34834490	     -0.54362304	     -8.71351279	      0.00000000
      0.34946498	     -0.75683745	     -8.58063580	      0.00000000
      0.35058506	     -0.98894015	     -8.42067322	      0.00000000
      0.35170514	     -1.24878434	     -8.22421250	      0.00000000
      0.35282522	     -1.54070586	     -7.98449584	      0.00000000
      0.35394530	     -1.86441602	     -7.69800016	      0.00000000
      0.35506538	     -2.21694519	     -7.36320960	      0.00000000
      0.35618546	     -2.59436022	     -6.97919292	      0.00000000
      0.35730555	     -2.99353618	     -6.54467157	      0.00000000
      0.35842563	     -3.41243163	     -6.05722967	      0.00000000
      0.35954571	     -3.85008805	     -5.51351870	      0.00000000
      0.36066579	     -4.30562469	     -4.90909616	      0.00000000
      0.36178587	     -4.77717964	     -4.24002735	      0.00000000
      0.36290595	     -5.26010648	     -3.50447808	      0.00000000
      0.36402603	     -5.74670124	     -2.70370893	      0.00000000
      0.36514611	     -6.22390640	     -1.84598685	      0.00000000
      0.36626619	     -6.67846699	     -0.94011807	      0.00000000
      0.36738627	     -7.08919032	      0.00350082	      0.00000000
      0.36850635	     -7.46497158	      1.02796271	      0.00000000
      0.36962643	     -7.73716023	      2.04465919	      0.00000000
      0.37074651	     -7.89757276	      3.01113552	      0.00000000
      0.37186659	     -5.32777922	      1.27521185	      0.00000000
      0.37298667	     -5.88668501	      2.71991489	      0.00000000
      0.37410675	     -6.35621041	      4.10906896	      0.00000000
      0.37522683	     -6.72429978	      5.41669548	      0.00000000
      0.37634691	     -7.17661452	      6.81255127	      0.00000000
      0.37746699	     -7.57092875	      8.14270795	      0.00000000
      0.37858707	     -7.98856560	      9.47883446	      0.00000000
      0.37970715	     -8.37068467	     10.75468185	      0.00000000
      0.38082723	     -8.74415327	     11.98859200	      0.00000000
      0.38194731	     -9.12705628	     13.19552238	      0.00000000
      0.38306739	     -9.54688238	     14.42155503	      0.00000000
      0.38418747	     -9.95812452	     15.61266663	      0.00000000
      0.38530755	    -10.29484595	     16.69944485	      0.00000000
      0.38642763	    -10.53417567	     17.62831206	      0.00000000
      0.38754771	    -10.67152385	     18.36545075	      0.00000000
      0.38866779	    -10.72038886	     18.91044885	      0.00000000
      0.38978787	    -10.69332097	     19.26316679	      0.00000000
      0.39090795	    -10.60271176	     19.43888799	      0.00000000
      0.39202803	    -10.45996232	     19.45279428	      0.00000000
      0.39314811	    -10.27323289	     19.32266337	      0.00000000
      0.39426819	    -10.05036356	     19.06754475	      0.00000000
      0.39538827	     -9.79705909	     18.70342856	      0.00000000
      0.39650835	     -9.51914194	     18.24805938	      0.00000000
      0.39762843	     -9.22156420	     17.71506786	      0.00000000
      0.39874851	     -8.90918078	     17.11950182	      0.00000000
      0.39986859	     -8.58618730	     16.47284295	      0.00000000
      0.40098867	     -8.25661461	     15.78737448	      0.00000000
      0.40210875	     -7.92382159	     15.07253461	      0.00000000
      0.40322883	     -7.59098362	     14.33806001	      0.00000000
      0.40434891	     -7.26062486	     13.59143897	      0.00000000
      0.40546899	     -6.93508600	     12.84013612	      0.00000000
      0.40658907	     -6.61612749	     12.08981042	      0.00000000
      0.40770915	     -6.30534412	     11.34593101	      0.00000000
      0.40882923	     -6.00386606	     10.61255881	      0.00000000
      0.40994931	     -5.71267446	      9.89349140	      0.00000000
      0.41106939	     -5.43240173	      9.19147398	      0.00000000
      0.41218947	     -5.16355030	      8.50897157	      0.00000000
      0.41330955	     -4.90636972	      7.84769286	      0.00000000
      0.41442963	     -4.66100337	      7.20908226	      0.00000000
      0.41554971	     -4.42742381	      6.59406868	      0.00000000
      0.41666979	     -4.20551923	      6.00334617	      0.00000000
      0.41778987	     -3.99507114	      5.43726652	      0.00000000
      0.41890995	     -3.79579714	      4.89597943	      0.00000000
      0.42003003	     -3.60735472	      4.37940870	      0.00000000
      0.42115011	     -3.42936182	      3.88729919	      0.00000000
      0.42227019	     -3.26142853	      3.41925739	      0.00000000
      0.42339027	     -3.10310514	      2.97474388	      0.00000000
      0.42451035	     -2.95393844	      2.55318077	      0.00000000
      0.42563043	     -2.81344983	      2.15385296	      0.00000000
      0.42675051	     -2.68117713	      1.77609491	      0.00000000
      0.42787059	     -2.55664086	      1.41912359	      0.00000000
      0.42899067	     -2.43938701	      1.08224998	      0.00000000
      0.43011075	     -2.32894911	      0.76468115	      0.00000000
      0.43123083	     -2.22488237	      0.46568560	      0.00000000
      0.43235091	     -2.12673253	      0.18441439	      0.00000000
      0.43347099	     -2.03406639	     -0.07993224	      0.00000000
      0.43459107	     -1.94645707	     -0.32822130	      0.00000000
      0.43571115	     -1.86089750	     -0.56227413	      0.00000000
      0.43683123	     -1.78267956	     -0.78123903	      0.00000000
      0.43795131	     -1.70827907	     -0.98669256	      0.00000000
      0.43907139	     -1.63730138	     -1.17956339	      0.00000000
      0.44019147	     -1.56938841	     -1.36070744	      0.00000000
      0.44131155	     -1.50416631	     -1.53105501	      0.00000000
      0.44243163	     -1.44137176	     -1.69137679	      0.00000000
      0.44355171	     -1.38075306	     -1.84246108	      0.00000000
      0.44467179	     -1.32210631	     -1.98499279	      0.00000000
      0.44579187	     -1.26526160	     -2.11959349	      0.00000000
      0.44691195	     -1.20991878	     -2.24710458	      0.00000000
      0.44803203	     -1.15578767	     -2.36834676	      0.00000000
      0.44915211	     -1.10247060	     -2.48453514	      0.00000000
      0.45027219	     -1.04951867	     -2.59705234	      0.00000000
      0.45139227	     -0.99694213	     -2.70678935	      0.00000000
      0.45251235	     -0.94482524	     -2.81449037	      0.00000000
      0.45363243	     -0.89332256	     -2.92060622	      0.00000000
      0.45475251	     -0.84251928	     -3.02578151	      0.00000000
      0.45587259	     -0.79266198	     -3.13014338	      0.00000000
      0.45699267	     -0.74403421	     -3.23382488	      0.00000000
      0.45811275	     -0.69683253	     -3.33669954	      0.00000000
      0.45923283	     -0.65127840	     -3.43863499	      0.00000000
      0.46035291	     -0.60732830	     -3.53965805	      0.00000000
      0.46147299	     -0.56495761	     -3.63974281	      0.00000000
      0.46259307	     -0.52388812	     -3.73934243	      0.00000000
      0.46371315	     -0.48383893	     -3.83890645	      0.00000000
      0.46483323	     -0.44465865	     -3.93900522	      0.00000000
      0.46595331	     -0.40622699	     -4.04014684	      0.00000000
      0.46707339	     -0.36868760	     -4.14256474	      0.00000000
      0.46819347	     -0.33217261	     -4.24645620	      0.00000000
      0.46931355	     -0.29689959	     -4.35173411	      0.00000000
      0.47043363	     -0.26305984	     -4.45830763	      0.00000000
      0.47155371	     -0.23075327	     -4.56600647	      0.00000000
      0.47267379	     -0.20007076	     -4.67465560	      0.00000000
      0.47379387	     -0.17098935	     -4.78414724	      0.00000000
      0.47491395	     -0.14348679	     -4.89436435	      0.00000000
      0.47603403	     -0.11750503	     -5.00525905	      0.00000000
      0.47715411	     -0.09298632	     -5.11678134	      0.00000000
      0.47827419	     -0.06990882	     -5.22887140	      0.00000000
      0.47939427	     -0.04824317	     -5.34147980	      0.00000000
      0.48051435	     -0.02800350	     -5.45450046	      0.00000000
      0.48163443	     -0.00919199	     -5.56784378	      0.00000000
      0.48275451	      0.00817921	     -5.68139330	      0.00000000
      0.48387459	      0.02410463	     -5.79505742	      0.00000000
      0.48499467	      0.03857085	     -5.90872115	      0.00000000
      0.48611475	      0.05156879	     -6.02229214	      0.00000000
      0.48723483	      0.06308579	     -6.13564371	      0.00000000
      0.48835491	      0.07310790	     -6.24866921	      0.00000000
      0.48947499	      0.08163829	     -6.36124207	      0.00000000
      0.49059507	      0.08867965	     -6.47324725	      0.00000000
      0.49171515	      0.09426030	     -6.58456311	      0.00000000
      0.49283523	      0.09840646	     -6.69507476	      0.00000000
      0.49395531	      0.10116471	     -6.80466084	      0.00000000
      0.49507539	      0.10258073	     -6.91320240	      0.00000000
      0.49619547	      0.10271176	     -7.02057500	      0.00000000
      0.49731555	      0.10161366	     -7.12665268	      0.00000000
      0.49843563	      0.09935124	     -7.23131821	      0.00000000
      0.49955572	      0.09599001	     -7.33445262	      0.00000000
      0.50067580	      0.09160228	     -7.43595607	      0.00000000
      0.50179588	      0.08626630	     -7.53572820	      0.00000000
      0.50291596	      0.08004681	     -7.63367859	      0.00000000
      0.50403604	      0.07300891	     -7.72971513	      0.00000000
      0.50515612	      0.06519613	     -7.82375061	      0.00000000
      0.50627620	      0.05665496	     -7.91569711	      0.00000000
      0.50739628	      0.04742144	     -8.00547418	      0.00000000
      0.50851636	      0.03753484	     -8.09300163	      0.00000000
      0.50963644	      0.02703327	     -8.17820948	      0.00000000
      0.51075652	      0.01595669	     -8.26102912	      0.00000000
      0.51187660	      0.00434527	     -8.34139959	      0.00000000
      0.51299668	     -0.00776043	     -8.41926205	      0.00000000
      0.51411676	     -0.02032067	     -8.49456107	      0.00000000
      0.51523684	     -0.03329531	     -8.56724379	      0.00000000
      0.51635692	     -0.04664427	     -8.63725707	      0.00000000
      0.51747700	     -0.06032740	     -8.70455082	      0.00000000
      0.51859708	     -0.07430545	     -8.76907480	      0.00000000
      0.51971716	     -0.08853947	     -8.83078282	      0.00000000
      0.52083724	     -0.10299281	     -8.88963033	      0.00000000
      0.52195732	     -0.11762935	     -8.94557808	      0.00000000
      0.52307740	     -0.13241524	     -8.99858871	      0.00000000
      0.52419748	     -0.14731739	     -9.04863111	      0.00000000
      0.52531756	     -0.16230382	     -9.09567473	      0.00000000
      0.52643764	     -0.17734369	     -9.13969491	      0.00000000
      0.52755772	     -0.19240570	     -9.18066474	      0.00000000
      0.52867780	     -0.20745971	     -9.21855865	      0.00000000
      0.52979788	     -0.22247170	     -9.25334079	      0.00000000
      0.53091796	     -0.23740755	     -9.28496044	      0.00000000
      0.53203804	     -0.25222236	     -9.31333543	      0.00000000
      0.53315812	     -0.26686634	     -9.33832919	      0.00000000
      0.53427820	     -0.28126526	     -9.35973012	      0.00000000
      0.53539828	     -0.29532900	     -9.37721945	      0.00000000
      0.53651836	     -0.30893438	     -9.39037901	      0.00000000
      0.53763844	     -0.32194198	     -9.39874744	      0.00000000
      0.53875852	     -0.33423171	     -9.40195537	      0.00000000
      0.53987860	     -0.34572809	     -9.39999565	      0.00000000
      0.54099868	     -0.35649344	     -9.39336333	      0.00000000
      0.54211876	     -0.36668969	     -9.38311826	      0.00000000
      0.54323884	     -0.37657579	     -9.37054642	      0.00000000
      0.54435892	     -0.38640311	     -9.35680622	      0.00000000
      0.54547900	     -0.39634822	     -9.34268868	      0.00000000
      0.54659908	     -0.40652232	     -9.32857518	      0.00000000
      0.54771916	     -0.41694770	     -9.31459416	      0.00000000
      0.54883924	     -0.42762644	     -9.30071831	      0.00000000
      0.54995932	     -0.43852727	     -9.28688650	      0.00000000
      0.55107940	     -0.44962349	     -9.27302862	      0.00000000
      0.55219948	     -0.46088170	     -9.25909396	      0.00000000
      0.55331956	     -0.47227348	     -9.24504518	      0.00000000
      0.55443964	     -0.48377114	     -9.23085825	      0.00000000
      0.55555972	     -0.49534850	     -9.21651638	      0.00000000
      0.55667980	     -0.50698476	     -9.20200908	      0.00000000
      0.55779988	     -0.51865867	     -9.18732826	      0.00000000
      0.55891996	     -0.53035506	     -9.17246866	      0.00000000
      0.56004004	     -0.54205793	     -9.15742536	      0.00000000
      0.56116012	     -0.55375677	     -9.14219500	      0.00000000
      0.56228020	     -0.56544026	     -9.12677381	      0.00000000
      0.56340028	     -0.57710121	     -9.11115939	      0.00000000
      0.56452036	     -0.58873168	     -9.09534866	      0.00000000
      0.56564044	     -0.60032695	     -9.07934021	      0.00000000
      0.56676052	     -0.61188165	     -9.06313194	      0.00000000
      0.56788060	     -0.62339257	     -9.04672330	      0.00000000
      0.56900068	     -0.63485618	     -9.03011309	      0.00000000
      0.57012076	     -0.64627034	     -9.01330137	      0.00000000
      0.57124084	     -0.65763269	     -8.99628761	      0.00000000
      0.57236092	     -0.66894242	     -8.97907265	      0.00000000
      0.57348100	     -0.68019833	     -8.96165693	      0.00000000
      0.57460108	     -0.69140060	     -8.94404222	      0.00000000
      0.57572116	     -0.70254898	     -8.92623007	      0.00000000
      0.57684124	     -0.71364427	     -8.90822298	      0.00000000
      0.57796132	     -0.72468684	     -8.89002344	      0.00000000
      0.57908140	     -0.73567779	     -8.87163416	      0.00000000
      0.58020148	     -0.74661773	     -8.85305788	      0.00000000
      0.58132156	     -0.75750919	     -8.83429784	      0.00000000
      0.58244164	     -0.76835409	     -8.81535738	      0.00000000
      0.58356172	     -0.77915662	     -8.79624005	      0.00000000
      0.58468180	     -0.78992044	     -8.77694949	      0.00000000
      0.58580188	     -0.80065184	     -8.75748925	      0.00000000
      0.58692196	     -0.81135674	     -8.73786302	      0.00000000
      0.58804204	     -0.82204388	     -8.71807441	      0.00000000
      0.58916212	     -0.83272191	     -8.69812716	      0.00000000
      0.59028220	     -0.84340169	     -8.67802492	      0.00000000
      0.59140228	     -0.85409434	     -8.65777147	      0.00000000
      0.59252236	     -0.86481209	     -8.63737084	      0.00000000
      0.59364244	     -0.87556773	     -8.61682717	      0.00000000
      0.59476252	     -0.88637360	     -8.59614515	      0.00000000
      0.59588260	     -0.89724280	     -8.57532943	      0.00000000
      0.59700268	     -0.90818742	     -8.55438586	      0.00000000
      0.59812276	     -0.91922044	     -8.53332001	      0.00000000
      0.59924284	     -0.93035403	     -8.51213939	      0.00000000
      0.60036292	     -0.94160151	     -8.49085093	      0.00000000
      0.60148300	     -0.95297509	     -8.46946466	      0.00000000
      0.60260308	     -0.96448840	     -8.44798975	      0.00000000
      0.60372316	     -0.97615200	     -8.42644062	      0.00000000
      0.60484324	     -0.98797759	     -8.40483068	      0.00000000
      0.60596332	     -0.99997044	     -8.38318133	      0.00000000
      0.60708340	     -1.01213555	     -8.36151296	      0.00000000
      0.60820348	     -1.02447070	     -8.33985694	      0.00000000
      0.60932356	     -1.03697118	     -8.31824423	      0.00000000
      0.61044364	     -1.04963023	     -8.29671889	      0.00000000
      0.61156372	     -1.06243784	     -8.27532654	      0.00000000
      0.61268380	     -1.07538879	     -8.25412431	      0.00000000
      0.61380388	     -1.08847640	     -8.23317512	      0.00000000
      0.61492396	     -1.10169611	     -8.21254273	      0.00000000
      0.61604404	     -1.11505303	     -8.19230901	      0.00000000
      0.61716412	     -1.12853688	     -8.17253389	      0.00000000
      0.61828420	     -1.14439972	     -8.15514335	      0.00000000
      0.61940428	     -1.15810792	     -8.13645223	      0.00000000
      0.62052436	     -1.17193506	     -8.11839840	      0.00000000
      0.62164444	     -1.18587911	     -8.10103218	      0.00000000
      0.62276452	     -1.19993041	     -8.08439759	      0.00000000
      0.62388460	     -1.21408835	     -8.06851308	      0.00000000
      0.62500468	     -1.22835344	     -8.05339950	      0.00000000
      0.62612476	     -1.24271799	     -8.03906371	      0.00000000
      0.62724484	     -1.25717532	     -8.02551329	      0.00000000
      0.62836492	     -1.27171072	     -8.01275452	      0.00000000
      0.62948500	     -1.28631246	     -8.00079303	      0.00000000
      0.63060508	     -1.30095724	     -7.98963477	      0.00000000
      0.63172516	     -1.31562426	     -7.97928358	      0.00000000
      0.63284524	     -1.33027796	     -7.96974330	      0.00000000
      0.63396532	     -1.34488120	     -7.96101545	      0.00000000
      0.63508540	     -1.35938666	     -7.95310398	      0.00000000
      0.63620548	     -1.37374518	     -7.94601132	      0.00000000
      0.63732556	     -1.38790285	     -7.93974041	      0.00000000
      0.63844564	     -1.40180010	     -7.93429424	      0.00000000
      0.63956572	     -1.41537826	     -7.92967250	      0.00000000
      0.64068580	     -1.42856940	     -7.92587671	      0.00000000
      0.64180589	     -1.44131963	     -7.92290278	      0.00000000
      0.64292597	     -1.45356558	     -7.92074536	      0.00000000
      0.64404605	     -1.46526651	     -7.91938747	      0.00000000
      0.64516613	     -1.47637968	     -7.91881237	      0.00000000
      0.64628621	     -1.48688440	     -7.91899731	      0.00000000
      0.64740629	     -1.49676391	     -7.91991798	      0.00000000
      0.64852637	     -1.50599641	     -7.92154416	      0.00000000
      0.64964645	     -1.51456693	     -7.92384271	      0.00000000
      0.65076653	     -1.52242612	     -7.92678131	      0.00000000
      0.65188661	     -1.52952203	     -7.93032479	      0.00000000
      0.65300669	     -1.53577710	     -7.93446155	      0.00000000
      0.65412677	     -1.54109308	     -7.93917861	      0.00000000
      0.65524685	     -1.54540246	     -7.94449578	      0.00000000
      0.65636693	     -1.54862659	     -7.95042907	      0.00000000
      0.65748701	     -1.55080165	     -7.95704847	      0.00000000
      0.65860709	     -1.55197703	     -7.96441028	      0.00000000
      0.65972717	     -1.55230598	     -7.97261852	      0.00000000
      0.66084725	     -1.55196954	     -7.98176060	      0.00000000
      0.66196733	     -1.55117376	     -7.99193936	      0.00000000
      0.66308741	     -1.55017182	     -8.00323959	      0.00000000
      0.66420749	     -1.54923603	     -8.01577614	      0.00000000
      0.66532757	     -1.54889239	     -8.02954755	      0.00000000
      0.66644765	     -1.54955900	     -8.04458301	      0.00000000
      0.66756773	     -1.59704075	     -8.05554323	      0.00000000
      0.66868781	     -1.60587438	     -8.07615375	      0.00000000
      0.66980789	     -1.61858145	     -8.09770909	      0.00000000
      0.67092797	     -1.63620690	     -8.11979934	      0.00000000
      0.67204805	     -1.65792672	     -8.14283504	      0.00000000
