PointPosition
version=1
nRows=601
nColumns=4
inDegrees=no
No description.
endheader
time	state_0	state_1	state_2
      0.00000000	     -0.38564054	     -0.00639852	     -0.09478690
      0.00112008	     -0.38571479	     -0.00622140	     -0.09478690
      0.00224016	     -0.38578955	     -0.00604005	     -0.09478690
      0.00336024	     -0.38586483	     -0.00585441	     -0.09478690
      0.00448032	     -0.38594059	     -0.00566437	     -0.09478690
      0.00560040	     -0.38601679	     -0.00546985	     -0.09478690
      0.00672048	     -0.38609335	     -0.00527075	     -0.09478690
      0.00784056	     -0.38617022	     -0.00506696	     -0.09478690
      0.00896064	     -0.38624732	     -0.00485839	     -0.09478690
      0.01008072	     -0.38632457	     -0.00464493	     -0.09478690
      0.01120080	     -0.38640185	     -0.00442646	     -0.09478690
      0.01232088	     -0.38647908	     -0.00420287	     -0.09478690
      0.01344096	     -0.38655614	     -0.00397404	     -0.09478690
      0.01456104	     -0.38663288	     -0.00373985	     -0.09478690
      0.01568112	     -0.38670918	     -0.00350017	     -0.09478690
      0.01680120	     -0.38678488	     -0.00325487	     -0.09478690
      0.01792128	     -0.38685981	     -0.00300382	     -0.09478690
      0.01904136	     -0.38693379	     -0.00274689	     -0.09478690
      0.02016144	     -0.38700653	     -0.00248403	     -0.09478690
      0.02128152	     -0.38707762	     -0.00221528	     -0.09478690
      0.02240160	     -0.38714645	     -0.00194076	     -0.09478690
      0.02352168	     -0.38721231	     -0.00166062	     -0.09478690
      0.02464176	     -0.38727444	     -0.00137491	     -0.09478690
      0.02576184	     -0.38733218	     -0.00108351	     -0.09478690
      0.02688192	     -0.38738519	     -0.00078600	     -0.09478690
      0.02800200	     -0.38743333	     -0.00048177	     -0.09478690
      0.02912208	     -0.38747684	     -0.00017006	     -0.09478690
      0.03024216	     -0.38751586	      0.00014990	     -0.09478690
      0.03136224	     -0.38754709	      0.00047991	     -0.09478690
      0.03248232	     -0.38756443	      0.00082235	     -0.09478690
      0.03360240	     -0.38754912	      0.00118174	     -0.09478690
      0.03472248	     -0.38747017	      0.00156335	     -0.09478690
      0.03584256	     -0.38729120	      0.00197224	     -0.09478690
      0.03696264	     -0.38698597	      0.00241086	     -0.09478690
      0.03808272	     -0.38654438	      0.00287869	     -0.09478690
      0.03920280	     -0.38596091	      0.00337432	     -0.09478690
      0.04032288	     -0.38523869	      0.00389528	     -0.09478690
      0.04144296	     -0.38438483	      0.00443917	     -0.09478690
      0.04256304	     -0.38341111	      0.00500300	     -0.09478690
      0.04368312	     -0.38233019	      0.00558384	     -0.09478690
      0.04480320	     -0.38115437	      0.00617956	     -0.09478690
      0.04592328	     -0.37989481	      0.00678872	     -0.09478690
      0.04704336	     -0.37855996	      0.00741028	     -0.09478690
      0.04816344	     -0.37715680	      0.00804354	     -0.09478690
      0.04928352	     -0.37568991	      0.00868808	     -0.09478690
      0.05040360	     -0.37416293	      0.00934358	     -0.09478690
      0.05152368	     -0.37257807	      0.01000985	     -0.09478690
      0.05264376	     -0.37093712	      0.01068670	     -0.09478690
      0.05376384	     -0.36924127	      0.01137394	     -0.09478690
      0.05488392	     -0.36749157	      0.01207136	     -0.09478690
      0.05600400	     -0.36568892	      0.01277869	     -0.09478690
      0.05712408	     -0.36383420	      0.01349563	     -0.09478690
      0.05824416	     -0.36192833	      0.01422182	     -0.09478690
      0.05936424	     -0.35997227	      0.01495686	     -0.09478690
      0.06048432	     -0.35796706	      0.01570031	     -0.09478690
      0.06160440	     -0.35591378	      0.01645170	     -0.09478690
      0.06272448	     -0.35381361	      0.01721051	     -0.09478690
      0.06384456	     -0.35166776	      0.01797623	     -0.09478690
      0.06496464	     -0.34947754	      0.01874828	     -0.09478690
      0.06608472	     -0.34724426	      0.01952612	     -0.09478690
      0.06720480	     -0.34496931	      0.02030916	     -0.09478690
      0.06832488	     -0.34265408	      0.02109683	     -0.09478690
      0.06944496	     -0.34029993	      0.02188855	     -0.09478690
      0.07056504	     -0.33790822	      0.02268375	     -0.09478690
      0.07168513	     -0.33548023	      0.02348188	     -0.09478690
      0.07280521	     -0.33301717	      0.02428239	     -0.09478690
      0.07392529	     -0.33052020	      0.02508475	     -0.09478690
      0.07504537	     -0.32799038	      0.02588846	     -0.09478690
      0.07616545	     -0.32542874	      0.02669301	     -0.09478690
      0.07728553	     -0.32283626	      0.02749792	     -0.09478690
      0.07840561	     -0.32021390	      0.02830275	     -0.09478690
      0.07952569	     -0.31756262	      0.02910702	     -0.09478690
      0.08064577	     -0.31488335	      0.02991031	     -0.09478690
      0.08176585	     -0.31217705	      0.03071220	     -0.09478690
      0.08288593	     -0.30944459	      0.03151226	     -0.09478690
      0.08400601	     -0.30668685	      0.03231011	     -0.09478690
      0.08512609	     -0.30390462	      0.03310535	     -0.09478690
      0.08624617	     -0.30109862	      0.03389762	     -0.09478690
      0.08736625	     -0.29826945	      0.03468657	     -0.09478690
      0.08848633	     -0.29541767	      0.03547186	     -0.09478690
      0.08960641	     -0.29254367	      0.03625316	     -0.09478690
      0.09072649	     -0.28964780	      0.03703016	     -0.09478690
      0.09184657	     -0.28673028	      0.03780257	     -0.09478690
      0.09296665	     -0.28379128	      0.03857011	     -0.09478690
      0.09408673	     -0.28083091	      0.03933251	     -0.09478690
      0.09520681	     -0.27784922	      0.04008951	     -0.09478690
      0.09632689	     -0.27484627	      0.04084086	     -0.09478690
      0.09744697	     -0.27182209	      0.04158631	     -0.09478690
      0.09856705	     -0.26877673	      0.04232564	     -0.09478690
      0.09968713	     -0.26571027	      0.04305860	     -0.09478690
      0.10080721	     -0.26262280	      0.04378498	     -0.09478690
      0.10192729	     -0.25951438	      0.04450456	     -0.09478690
      0.10304737	     -0.25638508	      0.04521713	     -0.09478690
      0.10416745	     -0.25323490	      0.04592248	     -0.09478690
      0.10528753	     -0.25006384	      0.04662044	     -0.09478690
      0.10640761	     -0.24687187	      0.04731081	     -0.09478690
      0.10752769	     -0.24365895	      0.04799343	     -0.09478690
      0.10864777	     -0.24042506	      0.04866813	     -0.09478690
      0.10976785	     -0.23717018	      0.04933474	     -0.09478690
      0.11088793	     -0.23389427	      0.04999310	     -0.09478690
      0.11200801	     -0.23059732	      0.05064307	     -0.09478690
      0.11312809	     -0.22727939	      0.05128449	     -0.09478690
      0.11424817	     -0.22394044	      0.05191720	     -0.09478690
      0.11536825	     -0.22058038	      0.05254107	     -0.09478690
      0.11648833	     -0.21719928	      0.05315594	     -0.09478690
      0.11760841	     -0.21379728	      0.05376167	     -0.09478690
      0.11872849	     -0.21037441	      0.05435815	     -0.09478690
      0.11984857	     -0.20693067	      0.05494526	     -0.09478690
      0.12096865	     -0.20346601	      0.05552287	     -0.09478690
      0.12208873	     -0.19998040	      0.05609090	     -0.09478690
      0.12320881	     -0.19647381	      0.05664923	     -0.09478690
      0.12432889	     -0.19294621	      0.05719776	     -0.09478690
      0.12544897	     -0.18939760	      0.05773640	     -0.09478690
      0.12656905	     -0.18582799	      0.05826505	     -0.09478690
      0.12768913	     -0.18223739	      0.05878362	     -0.09478690
      0.12880921	     -0.17862585	      0.05929201	     -0.09478690
      0.12992929	     -0.17499340	      0.05979013	     -0.09478690
      0.13104937	     -0.17134012	      0.06027790	     -0.09478690
      0.13216945	     -0.16766608	      0.06075523	     -0.09478690
      0.13328953	     -0.16397135	      0.06122204	     -0.09478690
      0.13440961	     -0.16025603	      0.06167825	     -0.09478690
      0.13552969	     -0.15652022	      0.06212378	     -0.09478690
      0.13664977	     -0.15276403	      0.06255854	     -0.09478690
      0.13776985	     -0.14898757	      0.06298248	     -0.09478690
      0.13888993	     -0.14519096	      0.06339551	     -0.09478690
      0.14001001	     -0.14137432	      0.06379757	     -0.09478690
      0.14113009	     -0.13753777	      0.06418858	     -0.09478690
      0.14225017	     -0.13368144	      0.06456848	     -0.09478690
      0.14337025	     -0.12980544	      0.06493721	     -0.09478690
      0.14449033	     -0.12590989	      0.06529471	     -0.09478690
      0.14561041	     -0.12199491	      0.06564091	     -0.09478690
      0.14673049	     -0.11806064	      0.06597575	     -0.09478690
      0.14785057	     -0.11410722	      0.06629919	     -0.09478690
      0.14897065	     -0.11013480	      0.06661115	     -0.09478690
      0.15009073	     -0.10614356	      0.06691159	     -0.09478690
      0.15121081	     -0.10213367	      0.06720044	     -0.09478690
      0.15233089	     -0.09810533	      0.06747766	     -0.09478690
      0.15345097	     -0.09405869	      0.06774318	     -0.09478690
      0.15457105	     -0.08999392	      0.06799698	     -0.09478690
      0.15569113	     -0.08591111	      0.06823901	     -0.09478690
      0.15681121	     -0.08181035	      0.06846925	     -0.09478690
      0.15793129	     -0.07769167	      0.06868767	     -0.09478690
      0.15905137	     -0.07355506	      0.06889427	     -0.09478690
      0.16017145	     -0.06940048	      0.06908904	     -0.09478690
      0.16129153	     -0.06522785	      0.06927197	     -0.09478690
      0.16241161	     -0.06103707	      0.06944309	     -0.09478690
      0.16353169	     -0.05682804	      0.06960239	     -0.09478690
      0.16465177	     -0.05260060	      0.06974990	     -0.09478690
      0.16577185	     -0.04835464	      0.06988563	     -0.09478690
      0.16689193	     -0.04409000	      0.07000959	     -0.09478690
      0.16801201	     -0.03980655	      0.07012181	     -0.09478690
      0.16913209	     -0.03550414	      0.07022229	     -0.09478690
      0.17025217	     -0.03118265	      0.07031104	     -0.09478690
      0.17137225	     -0.02684195	      0.07038807	     -0.09478690
      0.17249233	     -0.02248192	      0.07045338	     -0.09478690
      0.17361241	     -0.01810246	      0.07050697	     -0.09478690
      0.17473249	     -0.01370348	      0.07054881	     -0.09478690
      0.17585257	     -0.00928489	      0.07057889	     -0.09478690
      0.17697265	     -0.00484660	      0.07059719	     -0.09478690
      0.17809273	     -0.00038856	      0.07060367	     -0.09478690
      0.17921281	      0.00408931	      0.07059830	     -0.09478690
      0.18033289	      0.00858707	      0.07058104	     -0.09478690
      0.18145297	      0.01310478	      0.07055185	     -0.09478690
      0.18257305	      0.01764251	      0.07051068	     -0.09478690
      0.18369313	      0.02220031	      0.07045750	     -0.09478690
      0.18481321	      0.02677826	      0.07039226	     -0.09478690
      0.18593329	      0.03137641	      0.07031492	     -0.09478690
      0.18705337	      0.03599485	      0.07022545	     -0.09478690
      0.18817345	      0.04063364	      0.07012382	     -0.09478690
      0.18929353	      0.04529285	      0.07000999	     -0.09478690
      0.19041361	      0.04997256	      0.06988395	     -0.09478690
      0.19153369	      0.05467284	      0.06974566	     -0.09478690
      0.19265377	      0.05939377	      0.06959513	     -0.09478690
      0.19377385	      0.06413541	      0.06943234	     -0.09478690
      0.19489393	      0.06889785	      0.06925730	     -0.09478690
      0.19601401	      0.07368115	      0.06907003	     -0.09478690
      0.19713409	      0.07848540	      0.06887056	     -0.09478690
      0.19825417	      0.08331065	      0.06865891	     -0.09478690
      0.19937425	      0.08815700	      0.06843516	     -0.09478690
      0.20049433	      0.09302451	      0.06819935	     -0.09478690
      0.20161441	      0.09791325	      0.06795156	     -0.09478690
      0.20273449	      0.10282331	      0.06769190	     -0.09478690
      0.20385457	      0.10775475	      0.06742046	     -0.09478690
      0.20497465	      0.11270767	      0.06713736	     -0.09478690
      0.20609473	      0.11768214	      0.06684274	     -0.09478690
      0.20721481	      0.12267823	      0.06653674	     -0.09478690
      0.20833489	      0.12769603	      0.06621950	     -0.09478690
      0.20945497	      0.13273560	      0.06589119	     -0.09478690
      0.21057505	      0.13779703	      0.06555198	     -0.09478690
      0.21169513	      0.14288037	      0.06520204	     -0.09478690
      0.21281521	      0.14798571	      0.06484156	     -0.09478690
      0.21393530	      0.15311309	      0.06447075	     -0.09478690
      0.21505538	      0.15826259	      0.06408979	     -0.09478690
      0.21617546	      0.16343426	      0.06369892	     -0.09478690
      0.21729554	      0.16862816	      0.06329834	     -0.09478690
      0.21841562	      0.17384435	      0.06288830	     -0.09478690
      0.21953570	      0.17908288	      0.06246904	     -0.09478690
      0.22065578	      0.18434379	      0.06204080	     -0.09478690
      0.22177586	      0.18962714	      0.06160386	     -0.09478690
      0.22289594	      0.19493297	      0.06115848	     -0.09478690
      0.22401602	      0.20026133	      0.06070494	     -0.09478690
      0.22513610	      0.20561224	      0.06024353	     -0.09478690
      0.22625618	      0.21098575	      0.05977453	     -0.09478690
      0.22737626	      0.21638187	      0.05929824	     -0.09478690
      0.22849634	      0.22180063	      0.05881496	     -0.09478690
      0.22961642	      0.22724204	      0.05832498	     -0.09478690
      0.23073650	      0.23270610	      0.05782860	     -0.09478690
      0.23185658	      0.23819279	      0.05732612	     -0.09478690
      0.23297666	      0.24370211	      0.05681784	     -0.09478690
      0.23409674	      0.24923403	      0.05630406	     -0.09478690
      0.23521682	      0.25478850	      0.05578507	     -0.09478690
      0.23633690	      0.26036548	      0.05526117	     -0.09478690
      0.23745698	      0.26596491	      0.05473266	     -0.09478690
      0.23857706	      0.27158673	      0.05419982	     -0.09478690
      0.23969714	      0.27723083	      0.05366295	     -0.09478690
      0.24081722	      0.28289715	      0.05312234	     -0.09478690
      0.24193730	      0.28858556	      0.05257826	     -0.09478690
      0.24305738	      0.29429597	      0.05203101	     -0.09478690
      0.24417746	      0.30002824	      0.05148088	     -0.09478690
      0.24529754	      0.30578225	      0.05092813	     -0.09478690
      0.24641762	      0.31155785	      0.05037306	     -0.09478690
      0.24753770	      0.31735489	      0.04981592	     -0.09478690
      0.24865778	      0.32317321	      0.04925701	     -0.09478690
      0.24977786	      0.32901264	      0.04869657	     -0.09478690
      0.25089794	      0.33487299	      0.04813488	     -0.09478690
      0.25201802	      0.34075407	      0.04757218	     -0.09478690
      0.25313810	      0.34665568	      0.04700873	     -0.09478690
      0.25425818	      0.35257761	      0.04644479	     -0.09478690
      0.25537826	      0.35851964	      0.04588059	     -0.09478690
      0.25649834	      0.36448156	      0.04531639	     -0.09478690
      0.25761842	      0.37046314	      0.04475243	     -0.09478690
      0.25873850	      0.37646416	      0.04418896	     -0.09478690
      0.25985858	      0.38248440	      0.04362625	     -0.09478690
      0.26097866	      0.38852364	      0.04306456	     -0.09478690
      0.26209874	      0.39458167	      0.04250415	     -0.09478690
      0.26321882	      0.40065827	      0.04194530	     -0.09478690
      0.26433890	      0.40675323	      0.04138831	     -0.09478690
      0.26545898	      0.41286636	      0.04083347	     -0.09478690
      0.26657906	      0.41899745	      0.04028110	     -0.09478690
      0.26769914	      0.42514629	      0.03973151	     -0.09478690
      0.26881922	      0.43131269	      0.03918503	     -0.09478690
      0.26993930	      0.43749644	      0.03864199	     -0.09478690
      0.27105938	      0.44369733	      0.03810274	     -0.09478690
      0.27217946	      0.44991514	      0.03756761	     -0.09478690
      0.27329954	      0.45614967	      0.03703697	     -0.09478690
      0.27441962	      0.46240071	      0.03651118	     -0.09478690
      0.27553970	      0.46866806	      0.03599065	     -0.09478690
      0.27665978	      0.47495152	      0.03547577	     -0.09478690
      0.27777986	      0.48125091	      0.03496698	     -0.09478690
      0.27889994	      0.48756603	      0.03446472	     -0.09478690
      0.28002002	      0.49389668	      0.03396942	     -0.09478690
      0.28114010	      0.50024265	      0.03348155	     -0.09478690
      0.28226018	      0.50660371	      0.03300157	     -0.09478690
      0.28338026	      0.51297966	      0.03252994	     -0.09478690
      0.28450034	      0.51937022	      0.03206714	     -0.09478690
      0.28562042	      0.52577505	      0.03161354	     -0.09478690
      0.28674050	      0.53219365	      0.03116937	     -0.09478690
      0.28786058	      0.53862560	      0.03073496	     -0.09478690
      0.28898066	      0.54507053	      0.03031073	     -0.09478690
      0.29010074	      0.55152810	      0.02989707	     -0.09478690
      0.29122082	      0.55799793	      0.02949443	     -0.09478690
      0.29234090	      0.56447962	      0.02910323	     -0.09478690
      0.29346098	      0.57097274	      0.02872387	     -0.09478690
      0.29458106	      0.57747683	      0.02835674	     -0.09478690
      0.29570114	      0.58399139	      0.02800220	     -0.09478690
      0.29682122	      0.59051593	      0.02766066	     -0.09478690
      0.29794130	      0.59704994	      0.02733252	     -0.09478690
      0.29906138	      0.60359290	      0.02701821	     -0.09478690
      0.30018146	      0.61014426	      0.02671813	     -0.09478690
      0.30130154	      0.61670346	      0.02643269	     -0.09478690
      0.30242162	      0.62326990	      0.02616227	     -0.09478690
      0.30354170	      0.62984297	      0.02590726	     -0.09478690
      0.30466178	      0.63642205	      0.02566805	     -0.09478690
      0.30578186	      0.64300652	      0.02544501	     -0.09478690
      0.30690194	      0.64959573	      0.02523854	     -0.09478690
      0.30802202	      0.65618905	      0.02504903	     -0.09478690
      0.30914210	      0.66278587	      0.02487693	     -0.09478690
      0.31026218	      0.66938558	      0.02472271	     -0.09478690
      0.31138226	      0.67598758	      0.02458691	     -0.09478690
      0.31250234	      0.68259128	      0.02447010	     -0.09478690
      0.31362242	      0.68919611	      0.02437290	     -0.09478690
      0.31474250	      0.69580144	      0.02429596	     -0.09478690
      0.31586258	      0.70240665	      0.02423999	     -0.09478690
      0.31698266	      0.70901105	      0.02420575	     -0.09478690
      0.31810274	      0.71561389	      0.02419406	     -0.09478690
      0.31922282	      0.72221437	      0.02420578	     -0.09478690
      0.32034290	      0.72881159	      0.02424184	     -0.09478690
      0.32146298	      0.73540455	      0.02430318	     -0.09478690
      0.32258306	      0.74199211	      0.02439077	     -0.09478690
      0.32370314	      0.74857302	      0.02450556	     -0.09478690
      0.32482322	      0.75514579	      0.02464844	     -0.09478690
      0.32594330	      0.76170880	      0.02482027	     -0.09478690
      0.32706338	      0.76826021	      0.02502190	     -0.09478690
      0.32818346	      0.77479802	      0.02525418	     -0.09478690
      0.32930354	      0.78132012	      0.02551824	     -0.09478690
      0.33042362	      0.78782429	      0.02581540	     -0.09478690
      0.33154370	      0.79430822	      0.02614763	     -0.09478690
      0.33266378	      0.80076947	      0.02651716	     -0.09478690
      0.33378386	      0.80720527	      0.02692665	     -0.09478690
      0.33490394	      0.81361251	      0.02737871	     -0.09478690
      0.33602402	      0.81998722	      0.02787537	     -0.09478690
      0.33714410	      0.82632480	      0.02841788	     -0.09478690
      0.33826418	      0.83261923	      0.02900559	     -0.09478690
      0.33938426	      0.83886364	      0.02963648	     -0.09478690
      0.34050434	      0.84504960	      0.03030610	     -0.09478690
      0.34162442	      0.85116806	      0.03100861	     -0.09478690
      0.34274450	      0.85720913	      0.03173663	     -0.09478690
      0.34386458	      0.86316296	      0.03248217	     -0.09478690
      0.34498466	      0.86902016	      0.03323741	     -0.09478690
      0.34610474	      0.87477210	      0.03399487	     -0.09478690
      0.34722482	      0.88041149	      0.03474831	     -0.09478690
      0.34834490	      0.88593185	      0.03549197	     -0.09478690
      0.34946498	      0.89132734	      0.03622051	     -0.09478690
      0.35058506	      0.89659211	      0.03692821	     -0.09478690
      0.35170514	      0.90171929	      0.03760775	     -0.09478690
      0.35282522	      0.90670113	      0.03825045	     -0.09478690
      0.35394530	      0.91152790	      0.03884502	     -0.09478690
      0.35506538	      0.91618890	      0.03937871	     -0.09478690
      0.35618546	      0.92067152	      0.03983663	     -0.09478690
      0.35730555	      0.92496244	      0.04020296	     -0.09478690
      0.35842563	      0.92904681	      0.04046053	     -0.09478690
      0.35954571	      0.93290908	      0.04059153	     -0.09478690
      0.36066579	      0.93653234	      0.04057708	     -0.09478690
      0.36178587	      0.93989893	      0.04039772	     -0.09478690
      0.36290595	      0.94299029	      0.04003336	     -0.09478690
      0.36402603	      0.94578739	      0.03946395	     -0.09478690
      0.36514611	      0.94827199	      0.03867093	     -0.09478690
      0.36626619	      0.95042651	      0.03763769	     -0.09478690
      0.36738627	      0.95223777	      0.03635406	     -0.09478690
      0.36850635	      0.95369547	      0.03481523	     -0.09478690
      0.36962643	      0.95479843	      0.03302919	     -0.09478690
      0.37074651	      0.95552892	      0.03098302	     -0.09478690
      0.37186659	      0.95597528	      0.02880695	     -0.09478690
      0.37298667	      0.95631310	      0.02673312	     -0.09478690
      0.37410675	      0.95660393	      0.02481296	     -0.09478690
      0.37522683	      0.95684930	      0.02301577	     -0.09478690
      0.37634691	      0.95706020	      0.02132820	     -0.09478690
      0.37746699	      0.95724309	      0.01973452	     -0.09478690
      0.37858707	      0.95740362	      0.01822548	     -0.09478690
      0.37970715	      0.95754586	      0.01679353	     -0.09478690
      0.38082723	      0.95767255	      0.01543576	     -0.09478690
      0.38194731	      0.95778574	      0.01415270	     -0.09478690
      0.38306739	      0.95788575	      0.01295723	     -0.09478690
      0.38418747	      0.95797165	      0.01186876	     -0.09478690
      0.38530755	      0.95804191	      0.01090361	     -0.09478690
      0.38642763	      0.95809591	      0.01006979	     -0.09478690
      0.38754771	      0.95813483	      0.00936175	     -0.09478690
      0.38866779	      0.95816042	      0.00876899	     -0.09478690
      0.38978787	      0.95817502	      0.00827652	     -0.09478690
      0.39090795	      0.95818090	      0.00786924	     -0.09478690
      0.39202803	      0.95818000	      0.00753367	     -0.09478690
      0.39314811	      0.95817405	      0.00725782	     -0.09478690
      0.39426819	      0.95816428	      0.00703264	     -0.09478690
      0.39538827	      0.95815175	      0.00685047	     -0.09478690
      0.39650835	      0.95813711	      0.00670578	     -0.09478690
      0.39762843	      0.95812094	      0.00659390	     -0.09478690
      0.39874851	      0.95810359	      0.00651136	     -0.09478690
      0.39986859	      0.95808536	      0.00645514	     -0.09478690
      0.40098867	      0.95806643	      0.00642283	     -0.09478690
      0.40210875	      0.95804698	      0.00641229	     -0.09478690
      0.40322883	      0.95802711	      0.00642167	     -0.09478690
      0.40434891	      0.95800693	      0.00644929	     -0.09478690
      0.40546899	      0.95798649	      0.00649363	     -0.09478690
      0.40658907	      0.95796588	      0.00655327	     -0.09478690
      0.40770915	      0.95794513	      0.00662693	     -0.09478690
      0.40882923	      0.95792431	      0.00671335	     -0.09478690
      0.40994931	      0.95790346	      0.00681139	     -0.09478690
      0.41106939	      0.95788262	      0.00691992	     -0.09478690
      0.41218947	      0.95786186	      0.00703788	     -0.09478690
      0.41330955	      0.95784121	      0.00716424	     -0.09478690
      0.41442963	      0.95782073	      0.00729799	     -0.09478690
      0.41554971	      0.95780049	      0.00743817	     -0.09478690
      0.41666979	      0.95778056	      0.00758381	     -0.09478690
      0.41778987	      0.95776099	      0.00773398	     -0.09478690
      0.41890995	      0.95774188	      0.00788775	     -0.09478690
      0.42003003	      0.95772330	      0.00804422	     -0.09478690
      0.42115011	      0.95770534	      0.00820246	     -0.09478690
      0.42227019	      0.95768809	      0.00836159	     -0.09478690
      0.42339027	      0.95767164	      0.00852072	     -0.09478690
      0.42451035	      0.95765610	      0.00867896	     -0.09478690
      0.42563043	      0.95764157	      0.00883545	     -0.09478690
      0.42675051	      0.95762815	      0.00898931	     -0.09478690
      0.42787059	      0.95761593	      0.00913971	     -0.09478690
      0.42899067	      0.95760503	      0.00928580	     -0.09478690
      0.43011075	      0.95759554	      0.00942679	     -0.09478690
      0.43123083	      0.95758755	      0.00956190	     -0.09478690
      0.43235091	      0.95758113	      0.00969042	     -0.09478690
      0.43347099	      0.95757636	      0.00981170	     -0.09478690
      0.43459107	      0.95757330	      0.00992514	     -0.09478690
      0.43571115	      0.95757199	      0.01003022	     -0.09478690
      0.43683123	      0.95757245	      0.01012652	     -0.09478690
      0.43795131	      0.95757470	      0.01021365	     -0.09478690
      0.43907139	      0.95757872	      0.01029135	     -0.09478690
      0.44019147	      0.95758451	      0.01035934	     -0.09478690
      0.44131155	      0.95759203	      0.01041742	     -0.09478690
      0.44243163	      0.95760124	      0.01046538	     -0.09478690
      0.44355171	      0.95761212	      0.01050304	     -0.09478690
      0.44467179	      0.95762461	      0.01053026	     -0.09478690
      0.44579187	      0.95763866	      0.01054692	     -0.09478690
      0.44691195	      0.95765422	      0.01055294	     -0.09478690
      0.44803203	      0.95767122	      0.01054824	     -0.09478690
      0.44915211	      0.95768959	      0.01053264	     -0.09478690
      0.45027219	      0.95770927	      0.01050568	     -0.09478690
      0.45139227	      0.95773022	      0.01046670	     -0.09478690
      0.45251235	      0.95775246	      0.01041476	     -0.09478690
      0.45363243	      0.95777602	      0.01034885	     -0.09478690
      0.45475251	      0.95780096	      0.01026789	     -0.09478690
      0.45587259	      0.95782734	      0.01017081	     -0.09478690
      0.45699267	      0.95785522	      0.01005675	     -0.09478690
      0.45811275	      0.95788465	      0.00992506	     -0.09478690
      0.45923283	      0.95791562	      0.00977555	     -0.09478690
      0.46035291	      0.95794810	      0.00960837	     -0.09478690
      0.46147299	      0.95798199	      0.00942420	     -0.09478690
      0.46259307	      0.95801713	      0.00922397	     -0.09478690
      0.46371315	      0.95805332	      0.00900887	     -0.09478690
      0.46483323	      0.95809034	      0.00878019	     -0.09478690
      0.46595331	      0.95812796	      0.00853917	     -0.09478690
      0.46707339	      0.95816597	      0.00828698	     -0.09478690
      0.46819347	      0.95820420	      0.00802470	     -0.09478690
      0.46931355	      0.95824250	      0.00775337	     -0.09478690
      0.47043363	      0.95828073	      0.00747398	     -0.09478690
      0.47155371	      0.95831881	      0.00718756	     -0.09478690
      0.47267379	      0.95835662	      0.00689517	     -0.09478690
      0.47379387	      0.95839410	      0.00659787	     -0.09478690
      0.47491395	      0.95843114	      0.00629672	     -0.09478690
      0.47603403	      0.95846768	      0.00599277	     -0.09478690
      0.47715411	      0.95850364	      0.00568699	     -0.09478690
      0.47827419	      0.95853894	      0.00538028	     -0.09478690
      0.47939427	      0.95857354	      0.00507342	     -0.09478690
      0.48051435	      0.95860738	      0.00476714	     -0.09478690
      0.48163443	      0.95864044	      0.00446200	     -0.09478690
      0.48275451	      0.95867269	      0.00415854	     -0.09478690
      0.48387459	      0.95870411	      0.00385717	     -0.09478690
      0.48499467	      0.95873470	      0.00355823	     -0.09478690
      0.48611475	      0.95876446	      0.00326197	     -0.09478690
      0.48723483	      0.95879340	      0.00296860	     -0.09478690
      0.48835491	      0.95882154	      0.00267826	     -0.09478690
      0.48947499	      0.95884889	      0.00239103	     -0.09478690
      0.49059507	      0.95887548	      0.00210698	     -0.09478690
      0.49171515	      0.95890133	      0.00182614	     -0.09478690
      0.49283523	      0.95892647	      0.00154852	     -0.09478690
      0.49395531	      0.95895092	      0.00127414	     -0.09478690
      0.49507539	      0.95897471	      0.00100296	     -0.09478690
      0.49619547	      0.95899786	      0.00073496	     -0.09478690
      0.49731555	      0.95902041	      0.00047013	     -0.09478690
      0.49843563	      0.95904237	      0.00020844	     -0.09478690
      0.49955572	      0.95906377	     -0.00005016	     -0.09478690
      0.50067580	      0.95908463	     -0.00030568	     -0.09478690
      0.50179588	      0.95910497	     -0.00055816	     -0.09478690
      0.50291596	      0.95912481	     -0.00080762	     -0.09478690
      0.50403604	      0.95914416	     -0.00105410	     -0.09478690
      0.50515612	      0.95916303	     -0.00129762	     -0.09478690
      0.50627620	      0.95918143	     -0.00153820	     -0.09478690
      0.50739628	      0.95919939	     -0.00177587	     -0.09478690
      0.50851636	      0.95921691	     -0.00201064	     -0.09478690
      0.50963644	      0.95923399	     -0.00224253	     -0.09478690
      0.51075652	      0.95925065	     -0.00247156	     -0.09478690
      0.51187660	      0.95926690	     -0.00269772	     -0.09478690
      0.51299668	      0.95928274	     -0.00292103	     -0.09478690
      0.51411676	      0.95929818	     -0.00314148	     -0.09478690
      0.51523684	      0.95931321	     -0.00335907	     -0.09478690
      0.51635692	      0.95932785	     -0.00357379	     -0.09478690
      0.51747700	      0.95934209	     -0.00378564	     -0.09478690
      0.51859708	      0.95935593	     -0.00399461	     -0.09478690
      0.51971716	      0.95936938	     -0.00420068	     -0.09478690
      0.52083724	      0.95938242	     -0.00440383	     -0.09478690
      0.52195732	      0.95939507	     -0.00460406	     -0.09478690
      0.52307740	      0.95940730	     -0.00480134	     -0.09478690
      0.52419748	      0.95941912	     -0.00499565	     -0.09478690
      0.52531756	      0.95943052	     -0.00518698	     -0.09478690
      0.52643764	      0.95944150	     -0.00537530	     -0.09478690
      0.52755772	      0.95945204	     -0.00556060	     -0.09478690
      0.52867780	      0.95946214	     -0.00574287	     -0.09478690
      0.52979788	      0.95947179	     -0.00592206	     -0.09478690
      0.53091796	      0.95948098	     -0.00609819	     -0.09478690
      0.53203804	      0.95948970	     -0.00627121	     -0.09478690
      0.53315812	      0.95949794	     -0.00644113	     -0.09478690
      0.53427820	      0.95950568	     -0.00660792	     -0.09478690
      0.53539828	      0.95951291	     -0.00677157	     -0.09478690
      0.53651836	      0.95951962	     -0.00693206	     -0.09478690
      0.53763844	      0.95952577	     -0.00708939	     -0.09478690
      0.53875852	      0.95953134	     -0.00724354	     -0.09478690
      0.53987860	      0.95953632	     -0.00739450	     -0.09478690
      0.54099868	      0.95954065	     -0.00754225	     -0.09478690
      0.54211876	      0.95954433	     -0.00768679	     -0.09478690
      0.54323884	      0.95954733	     -0.00782811	     -0.09478690
      0.54435892	      0.95954963	     -0.00796620	     -0.09478690
      0.54547900	      0.95955124	     -0.00810105	     -0.09478690
      0.54659908	      0.95955216	     -0.00823269	     -0.09478690
      0.54771916	      0.95955239	     -0.00836111	     -0.09478690
      0.54883924	      0.95955194	     -0.00848633	     -0.09478690
      0.54995932	      0.95955082	     -0.00860836	     -0.09478690
      0.55107940	      0.95954903	     -0.00872723	     -0.09478690
      0.55219948	      0.95954657	     -0.00884296	     -0.09478690
      0.55331956	      0.95954346	     -0.00895556	     -0.09478690
      0.55443964	      0.95953969	     -0.00906508	     -0.09478690
      0.55555972	      0.95953527	     -0.00917152	     -0.09478690
      0.55667980	      0.95953020	     -0.00927493	     -0.09478690
      0.55779988	      0.95952448	     -0.00937533	     -0.09478690
      0.55891996	      0.95951812	     -0.00947275	     -0.09478690
      0.56004004	      0.95951112	     -0.00956722	     -0.09478690
      0.56116012	      0.95950348	     -0.00965877	     -0.09478690
      0.56228020	      0.95949521	     -0.00974743	     -0.09478690
      0.56340028	      0.95948629	     -0.00983324	     -0.09478690
      0.56452036	      0.95947674	     -0.00991623	     -0.09478690
      0.56564044	      0.95946655	     -0.00999643	     -0.09478690
      0.56676052	      0.95945573	     -0.01007386	     -0.09478690
      0.56788060	      0.95944427	     -0.01014857	     -0.09478690
      0.56900068	      0.95943218	     -0.01022057	     -0.09478690
      0.57012076	      0.95941945	     -0.01028991	     -0.09478690
      0.57124084	      0.95940609	     -0.01035661	     -0.09478690
      0.57236092	      0.95939209	     -0.01042069	     -0.09478690
      0.57348100	      0.95937746	     -0.01048219	     -0.09478690
      0.57460108	      0.95936218	     -0.01054113	     -0.09478690
      0.57572116	      0.95934627	     -0.01059754	     -0.09478690
      0.57684124	      0.95932972	     -0.01065144	     -0.09478690
      0.57796132	      0.95931253	     -0.01070286	     -0.09478690
      0.57908140	      0.95929470	     -0.01075182	     -0.09478690
      0.58020148	      0.95927622	     -0.01079834	     -0.09478690
      0.58132156	      0.95925711	     -0.01084245	     -0.09478690
      0.58244164	      0.95923735	     -0.01088415	     -0.09478690
      0.58356172	      0.95921695	     -0.01092348	     -0.09478690
      0.58468180	      0.95919590	     -0.01096045	     -0.09478690
      0.58580188	      0.95917420	     -0.01099508	     -0.09478690
      0.58692196	      0.95915186	     -0.01102738	     -0.09478690
      0.58804204	      0.95912887	     -0.01105737	     -0.09478690
      0.58916212	      0.95910523	     -0.01108507	     -0.09478690
      0.59028220	      0.95908093	     -0.01111050	     -0.09478690
      0.59140228	      0.95905599	     -0.01113366	     -0.09478690
      0.59252236	      0.95903040	     -0.01115457	     -0.09478690
      0.59364244	      0.95900415	     -0.01117325	     -0.09478690
      0.59476252	      0.95897725	     -0.01118970	     -0.09478690
      0.59588260	      0.95894969	     -0.01120394	     -0.09478690
      0.59700268	      0.95892148	     -0.01121597	     -0.09478690
      0.59812276	      0.95889261	     -0.01122580	     -0.09478690
      0.59924284	      0.95886308	     -0.01123344	     -0.09478690
      0.60036292	      0.95883289	     -0.01123889	     -0.09478690
      0.60148300	      0.95880204	     -0.01124216	     -0.09478690
      0.60260308	      0.95877053	     -0.01124325	     -0.09478690
      0.60372316	      0.95873835	     -0.01124215	     -0.09478690
      0.60484324	      0.95870552	     -0.01123887	     -0.09478690
      0.60596332	      0.95867202	     -0.01123341	     -0.09478690
      0.60708340	      0.95863785	     -0.01122577	     -0.09478690
      0.60820348	      0.95860302	     -0.01121593	     -0.09478690
      0.60932356	      0.95856752	     -0.01120391	     -0.09478690
      0.61044364	      0.95853135	     -0.01118968	     -0.09478690
      0.61156372	      0.95849452	     -0.01117325	     -0.09478690
      0.61268380	      0.95845702	     -0.01115460	     -0.09478690
      0.61380388	      0.95841884	     -0.01113373	     -0.09478690
      0.61492396	      0.95837999	     -0.01111061	     -0.09478690
      0.61604404	      0.95834047	     -0.01108525	     -0.09478690
      0.61716412	      0.95830027	     -0.01105761	     -0.09478690
      0.61828420	      0.95825939	     -0.01102768	     -0.09478690
      0.61940428	      0.95821783	     -0.01099545	     -0.09478690
      0.62052436	      0.95817558	     -0.01096088	     -0.09478690
      0.62164444	      0.95813264	     -0.01092397	     -0.09478690
      0.62276452	      0.95808902	     -0.01088469	     -0.09478690
      0.62388460	      0.95804470	     -0.01084302	     -0.09478690
      0.62500468	      0.95799969	     -0.01079893	     -0.09478690
      0.62612476	      0.95795398	     -0.01075239	     -0.09478690
      0.62724484	      0.95790758	     -0.01070340	     -0.09478690
      0.62836492	      0.95786047	     -0.01065192	     -0.09478690
      0.62948500	      0.95781266	     -0.01059793	     -0.09478690
      0.63060508	      0.95776415	     -0.01054141	     -0.09478690
      0.63172516	      0.95771492	     -0.01048233	     -0.09478690
      0.63284524	      0.95766499	     -0.01042067	     -0.09478690
      0.63396532	      0.95761434	     -0.01035640	     -0.09478690
      0.63508540	      0.95756296	     -0.01028950	     -0.09478690
      0.63620548	      0.95751087	     -0.01021995	     -0.09478690
      0.63732556	      0.95745805	     -0.01014772	     -0.09478690
      0.63844564	      0.95740450	     -0.01007277	     -0.09478690
      0.63956572	      0.95735022	     -0.00999508	     -0.09478690
      0.64068580	      0.95729520	     -0.00991463	     -0.09478690
      0.64180589	      0.95723944	     -0.00983137	     -0.09478690
      0.64292597	      0.95718294	     -0.00974529	     -0.09478690
      0.64404605	      0.95712570	     -0.00965634	     -0.09478690
      0.64516613	      0.95706770	     -0.00956450	     -0.09478690
      0.64628621	      0.95700896	     -0.00946974	     -0.09478690
      0.64740629	      0.95694948	     -0.00937202	     -0.09478690
      0.64852637	      0.95688925	     -0.00927132	     -0.09478690
      0.64964645	      0.95682828	     -0.00916759	     -0.09478690
      0.65076653	      0.95676657	     -0.00906081	     -0.09478690
      0.65188661	      0.95670413	     -0.00895093	     -0.09478690
      0.65300669	      0.95664097	     -0.00883794	     -0.09478690
      0.65412677	      0.95657709	     -0.00872178	     -0.09478690
      0.65524685	      0.95651251	     -0.00860243	     -0.09478690
      0.65636693	      0.95644724	     -0.00847985	     -0.09478690
      0.65748701	      0.95638129	     -0.00835399	     -0.09478690
      0.65860709	      0.95631467	     -0.00822481	     -0.09478690
      0.65972717	      0.95624741	     -0.00809229	     -0.09478690
      0.66084725	      0.95617950	     -0.00795636	     -0.09478690
      0.66196733	      0.95611097	     -0.00781699	     -0.09478690
      0.66308741	      0.95604183	     -0.00767414	     -0.09478690
      0.66420749	      0.95597209	     -0.00752773	     -0.09478690
      0.66532757	      0.95590175	     -0.00737773	     -0.09478690
      0.66644765	      0.95583082	     -0.00722407	     -0.09478690
      0.66756773	      0.95575930	     -0.00706668	     -0.09478690
      0.66868781	      0.95568721	     -0.00690550	     -0.09478690
      0.66980789	      0.95561455	     -0.00674047	     -0.09478690
      0.67092797	      0.95554132	     -0.00657150	     -0.09478690
      0.67204805	      0.95546756	     -0.00639852	     -0.09478690
