PointAcceleration
version=1
nRows=601
nColumns=4
inDegrees=no
No description.
endheader
time	state_0	state_1	state_2
      0.00000000	     -3.15941992	    -55.28648191	      0.00000000
      0.00196968	     -3.24466819	    -57.00863397	      0.00000000
      0.00393936	     -3.37814643	    -58.95750125	      0.00000000
      0.00590904	     -3.55785443	    -61.24440192	      0.00000000
      0.00787872	     -3.77899247	    -64.01436255	      0.00000000
      0.00984840	     -4.04343044	    -67.37824300	      0.00000000
      0.01181808	     -4.36340383	    -71.48467931	      0.00000000
      0.01378776	     -4.77938958	    -76.42688360	      0.00000000
      0.01575744	     -5.37213235	    -82.46346068	      0.00000000
      0.01772712	     -6.27679005	    -90.06874599	      0.00000000
      0.01969680	     -7.70898588	   -100.09017746	      0.00000000
      0.02166648	     -9.93898022	   -113.72081977	      0.00000000
      0.02363616	    -13.25648762	   -132.14823981	      0.00000000
      0.02560584	    -17.84111156	   -156.10280931	      0.00000000
      0.02757552	    -23.62130434	   -185.09619883	      0.00000000
      0.02954520	    -30.11622312	   -216.95417743	      0.00000000
      0.03151488	    -36.31766729	   -248.02256446	      0.00000000
      0.03348456	     -4.27339497	   -148.75387521	      0.00000000
      0.03545424	     14.14303094	   -107.34175863	      0.00000000
      0.03742392	     16.92353970	   -120.40330427	      0.00000000
      0.03939360	     23.49938665	   -119.33987358	      0.00000000
      0.04136328	     26.83336246	   -126.63557964	      0.00000000
      0.04333296	     30.56641879	   -130.05691557	      0.00000000
      0.04530264	     32.78022963	   -135.22770559	      0.00000000
      0.04727232	     34.53829510	   -138.78657373	      0.00000000
      0.04924200	     35.28374203	   -142.41307884	      0.00000000
      0.05121168	     35.30255086	   -145.51730413	      0.00000000
      0.05318136	     34.53451708	   -148.58717246	      0.00000000
      0.05515104	     33.18992860	   -151.49805596	      0.00000000
      0.05712072	     31.44077163	   -154.12003559	      0.00000000
      0.05909040	     29.56076039	   -156.12946694	      0.00000000
      0.06106008	     27.62979251	   -157.52061690	      0.00000000
      0.06302976	     25.75266225	   -158.29810383	      0.00000000
      0.06499944	     23.98002923	   -158.47848181	      0.00000000
      0.06696912	     22.34954275	   -158.13850110	      0.00000000
      0.06893880	     20.90775399	   -157.24552017	      0.00000000
      0.07090848	     19.67936540	   -155.80357917	      0.00000000
      0.07287816	     18.64901592	   -153.87270840	      0.00000000
      0.07484784	     17.78787604	   -151.51057165	      0.00000000
      0.07681752	     17.02355313	   -148.94284874	      0.00000000
      0.07878720	     16.28678183	   -146.42171932	      0.00000000
      0.08075688	     15.58891206	   -144.02642115	      0.00000000
      0.08272656	     14.91840634	   -141.83312768	      0.00000000
      0.08469624	     14.29367594	   -139.76353059	      0.00000000
      0.08666592	     13.73502984	   -137.71015552	      0.00000000
      0.08863560	     13.23809128	   -135.62982688	      0.00000000
      0.09060528	     12.78722338	   -133.47294528	      0.00000000
      0.09257496	     12.34238298	   -131.33008251	      0.00000000
      0.09454464	     11.87122536	   -129.28953321	      0.00000000
      0.09651432	     11.39533942	   -127.36389845	      0.00000000
      0.09848400	     10.92680120	   -125.56946295	      0.00000000
      0.10045368	     10.48556810	   -123.86599321	      0.00000000
      0.10242336	     10.08422858	   -122.21414530	      0.00000000
      0.10439304	      9.70898688	   -120.61177200	      0.00000000
      0.10636272	      9.34916167	   -119.05814980	      0.00000000
      0.10833240	      8.99969443	   -117.55419223	      0.00000000
      0.11030208	      8.65585893	   -116.10061829	      0.00000000
      0.11227176	      8.32160494	   -114.69000684	      0.00000000
      0.11424144	      8.00058832	   -113.31248282	      0.00000000
      0.11621112	      7.69420177	   -111.96444671	      0.00000000
      0.11818080	      7.40470587	   -110.63968295	      0.00000000
      0.12015048	      7.13018478	   -109.34119411	      0.00000000
      0.12212016	      6.86972383	   -108.07005060	      0.00000000
      0.12408984	      6.62163121	   -106.83027166	      0.00000000
      0.12605952	      6.38483673	   -105.62455081	      0.00000000
      0.12802920	      6.15903050	   -104.45433025	      0.00000000
      0.12999888	      5.94426978	   -103.32007624	      0.00000000
      0.13196856	      5.74056198	   -102.22140895	      0.00000000
      0.13393824	      5.54820708	   -101.15731327	      0.00000000
      0.13590792	      5.36685793	   -100.12694842	      0.00000000
      0.13787760	      5.19646187	    -99.12891131	      0.00000000
      0.13984728	      5.03615603	    -98.16286653	      0.00000000
      0.14181696	      4.88537762	    -97.22786890	      0.00000000
      0.14378664	      4.74265641	    -96.32494873	      0.00000000
      0.14575632	      4.60668847	    -95.45476788	      0.00000000
      0.14772600	      4.47600054	    -94.61897532	      0.00000000
      0.14969568	      4.34907374	    -93.81923194	      0.00000000
      0.15166536	      4.22528175	    -93.05591814	      0.00000000
      0.15363504	      4.10385229	    -92.32960437	      0.00000000
      0.15560472	      3.98502515	    -91.63865399	      0.00000000
      0.15757440	      3.86895504	    -90.98156649	      0.00000000
      0.15954408	      3.75594941	    -90.35581013	      0.00000000
      0.16151376	      3.64634378	    -89.75888464	      0.00000000
      0.16348344	      3.53988076	    -89.18883073	      0.00000000
      0.16545312	      3.43638688	    -88.64366367	      0.00000000
      0.16742280	      3.33509438	    -88.12242680	      0.00000000
      0.16939248	      3.23530342	    -87.62410922	      0.00000000
      0.17136216	      3.13610761	    -87.14840705	      0.00000000
      0.17333184	      3.03661886	    -86.69497468	      0.00000000
      0.17530152	      2.93604998	    -86.26371805	      0.00000000
      0.17727120	      2.83355065	    -85.85460881	      0.00000000
      0.17924088	      2.72861791	    -85.46737364	      0.00000000
      0.18121056	      2.62060650	    -85.10199517	      0.00000000
      0.18318024	      2.50950734	    -84.75740441	      0.00000000
      0.18514992	      2.39478518	    -84.43330088	      0.00000000
      0.18711960	      2.27619893	    -84.12979956	      0.00000000
      0.18908928	      2.15379320	    -83.84493643	      0.00000000
      0.19105896	      2.02785312	    -83.57778052	      0.00000000
      0.19302864	      1.89730541	    -83.32946749	      0.00000000
      0.19499832	      1.76272105	    -83.09818352	      0.00000000
      0.19696800	      1.62437651	    -82.88218929	      0.00000000
      0.19893768	      1.48164743	    -82.68172689	      0.00000000
      0.20090736	      1.33410182	    -82.49704600	      0.00000000
      0.20287704	      1.18215471	    -82.32717707	      0.00000000
      0.20484672	      1.02613138	    -82.17112727	      0.00000000
      0.20681640	      0.86643733	    -82.02763084	      0.00000000
      0.20878608	      0.70345011	    -81.89539063	      0.00000000
      0.21075576	      0.53730627	    -81.77366634	      0.00000000
      0.21272544	      0.36817264	    -81.66177065	      0.00000000
      0.21469512	      0.19655083	    -81.55855263	      0.00000000
      0.21666480	      0.02289483	    -81.46285360	      0.00000000
      0.21863448	     -0.15240921	    -81.37367314	      0.00000000
      0.22060416	     -0.32896747	    -81.29001651	      0.00000000
      0.22257384	     -0.50633331	    -81.21082044	      0.00000000
      0.22454352	     -0.68406426	    -81.13499628	      0.00000000
      0.22651320	     -0.86180553	    -81.06162152	      0.00000000
      0.22848288	     -1.03918685	    -80.98972997	      0.00000000
      0.23045256	     -1.21596666	    -80.91864197	      0.00000000
      0.23242224	     -1.39188926	    -80.84765856	      0.00000000
      0.23439192	     -1.56668828	    -80.77611134	      0.00000000
      0.23636160	     -1.74010186	    -80.70331808	      0.00000000
      0.23833128	     -1.91189739	    -80.62864687	      0.00000000
      0.24030096	     -2.08184015	    -80.55144483	      0.00000000
      0.24227064	     -2.24977839	    -80.47120193	      0.00000000
      0.24424032	     -2.41555157	    -80.38738067	      0.00000000
      0.24621000	     -2.57909465	    -80.29964058	      0.00000000
      0.24817968	     -2.74033430	    -80.20762136	      0.00000000
      0.25014936	     -2.89925211	    -80.11110321	      0.00000000
      0.25211904	     -3.05583464	    -80.00986739	      0.00000000
      0.25408872	     -3.21008235	    -79.90374783	      0.00000000
      0.25605840	     -3.36201209	    -79.79259339	      0.00000000
      0.25802808	     -3.51165183	    -79.67629113	      0.00000000
      0.25999776	     -3.65904533	    -79.55474776	      0.00000000
      0.26196744	     -3.80422694	    -79.42788146	      0.00000000
      0.26393712	     -3.94724644	    -79.29563613	      0.00000000
      0.26590680	     -4.08811904	    -79.15792310	      0.00000000
      0.26787648	     -4.22688374	    -79.01469845	      0.00000000
      0.26984616	     -4.36350334	    -78.86579856	      0.00000000
      0.27181584	     -4.49796147	    -78.71110153	      0.00000000
      0.27378552	     -4.63016849	    -78.55035037	      0.00000000
      0.27575520	     -4.76000662	    -78.38322870	      0.00000000
      0.27772488	     -4.88763696	    -78.20988345	      0.00000000
      0.27969456	     -5.01316584	    -78.03034270	      0.00000000
      0.28166424	     -5.13728782	    -77.84574465	      0.00000000
      0.28363392	     -5.26078341	    -77.65738489	      0.00000000
      0.28560360	     -5.38397341	    -77.46609305	      0.00000000
      0.28757328	     -5.50741271	    -77.27313479	      0.00000000
      0.28954296	     -5.62983376	    -77.07681510	      0.00000000
      0.29151264	     -5.75000071	    -76.87547598	      0.00000000
      0.29348232	     -5.86651241	    -76.66663096	      0.00000000
      0.29545200	     -5.97769948	    -76.44732944	      0.00000000
      0.29742168	     -6.08447375	    -76.21837334	      0.00000000
      0.29939136	     -6.18760163	    -75.98040786	      0.00000000
      0.30136104	     -6.28912189	    -75.73660687	      0.00000000
      0.30333072	     -6.39125289	    -75.49048932	      0.00000000
      0.30530040	     -6.49434025	    -75.24330785	      0.00000000
      0.30727008	     -6.59905480	    -74.99679874	      0.00000000
      0.30923976	     -6.70324076	    -74.74817783	      0.00000000
      0.31120944	     -6.80459822	    -74.49429320	      0.00000000
      0.31317913	     -6.90237846	    -74.23367756	      0.00000000
      0.31514881	     -6.99554075	    -73.96441304	      0.00000000
      0.31711849	     -7.08620049	    -73.68941551	      0.00000000
      0.31908817	     -7.17664112	    -73.41202247	      0.00000000
      0.32105785	     -7.26777264	    -73.13413453	      0.00000000
      0.32302753	     -7.36072722	    -72.85799394	      0.00000000
      0.32499721	     -7.45421704	    -72.58221574	      0.00000000
      0.32696689	     -7.54712787	    -72.30566472	      0.00000000
      0.32893657	     -7.63718737	    -72.02478313	      0.00000000
      0.33090625	     -7.72178828	    -71.73543355	      0.00000000
      0.33287593	     -7.80154441	    -71.43773933	      0.00000000
      0.33484561	     -7.87680356	    -71.13151215	      0.00000000
      0.33681529	     -7.95022463	    -70.82048156	      0.00000000
      0.33878497	     -8.02464307	    -70.50875292	      0.00000000
      0.34075465	     -8.10072045	    -70.19799410	      0.00000000
      0.34272433	     -8.17943517	    -69.89028815	      0.00000000
      0.34469401	     -8.25866682	    -69.58313659	      0.00000000
      0.34666369	     -8.33626226	    -69.27385184	      0.00000000
      0.34863337	     -8.41033019	    -68.95956578	      0.00000000
      0.35060305	     -8.47830600	    -68.63620695	      0.00000000
      0.35257273	     -8.54423836	    -68.30946467	      0.00000000
      0.35454241	     -8.61300740	    -67.98665177	      0.00000000
      0.35651209	     -8.68419400	    -67.66824557	      0.00000000
      0.35848177	     -8.75781611	    -67.35534686	      0.00000000
      0.36045145	     -8.82877581	    -67.04086811	      0.00000000
      0.36242113	     -8.89151588	    -66.71687376	      0.00000000
      0.36439081	     -8.94580000	    -66.38163894	      0.00000000
      0.36636049	     -8.99215114	    -66.03528544	      0.00000000
      0.36833017	     -9.02365808	    -65.66655968	      0.00000000
      0.37029985	     -9.02946065	    -65.25726669	      0.00000000
      0.37226953	     -9.02410091	    -64.82590874	      0.00000000
      0.37423921	     -9.02187779	    -64.39056384	      0.00000000
      0.37620889	     -9.04698403	    -63.98919187	      0.00000000
      0.37817857	     -9.13096124	    -63.67209233	      0.00000000
      0.38014825	     -9.25075671	    -63.41414919	      0.00000000
      0.38211793	     -9.38503462	    -63.19231847	      0.00000000
      0.38408761	     -9.48328470	    -62.93133620	      0.00000000
      0.38605729	     -9.48115566	    -62.53209701	      0.00000000
      0.38802697	     -9.43219490	    -62.05565608	      0.00000000
      0.38999665	     -9.39690793	    -61.57827893	      0.00000000
      0.39196633	     -9.40103457	    -61.14273967	      0.00000000
      0.39393601	     -9.47442687	    -60.79710248	      0.00000000
      0.39590569	     -9.58496936	    -60.50611867	      0.00000000
      0.39787537	     -9.69798847	    -60.22801685	      0.00000000
      0.39984505	     -9.79575245	    -59.93604729	      0.00000000
      0.40181473	     -9.85962166	    -59.60262635	      0.00000000
      0.40378441	     -9.90061112	    -59.23822663	      0.00000000
      0.40575409	     -9.93070925	    -58.85612307	      0.00000000
      0.40772377	     -9.95715023	    -58.46595150	      0.00000000
      0.40969345	     -9.98677126	    -58.07668289	      0.00000000
      0.41166313	    -10.01738152	    -57.68631594	      0.00000000
      0.41363281	    -10.04614777	    -57.29138714	      0.00000000
      0.41560249	    -10.07203733	    -56.89039036	      0.00000000
      0.41757217	    -10.09419596	    -56.48199295	      0.00000000
      0.41954185	    -10.11377148	    -56.06736031	      0.00000000
      0.42151153	    -10.13233604	    -55.64837472	      0.00000000
      0.42348121	    -10.14835449	    -55.22263563	      0.00000000
      0.42545089	    -10.15960470	    -54.78665605	      0.00000000
      0.42742057	    -10.16548100	    -54.33854037	      0.00000000
      0.42939025	    -10.16435058	    -53.87473580	      0.00000000
      0.43135993	    -10.16070859	    -53.40002426	      0.00000000
      0.43332961	    -10.15951911	    -52.91969973	      0.00000000
      0.43529929	    -10.16283913	    -52.43654803	      0.00000000
      0.43726897	    -10.17431742	    -51.95409680	      0.00000000
      0.43923865	    -10.19037362	    -51.47020082	      0.00000000
      0.44120833	    -10.21071465	    -50.98326774	      0.00000000
      0.44317801	    -10.22587819	    -50.47940539	      0.00000000
      0.44514769	    -10.22680530	    -49.94501920	      0.00000000
      0.44711737	    -10.20526628	    -49.36475335	      0.00000000
      0.44908705	    -10.14905866	    -48.71682530	      0.00000000
      0.45105673	    -10.07657636	    -48.01820176	      0.00000000
      0.45302641	    -10.01075445	    -47.29243656	      0.00000000
      0.45499609	     -9.94997289	    -46.53560707	      0.00000000
      0.45696577	     -9.89084645	    -45.74029524	      0.00000000
      0.45893545	     -9.82639894	    -44.89335754	      0.00000000
      0.46090513	     -9.74875259	    -43.97966010	      0.00000000
      0.46287481	     -9.65929283	    -42.99430157	      0.00000000
      0.46484449	     -9.55920650	    -41.93210877	      0.00000000
      0.46681417	     -9.45303549	    -40.79356228	      0.00000000
      0.46878385	     -9.34524566	    -39.58002587	      0.00000000
      0.47075353	     -9.23734346	    -38.29225719	      0.00000000
      0.47272321	     -9.13157515	    -36.93453546	      0.00000000
      0.47469289	     -9.02391168	    -35.50606994	      0.00000000
      0.47666257	     -8.91176448	    -34.01148733	      0.00000000
      0.47863225	     -8.78660166	    -32.44892397	      0.00000000
      0.48060193	     -8.64155830	    -30.82144533	      0.00000000
      0.48257161	     -8.46604765	    -29.12470256	      0.00000000
      0.48454129	     -8.24822750	    -27.35212616	      0.00000000
      0.48651097	     -7.98300311	    -25.49650523	      0.00000000
      0.48848065	     -7.65977832	    -23.53774675	      0.00000000
      0.49045033	     -7.27894221	    -21.45510440	      0.00000000
      0.49242001	     -6.83345337	    -19.20370730	      0.00000000
      0.49438969	     -6.32328990	    -16.73239893	      0.00000000
      0.49635937	     -5.74201096	    -13.95956939	      0.00000000
      0.49832905	     -5.09155065	    -10.81423900	      0.00000000
      0.50029873	     -4.37081053	     -7.21415660	      0.00000000
      0.50226841	     -3.59286534	     -3.12640879	      0.00000000
      0.50423809	     -2.78361228	      1.43621739	      0.00000000
      0.50620777	     -1.94997052	      6.42417717	      0.00000000
      0.50817745	     -1.13041101	     11.67816167	      0.00000000
      0.51014713	     -0.29924745	     17.06661513	      0.00000000
      0.51211681	      0.54058215	     22.35845374	      0.00000000
      0.51408649	      1.40906733	     27.37738634	      0.00000000
      0.51605617	      2.32154574	     31.94624889	      0.00000000
      0.51802585	      3.24735670	     35.92467683	      0.00000000
      0.51999553	      4.16086228	     39.24559385	      0.00000000
      0.52196521	      5.06898184	     41.92642293	      0.00000000
      0.52393489	      5.89572846	     43.95991784	      0.00000000
      0.52590457	      7.00041515	     45.37598897	      0.00000000
      0.52787425	      7.79887929	     46.44333709	      0.00000000
      0.52984393	      8.63146420	     47.10371158	      0.00000000
      0.53181361	      9.34521095	     47.32281823	      0.00000000
      0.53378329	      9.96801530	     47.26759692	      0.00000000
      0.53575297	     10.53682331	     47.00216434	      0.00000000
      0.53772265	     11.01298769	     46.54749367	      0.00000000
      0.53969233	     11.41748424	     45.92783685	      0.00000000
      0.54166201	     11.73680820	     45.13632052	      0.00000000
      0.54363169	     11.97647383	     44.15865673	      0.00000000
      0.54560137	     12.14160919	     42.99056186	      0.00000000
      0.54757105	     12.22929366	     41.59916620	      0.00000000
      0.54954073	     12.25674820	     40.00467471	      0.00000000
      0.55151041	     12.22659263	     38.20108981	      0.00000000
      0.55348009	     12.16742329	     36.25512729	      0.00000000
      0.55544977	     12.10145620	     34.26269117	      0.00000000
      0.55741945	     12.00345823	     32.33821183	      0.00000000
      0.55938913	     11.82731159	     30.62089344	      0.00000000
      0.56135881	     11.60822194	     29.03406811	      0.00000000
      0.56332849	     11.39620963	     27.43324473	      0.00000000
      0.56529817	     11.18369453	     25.78836989	      0.00000000
      0.56726785	     10.95760648	     24.11135577	      0.00000000
      0.56923753	     10.71375792	     22.42028242	      0.00000000
      0.57120721	     10.44933846	     20.72745430	      0.00000000
      0.57317689	     10.16841681	     19.05154258	      0.00000000
      0.57514657	      9.87715055	     17.41450771	      0.00000000
      0.57711625	      9.58288420	     15.83698272	      0.00000000
      0.57908593	      9.29352964	     14.33960630	      0.00000000
      0.58105561	      9.01392482	     12.93375305	      0.00000000
      0.58302529	      8.74937713	     11.63061185	      0.00000000
      0.58499497	      8.50249557	     10.43375162	      0.00000000
      0.58696465	      8.27652707	      9.34721884	      0.00000000
      0.58893433	      8.07380859	      8.37193135	      0.00000000
      0.59090401	      7.89704659	      7.50899447	      0.00000000
      0.59287369	      7.74877773	      6.75850755	      0.00000000
      0.59484337	      7.63152952	      6.12017530	      0.00000000
      0.59681305	      7.54762160	      5.59303838	      0.00000000
      0.59878273	      7.49937354	      5.17590737	      0.00000000
      0.60075241	      7.48849338	      4.86638287	      0.00000000
      0.60272209	      7.51688712	      4.66242661	      0.00000000
      0.60469177	      7.58469550	      4.55887886	      0.00000000
      0.60666145	      7.69085347	      4.55137553	      0.00000000
      0.60863113	      7.83202607	      4.62996939	      0.00000000
      0.61060081	      8.00458180	      4.78387846	      0.00000000
      0.61257049	      8.20180117	      4.99731166	      0.00000000
      0.61454017	      8.41529934	      5.25268276	      0.00000000
      0.61650985	      8.63617700	      5.53212170	      0.00000000
      0.61847953	      8.85351585	      5.81557523	      0.00000000
      0.62044921	      9.05950551	      6.08877379	      0.00000000
      0.62241889	      9.24491652	      6.33607175	      0.00000000
      0.62438857	      9.40544473	      6.55036639	      0.00000000
      0.62635825	      9.53685087	      6.72509579	      0.00000000
      0.62832793	      9.63747729	      6.85838419	      0.00000000
      0.63029761	      9.70731818	      6.95098554	      0.00000000
      0.63226729	      9.74240896	      6.99836232	      0.00000000
      0.63423697	      9.74203737	      7.00096421	      0.00000000
      0.63620665	      9.69202512	      6.94011626	      0.00000000
      0.63817633	      9.58410524	      6.80622244	      0.00000000
      0.64014601	      9.38283161	      6.55137257	      0.00000000
      0.64211569	      9.06285187	      6.14261926	      0.00000000
      0.64408537	      8.55261999	      5.48236799	      0.00000000
      0.64605505	      7.79286111	      4.48826759	      0.00000000
      0.64802473	      6.68145653	      3.01403824	      0.00000000
      0.64999441	      5.12458224	      0.90764706	      0.00000000
      0.65196409	      3.13847158	     -1.85883379	      0.00000000
      0.65393377	      0.79424532	     -5.28716645	      0.00000000
      0.65590345	     -1.52880340	     -8.95658985	      0.00000000
      0.65787313	     -3.47933172	    -12.43813799	      0.00000000
      0.65984281	     -4.79780150	    -15.29328689	      0.00000000
      0.66181249	     -5.49224466	    -17.33293841	      0.00000000
      0.66378217	     -5.52792992	    -18.48971497	      0.00000000
      0.66575185	     -5.47952697	    -19.17358470	      0.00000000
      0.66772153	     -5.42031533	    -19.53191832	      0.00000000
      0.66969121	     -5.33070481	    -19.62210681	      0.00000000
      0.67166089	     -5.20188943	    -19.53331397	      0.00000000
      0.67363057	     -5.02930945	    -19.32532844	      0.00000000
      0.67560025	     -4.81626028	    -19.04192581	      0.00000000
      0.67756993	     -4.57355219	    -18.72023594	      0.00000000
      0.67953961	     -4.31027922	    -18.37908184	      0.00000000
      0.68150929	     -4.03864547	    -18.04009889	      0.00000000
      0.68347897	     -3.76568660	    -17.71174344	      0.00000000
      0.68544865	     -3.49996175	    -17.40619345	      0.00000000
      0.68741833	     -3.24552029	    -17.12688890	      0.00000000
      0.68938801	     -3.00736853	    -16.87989841	      0.00000000
      0.69135769	     -2.78713166	    -16.66526427	      0.00000000
      0.69332737	     -2.58698078	    -16.48447274	      0.00000000
      0.69529705	     -2.40662897	    -16.33488558	      0.00000000
      0.69726673	     -2.24579794	    -16.21450974	      0.00000000
      0.69923641	     -2.10221505	    -16.11972997	      0.00000000
      0.70120609	     -1.97398684	    -16.04661411	      0.00000000
      0.70317577	     -1.85918988	    -15.99126949	      0.00000000
      0.70514545	     -1.75555392	    -15.94960014	      0.00000000
      0.70711513	     -1.66158083	    -15.91899224	      0.00000000
      0.70908481	     -1.57540602	    -15.89648825	      0.00000000
      0.71105449	     -1.49620815	    -15.88082379	      0.00000000
      0.71302417	     -1.42285828	    -15.87037130	      0.00000000
      0.71499385	     -1.35502213	    -15.86467822	      0.00000000
      0.71696353	     -1.29215457	    -15.86301210	      0.00000000
      0.71893321	     -1.23410481	    -15.86518405	      0.00000000
      0.72090289	     -1.18060522	    -15.87084222	      0.00000000
      0.72287257	     -1.13149387	    -15.87977731	      0.00000000
      0.72484225	     -1.08655548	    -15.89170629	      0.00000000
      0.72681193	     -1.04556765	    -15.90635214	      0.00000000
      0.72878161	     -1.00828180	    -15.92340713	      0.00000000
      0.73075129	     -0.97445131	    -15.94259188	      0.00000000
      0.73272097	     -0.94380666	    -15.96360630	      0.00000000
      0.73469065	     -0.91614408	    -15.98625506	      0.00000000
      0.73666033	     -0.89124945	    -16.01033682	      0.00000000
      0.73863001	     -0.86901604	    -16.03578082	      0.00000000
      0.74059969	     -0.84935635	    -16.06253791	      0.00000000
      0.74256937	     -0.83221905	    -16.09057910	      0.00000000
      0.74453905	     -0.81756418	    -16.11988513	      0.00000000
      0.74650873	     -0.80525867	    -16.15030916	      0.00000000
      0.74847841	     -0.79513531	    -16.18167102	      0.00000000
      0.75044809	     -0.78696351	    -16.21371224	      0.00000000
      0.75241777	     -0.78047389	    -16.24614142	      0.00000000
      0.75438745	     -0.77555392	    -16.27883023	      0.00000000
      0.75635713	     -0.77211627	    -16.31167685	      0.00000000
      0.75832681	     -0.77031115	    -16.34481800	      0.00000000
      0.76029649	     -0.77035038	    -16.37841849	      0.00000000
      0.76226617	     -0.77247241	    -16.41261220	      0.00000000
      0.76423585	     -0.77685346	    -16.44753592	      0.00000000
      0.76620553	     -0.78346886	    -16.48315961	      0.00000000
      0.76817521	     -0.79228527	    -16.51944390	      0.00000000
      0.77014489	     -0.80316652	    -16.55628893	      0.00000000
      0.77211457	     -0.81609095	    -16.59371448	      0.00000000
      0.77408425	     -0.83086729	    -16.63159079	      0.00000000
      0.77605393	     -0.84726906	    -16.66976234	      0.00000000
      0.77802361	     -0.86482480	    -16.70781732	      0.00000000
      0.77999329	     -0.88267301	    -16.74497775	      0.00000000
      0.78196297	     -0.90078717	    -16.78123311	      0.00000000
      0.78393265	     -0.91967331	    -16.81708302	      0.00000000
      0.78590233	     -0.94033671	    -16.85345995	      0.00000000
      0.78787201	     -0.96381305	    -16.89131767	      0.00000000
      0.78984169	     -0.99003685	    -16.93055851	      0.00000000
      0.79181137	     -1.01843631	    -16.97061315	      0.00000000
      0.79378105	     -1.04801808	    -17.01053995	      0.00000000
      0.79575073	     -1.07799229	    -17.04959233	      0.00000000
      0.79772041	     -1.10842368	    -17.08783650	      0.00000000
      0.79969009	     -1.13958260	    -17.12552785	      0.00000000
      0.80165977	     -1.17219537	    -17.16334344	      0.00000000
      0.80362945	     -1.20706534	    -17.20203462	      0.00000000
      0.80559913	     -1.24411555	    -17.24152739	      0.00000000
      0.80756881	     -1.28190482	    -17.28052197	      0.00000000
      0.80953849	     -1.31980291	    -17.31840929	      0.00000000
      0.81150817	     -1.28831559	    -17.29710770	      0.00000000
      0.81347785	     -1.33092779	    -17.33568689	      0.00000000
      0.81544753	     -1.37408290	    -17.37352494	      0.00000000
      0.81741721	     -1.41847641	    -17.41126908	      0.00000000
      0.81938689	     -1.46453243	    -17.44934009	      0.00000000
      0.82135657	     -1.51203464	    -17.48748504	      0.00000000
      0.82332625	     -1.56109579	    -17.52572872	      0.00000000
      0.82529593	     -1.61175935	    -17.56397391	      0.00000000
      0.82726561	     -1.66411146	    -17.60212722	      0.00000000
      0.82923529	     -1.71816092	    -17.64017562	      0.00000000
      0.83120497	     -1.77392013	    -17.67812797	      0.00000000
      0.83317465	     -1.83136162	    -17.71603626	      0.00000000
      0.83514433	     -1.89045480	    -17.75396775	      0.00000000
      0.83711401	     -1.95120191	    -17.79191905	      0.00000000
      0.83908369	     -2.01361362	    -17.82988147	      0.00000000
      0.84105337	     -2.07772440	    -17.86782400	      0.00000000
      0.84302305	     -2.14357036	    -17.90571580	      0.00000000
      0.84499273	     -2.21118021	    -17.94355753	      0.00000000
      0.84696241	     -2.28058100	    -17.98135464	      0.00000000
      0.84893209	     -2.35179140	    -18.01913479	      0.00000000
      0.85090177	     -2.42482921	    -18.05692680	      0.00000000
      0.85287145	     -2.49971208	    -18.09477169	      0.00000000
      0.85484113	     -2.57645836	    -18.13271246	      0.00000000
      0.85681081	     -2.65509058	    -18.17080522	      0.00000000
      0.85878049	     -2.73563192	    -18.20910810	      0.00000000
      0.86075017	     -2.81810925	    -18.24769372	      0.00000000
      0.86271985	     -2.90255028	    -18.28663593	      0.00000000
      0.86468953	     -2.98898366	    -18.32602280	      0.00000000
      0.86665921	     -3.07743914	    -18.36594306	      0.00000000
      0.86862889	     -3.16794357	    -18.40649813	      0.00000000
      0.87059857	     -3.26052487	    -18.44779036	      0.00000000
      0.87256825	     -3.35520259	    -18.48993051	      0.00000000
      0.87453793	     -3.45199634	    -18.53303091	      0.00000000
      0.87650761	     -3.55090907	    -18.57720408	      0.00000000
      0.87847729	     -3.65194137	    -18.62256432	      0.00000000
      0.88044697	     -3.75506776	    -18.66921490	      0.00000000
      0.88241665	     -3.86025628	    -18.71725951	      0.00000000
      0.88438633	     -3.96744362	    -18.76678127	      0.00000000
      0.88635601	     -4.07655456	    -18.81786053	      0.00000000
      0.88832569	     -4.18748602	    -18.87055485	      0.00000000
      0.89029537	     -4.30011792	    -18.92491546	      0.00000000
      0.89226505	     -4.41431195	    -18.98097615	      0.00000000
      0.89423473	     -4.52990909	    -19.03876206	      0.00000000
      0.89620441	     -4.64673644	    -19.09828492	      0.00000000
      0.89817409	     -4.76459709	    -19.15954623	      0.00000000
      0.90014377	     -4.88327030	    -19.22252776	      0.00000000
      0.90211345	     -5.00250683	    -19.28719789	      0.00000000
      0.90408313	     -5.12201726	    -19.35349438	      0.00000000
      0.90605281	     -5.24147984	    -19.42133754	      0.00000000
      0.90802249	     -5.36052818	    -19.49061738	      0.00000000
      0.90999217	     -5.47876492	    -19.56120588	      0.00000000
      0.91196185	     -5.59575901	    -19.63295850	      0.00000000
      0.91393153	     -5.71105494	    -19.70571617	      0.00000000
      0.91590121	     -5.82417378	    -19.77931306	      0.00000000
      0.91787089	     -5.93461785	    -19.85356937	      0.00000000
      0.91984057	     -6.04187373	    -19.92830111	      0.00000000
      0.92181025	     -6.14542164	    -20.00331481	      0.00000000
      0.92377993	     -6.24473653	    -20.07841414	      0.00000000
      0.92574961	     -6.33930125	    -20.15339713	      0.00000000
      0.92771929	     -6.42860989	    -20.22806335	      0.00000000
      0.92968897	     -6.51216224	    -20.30218969	      0.00000000
      0.93165865	     -6.58954643	    -20.37562554	      0.00000000
      0.93362833	     -6.66043940	    -20.44828543	      0.00000000
      0.93559802	     -6.72455069	    -20.52008896	      0.00000000
      0.93756770	     -6.78166275	    -20.59098540	      0.00000000
      0.93953738	     -6.83151835	    -20.66084266	      0.00000000
      0.94150706	     -6.87461821	    -20.73033513	      0.00000000
      0.94347674	     -6.91093505	    -20.79957025	      0.00000000
      0.94544642	     -7.00588611	    -20.95902423	      0.00000000
      0.94741610	     -7.02698603	    -21.02607163	      0.00000000
      0.94938578	     -7.04171023	    -21.09307584	      0.00000000
      0.95135546	     -7.04931823	    -21.15882053	      0.00000000
      0.95332514	     -7.05006422	    -21.22325135	      0.00000000
      0.95529482	     -7.04505426	    -21.28738083	      0.00000000
      0.95726450	     -7.03491177	    -21.35161147	      0.00000000
      0.95923418	     -7.01971483	    -21.41557597	      0.00000000
      0.96120386	     -6.99903575	    -21.47812331	      0.00000000
      0.96317354	     -6.97324912	    -21.53907260	      0.00000000
      0.96514322	     -6.94345076	    -21.59924054	      0.00000000
      0.96711290	     -6.91119476	    -21.66015593	      0.00000000
      0.96908258	     -6.87800781	    -21.72346461	      0.00000000
      0.97105226	     -6.84395155	    -21.78885605	      0.00000000
      0.97302194	     -6.80825920	    -21.85480990	      0.00000000
      0.97499162	     -6.77010096	    -21.91961564	      0.00000000
      0.97696130	     -6.72918292	    -21.98226495	      0.00000000
      0.97893098	     -6.68631001	    -22.04334702	      0.00000000
      0.98090066	     -6.64225366	    -22.10352610	      0.00000000
      0.98287034	     -6.59795219	    -22.16379925	      0.00000000
      0.98484002	     -6.55412369	    -22.22494827	      0.00000000
      0.98680970	     -6.51102586	    -22.28711091	      0.00000000
      0.98877938	     -6.46892222	    -22.35043890	      0.00000000
      0.99074906	     -6.42767975	    -22.41451066	      0.00000000
      0.99271874	     -6.38715492	    -22.47890434	      0.00000000
      0.99468842	     -6.34716848	    -22.54311241	      0.00000000
      0.99665810	     -6.30752481	    -22.60662922	      0.00000000
      0.99862778	     -6.26822346	    -22.66933073	      0.00000000
      1.00059746	     -6.22927266	    -22.73118411	      0.00000000
      1.00256714	     -6.19081635	    -22.79245105	      0.00000000
      1.00453682	     -6.15296853	    -22.85340993	      0.00000000
      1.00650650	     -6.11578184	    -22.91426981	      0.00000000
      1.00847618	     -6.07928911	    -22.97521949	      0.00000000
      1.01044586	     -6.04346009	    -23.03632333	      0.00000000
      1.01241554	     -6.00830812	    -23.09769596	      0.00000000
      1.01438522	     -5.97388679	    -23.15948466	      0.00000000
      1.01635490	     -5.94030611	    -23.22190903	      0.00000000
      1.01832458	     -5.90774317	    -23.28527427	      0.00000000
      1.02029426	     -5.87641212	    -23.34993402	      0.00000000
      1.02226394	     -5.84657044	    -23.41629378	      0.00000000
      1.02423362	     -5.81850777	    -23.48480550	      0.00000000
      1.02620330	     -5.79254842	    -23.55596717	      0.00000000
      1.02817298	     -5.76905124	    -23.63033734	      0.00000000
      1.03014266	     -5.74840653	    -23.70853147	      0.00000000
      1.03211234	     -5.73103204	    -23.79122780	      0.00000000
      1.03408202	     -5.71735620	    -23.87914326	      0.00000000
      1.03605170	     -5.70781835	    -23.97304330	      0.00000000
      1.03802138	     -5.70283855	    -24.07369517	      0.00000000
      1.03999106	     -5.70282762	    -24.18189226	      0.00000000
      1.04196074	     -5.70815386	    -24.29840571	      0.00000000
      1.04393042	     -5.71915464	    -24.42400737	      0.00000000
      1.04590010	     -5.73610778	    -24.55943523	      0.00000000
      1.04786978	     -5.75923681	    -24.70539853	      0.00000000
      1.04983946	     -5.78868561	    -24.86255071	      0.00000000
      1.05180914	     -5.82452254	    -25.03148341	      0.00000000
      1.05377882	     -5.86675258	    -25.21269062	      0.00000000
      1.05574850	     -5.91546182	    -25.40656383	      0.00000000
      1.05771818	     -5.97040170	    -25.61336991	      0.00000000
      1.05968786	     -6.03118636	    -25.83325626	      0.00000000
      1.06165754	     -6.09731165	    -26.06620800	      0.00000000
      1.06362722	     -6.16817481	    -26.31207397	      0.00000000
      1.06559690	     -6.24306987	    -26.57053799	      0.00000000
      1.06756658	     -6.32120681	    -26.84114648	      0.00000000
      1.06953626	     -6.40171986	    -27.12330061	      0.00000000
      1.07150594	     -6.48368453	    -27.41627902	      0.00000000
      1.07347562	     -6.56613582	    -27.71925073	      0.00000000
      1.07544530	     -6.64808226	    -28.03129101	      0.00000000
      1.07741498	     -6.72852860	    -28.35140811	      0.00000000
      1.07938466	     -6.80648771	    -28.67855429	      0.00000000
      1.08135434	     -6.88100203	    -29.01165977	      0.00000000
      1.08332402	     -6.95115476	    -29.34964150	      0.00000000
      1.08529370	     -7.01608422	    -29.69143719	      0.00000000
      1.08726338	     -7.07499534	    -30.03601161	      0.00000000
      1.08923306	     -7.12716284	    -30.38238414	      0.00000000
      1.09120274	     -7.17194413	    -30.72963287	      0.00000000
      1.09317242	     -7.20877081	    -31.07691278	      0.00000000
      1.09514210	     -7.23716370	    -31.42345889	      0.00000000
      1.09711178	     -7.25671574	    -31.76859621	      0.00000000
      1.09908146	     -7.26710849	    -32.11174254	      0.00000000
      1.10105114	     -7.26809079	    -32.45241248	      0.00000000
      1.10302082	     -7.25949532	    -32.79021869	      0.00000000
      1.10499050	     -7.24121679	    -33.12487802	      0.00000000
      1.10696018	     -7.21323646	    -33.45621212	      0.00000000
      1.10892986	     -7.17584725	    -33.78418468	      0.00000000
      1.11089954	     -7.12925202	    -34.10884351	      0.00000000
      1.11286922	     -7.07353380	    -34.43034434	      0.00000000
      1.11483890	     -7.00884016	    -34.74895159	      0.00000000
      1.11680858	     -6.93538766	    -35.06507713	      0.00000000
      1.11877826	     -6.85344175	    -35.37924825	      0.00000000
      1.12074794	     -6.76332887	    -35.69213303	      0.00000000
      1.12271762	     -6.66541268	    -36.00452236	      0.00000000
      1.12468730	     -6.56010255	    -36.31731380	      0.00000000
      1.12665698	     -6.44783346	    -36.63152161	      0.00000000
      1.12862666	     -6.32907409	    -36.94823513	      0.00000000
      1.13059634	     -6.20430959	    -37.26864954	      0.00000000
      1.13256602	     -6.07405487	    -37.59404982	      0.00000000
      1.13453570	     -5.93883548	    -37.92582368	      0.00000000
      1.13650538	     -5.79920571	    -38.26551088	      0.00000000
      1.13847506	     -5.65572714	    -38.61476321	      0.00000000
      1.14044474	     -5.50898469	    -38.97546033	      0.00000000
      1.14241442	     -5.35957118	    -39.34963065	      0.00000000
      1.14438410	     -5.20809040	    -39.73957409	      0.00000000
      1.14635378	     -5.05516232	    -40.14783868	      0.00000000
      1.14832346	     -4.90139820	    -40.57715247	      0.00000000
      1.15029314	     -4.74744485	    -41.03063277	      0.00000000
      1.15226282	     -4.59392656	    -41.51125658	      0.00000000
      1.15423250	     -4.44153766	    -42.02240185	      0.00000000
      1.15620218	     -4.29097674	    -42.56714473	      0.00000000
      1.15817186	     -4.14288707	    -43.14879065	      0.00000000
      1.16014154	     -3.99821904	    -43.77121253	      0.00000000
      1.16211122	     -3.85818355	    -44.43889622	      0.00000000
      1.16408090	     -3.72416524	    -45.15817325	      0.00000000
      1.16605058	     -3.59772790	    -45.93725230	      0.00000000
      1.16802026	     -3.48058767	    -46.78484975	      0.00000000
      1.16998994	     -3.37467614	    -47.71231860	      0.00000000
      1.17195962	     -3.28226567	    -48.72673358	      0.00000000
      1.17392930	     -3.20623296	    -49.83716630	      0.00000000
      1.17589898	     -3.15028428	    -51.04527785	      0.00000000
      1.17786866	     -3.11909326	    -52.34881660	      0.00000000
      1.17983834	     -3.11943239	    -53.75489824	      0.00000000
      1.18180802	     -3.15857819	    -55.29849704	      0.00000000
