PointAcceleration
version=1
nRows=601
nColumns=4
inDegrees=no
No description.
endheader
time	state_0	state_1	state_2
      0.00000000	     -2.03977693	     -6.84394195	      0.00000000
      0.00152095	     -2.21251696	     -6.83414402	      0.00000000
      0.00304191	     -2.44032922	     -6.82042388	      0.00000000
      0.00456286	     -2.75631043	     -6.79887834	      0.00000000
      0.00608381	     -3.20027626	     -6.76122629	      0.00000000
      0.00760476	     -3.77502503	     -6.69801755	      0.00000000
      0.00912572	     -4.40697302	     -6.61643292	      0.00000000
      0.01064667	     -4.98343330	     -6.54095954	      0.00000000
      0.01216762	     -5.37854713	     -6.50083562	      0.00000000
      0.01368857	     -5.57831295	     -6.50767700	      0.00000000
      0.01520953	     -5.21718895	     -6.64824156	      0.00000000
      0.01673048	     -3.75130996	     -7.06968006	      0.00000000
      0.01825143	     -3.68398328	     -7.15001071	      0.00000000
      0.01977238	     -3.71916544	     -7.22499604	      0.00000000
      0.02129334	     -3.78775791	     -7.28564791	      0.00000000
      0.02281429	     -3.89970984	     -7.33481146	      0.00000000
      0.02433524	     -3.95679011	     -7.40008564	      0.00000000
      0.02585619	     -4.03612765	     -7.46141331	      0.00000000
      0.02737715	     -4.10378905	     -7.52682317	      0.00000000
      0.02889810	     -4.17587289	     -7.59026767	      0.00000000
      0.03041905	     -4.23627300	     -7.65573927	      0.00000000
      0.03194000	     -4.29365492	     -7.72006523	      0.00000000
      0.03346096	     -4.34171223	     -7.78468496	      0.00000000
      0.03498191	     -4.38431801	     -7.84771480	      0.00000000
      0.03650286	     -4.41925639	     -7.90894169	      0.00000000
      0.03802381	     -4.44805676	     -7.96713428	      0.00000000
      0.03954477	     -4.47050119	     -8.02167030	      0.00000000
      0.04106572	     -4.48742239	     -8.07258302	      0.00000000
      0.04258667	     -4.50007264	     -8.11965714	      0.00000000
      0.04410762	     -4.50599526	     -8.16695340	      0.00000000
      0.04562858	     -4.50418712	     -8.23269339	      0.00000000
      0.04714953	     -4.50127979	     -8.33641346	      0.00000000
      0.04867048	     -4.50576071	     -8.49035234	      0.00000000
      0.05019143	     -4.48544130	     -8.50727182	      0.00000000
      0.05171239	     -4.44582260	     -8.46067887	      0.00000000
      0.05323334	     -4.40592388	     -8.42659185	      0.00000000
      0.05475429	     -4.36635268	     -8.39750182	      0.00000000
      0.05627524	     -4.32733814	     -8.37218691	      0.00000000
      0.05779620	     -4.28978363	     -8.35134330	      0.00000000
      0.05931715	     -4.25310004	     -8.33369956	      0.00000000
      0.06083810	     -4.21693004	     -8.31844028	      0.00000000
      0.06235905	     -4.18093248	     -8.30478909	      0.00000000
      0.06388001	     -4.14482414	     -8.29208214	      0.00000000
      0.06540096	     -4.10858394	     -8.28008350	      0.00000000
      0.06692191	     -4.07205293	     -8.26845861	      0.00000000
      0.06844286	     -4.03520319	     -8.25713962	      0.00000000
      0.06996382	     -3.99801313	     -8.24600106	      0.00000000
      0.07148477	     -3.96052790	     -8.23503926	      0.00000000
      0.07300572	     -3.92275543	     -8.22421241	      0.00000000
      0.07452667	     -3.88473653	     -8.21352100	      0.00000000
      0.07604763	     -3.84648985	     -8.20294797	      0.00000000
      0.07756858	     -3.80805339	     -8.19248516	      0.00000000
      0.07908953	     -3.76944832	     -8.18211431	      0.00000000
      0.08061048	     -3.73071107	     -8.17181989	      0.00000000
      0.08213144	     -3.69186530	     -8.16157939	      0.00000000
      0.08365239	     -3.65294973	     -8.15137918	      0.00000000
      0.08517334	     -3.61399355	     -8.14119964	      0.00000000
      0.08669429	     -3.57503933	     -8.13103567	      0.00000000
      0.08821525	     -3.53612296	     -8.12087697	      0.00000000
      0.08973620	     -3.49728833	     -8.11072726	      0.00000000
      0.09125715	     -3.45857498	     -8.10058630	      0.00000000
      0.09277810	     -3.42002323	     -8.09046246	      0.00000000
      0.09429906	     -3.38167092	     -8.08036190	      0.00000000
      0.09582001	     -3.34355055	     -8.07029267	      0.00000000
      0.09734096	     -3.30569346	     -8.06026211	      0.00000000
      0.09886191	     -3.26812227	     -8.05027375	      0.00000000
      0.10038287	     -3.23085897	     -8.04033049	      0.00000000
      0.10190382	     -3.19391706	     -8.03042814	      0.00000000
      0.10342477	     -3.15730917	     -8.02055957	      0.00000000
      0.10494572	     -3.12104403	     -8.01071271	      0.00000000
      0.10646668	     -3.08512968	     -8.00087361	      0.00000000
      0.10798763	     -3.04957491	     -7.99103682	      0.00000000
      0.10950858	     -3.01438623	     -7.98120629	      0.00000000
      0.11102953	     -2.97957061	     -7.97139560	      0.00000000
      0.11255049	     -2.94513364	     -7.96161219	      0.00000000
      0.11407144	     -2.91108320	     -7.95185892	      0.00000000
      0.11559239	     -2.87742657	     -7.94213433	      0.00000000
      0.11711334	     -2.84417158	     -7.93243837	      0.00000000
      0.11863430	     -2.81132508	     -7.92277236	      0.00000000
      0.12015525	     -2.77889255	     -7.91313721	      0.00000000
      0.12167620	     -2.74687862	     -7.90353505	      0.00000000
      0.12319715	     -2.71528517	     -7.89396407	      0.00000000
      0.12471811	     -2.68410391	     -7.88441981	      0.00000000
      0.12623906	     -2.65330443	     -7.87488654	      0.00000000
      0.12776001	     -2.62288251	     -7.86535733	      0.00000000
      0.12928096	     -2.59283490	     -7.85582455	      0.00000000
      0.13080192	     -2.56315801	     -7.84628043	      0.00000000
      0.13232287	     -2.53384826	     -7.83671910	      0.00000000
      0.13384382	     -2.50490143	     -7.82713405	      0.00000000
      0.13536477	     -2.47631374	     -7.81752232	      0.00000000
      0.13688573	     -2.44808061	     -7.80788042	      0.00000000
      0.13840668	     -2.42019839	     -7.79820867	      0.00000000
      0.13992763	     -2.39266277	     -7.78850746	      0.00000000
      0.14144858	     -2.36547024	     -7.77877917	      0.00000000
      0.14296954	     -2.33861660	     -7.76902672	      0.00000000
      0.14449049	     -2.31209776	     -7.75925162	      0.00000000
      0.14601144	     -2.28590887	     -7.74945556	      0.00000000
      0.14753239	     -2.26004498	     -7.73963723	      0.00000000
      0.14905335	     -2.23450045	     -7.72979521	      0.00000000
      0.15057430	     -2.20927016	     -7.71992725	      0.00000000
      0.15209525	     -2.18434846	     -7.71003135	      0.00000000
      0.15361621	     -2.15973065	     -7.70010756	      0.00000000
      0.15513716	     -2.13541175	     -7.69015635	      0.00000000
      0.15665811	     -2.11138840	     -7.68018151	      0.00000000
      0.15817906	     -2.08765480	     -7.67018663	      0.00000000
      0.15970002	     -2.06420585	     -7.66017442	      0.00000000
      0.16122097	     -2.04103591	     -7.65014736	      0.00000000
      0.16274192	     -2.01814035	     -7.64010778	      0.00000000
      0.16426287	     -1.99551353	     -7.63005846	      0.00000000
      0.16578383	     -1.97315078	     -7.62000252	      0.00000000
      0.16730478	     -1.95104655	     -7.60994408	      0.00000000
      0.16882573	     -1.92919605	     -7.59988596	      0.00000000
      0.17034668	     -1.90759379	     -7.58983124	      0.00000000
      0.17186764	     -1.88623461	     -7.57977990	      0.00000000
      0.17338859	     -1.86511323	     -7.56973159	      0.00000000
      0.17490954	     -1.84422350	     -7.55968416	      0.00000000
      0.17643049	     -1.82355848	     -7.54963573	      0.00000000
      0.17795145	     -1.80311075	     -7.53958524	      0.00000000
      0.17947240	     -1.78287154	     -7.52953213	      0.00000000
      0.18099335	     -1.76283458	     -7.51947747	      0.00000000
      0.18251430	     -1.74299382	     -7.50942225	      0.00000000
      0.18403526	     -1.72334602	     -7.49936695	      0.00000000
      0.18555621	     -1.70388715	     -7.48931197	      0.00000000
      0.18707716	     -1.68461432	     -7.47925600	      0.00000000
      0.18859811	     -1.66552391	     -7.46919762	      0.00000000
      0.19011907	     -1.64661215	     -7.45913485	      0.00000000
      0.19164002	     -1.62787517	     -7.44906589	      0.00000000
      0.19316097	     -1.60930814	     -7.43898956	      0.00000000
      0.19468192	     -1.59090610	     -7.42890514	      0.00000000
      0.19620288	     -1.57266303	     -7.41881161	      0.00000000
      0.19772383	     -1.55457272	     -7.40870786	      0.00000000
      0.19924478	     -1.53662907	     -7.39859153	      0.00000000
      0.20076573	     -1.51882578	     -7.38845989	      0.00000000
      0.20228669	     -1.50115813	     -7.37831093	      0.00000000
      0.20380764	     -1.48362164	     -7.36814289	      0.00000000
      0.20532859	     -1.46621302	     -7.35795603	      0.00000000
      0.20684954	     -1.44892865	     -7.34775129	      0.00000000
      0.20837050	     -1.43176516	     -7.33752988	      0.00000000
      0.20989145	     -1.41471906	     -7.32729318	      0.00000000
      0.21141240	     -1.39778630	     -7.31704070	      0.00000000
      0.21293335	     -1.38096249	     -7.30677232	      0.00000000
      0.21445431	     -1.36424337	     -7.29648681	      0.00000000
      0.21597526	     -1.34762425	     -7.28618372	      0.00000000
      0.21749621	     -1.33110105	     -7.27586168	      0.00000000
      0.21901716	     -1.31466949	     -7.26552010	      0.00000000
      0.22053812	     -1.29832760	     -7.25515680	      0.00000000
      0.22205907	     -1.28207311	     -7.24476997	      0.00000000
      0.22358002	     -1.26590677	     -7.23435632	      0.00000000
      0.22510097	     -1.24982883	     -7.22391310	      0.00000000
      0.22662193	     -1.23384240	     -7.21343718	      0.00000000
      0.22814288	     -1.21795002	     -7.20292590	      0.00000000
      0.22966383	     -1.20215651	     -7.19237690	      0.00000000
      0.23118478	     -1.18646639	     -7.18178784	      0.00000000
      0.23270574	     -1.17088538	     -7.17115703	      0.00000000
      0.23422669	     -1.15541897	     -7.16048284	      0.00000000
      0.23574764	     -1.14007244	     -7.14976463	      0.00000000
      0.23726859	     -1.12485099	     -7.13900189	      0.00000000
      0.23878955	     -1.10975867	     -7.12819496	      0.00000000
      0.24031050	     -1.09479953	     -7.11734428	      0.00000000
      0.24183145	     -1.07997633	     -7.10645071	      0.00000000
      0.24335240	     -1.06529185	     -7.09551520	      0.00000000
      0.24487336	     -1.05074787	     -7.08453886	      0.00000000
      0.24639431	     -1.03634616	     -7.07352294	      0.00000000
      0.24791526	     -1.02208795	     -7.06246884	      0.00000000
      0.24943621	     -1.00797442	     -7.05137805	      0.00000000
      0.25095717	     -0.99400661	     -7.04025234	      0.00000000
      0.25247812	     -0.98018548	     -7.02909351	      0.00000000
      0.25399907	     -0.96651205	     -7.01790381	      0.00000000
      0.25552002	     -0.95298720	     -7.00668549	      0.00000000
      0.25704098	     -0.93961185	     -6.99544133	      0.00000000
      0.25856193	     -0.92638675	     -6.98417417	      0.00000000
      0.26008288	     -0.91331261	     -6.97288722	      0.00000000
      0.26160383	     -0.90038995	     -6.96158383	      0.00000000
      0.26312479	     -0.88761916	     -6.95026748	      0.00000000
      0.26464574	     -0.87500053	     -6.93894174	      0.00000000
      0.26616669	     -0.86253407	     -6.92761022	      0.00000000
      0.26768764	     -0.85021970	     -6.91627658	      0.00000000
      0.26920860	     -0.83805682	     -6.90494466	      0.00000000
      0.27072955	     -0.82604475	     -6.89361830	      0.00000000
      0.27225050	     -0.81418188	     -6.88230197	      0.00000000
      0.27377145	     -0.80246651	     -6.87100008	      0.00000000
      0.27529241	     -0.79089559	     -6.85971815	      0.00000000
      0.27681336	     -0.77946580	     -6.84846180	      0.00000000
      0.27833431	     -0.76817236	     -6.83723782	      0.00000000
      0.27985526	     -0.75700979	     -6.82605330	      0.00000000
      0.28137622	     -0.74597169	     -6.81491517	      0.00000000
      0.28289717	     -0.73505140	     -6.80383087	      0.00000000
      0.28441812	     -0.72424306	     -6.79280663	      0.00000000
      0.28593907	     -0.71354047	     -6.78184866	      0.00000000
      0.28746003	     -0.70293787	     -6.77096233	      0.00000000
      0.28898098	     -0.69242888	     -6.76015322	      0.00000000
      0.29050193	     -0.68200620	     -6.74942732	      0.00000000
      0.29202288	     -0.67166152	     -6.73879122	      0.00000000
      0.29354384	     -0.66138551	     -6.72825169	      0.00000000
      0.29506479	     -0.65116814	     -6.71781582	      0.00000000
      0.29658574	     -0.64099945	     -6.70748962	      0.00000000
      0.29810669	     -0.63086916	     -6.69727907	      0.00000000
      0.29962765	     -0.62076725	     -6.68718894	      0.00000000
      0.30114860	     -0.61068347	     -6.67722388	      0.00000000
      0.30266955	     -0.60060647	     -6.66738865	      0.00000000
      0.30419051	     -0.59052426	     -6.65768832	      0.00000000
      0.30571146	     -0.58042334	     -6.64812896	      0.00000000
      0.30723241	     -0.57028975	     -6.63871674	      0.00000000
      0.30875336	     -0.56010956	     -6.62945823	      0.00000000
      0.31027432	     -0.54986890	     -6.62035970	      0.00000000
      0.31179527	     -0.53955459	     -6.61142766	      0.00000000
      0.31331622	     -0.52915328	     -6.60266884	      0.00000000
      0.31483717	     -0.51865178	     -6.59409048	      0.00000000
      0.31635813	     -0.50803664	     -6.58570036	      0.00000000
      0.31787908	     -0.49729459	     -6.57750534	      0.00000000
      0.31940003	     -0.48641256	     -6.56951255	      0.00000000
      0.32092098	     -0.47537799	     -6.56172623	      0.00000000
      0.32244194	     -0.46417825	     -6.55415102	      0.00000000
      0.32396289	     -0.45280206	     -6.54678806	      0.00000000
      0.32548384	     -0.44123776	     -6.53963894	      0.00000000
      0.32700479	     -0.42947758	     -6.53270225	      0.00000000
      0.32852575	     -0.41751352	     -6.52597693	      0.00000000
      0.33004670	     -0.40534425	     -6.51946030	      0.00000000
      0.33156765	     -0.39296905	     -6.51314937	      0.00000000
      0.33308860	     -0.38039253	     -6.50704149	      0.00000000
      0.33460956	     -0.36762009	     -6.50113356	      0.00000000
      0.33613051	     -0.35465642	     -6.49542284	      0.00000000
      0.33765146	     -0.34150690	     -6.48990642	      0.00000000
      0.33917241	     -0.32817134	     -6.48457939	      0.00000000
      0.34069337	     -0.31465035	     -6.47943703	      0.00000000
      0.34221432	     -0.30094022	     -6.47447160	      0.00000000
      0.34373527	     -0.28703896	     -6.46967490	      0.00000000
      0.34525622	     -0.27294380	     -6.46503792	      0.00000000
      0.34677718	     -0.25865396	     -6.46055070	      0.00000000
      0.34829813	     -0.24416816	     -6.45620483	      0.00000000
      0.34981908	     -0.22948553	     -6.45199207	      0.00000000
      0.35134003	     -0.21460518	     -6.44790536	      0.00000000
      0.35286099	     -0.19952559	     -6.44393816	      0.00000000
      0.35438194	     -0.18425252	     -6.44008388	      0.00000000
      0.35590289	     -0.16880168	     -6.43634013	      0.00000000
      0.35742384	     -0.15318289	     -6.43269367	      0.00000000
      0.35894480	     -0.13740487	     -6.42912864	      0.00000000
      0.36046575	     -0.12147776	     -6.42562820	      0.00000000
      0.36198670	     -0.10541111	     -6.42217461	      0.00000000
      0.36350765	     -0.08921215	     -6.41875226	      0.00000000
      0.36502861	     -0.07288812	     -6.41534345	      0.00000000
      0.36654956	     -0.05644343	     -6.41193594	      0.00000000
      0.36807051	     -0.03988310	     -6.40851476	      0.00000000
      0.36959146	     -0.02320943	     -6.40507476	      0.00000000
      0.37111242	     -0.00642560	     -6.40160815	      0.00000000
      0.37263337	      0.01046808	     -6.39811952	      0.00000000
      0.37415432	      0.02746980	     -6.39461064	      0.00000000
      0.37567527	      0.04458161	     -6.39109501	      0.00000000
      0.37719623	      0.06180334	     -6.38758370	      0.00000000
      0.37871718	      0.07914037	     -6.38409804	      0.00000000
      0.38023813	      0.09659545	     -6.38065877	      0.00000000
      0.38175908	      0.11417678	     -6.37729597	      0.00000000
      0.38328004	      0.13188903	     -6.37404096	      0.00000000
      0.38480099	      0.14974042	     -6.37093264	      0.00000000
      0.38632194	      0.16773491	     -6.36801299	      0.00000000
      0.38784289	      0.18587837	     -6.36532656	      0.00000000
      0.38936385	      0.20417207	     -6.36292304	      0.00000000
      0.39088480	      0.22261805	     -6.36084591	      0.00000000
      0.39240575	      0.24121334	     -6.35914597	      0.00000000
      0.39392670	      0.25995428	     -6.35785791	      0.00000000
      0.39544766	      0.27883204	     -6.35702602	      0.00000000
      0.39696861	      0.29783485	     -6.35667011	      0.00000000
      0.39848956	      0.31694612	     -6.35682137	      0.00000000
      0.40001051	      0.33614368	     -6.35747993	      0.00000000
      0.40153147	      0.35540124	     -6.35865725	      0.00000000
      0.40305242	      0.37468196	     -6.36033122	      0.00000000
      0.40457337	      0.39392692	     -6.36249744	      0.00000000
      0.40609432	      0.41308913	     -6.36510795	      0.00000000
      0.40761528	      0.43212462	     -6.36811460	      0.00000000
      0.40913623	      0.45098262	     -6.37144918	      0.00000000
      0.41065718	      0.46961163	     -6.37503743	      0.00000000
      0.41217813	      0.48795280	     -6.37880913	      0.00000000
      0.41369909	      0.50594566	     -6.38268034	      0.00000000
      0.41522004	      0.52351871	     -6.38660658	      0.00000000
      0.41674099	      0.54059596	     -6.39053018	      0.00000000
      0.41826194	      0.55708388	     -6.39445271	      0.00000000
      0.41978290	      0.57287603	     -6.39836908	      0.00000000
      0.42130385	      0.58785126	     -6.40229838	      0.00000000
      0.42282480	      0.60186777	     -6.40624633	      0.00000000
      0.42434575	      0.61478339	     -6.41021264	      0.00000000
      0.42586671	      0.62643370	     -6.41418696	      0.00000000
      0.42738766	      0.63665323	     -6.41814534	      0.00000000
      0.42890861	      0.64524382	     -6.42205903	      0.00000000
      0.43042956	      0.65198400	     -6.42584612	      0.00000000
      0.43195052	      0.65659969	     -6.42938969	      0.00000000
      0.43347147	      0.65878539	     -6.43251187	      0.00000000
      0.43499242	      0.65818865	     -6.43496527	      0.00000000
      0.43651337	      0.65442308	     -6.43652756	      0.00000000
      0.43803433	      0.64705004	     -6.43692956	      0.00000000
      0.43955528	      0.63558472	     -6.43601757	      0.00000000
      0.44107623	      0.61955430	     -6.43368760	      0.00000000
      0.44259718	      0.59830066	     -6.42978181	      0.00000000
      0.44411814	      0.57120105	     -6.42413857	      0.00000000
      0.44563909	      0.53731194	     -6.41625416	      0.00000000
      0.44716004	      0.49553458	     -6.40536571	      0.00000000
      0.44868099	      0.44513317	     -6.39100003	      0.00000000
      0.45020195	      0.38581858	     -6.37309712	      0.00000000
      0.45172290	      0.31789395	     -6.35199824	      0.00000000
      0.45324385	      0.24196740	     -6.32828858	      0.00000000
      0.45476481	      0.15815010	     -6.30182657	      0.00000000
      0.45628576	      0.06590330	     -6.27199270	      0.00000000
      0.45780671	     -0.03789340	     -6.23582490	      0.00000000
      0.45932766	     -0.16008873	     -6.18725850	      0.00000000
      0.46084862	     -0.31122542	     -6.11773404	      0.00000000
      0.46236957	     -0.50681767	     -6.01478572	      0.00000000
      0.46389052	     -0.76553225	     -5.86357629	      0.00000000
      0.46541147	     -1.10815839	     -5.64664581	      0.00000000
      0.46693243	     -1.55325457	     -5.34695495	      0.00000000
      0.46845338	     -2.11404191	     -4.95021147	      0.00000000
      0.46997433	     -2.79663547	     -4.44609139	      0.00000000
      0.47149528	     -3.59894018	     -3.82982940	      0.00000000
      0.47301624	     -4.51226819	     -3.10072464	      0.00000000
      0.47453719	     -5.51991132	     -2.26338543	      0.00000000
      0.47605814	     -6.59665925	     -1.33008627	      0.00000000
      0.47757909	     -7.70000515	     -0.32785946	      0.00000000
      0.47910005	     -8.78978998	      0.71360051	      0.00000000
      0.48062100	     -9.83297395	      1.76643484	      0.00000000
      0.48214195	     -9.19877835	      1.77192775	      0.00000000
      0.48366290	     -9.01737764	      2.13624834	      0.00000000
      0.48518386	    -10.52295802	      3.62465406	      0.00000000
      0.48670481	    -11.63862718	      4.84794320	      0.00000000
      0.48822576	    -12.86497100	      6.12011585	      0.00000000
      0.48974671	    -14.11463813	      7.38107483	      0.00000000
      0.49126767	    -15.38657743	      8.63527739	      0.00000000
      0.49278862	    -16.56702597	      9.81425854	      0.00000000
      0.49430957	    -17.55027153	     10.82327858	      0.00000000
      0.49583052	    -18.28581319	     11.59490022	      0.00000000
      0.49735148	    -18.78338802	     12.11080464	      0.00000000
      0.49887243	    -19.06377809	     12.35751728	      0.00000000
      0.50039338	    -19.18703631	     12.38182685	      0.00000000
      0.50191433	    -19.20499891	     12.32172465	      0.00000000
      0.50343529	    -19.07947938	     12.25080792	      0.00000000
      0.50495624	    -18.81661043	     12.05035486	      0.00000000
      0.50647719	    -18.44939699	     11.72504797	      0.00000000
      0.50799814	    -18.00426266	     11.29845164	      0.00000000
      0.50951910	    -17.49876038	     10.79197366	      0.00000000
      0.51104005	    -16.95233852	     10.22592742	      0.00000000
      0.51256100	    -16.37641344	      9.61655251	      0.00000000
      0.51408195	    -15.78334609	      8.97934889	      0.00000000
      0.51560291	    -15.18209122	      8.32645775	      0.00000000
      0.51712386	    -14.58137870	      7.66980491	      0.00000000
      0.51864481	    -13.98665195	      7.01721480	      0.00000000
      0.52016576	    -13.40293139	      6.37596776	      0.00000000
      0.52168672	    -12.83309573	      5.75009325	      0.00000000
      0.52320767	    -12.27941555	      5.14286447	      0.00000000
      0.52472862	    -11.74373305	      4.55641049	      0.00000000
      0.52624957	    -11.22713245	      3.99213895	      0.00000000
      0.52777053	    -10.73087027	      3.45152886	      0.00000000
      0.52929148	    -10.25555319	      2.93541192	      0.00000000
      0.53081243	     -9.80201169	      2.44494868	      0.00000000
      0.53233338	     -9.37066449	      1.98095541	      0.00000000
      0.53385434	     -8.96110643	      1.54328785	      0.00000000
      0.53537529	     -8.57272006	      1.13136397	      0.00000000
      0.53689624	     -8.20481306	      0.74411426	      0.00000000
      0.53841719	     -7.85639361	      0.38017646	      0.00000000
      0.53993815	     -7.52676081	      0.03835980	      0.00000000
      0.54145910	     -7.21497778	     -0.28267823	      0.00000000
      0.54298005	     -6.92008825	     -0.58417400	      0.00000000
      0.54450100	     -6.64102833	     -0.86752493	      0.00000000
      0.54602196	     -6.37676213	     -1.13397689	      0.00000000
      0.54754291	     -6.12618369	     -1.38491366	      0.00000000
      0.54906386	     -5.88835086	     -1.62142504	      0.00000000
      0.55058481	     -5.66228082	     -1.84465472	      0.00000000
      0.55210577	     -5.44697528	     -2.05561423	      0.00000000
      0.55362672	     -5.24140844	     -2.25533053	      0.00000000
      0.55514767	     -5.04461872	     -2.44488086	      0.00000000
      0.55666862	     -4.85565981	     -2.62537966	      0.00000000
      0.55818958	     -4.67379863	     -2.79781302	      0.00000000
      0.55971053	     -4.49829236	     -2.96318217	      0.00000000
      0.56123148	     -4.32864126	     -3.12225417	      0.00000000
      0.56275243	     -4.16433424	     -3.27580238	      0.00000000
      0.56427339	     -4.00502458	     -3.42439648	      0.00000000
      0.56579434	     -3.85036251	     -3.56862054	      0.00000000
      0.56731529	     -3.70013684	     -3.70888141	      0.00000000
      0.56883624	     -3.55412971	     -3.84560144	      0.00000000
      0.57035720	     -3.41223813	     -3.97904987	      0.00000000
      0.57187815	     -3.27434824	     -4.10950721	      0.00000000
      0.57339910	     -3.14041460	     -4.23714647	      0.00000000
      0.57492005	     -3.01038235	     -4.36214796	      0.00000000
      0.57644101	     -2.88422549	     -4.48462942	      0.00000000
      0.57796196	     -2.76191157	     -4.60471167	      0.00000000
      0.57948291	     -2.64341264	     -4.72248421	      0.00000000
      0.58100386	     -2.52869686	     -4.83803601	      0.00000000
      0.58252482	     -2.41772432	     -4.95144302	      0.00000000
      0.58404577	     -2.31045310	     -5.06277849	      0.00000000
      0.58556672	     -2.20682912	     -5.17211162	      0.00000000
      0.58708767	     -2.10679740	     -5.27950791	      0.00000000
      0.58860863	     -2.01029246	     -5.38503170	      0.00000000
      0.59012958	     -1.91724815	     -5.48874359	      0.00000000
      0.59165053	     -1.82759281	     -5.59070248	      0.00000000
      0.59317148	     -1.74125373	     -5.69096439	      0.00000000
      0.59469244	     -1.65815845	     -5.78958103	      0.00000000
      0.59621339	     -1.57823547	     -5.88660336	      0.00000000
      0.59773434	     -1.50142648	     -5.98207752	      0.00000000
      0.59925529	     -1.42766079	     -6.07604516	      0.00000000
      0.60077625	     -1.35687296	     -6.16853560	      0.00000000
      0.60229720	     -1.28899444	     -6.25957836	      0.00000000
      0.60381815	     -1.22396314	     -6.34919005	      0.00000000
      0.60533911	     -1.16171356	     -6.43738815	      0.00000000
      0.60686006	     -1.10218548	     -6.52417915	      0.00000000
      0.60838101	     -1.04531501	     -6.60957168	      0.00000000
      0.60990196	     -0.99104227	     -6.69356561	      0.00000000
      0.61142292	     -0.93930362	     -6.77616462	      0.00000000
      0.61294387	     -0.89003895	     -6.85735916	      0.00000000
      0.61446482	     -0.84318606	     -6.93712581	      0.00000000
      0.61598577	     -0.79868276	     -7.01546334	      0.00000000
      0.61750673	     -0.75646385	     -7.09237985	      0.00000000
      0.61902768	     -0.71646088	     -7.16791284	      0.00000000
      0.62054863	     -0.67861736	     -7.24200265	      0.00000000
      0.62206958	     -0.64098939	     -7.31737423	      0.00000000
      0.62359054	     -0.60768899	     -7.38861223	      0.00000000
      0.62511149	     -0.57629863	     -7.45865186	      0.00000000
      0.62663244	     -0.54677156	     -7.52735415	      0.00000000
      0.62815339	     -0.51909251	     -7.59441507	      0.00000000
      0.62967435	     -0.49323667	     -7.65963630	      0.00000000
      0.63119530	     -0.46915180	     -7.72302089	      0.00000000
      0.63271625	     -0.44675643	     -7.78470459	      0.00000000
      0.63423720	     -0.42597017	     -7.84481582	      0.00000000
      0.63575816	     -0.40672906	     -7.90336849	      0.00000000
      0.63727911	     -0.38899093	     -7.96027923	      0.00000000
      0.63880006	     -0.37270799	     -8.01550396	      0.00000000
      0.64032101	     -0.35783407	     -8.06900072	      0.00000000
      0.64184197	     -0.34432230	     -8.12073854	      0.00000000
      0.64336292	     -0.33212258	     -8.17069881	      0.00000000
      0.64488387	     -0.32118572	     -8.21886516	      0.00000000
      0.64640482	     -0.31146363	     -8.26521604	      0.00000000
      0.64792578	     -0.30291420	     -8.30972183	      0.00000000
      0.64944673	     -0.29549560	     -8.35235037	      0.00000000
      0.65096768	     -0.28917059	     -8.39306715	      0.00000000
      0.65248863	     -0.28389553	     -8.43184618	      0.00000000
      0.65400959	     -0.27963042	     -8.46865611	      0.00000000
      0.65553054	     -0.27632968	     -8.50346870	      0.00000000
      0.65705149	     -0.27395166	     -8.53624613	      0.00000000
      0.65857244	     -0.27245973	     -8.56693426	      0.00000000
      0.66009340	     -0.27182315	     -8.59546187	      0.00000000
      0.66161435	     -0.27202258	     -8.62173520	      0.00000000
      0.66313530	     -0.27304254	     -8.64564521	      0.00000000
      0.66465625	     -0.27487631	     -8.66707724	      0.00000000
      0.66617721	     -0.27751648	     -8.68591306	      0.00000000
      0.66769816	     -0.28096024	     -8.70205085	      0.00000000
      0.66921911	     -0.28519674	     -8.71540926	      0.00000000
      0.67074006	     -0.29021519	     -8.72594261	      0.00000000
      0.67226102	     -0.29598769	     -8.73366127	      0.00000000
      0.67378197	     -0.30247963	     -8.73863382	      0.00000000
      0.67530292	     -0.30963342	     -8.74101630	      0.00000000
      0.67682387	     -0.31738214	     -8.74103158	      0.00000000
      0.67834483	     -0.32564272	     -8.73897907	      0.00000000
      0.67986578	     -0.33433150	     -8.73519060	      0.00000000
      0.68138673	     -0.34336812	     -8.73001031	      0.00000000
      0.68290768	     -0.35268403	     -8.72375485	      0.00000000
      0.68442864	     -0.36223021	     -8.71668757	      0.00000000
      0.68594959	     -0.37197187	     -8.70901221	      0.00000000
      0.68747054	     -0.38189581	     -8.70086225	      0.00000000
      0.68899149	     -0.39199515	     -8.69232223	      0.00000000
      0.69051245	     -0.40227696	     -8.68342935	      0.00000000
      0.69203340	     -0.41274518	     -8.67419786	      0.00000000
      0.69355435	     -0.42340938	     -8.66462418	      0.00000000
      0.69507530	     -0.43427169	     -8.65470027	      0.00000000
      0.69659626	     -0.44533505	     -8.64441833	      0.00000000
      0.69811721	     -0.45659694	     -8.63377350	      0.00000000
      0.69963816	     -0.46805401	     -8.62276725	      0.00000000
      0.70115911	     -0.47970252	     -8.61140514	      0.00000000
      0.70268007	     -0.49153767	     -8.59969855	      0.00000000
      0.70420102	     -0.50355850	     -8.58766193	      0.00000000
      0.70572197	     -0.51576301	     -8.57531306	      0.00000000
      0.70724292	     -0.52815495	     -8.56267110	      0.00000000
      0.70876388	     -0.54073727	     -8.54975608	      0.00000000
      0.71028483	     -0.55351876	     -8.53658746	      0.00000000
      0.71180578	     -0.56650820	     -8.52318370	      0.00000000
      0.71332673	     -0.57971856	     -8.50956145	      0.00000000
      0.71484769	     -0.59316383	     -8.49573534	      0.00000000
      0.71636864	     -0.60685849	     -8.48171856	      0.00000000
      0.71788959	     -0.62081756	     -8.46752272	      0.00000000
      0.71941054	     -0.63505422	     -8.45315762	      0.00000000
      0.72093150	     -0.64958031	     -8.43863303	      0.00000000
      0.72245245	     -0.66441178	     -8.42395122	      0.00000000
      0.72397340	     -0.67956518	     -8.40911342	      0.00000000
      0.72549435	     -0.69507112	     -8.39410702	      0.00000000
      0.72701531	     -0.71097057	     -8.37891242	      0.00000000
      0.72853626	     -0.72730553	     -8.36350787	      0.00000000
      0.73005721	     -0.74413230	     -8.34786269	      0.00000000
      0.73157816	     -0.76146464	     -8.33197456	      0.00000000
      0.73309912	     -0.77931530	     -8.31584140	      0.00000000
      0.73462007	     -0.79763774	     -8.29949744	      0.00000000
      0.73614102	     -0.81637031	     -8.28298392	      0.00000000
      0.73766197	     -0.83544591	     -8.26634086	      0.00000000
      0.73918293	     -0.85478944	     -8.24960999	      0.00000000
      0.74070388	     -0.87438175	     -8.23279633	      0.00000000
      0.74222483	     -0.89420523	     -8.21590223	      0.00000000
      0.74374578	     -0.91429137	     -8.19890488	      0.00000000
      0.74526674	     -0.93467056	     -8.18178171	      0.00000000
      0.74678769	     -0.95537367	     -8.16451824	      0.00000000
      0.74830864	     -0.97642751	     -8.14710190	      0.00000000
      0.74982959	     -0.99783482	     -8.12953978	      0.00000000
      0.75135055	     -1.01959581	     -8.11183966	      0.00000000
      0.75287150	     -1.04169702	     -8.09401677	      0.00000000
      0.75439245	     -1.06412480	     -8.07608604	      0.00000000
      0.75591341	     -1.08686487	     -8.05805857	      0.00000000
      0.75743436	     -1.10990134	     -8.03994650	      0.00000000
      0.75895531	     -1.13321763	     -8.02175638	      0.00000000
      0.76047626	     -1.15679442	     -8.00349671	      0.00000000
      0.76199722	     -1.18060730	     -7.98517201	      0.00000000
      0.76351817	     -1.20462915	     -7.96678871	      0.00000000
      0.76503912	     -1.22882723	     -7.94835204	      0.00000000
      0.76656007	     -1.25316596	     -7.92986869	      0.00000000
      0.76808103	     -1.27760792	     -7.91134626	      0.00000000
      0.76960198	     -1.30211377	     -7.89279280	      0.00000000
      0.77112293	     -1.32664520	     -7.87421833	      0.00000000
      0.77264388	     -1.35116060	     -7.85563375	      0.00000000
      0.77416484	     -1.37562141	     -7.83705209	      0.00000000
      0.77568579	     -1.39998551	     -7.81848715	      0.00000000
      0.77720674	     -1.42421718	     -7.79995379	      0.00000000
      0.77872769	     -1.44827995	     -7.78146623	      0.00000000
      0.78024865	     -1.47214215	     -7.76304016	      0.00000000
      0.78176960	     -1.49577304	     -7.74469010	      0.00000000
      0.78329055	     -1.51913580	     -7.72643567	      0.00000000
      0.78481150	     -1.54218637	     -7.70829975	      0.00000000
      0.78633246	     -1.56487842	     -7.69030574	      0.00000000
      0.78785341	     -1.58715525	     -7.67248261	      0.00000000
      0.78937436	     -1.60899329	     -7.65483958	      0.00000000
      0.79089531	     -1.63040210	     -7.63737006	      0.00000000
      0.79241627	     -1.65138137	     -7.62006678	      0.00000000
      0.79393722	     -1.67196594	     -7.60290202	      0.00000000
      0.79545817	     -1.69201404	     -7.58593356	      0.00000000
      0.79697912	     -1.71113045	     -7.56935117	      0.00000000
      0.79850008	     -1.72924279	     -7.55317450	      0.00000000
      0.80002103	     -1.74665426	     -7.53723176	      0.00000000
      0.80154198	     -1.76376108	     -7.52130907	      0.00000000
      0.80306293	     -1.78108166	     -7.50511259	      0.00000000
      0.80458389	     -1.79813642	     -7.48887547	      0.00000000
      0.80610484	     -1.81338520	     -7.47341179	      0.00000000
      0.80762579	     -1.82634782	     -7.45896266	      0.00000000
      0.80914674	     -1.83831098	     -7.44482206	      0.00000000
      0.81066770	     -1.84991958	     -7.43063752	      0.00000000
      0.81218865	     -1.85938427	     -7.41737614	      0.00000000
      0.81370960	     -1.86627434	     -7.40524546	      0.00000000
      0.81523055	     -1.87313061	     -7.39280511	      0.00000000
      0.81675151	     -1.88168858	     -7.37906650	      0.00000000
      0.81827246	     -1.89086476	     -7.36460366	      0.00000000
      0.81979341	     -1.92875558	     -7.34284875	      0.00000000
      0.82131436	     -1.93411688	     -7.33112134	      0.00000000
      0.82283532	     -1.93852142	     -7.31952630	      0.00000000
      0.82435627	     -1.94208018	     -7.30800181	      0.00000000
      0.82587722	     -1.94457423	     -7.29667254	      0.00000000
      0.82739817	     -1.94609011	     -7.28548442	      0.00000000
      0.82891913	     -1.94652837	     -7.27449205	      0.00000000
      0.83044008	     -1.94592739	     -7.26367027	      0.00000000
      0.83196103	     -1.94432249	     -7.25299950	      0.00000000
      0.83348198	     -1.94174751	     -7.24246403	      0.00000000
      0.83500294	     -1.93822174	     -7.23205992	      0.00000000
      0.83652389	     -1.93376949	     -7.22178283	      0.00000000
      0.83804484	     -1.92841299	     -7.21162995	      0.00000000
      0.83956579	     -1.92218085	     -7.20159764	      0.00000000
      0.84108675	     -1.91510189	     -7.19168073	      0.00000000
      0.84260770	     -1.90720765	     -7.18187587	      0.00000000
      0.84412865	     -1.89852473	     -7.17217985	      0.00000000
      0.84564960	     -1.88907924	     -7.16259251	      0.00000000
      0.84717056	     -1.87889238	     -7.15311038	      0.00000000
      0.84869151	     -1.86798746	     -7.14373610	      0.00000000
      0.85021246	     -1.85639123	     -7.13446700	      0.00000000
      0.85173341	     -1.84413104	     -7.12530435	      0.00000000
      0.85325437	     -1.83124271	     -7.11624309	      0.00000000
      0.85477532	     -1.81776262	     -7.10728085	      0.00000000
      0.85629627	     -1.80373711	     -7.09840991	      0.00000000
      0.85781722	     -1.78921187	     -7.08962242	      0.00000000
      0.85933818	     -1.77424457	     -7.08090771	      0.00000000
      0.86085913	     -1.75889192	     -7.07225158	      0.00000000
      0.86238008	     -1.74322659	     -7.06364318	      0.00000000
      0.86390103	     -1.72732059	     -7.05506445	      0.00000000
      0.86542199	     -1.71126423	     -7.04651201	      0.00000000
      0.86694294	     -1.69515170	     -7.03797420	      0.00000000
      0.86846389	     -1.67908158	     -7.02946302	      0.00000000
      0.86998484	     -1.66316344	     -7.02098971	      0.00000000
      0.87150580	     -1.64747962	     -7.01258436	      0.00000000
      0.87302675	     -1.63213107	     -7.00428446	      0.00000000
      0.87454770	     -1.61715062	     -6.99609773	      0.00000000
      0.87606865	     -1.60259116	     -6.98802272	      0.00000000
      0.87758961	     -1.58841667	     -6.98005648	      0.00000000
      0.87911056	     -1.57458176	     -6.97227035	      0.00000000
      0.88063151	     -1.56111093	     -6.96473385	      0.00000000
      0.88215246	     -1.54805823	     -6.95745900	      0.00000000
      0.88367342	     -1.53560105	     -6.95040013	      0.00000000
      0.88519437	     -1.52394385	     -6.94347560	      0.00000000
      0.88671532	     -1.51331172	     -6.93662926	      0.00000000
      0.88823627	     -1.50390994	     -6.92984442	      0.00000000
      0.88975723	     -1.49597202	     -6.92318827	      0.00000000
      0.89127818	     -1.48974196	     -6.91674765	      0.00000000
      0.89279913	     -1.48562434	     -6.91058483	      0.00000000
      0.89432008	     -1.48409600	     -6.90472090	      0.00000000
      0.89584104	     -1.48580608	     -6.89913147	      0.00000000
      0.89736199	     -1.49146696	     -6.89376631	      0.00000000
      0.89888294	     -1.50187922	     -6.88859414	      0.00000000
      0.90040389	     -1.51792383	     -6.88351818	      0.00000000
      0.90192485	     -1.54050432	     -6.87858124	      0.00000000
      0.90344580	     -1.57068206	     -6.87380444	      0.00000000
      0.90496675	     -1.60985252	     -6.86930674	      0.00000000
      0.90648771	     -1.65990631	     -6.86513156	      0.00000000
      0.90800866	     -1.72374771	     -6.86113911	      0.00000000
      0.90952961	     -1.80492256	     -6.85689644	      0.00000000
      0.91105056	     -1.90901900	     -6.85176043	      0.00000000
      0.91257152	     -2.04067490	     -6.84431130	      0.00000000
