PointAcceleration
version=1
nRows=601
nColumns=4
inDegrees=no
No description.
endheader
time	state_0	state_1	state_2
      0.00000000	    348.70287100	    203.51222238	      0.00000000
      0.00142426	    338.30910114	    194.67764143	      0.00000000
      0.00284852	    327.29651379	    185.69711056	      0.00000000
      0.00427277	    315.82750111	    176.65035572	      0.00000000
      0.00569703	    304.40880436	    167.77444861	      0.00000000
      0.00712129	    292.96965071	    159.08875753	      0.00000000
      0.00854555	    281.53631081	    150.61125766	      0.00000000
      0.00996981	    270.15999497	    142.34956640	      0.00000000
      0.01139406	    258.90394493	    134.32424052	      0.00000000
      0.01281832	    247.80739990	    126.54788022	      0.00000000
      0.01424258	    236.90988755	    119.03052137	      0.00000000
      0.01566684	    226.25015353	    111.78051217	      0.00000000
      0.01709110	    215.86358411	    104.80491062	      0.00000000
      0.01851535	    205.77663512	     98.10648573	      0.00000000
      0.01993961	    196.01386684	     91.68683877	      0.00000000
      0.02136387	    186.58630661	     85.54313642	      0.00000000
      0.02278813	    177.50628587	     79.67293171	      0.00000000
      0.02421239	    168.76964680	     74.07069403	      0.00000000
      0.02563665	    160.37898502	     68.73308177	      0.00000000
      0.02706090	    152.31543243	     63.65278360	      0.00000000
      0.02848516	    144.57781963	     58.82761889	      0.00000000
      0.02990942	    137.12437188	     54.24446278	      0.00000000
      0.03133368	    129.95758771	     49.90046491	      0.00000000
      0.03275794	    122.98923483	     45.77039294	      0.00000000
      0.03418219	    116.27278523	     41.85605744	      0.00000000
      0.03560645	    109.58156724	     38.11004688	      0.00000000
      0.03703071	    103.26375058	     34.57942439	      0.00000000
      0.03845497	     96.43432938	     31.12943289	      0.00000000
      0.03987923	     90.42666782	     27.94992546	      0.00000000
      0.04130348	     79.87151668	     24.34661709	      0.00000000
      0.04272774	     60.15401940	     19.54649139	      0.00000000
      0.04415200	     38.84087806	     13.90328280	      0.00000000
      0.04557626	     29.91335915	      7.82362977	      0.00000000
      0.04700052	     43.02912156	      2.69847796	      0.00000000
      0.04842477	     44.29604404	      0.23560349	      0.00000000
      0.04984903	     39.95936663	     -1.24363790	      0.00000000
      0.05127329	     36.98094817	     -2.34966382	      0.00000000
      0.05269755	     34.77826931	     -3.16454530	      0.00000000
      0.05412181	     33.05641521	     -3.72664899	      0.00000000
      0.05554606	     31.63775560	     -4.11252790	      0.00000000
      0.05697032	     30.43952202	     -4.37535267	      0.00000000
      0.05839458	     29.39952753	     -4.55393234	      0.00000000
      0.05981884	     28.47503194	     -4.67384272	      0.00000000
      0.06124310	     27.64506614	     -4.75137960	      0.00000000
      0.06266735	     26.88353817	     -4.79888903	      0.00000000
      0.06409161	     26.17616034	     -4.82431985	      0.00000000
      0.06551587	     25.50502662	     -4.83361146	      0.00000000
      0.06694013	     24.86134173	     -4.83051337	      0.00000000
      0.06836439	     24.23399374	     -4.81788240	      0.00000000
      0.06978865	     23.61937120	     -4.79755007	      0.00000000
      0.07121290	     23.01210452	     -4.77104017	      0.00000000
      0.07263716	     22.41173194	     -4.73946255	      0.00000000
      0.07406142	     21.81642546	     -4.70384733	      0.00000000
      0.07548568	     21.22706913	     -4.66506979	      0.00000000
      0.07690994	     20.64386166	     -4.62398335	      0.00000000
      0.07833419	     20.06859797	     -4.58136951	      0.00000000
      0.07975845	     19.50306985	     -4.53794962	      0.00000000
      0.08118271	     18.94952268	     -4.49406360	      0.00000000
      0.08260697	     18.41027393	     -4.45015858	      0.00000000
      0.08403123	     17.88706895	     -4.40671516	      0.00000000
      0.08545548	     17.38179902	     -4.36414746	      0.00000000
      0.08687974	     16.89525636	     -4.32287207	      0.00000000
      0.08830400	     16.42828785	     -4.28326711	      0.00000000
      0.08972826	     15.98074287	     -4.24574430	      0.00000000
      0.09115252	     15.55239788	     -4.21072183	      0.00000000
      0.09257677	     15.14255884	     -4.17864493	      0.00000000
      0.09400103	     14.75033872	     -4.14999963	      0.00000000
      0.09542529	     14.37497568	     -4.12524775	      0.00000000
      0.09684955	     14.01544222	     -4.10490015	      0.00000000
      0.09827381	     13.67127111	     -4.08936492	      0.00000000
      0.09969806	     13.34184864	     -4.07906689	      0.00000000
      0.10112232	     13.02706635	     -4.07428252	      0.00000000
      0.10254658	     12.72669644	     -4.07527992	      0.00000000
      0.10397084	     12.44055321	     -4.08220540	      0.00000000
      0.10539510	     12.16820058	     -4.09521099	      0.00000000
      0.10681935	     11.90925277	     -4.11432367	      0.00000000
      0.10824361	     11.66339055	     -4.13952721	      0.00000000
      0.10966787	     11.43036532	     -4.17068281	      0.00000000
      0.11109213	     11.20986037	     -4.20762856	      0.00000000
      0.11251639	     11.00144189	     -4.25012760	      0.00000000
      0.11394065	     10.80459073	     -4.29793022	      0.00000000
      0.11536490	     10.61869560	     -4.35072436	      0.00000000
      0.11678916	     10.44309011	     -4.40818281	      0.00000000
      0.11821342	     10.27705512	     -4.46992455	      0.00000000
      0.11963768	     10.11999087	     -4.53690263	      0.00000000
      0.12106194	      9.97143266	     -4.61054101	      0.00000000
      0.12248619	      9.83050746	     -4.69069341	      0.00000000
      0.12391045	      9.69629986	     -4.77713353	      0.00000000
      0.12533471	      9.56774386	     -4.86964422	      0.00000000
      0.12675897	      9.44400032	     -4.96787513	      0.00000000
      0.12818323	      9.32406594	     -5.07150255	      0.00000000
      0.12960748	      9.20731810	     -5.18005453	      0.00000000
      0.13103174	      9.09302407	     -5.29308167	      0.00000000
      0.13245600	      8.98078307	     -5.41001998	      0.00000000
      0.13388026	      8.87010880	     -5.53032909	      0.00000000
      0.13530452	      8.76061607	     -5.65342805	      0.00000000
      0.13672877	      8.65172737	     -5.77878709	      0.00000000
      0.13815303	      8.54306711	     -5.90584263	      0.00000000
      0.13957729	      8.43427418	     -6.03404529	      0.00000000
      0.14100155	      8.32526511	     -6.16282100	      0.00000000
      0.14242581	      8.21595030	     -6.29161888	      0.00000000
      0.14385006	      8.10629886	     -6.41991991	      0.00000000
      0.14527432	      7.99621075	     -6.54724218	      0.00000000
      0.14669858	      7.88559422	     -6.67314539	      0.00000000
      0.14812284	      7.77439947	     -6.79720156	      0.00000000
      0.14954710	      7.66259328	     -6.91919924	      0.00000000
      0.15097136	      7.55040255	     -7.04002717	      0.00000000
      0.15239561	      7.43777424	     -7.15970229	      0.00000000
      0.15381987	      7.32470968	     -7.27799175	      0.00000000
      0.15524413	      7.21061575	     -7.39479326	      0.00000000
      0.15666839	      7.09488829	     -7.51001714	      0.00000000
      0.15809265	      6.97628381	     -7.62370492	      0.00000000
      0.15951690	      6.85314474	     -7.73598084	      0.00000000
      0.16094116	      6.72442523	     -7.84686427	      0.00000000
      0.16236542	      6.58893019	     -7.95640954	      0.00000000
      0.16378968	      6.44747754	     -8.06432695	      0.00000000
      0.16521394	      6.30108392	     -8.17031540	      0.00000000
      0.16663819	      6.15221896	     -8.27385365	      0.00000000
      0.16806245	      6.00361674	     -8.37440939	      0.00000000
      0.16948671	      5.85743376	     -8.47158584	      0.00000000
      0.17091097	      5.71689712	     -8.56483308	      0.00000000
      0.17233523	      5.58104771	     -8.65432065	      0.00000000
      0.17375948	      5.44848649	     -8.74028834	      0.00000000
      0.17518374	      5.31324494	     -8.82370627	      0.00000000
      0.17660800	      5.16720669	     -8.90585893	      0.00000000
      0.17803226	      5.00612497	     -8.98738401	      0.00000000
      0.17945652	      4.82653560	     -9.06878563	      0.00000000
      0.18088077	      4.63377135	     -9.14921362	      0.00000000
      0.18230503	      4.43500690	     -9.22758427	      0.00000000
      0.18372929	      4.23788518	     -9.30279827	      0.00000000
      0.18515355	      4.04932845	     -9.37387298	      0.00000000
      0.18657781	      3.86918571	     -9.44080399	      0.00000000
      0.18800206	      3.69843779	     -9.50352964	      0.00000000
      0.18942632	      3.52860263	     -9.56335950	      0.00000000
      0.19085058	      3.34330291	     -9.62271520	      0.00000000
      0.19227484	      3.13987451	     -9.68204168	      0.00000000
      0.19369910	      2.92885482	     -9.73992965	      0.00000000
      0.19512336	      2.72327109	     -9.79465332	      0.00000000
      0.19654761	      2.52920840	     -9.84547004	      0.00000000
      0.19797187	      2.34009613	     -9.89338142	      0.00000000
      0.19939613	      2.14550310	     -9.93991821	      0.00000000
      0.20082039	      1.93962432	     -9.98598102	      0.00000000
      0.20224465	      1.72339764	    -10.03156111	      0.00000000
      0.20366890	      1.50260255	    -10.07599194	      0.00000000
      0.20509316	      1.27719521	    -10.11939379	      0.00000000
      0.20651742	      1.05190274	    -10.16124675	      0.00000000
      0.20794168	      0.83054161	    -10.20112718	      0.00000000
      0.20936594	      0.75648276	    -10.21038331	      0.00000000
      0.21079019	      0.51106365	    -10.24886967	      0.00000000
      0.21221445	      0.27230243	    -10.28544386	      0.00000000
      0.21363871	      0.03224572	    -10.32125209	      0.00000000
      0.21506297	     -0.21811347	    -10.35762338	      0.00000000
      0.21648723	     -0.47628658	    -10.39437189	      0.00000000
      0.21791148	     -0.74031014	    -10.43137227	      0.00000000
      0.21933574	     -1.00983410	    -10.46871064	      0.00000000
      0.22076000	     -1.28574885	    -10.50664525	      0.00000000
      0.22218426	     -1.56818559	    -10.54533788	      0.00000000
      0.22360852	     -1.85731473	    -10.58496030	      0.00000000
      0.22503277	     -2.15330092	    -10.62568782	      0.00000000
      0.22645703	     -2.45631931	    -10.66770256	      0.00000000
      0.22788129	     -2.76653143	    -10.71118975	      0.00000000
      0.22930555	     -3.08409672	    -10.75633984	      0.00000000
      0.23072981	     -3.40917425	    -10.80334869	      0.00000000
      0.23215406	     -3.74191903	    -10.85241728	      0.00000000
      0.23357832	     -4.08248224	    -10.90375209	      0.00000000
      0.23500258	     -4.43100706	    -10.95756430	      0.00000000
      0.23642684	     -4.78763397	    -11.01407122	      0.00000000
      0.23785110	     -5.15249261	    -11.07349461	      0.00000000
      0.23927536	     -5.52570933	    -11.13606260	      0.00000000
      0.24069961	     -5.90739656	    -11.20200748	      0.00000000
      0.24212387	     -6.29766327	    -11.27156812	      0.00000000
      0.24354813	     -6.69660139	    -11.34498729	      0.00000000
      0.24497239	     -7.10429909	    -11.42251446	      0.00000000
      0.24639665	     -7.52082414	    -11.50440273	      0.00000000
      0.24782090	     -7.94624043	    -11.59091193	      0.00000000
      0.24924516	     -8.38058787	    -11.68230523	      0.00000000
      0.25066942	     -8.82390251	    -11.77885245	      0.00000000
      0.25209368	     -9.27619285	    -11.88082643	      0.00000000
      0.25351794	     -9.73746371	    -11.98850644	      0.00000000
      0.25494219	    -10.20768905	    -12.10217461	      0.00000000
      0.25636645	    -10.68683971	    -12.22211921	      0.00000000
      0.25779071	    -11.17485317	    -12.34863134	      0.00000000
      0.25921497	    -11.67166503	    -12.48200800	      0.00000000
      0.26063923	    -12.17717601	    -12.62254907	      0.00000000
      0.26206348	    -12.69128690	    -12.77056019	      0.00000000
      0.26348774	    -13.21386421	    -12.92634983	      0.00000000
      0.26491200	    -13.74477885	    -13.09023224	      0.00000000
      0.26633626	    -14.28387019	    -13.26252455	      0.00000000
      0.26776052	    -14.83098855	    -13.44355012	      0.00000000
      0.26918477	    -15.38595946	    -13.63363581	      0.00000000
      0.27060903	    -15.94863102	    -13.83311634	      0.00000000
      0.27203329	    -16.51884076	    -14.04233149	      0.00000000
      0.27345755	    -17.09646854	    -14.26163225	      0.00000000
      0.27488181	    -17.68140859	    -14.49137770	      0.00000000
      0.27630606	    -18.27362945	    -14.73194452	      0.00000000
      0.27773032	    -18.87315555	    -14.98372358	      0.00000000
      0.27915458	    -19.48013680	    -15.24713488	      0.00000000
      0.28057884	    -20.09484473	    -15.52262449	      0.00000000
      0.28200310	    -20.71775477	    -15.81068728	      0.00000000
      0.28342736	    -21.34956175	    -16.11186538	      0.00000000
      0.28485161	    -21.99127782	    -16.42678122	      0.00000000
      0.28627587	    -22.64427255	    -16.75613996	      0.00000000
      0.28770013	    -23.31038770	    -17.10077481	      0.00000000
      0.28912439	    -23.99200205	    -17.46165654	      0.00000000
      0.29054865	    -24.69215875	    -17.83995129	      0.00000000
      0.29197290	    -25.41464572	    -18.23704030	      0.00000000
      0.29339716	    -26.16412318	    -18.65458639	      0.00000000
      0.29482142	    -26.94619560	    -19.09456596	      0.00000000
      0.29624568	    -27.76751416	    -19.55933321	      0.00000000
      0.29766994	    -28.63579513	    -20.05166277	      0.00000000
      0.29909419	    -29.55985614	    -20.57479061	      0.00000000
      0.30051845	    -30.54951197	    -21.13245864	      0.00000000
      0.30194271	    -31.61549159	    -21.72889968	      0.00000000
      0.30336697	    -32.76912285	    -22.36886456	      0.00000000
      0.30479123	    -34.02207598	    -23.05751006	      0.00000000
      0.30621548	    -35.38575112	    -23.80037480	      0.00000000
      0.30763974	    -36.87081464	    -24.60313215	      0.00000000
      0.30906400	    -38.48625352	    -25.47147007	      0.00000000
      0.31048826	    -40.23872881	    -26.41069551	      0.00000000
      0.31191252	    -42.13138519	    -27.42548547	      0.00000000
      0.31333677	    -44.16315266	    -28.51938314	      0.00000000
      0.31476103	    -46.32759806	    -29.69444467	      0.00000000
      0.31618529	    -48.61244224	    -30.95074437	      0.00000000
      0.31760955	    -50.99895022	    -32.28603860	      0.00000000
      0.31903381	    -53.46201450	    -33.69546653	      0.00000000
      0.32045806	    -55.97065330	    -35.17144492	      0.00000000
      0.32188232	    -58.48889531	    -36.70375274	      0.00000000
      0.32330658	    -60.97766462	    -38.27985822	      0.00000000
      0.32473084	    -63.39630062	    -39.88544229	      0.00000000
      0.32615510	    -65.70542413	    -41.50516841	      0.00000000
      0.32757936	    -67.86842785	    -43.12345724	      0.00000000
      0.32900361	    -69.85423164	    -44.72541364	      0.00000000
      0.33042787	    -71.63793359	    -46.29748256	      0.00000000
      0.33185213	    -73.20237087	    -47.82813275	      0.00000000
      0.33327639	    -74.53751436	    -49.30807982	      0.00000000
      0.33470065	    -75.64044466	    -50.73044941	      0.00000000
      0.33612490	    -76.51395570	    -52.09055530	      0.00000000
      0.33754916	    -77.16547954	    -53.38568300	      0.00000000
      0.33897342	    -77.60529695	    -54.61459330	      0.00000000
      0.34039768	    -77.84564547	    -55.77714544	      0.00000000
      0.34182194	    -77.90006427	    -56.87400587	      0.00000000
      0.34324619	    -77.78245595	    -57.90641630	      0.00000000
      0.34467045	    -77.50507929	    -58.87573720	      0.00000000
      0.34609471	    -77.07953473	    -59.78341885	      0.00000000
      0.34751897	    -76.67603375	    -60.80697031	      0.00000000
      0.34894323	    -76.00470245	    -61.60558564	      0.00000000
      0.35036748	    -75.22146471	    -62.34956409	      0.00000000
      0.35179174	    -74.33988799	    -63.04177780	      0.00000000
      0.35321600	    -73.37201562	    -63.68518069	      0.00000000
      0.35464026	    -72.32759953	    -64.28260132	      0.00000000
      0.35606452	    -71.21799537	    -64.83724432	      0.00000000
      0.35748877	    -70.05376252	    -65.35231307	      0.00000000
      0.35891303	    -68.84394472	    -65.83090142	      0.00000000
      0.36033729	    -67.59713635	    -66.27599865	      0.00000000
      0.36176155	    -66.32254337	    -66.69047272	      0.00000000
      0.36318581	    -65.02864013	    -67.07682493	      0.00000000
      0.36461007	    -63.72306857	    -67.43712328	      0.00000000
      0.36603432	    -62.41090132	    -67.77315760	      0.00000000
      0.36745858	    -61.09537357	    -68.08662520	      0.00000000
      0.36888284	    -59.77963740	    -68.37902729	      0.00000000
      0.37030710	    -58.46746094	    -68.65124756	      0.00000000
      0.37173136	    -57.16240116	    -68.90359074	      0.00000000
      0.37315561	    -55.86674241	    -69.13629663	      0.00000000
      0.37457987	    -54.58209466	    -69.34948226	      0.00000000
      0.37600413	    -53.30994116	    -69.54285658	      0.00000000
      0.37742839	    -52.05142171	    -69.71592869	      0.00000000
      0.37885265	    -50.80740369	    -69.86805791	      0.00000000
      0.38027690	    -49.57844024	    -69.99874045	      0.00000000
      0.38170116	    -48.36500012	    -70.10741579	      0.00000000
      0.38312542	    -47.16741984	    -70.19392238	      0.00000000
      0.38454968	    -45.98596391	    -70.25874433	      0.00000000
      0.38597394	    -44.82113739	    -70.30175341	      0.00000000
      0.38739819	    -43.67356111	    -70.32227656	      0.00000000
      0.38882245	    -42.54388364	    -70.31874554	      0.00000000
      0.39024671	    -41.43274566	    -70.28975634	      0.00000000
      0.39167097	    -40.34081994	    -70.23407702	      0.00000000
      0.39309523	    -39.26891402	    -70.15085193	      0.00000000
      0.39451948	    -38.21802241	    -70.03882807	      0.00000000
      0.39594374	    -37.18943290	    -69.89661265	      0.00000000
      0.39736800	    -36.18495909	    -69.72225020	      0.00000000
      0.39879226	    -35.20742252	    -69.51424773	      0.00000000
      0.40021652	    -34.26109664	    -69.27239690	      0.00000000
      0.40164077	    -33.35248896	    -68.99841655	      0.00000000
      0.40306503	    -32.49202329	    -68.69834928	      0.00000000
      0.40448929	    -31.69520213	    -68.38293827	      0.00000000
      0.40591355	    -30.98555058	    -68.07244393	      0.00000000
      0.40733781	    -30.39680051	    -67.79741062	      0.00000000
      0.40876207	    -29.97729407	    -67.60635378	      0.00000000
      0.41018632	    -29.79342837	    -67.56711889	      0.00000000
      0.41161058	    -29.93449474	    -67.77610526	      0.00000000
      0.41303484	    -30.51628107	    -68.35976483	      0.00000000
      0.41445910	    -31.68168108	    -69.47795953	      0.00000000
      0.41588336	    -33.59859257	    -71.32139981	      0.00000000
      0.41730761	    -36.44374943	    -74.09142586	      0.00000000
      0.41873187	    -40.37791907	    -77.97584603	      0.00000000
      0.42015613	    -45.49472090	    -83.08583108	      0.00000000
      0.42158039	    -51.76069903	    -89.38179620	      0.00000000
      0.42300465	    -58.98198023	    -96.66806679	      0.00000000
      0.42442890	    -66.87204448	   -104.63955120	      0.00000000
      0.42585316	    -75.34962316	   -113.25164390	      0.00000000
      0.42727742	    -85.14074934	   -123.40231605	      0.00000000
      0.42870168	    -98.10708653	   -137.10886761	      0.00000000
      0.43012594	   -116.83950432	   -157.09808377	      0.00000000
      0.43155019	   -142.88926578	   -184.79096571	      0.00000000
      0.43297445	   -175.35931088	   -218.70525090	      0.00000000
      0.43439871	   -211.38638791	   -255.13626177	      0.00000000
      0.43582297	   -247.15039693	   -288.71884072	      0.00000000
      0.43724723	   -279.94001137	   -314.54498377	      0.00000000
      0.43867148	   -308.00328831	   -326.28995178	      0.00000000
      0.44009574	   -330.29632594	   -315.96712810	      0.00000000
      0.44152000	   -343.28146584	   -276.62336865	      0.00000000
      0.44294426	   -340.14256142	   -203.52614833	      0.00000000
      0.44436852	   -323.06385852	   -118.43301617	      0.00000000
      0.44579277	    -80.99766757	    155.21882880	      0.00000000
      0.44721703	    -73.62010709	    181.54711473	      0.00000000
      0.44864129	    -50.91499296	    240.60588226	      0.00000000
      0.45006555	    -30.25085677	    302.52267141	      0.00000000
      0.45148981	    -27.92475021	    342.17252453	      0.00000000
      0.45291407	    -15.72180562	    385.02379766	      0.00000000
      0.45433832	    -11.85199292	    413.29689968	      0.00000000
      0.45576258	     -4.02128020	    440.47759075	      0.00000000
      0.45718684	      0.33076350	    459.68530871	      0.00000000
      0.45861110	      5.69044006	    476.74509129	      0.00000000
      0.46003536	      9.52020295	    489.36191000	      0.00000000
      0.46145961	     13.43989102	    499.88662512	      0.00000000
      0.46288387	     16.60565139	    507.66122006	      0.00000000
      0.46430813	     19.62998467	    513.69967064	      0.00000000
      0.46573239	     22.24793914	    517.95156046	      0.00000000
      0.46715665	     24.73745717	    520.95424898	      0.00000000
      0.46858090	     27.04320225	    522.86674260	      0.00000000
      0.47000516	     29.32637425	    524.08633511	      0.00000000
      0.47142942	     31.55958979	    524.72304446	      0.00000000
      0.47285368	     33.80127471	    524.91927938	      0.00000000
      0.47427794	     36.06460363	    524.76203021	      0.00000000
      0.47570219	     38.38389806	    524.33569386	      0.00000000
      0.47712645	     40.77902968	    523.73097074	      0.00000000
      0.47855071	     43.27152397	    523.01735578	      0.00000000
      0.47997497	     45.87368735	    522.27767599	      0.00000000
      0.48139923	     48.59591507	    521.57126598	      0.00000000
      0.48282348	     51.44205598	    520.96608666	      0.00000000
      0.48424774	     54.41327274	    520.51022840	      0.00000000
      0.48567200	     57.50804636	    520.25907026	      0.00000000
      0.48709626	     60.72361673	    520.25391482	      0.00000000
      0.48852052	     64.05583268	    520.53859249	      0.00000000
      0.48994477	     67.50093321	    521.14782410	      0.00000000
      0.49136903	     71.05299065	    522.11175095	      0.00000000
      0.49279329	     74.70750662	    523.45501288	      0.00000000
      0.49421755	     78.45690537	    525.19188400	      0.00000000
      0.49564181	     82.29532242	    527.33327016	      0.00000000
      0.49706607	     86.21389547	    529.87758900	      0.00000000
      0.49849032	     90.20510535	    532.82058930	      0.00000000
      0.49991458	     94.25970615	    536.14780981	      0.00000000
      0.50133884	     98.36904467	    539.84193425	      0.00000000
      0.50276310	    102.52449745	    543.88025471	      0.00000000
      0.50418736	    106.71717804	    548.23662780	      0.00000000
      0.50561161	    110.93989241	    552.88470376	      0.00000000
      0.50703587	    115.18446839	    557.79399789	      0.00000000
      0.50846013	    119.44564279	    562.93797673	      0.00000000
      0.50988439	    123.71663233	    568.28549234	      0.00000000
      0.51130865	    127.99420850	    573.81206245	      0.00000000
      0.51273290	    132.27335873	    579.48839901	      0.00000000
      0.51415716	    136.55265405	    585.29307097	      0.00000000
      0.51558142	    140.82883863	    591.19993764	      0.00000000
      0.51700568	    145.10179739	    597.19080832	      0.00000000
      0.51842994	    149.36971835	    603.24312096	      0.00000000
      0.51985419	    153.63320635	    609.34166392	      0.00000000
      0.52127845	    157.89141565	    615.46735658	      0.00000000
      0.52270271	    162.14513289	    621.60753503	      0.00000000
      0.52412697	    166.39400405	    627.74627971	      0.00000000
      0.52555123	    170.63853528	    633.87285728	      0.00000000
      0.52697548	    174.87842153	    639.97391921	      0.00000000
      0.52839974	    179.11348325	    646.03991498	      0.00000000
      0.52982400	    183.34299020	    652.05928310	      0.00000000
      0.53124826	    187.56584689	    658.02300660	      0.00000000
      0.53267252	    191.78058742	    663.92053159	      0.00000000
      0.53409677	    195.98522974	    669.74301445	      0.00000000
      0.53552103	    200.17750086	    675.48037239	      0.00000000
      0.53694529	    204.35478351	    681.12400220	      0.00000000
      0.53836955	    208.51414839	    686.66422051	      0.00000000
      0.53979381	    212.65282219	    692.09318685	      0.00000000
      0.54121807	    216.76770935	    697.40209057	      0.00000000
      0.54264232	    220.85630908	    702.58435019	      0.00000000
      0.54406658	    224.91580366	    707.63256528	      0.00000000
      0.54549084	    228.94420026	    712.54172523	      0.00000000
      0.54691510	    232.93925062	    717.30609964	      0.00000000
      0.54833936	    236.89951375	    721.92229693	      0.00000000
      0.54976361	    240.82337617	    726.38640247	      0.00000000
      0.55118787	    244.70991873	    730.69668831	      0.00000000
      0.55261213	    248.55816506	    734.85110850	      0.00000000
      0.55403639	    252.36762483	    738.84943471	      0.00000000
      0.55546065	    256.13786934	    742.69133422	      0.00000000
      0.55688490	    259.86871272	    746.37774818	      0.00000000
      0.55830916	    263.56013539	    749.90970851	      0.00000000
      0.55973342	    267.21213838	    753.28893308	      0.00000000
      0.56115768	    270.82496261	    756.51738332	      0.00000000
      0.56258194	    274.39868956	    759.59719740	      0.00000000
      0.56400619	    277.93368505	    762.53085824	      0.00000000
      0.56543045	    281.43000977	    765.32066203	      0.00000000
      0.56685471	    284.88802455	    767.96929667	      0.00000000
      0.56827897	    288.30764956	    770.47904769	      0.00000000
      0.56970323	    291.68909660	    772.85261825	      0.00000000
      0.57112748	    295.03202255	    775.09219712	      0.00000000
      0.57255174	    298.33631293	    777.20034559	      0.00000000
      0.57397600	    301.60134971	    779.17925353	      0.00000000
      0.57540026	    304.82657692	    781.03135165	      0.00000000
      0.57682452	    308.01138466	    782.75921579	      0.00000000
      0.57824877	    311.15492744	    784.36538150	      0.00000000
      0.57967303	    314.25691453	    785.85266484	      0.00000000
      0.58109729	    317.31720728	    787.22444469	      0.00000000
      0.58252155	    320.33608692	    788.48448086	      0.00000000
      0.58394581	    323.31322327	    789.63595459	      0.00000000
      0.58537007	    326.24847119	    790.68173715	      0.00000000
      0.58679432	    329.14144185	    791.62459299	      0.00000000
      0.58821858	    331.99172041	    792.46630760	      0.00000000
      0.58964284	    334.80102049	    793.21153944	      0.00000000
      0.59106710	    337.57029763	    793.86515358	      0.00000000
      0.59249136	    340.30015902	    794.43032263	      0.00000000
      0.59391561	    342.99142629	    794.90933746	      0.00000000
      0.59533987	    345.64578151	    795.30420288	      0.00000000
      0.59676413	    348.26171619	    795.61150219	      0.00000000
      0.59818839	    350.84219554	    795.83393884	      0.00000000
      0.59961265	    353.39012050	    795.97699654	      0.00000000
      0.60103690	    355.90648259	    796.04265278	      0.00000000
      0.60246116	    358.39201740	    796.03218452	      0.00000000
      0.60388542	    360.84686976	    795.94680991	      0.00000000
      0.60530968	    363.27226379	    795.78885767	      0.00000000
      0.60673394	    365.66812514	    795.55996040	      0.00000000
      0.60815819	    368.03542441	    795.26250428	      0.00000000
      0.60958245	    370.37430702	    794.89845455	      0.00000000
      0.61100671	    372.68541399	    794.46996455	      0.00000000
      0.61243097	    374.96914413	    793.97912613	      0.00000000
      0.61385523	    377.22586243	    793.42780687	      0.00000000
      0.61527948	    379.45607457	    792.81803901	      0.00000000
      0.61670374	    381.65999698	    792.15147531	      0.00000000
      0.61812800	    383.83812367	    791.43000339	      0.00000000
      0.61955226	    385.99063531	    790.65514378	      0.00000000
      0.62097652	    388.11797867	    789.82863773	      0.00000000
      0.62240078	    390.22037096	    788.95193294	      0.00000000
      0.62382503	    392.29823162	    788.02665800	      0.00000000
      0.62524929	    394.35183188	    787.05419075	      0.00000000
      0.62667355	    396.38158086	    786.03604404	      0.00000000
      0.62809781	    398.38781150	    784.97354485	      0.00000000
      0.62952207	    400.37094295	    783.86812140	      0.00000000
      0.63094632	    402.33135870	    782.72106474	      0.00000000
      0.63237058	    404.26950010	    781.53374783	      0.00000000
      0.63379484	    406.18578345	    780.30742293	      0.00000000
      0.63521910	    408.08067065	    779.04341212	      0.00000000
      0.63664336	    409.95459862	    777.74292472	      0.00000000
      0.63806761	    411.80804503	    776.40723228	      0.00000000
      0.63949187	    413.64145576	    775.03749593	      0.00000000
      0.64091613	    415.45531637	    773.63493345	      0.00000000
      0.64234039	    417.25007336	    772.20065541	      0.00000000
      0.64376465	    419.02621292	    770.73582391	      0.00000000
      0.64518890	    420.78417666	    769.24149750	      0.00000000
      0.64661316	    422.52444527	    767.71878032	      0.00000000
      0.64803742	    424.24745239	    766.16867641	      0.00000000
      0.64946168	    425.95366961	    764.59222918	      0.00000000
      0.65088594	    427.64352271	    762.99038804	      0.00000000
      0.65231019	    429.31747306	    761.36413484	      0.00000000
      0.65373445	    430.97594168	    759.71436909	      0.00000000
      0.65515871	    432.61938031	    758.04201470	      0.00000000
      0.65658297	    434.24821169	    756.34792944	      0.00000000
      0.65800723	    435.86288454	    754.63298808	      0.00000000
      0.65943148	    437.46383098	    752.89801436	      0.00000000
      0.66085574	    439.05150416	    751.14384150	      0.00000000
      0.66228000	    440.62635275	    749.37126676	      0.00000000
      0.66370426	    442.18884273	    747.58109243	      0.00000000
      0.66512852	    443.73944336	    745.77409503	      0.00000000
      0.66655278	    445.27863782	    743.95105189	      0.00000000
      0.66797703	    446.80691840	    742.11272190	      0.00000000
      0.66940129	    448.32478877	    740.25986192	      0.00000000
      0.67082555	    449.83275917	    738.39320749	      0.00000000
      0.67224981	    451.33135110	    736.51349239	      0.00000000
      0.67367407	    452.82108604	    734.62142325	      0.00000000
      0.67509832	    454.30249868	    732.71770800	      0.00000000
      0.67652258	    455.77611305	    730.80301659	      0.00000000
      0.67794684	    457.24246753	    728.87802304	      0.00000000
      0.67937110	    458.70207626	    726.94334681	      0.00000000
      0.68079536	    460.15546838	    724.99961438	      0.00000000
      0.68221961	    461.60313035	    723.04737515	      0.00000000
      0.68364387	    463.04556460	    721.08718918	      0.00000000
      0.68506813	    464.48321069	    719.11951512	      0.00000000
      0.68649239	    465.91652427	    717.14482423	      0.00000000
      0.68791665	    467.34588798	    715.16347080	      0.00000000
      0.68934090	    468.77169811	    713.17582296	      0.00000000
      0.69076516	    470.19427115	    711.18211910	      0.00000000
      0.69218942	    471.61393434	    709.18261162	      0.00000000
      0.69361368	    473.03092573	    707.17741168	      0.00000000
      0.69503794	    474.44549009	    705.16664350	      0.00000000
      0.69646219	    475.85777916	    703.15028611	      0.00000000
      0.69788645	    477.26794656	    701.12832911	      0.00000000
      0.69931071	    478.67605385	    699.10061771	      0.00000000
      0.70073497	    480.08215769	    697.06700281	      0.00000000
      0.70215923	    481.48622736	    695.02719447	      0.00000000
      0.70358348	    482.88821849	    692.98090206	      0.00000000
      0.70500774	    484.28800313	    690.92769847	      0.00000000
      0.70643200	    485.68543041	    688.86714825	      0.00000000
      0.70785626	    487.08026874	    686.79868479	      0.00000000
      0.70928052	    488.47225371	    684.72172398	      0.00000000
      0.71070478	    489.86104756	    682.63556120	      0.00000000
      0.71212903	    491.24626867	    680.53946375	      0.00000000
      0.71355329	    492.62747533	    678.43259453	      0.00000000
      0.71497755	    494.00416929	    676.31407610	      0.00000000
      0.71640181	    495.37580685	    674.18294415	      0.00000000
      0.71782607	    496.74177455	    672.03817998	      0.00000000
      0.71925032	    498.10143319	    669.87869995	      0.00000000
      0.72067458	    499.45405889	    667.70335060	      0.00000000
      0.72209884	    500.79892351	    665.51093787	      0.00000000
      0.72352310	    502.13519842	    663.30018135	      0.00000000
      0.72494736	    503.46207011	    661.06978340	      0.00000000
      0.72637161	    504.77860881	    658.81834289	      0.00000000
      0.72779587	    506.08391903	    656.54446539	      0.00000000
      0.72922013	    507.37697393	    654.24663673	      0.00000000
      0.73064439	    508.65679565	    651.92337242	      0.00000000
      0.73206865	    509.92226145	    649.57305274	      0.00000000
      0.73349290	    511.17231047	    647.19411216	      0.00000000
      0.73491716	    512.40572470	    644.78483582	      0.00000000
      0.73634142	    513.62135638	    642.34358819	      0.00000000
      0.73776568	    514.81788950	    639.86857122	      0.00000000
      0.73918994	    515.99408892	    637.35809752	      0.00000000
      0.74061419	    517.14854079	    634.81030674	      0.00000000
      0.74203845	    518.27992303	    632.22347755	      0.00000000
      0.74346271	    519.38672729	    629.59571028	      0.00000000
      0.74488697	    520.46753057	    626.92525408	      0.00000000
      0.74631123	    521.52071981	    624.21017716	      0.00000000
      0.74773548	    522.54475778	    621.44869956	      0.00000000
      0.74915974	    523.53791503	    618.63886212	      0.00000000
      0.75058400	    524.49852255	    615.77884888	      0.00000000
      0.75200826	    525.42472091	    612.86667164	      0.00000000
      0.75343252	    526.31468972	    609.90046782	      0.00000000
      0.75485678	    527.16642457	    606.87821613	      0.00000000
      0.75628103	    527.97793107	    603.79799364	      0.00000000
      0.75770529	    528.74704337	    600.65774069	      0.00000000
      0.75912955	    529.47155754	    597.45545006	      0.00000000
      0.76055381	    530.14911658	    594.18900422	      0.00000000
      0.76197807	    530.77728483	    590.85629213	      0.00000000
      0.76340232	    531.35349520	    587.45512394	      0.00000000
      0.76482658	    531.87508400	    583.98328627	      0.00000000
      0.76625084	    532.33927224	    580.43851387	      0.00000000
      0.76767510	    532.74319444	    576.81851456	      0.00000000
      0.76909936	    533.08388525	    573.12096632	      0.00000000
      0.77052361	    533.35836164	    569.34357995	      0.00000000
      0.77194787	    533.56354699	    565.48404407	      0.00000000
      0.77337213	    533.69649643	    561.54023105	      0.00000000
      0.77479639	    533.75416295	    557.50997944	      0.00000000
      0.77622065	    533.73389439	    553.39157683	      0.00000000
      0.77764490	    533.63287532	    549.18324946	      0.00000000
      0.77906916	    533.44910254	    544.88404119	      0.00000000
      0.78049342	    533.18063556	    540.49288482	      0.00000000
      0.78191768	    532.82660540	    536.00988499	      0.00000000
      0.78334194	    532.38594064	    531.43501851	      0.00000000
      0.78476619	    531.85876681	    526.76977176	      0.00000000
      0.78619045	    531.24532562	    522.01550656	      0.00000000
      0.78761471	    530.54709116	    517.17508412	      0.00000000
      0.78903897	    529.76583850	    512.25136042	      0.00000000
      0.79046323	    528.90399566	    507.24810790	      0.00000000
      0.79188748	    527.96472215	    502.16930520	      0.00000000
      0.79331174	    526.95027017	    497.01870708	      0.00000000
      0.79473600	    525.86399536	    491.80045370	      0.00000000
      0.79616026	    524.70698915	    486.51771423	      0.00000000
      0.79758452	    523.48146152	    481.17424916	      0.00000000
      0.79900878	    522.18645303	    475.77190887	      0.00000000
      0.80043303	    520.82230264	    470.31326375	      0.00000000
      0.80185729	    519.38596019	    464.79828025	      0.00000000
      0.80328155	    517.87569306	    459.22769668	      0.00000000
      0.80470581	    516.28661743	    453.59957391	      0.00000000
      0.80613007	    514.61502078	    447.91271626	      0.00000000
      0.80755432	    512.85422075	    442.16365524	      0.00000000
      0.80897858	    510.99851199	    436.34948674	      0.00000000
      0.81040284	    509.03992922	    430.46645247	      0.00000000
      0.81182710	    506.97056283	    424.51126931	      0.00000000
      0.81325136	    504.78224861	    418.48052190	      0.00000000
      0.81467561	    502.46744515	    412.37125573	      0.00000000
      0.81609987	    500.01679456	    406.17967003	      0.00000000
      0.81752413	    497.42261139	    399.90227676	      0.00000000
      0.81894839	    494.67554681	    393.53689537	      0.00000000
      0.82037265	    491.76530465	    387.07929226	      0.00000000
      0.82179690	    488.67337133	    380.53949443	      0.00000000
      0.82322116	    485.41402456	    373.88819466	      0.00000000
      0.82464542	    481.96778767	    367.14605889	      0.00000000
      0.82606968	    478.32949824	    360.31019932	      0.00000000
      0.82749394	    474.48710138	    353.37727415	      0.00000000
      0.82891819	    470.43067939	    346.34701394	      0.00000000
      0.83034245	    466.15058012	    339.22016114	      0.00000000
      0.83176671	    461.63649731	    331.99920949	      0.00000000
      0.83319097	    456.87933069	    324.68460927	      0.00000000
      0.83461523	    451.87172588	    317.27762415	      0.00000000
      0.83603949	    446.60277733	    309.77681762	      0.00000000
      0.83746374	    441.06481112	    302.18363078	      0.00000000
      0.83888800	    435.24310446	    294.49647574	      0.00000000
      0.84031226	    429.12861165	    286.71781806	      0.00000000
      0.84173652	    422.70354849	    278.84524807	      0.00000000
      0.84316078	    415.95791228	    270.88130178	      0.00000000
      0.84458503	    408.86689351	    262.81887905	      0.00000000
      0.84600929	    401.41524624	    254.65450498	      0.00000000
      0.84743355	    393.58648099	    246.38471448	      0.00000000
      0.84885781	    385.37142047	    238.01328697	      0.00000000
      0.85028207	    376.71255977	    229.51939614	      0.00000000
      0.85170632	    367.56024140	    220.85796638	      0.00000000
      0.85313058	    358.10324664	    212.13473838	      0.00000000
      0.85455484	    348.56327913	    203.45763891	      0.00000000
