PointPosition
version=1
nRows=601
nColumns=4
inDegrees=no
No description.
endheader
time	state_0	state_1	state_2
      0.00000000	     -0.06420512	      1.03854638	      0.00000000
      0.00162259	     -0.06136796	      1.03818842	      0.00000000
      0.00324518	     -0.05852053	      1.03781985	      0.00000000
      0.00486777	     -0.05566321	      1.03744061	      0.00000000
      0.00649036	     -0.05279636	      1.03705069	      0.00000000
      0.00811295	     -0.04992034	      1.03665007	      0.00000000
      0.00973554	     -0.04703553	      1.03623876	      0.00000000
      0.01135814	     -0.04414235	      1.03581686	      0.00000000
      0.01298073	     -0.04124148	      1.03538463	      0.00000000
      0.01460332	     -0.03833380	      1.03494252	      0.00000000
      0.01622591	     -0.03542061	      1.03449127	      0.00000000
      0.01784850	     -0.03250344	      1.03403183	      0.00000000
      0.01947109	     -0.02958417	      1.03356543	      0.00000000
      0.02109368	     -0.02666479	      1.03309345	      0.00000000
      0.02271627	     -0.02374748	      1.03261755	      0.00000000
      0.02433886	     -0.02083444	      1.03213954	      0.00000000
      0.02596145	     -0.01792787	      1.03166150	      0.00000000
      0.02758404	     -0.01503020	      1.03118585	      0.00000000
      0.02920663	     -0.01214277	      1.03071466	      0.00000000
      0.03082922	     -0.00926492	      1.03024889	      0.00000000
      0.03245181	     -0.00639698	      1.02979083	      0.00000000
      0.03407441	     -0.00354209	      1.02934507	      0.00000000
      0.03569700	     -0.00070395	      1.02891713	      0.00000000
      0.03731959	      0.00211475	      1.02851179	      0.00000000
      0.03894218	      0.00491216	      1.02813274	      0.00000000
      0.04056477	      0.00768676	      1.02778309	      0.00000000
      0.04218736	      0.01043763	      1.02746507	      0.00000000
      0.04380995	      0.01316407	      1.02718052	      0.00000000
      0.04543254	      0.01586588	      1.02693052	      0.00000000
      0.04705513	      0.01854300	      1.02671580	      0.00000000
      0.04867772	      0.02119575	      1.02653645	      0.00000000
      0.05030031	      0.02382453	      1.02639226	      0.00000000
      0.05192290	      0.02642970	      1.02628213	      0.00000000
      0.05354549	      0.02901142	      1.02620441	      0.00000000
      0.05516808	      0.03156995	      1.02615727	      0.00000000
      0.05679068	      0.03410581	      1.02613915	      0.00000000
      0.05841327	      0.03661996	      1.02614886	      0.00000000
      0.06003586	      0.03911351	      1.02618526	      0.00000000
      0.06165845	      0.04158776	      1.02624731	      0.00000000
      0.06328104	      0.04404406	      1.02633399	      0.00000000
      0.06490363	      0.04648375	      1.02644417	      0.00000000
      0.06652622	      0.04890808	      1.02657665	      0.00000000
      0.06814881	      0.05131815	      1.02673008	      0.00000000
      0.06977140	      0.05371502	      1.02690310	      0.00000000
      0.07139399	      0.05609961	      1.02709430	      0.00000000
      0.07301658	      0.05847279	      1.02730235	      0.00000000
      0.07463917	      0.06083535	      1.02752591	      0.00000000
      0.07626176	      0.06318800	      1.02776372	      0.00000000
      0.07788435	      0.06553139	      1.02801460	      0.00000000
      0.07950695	      0.06786610	      1.02827738	      0.00000000
      0.08112954	      0.07019265	      1.02855099	      0.00000000
      0.08275213	      0.07251152	      1.02883440	      0.00000000
      0.08437472	      0.07482312	      1.02912665	      0.00000000
      0.08599731	      0.07712782	      1.02942683	      0.00000000
      0.08761990	      0.07942597	      1.02973411	      0.00000000
      0.08924249	      0.08171785	      1.03004769	      0.00000000
      0.09086508	      0.08400375	      1.03036686	      0.00000000
      0.09248767	      0.08628392	      1.03069093	      0.00000000
      0.09411026	      0.08855858	      1.03101928	      0.00000000
      0.09573285	      0.09082792	      1.03135134	      0.00000000
      0.09735544	      0.09309215	      1.03168659	      0.00000000
      0.09897803	      0.09535140	      1.03202453	      0.00000000
      0.10060063	      0.09760584	      1.03236474	      0.00000000
      0.10222322	      0.09985558	      1.03270679	      0.00000000
      0.10384581	      0.10210072	      1.03305034	      0.00000000
      0.10546840	      0.10434135	      1.03339502	      0.00000000
      0.10709099	      0.10657751	      1.03374051	      0.00000000
      0.10871358	      0.10880926	      1.03408653	      0.00000000
      0.11033617	      0.11103662	      1.03443279	      0.00000000
      0.11195876	      0.11325957	      1.03477903	      0.00000000
      0.11358135	      0.11547812	      1.03512499	      0.00000000
      0.11520394	      0.11769223	      1.03547044	      0.00000000
      0.11682653	      0.11990186	      1.03581515	      0.00000000
      0.11844912	      0.12210695	      1.03615889	      0.00000000
      0.12007171	      0.12430743	      1.03650147	      0.00000000
      0.12169430	      0.12650324	      1.03684268	      0.00000000
      0.12331690	      0.12869428	      1.03718231	      0.00000000
      0.12493949	      0.13088047	      1.03752020	      0.00000000
      0.12656208	      0.13306171	      1.03785615	      0.00000000
      0.12818467	      0.13523793	      1.03819001	      0.00000000
      0.12980726	      0.13740904	      1.03852160	      0.00000000
      0.13142985	      0.13957496	      1.03885078	      0.00000000
      0.13305244	      0.14173562	      1.03917741	      0.00000000
      0.13467503	      0.14389097	      1.03950135	      0.00000000
      0.13629762	      0.14604095	      1.03982248	      0.00000000
      0.13792021	      0.14818552	      1.04014070	      0.00000000
      0.13954280	      0.15032464	      1.04045589	      0.00000000
      0.14116539	      0.15245827	      1.04076796	      0.00000000
      0.14278798	      0.15458639	      1.04107683	      0.00000000
      0.14441057	      0.15670897	      1.04138241	      0.00000000
      0.14603317	      0.15882600	      1.04168464	      0.00000000
      0.14765576	      0.16093745	      1.04198344	      0.00000000
      0.14927835	      0.16304331	      1.04227877	      0.00000000
      0.15090094	      0.16514356	      1.04257056	      0.00000000
      0.15252353	      0.16723818	      1.04285876	      0.00000000
      0.15414612	      0.16932715	      1.04314334	      0.00000000
      0.15576871	      0.17141046	      1.04342425	      0.00000000
      0.15739130	      0.17348809	      1.04370145	      0.00000000
      0.15901389	      0.17556004	      1.04397493	      0.00000000
      0.16063648	      0.17762628	      1.04424464	      0.00000000
      0.16225907	      0.17968682	      1.04451058	      0.00000000
      0.16388166	      0.18174165	      1.04477271	      0.00000000
      0.16550425	      0.18379076	      1.04503105	      0.00000000
      0.16712684	      0.18583415	      1.04528557	      0.00000000
      0.16874944	      0.18787184	      1.04553627	      0.00000000
      0.17037203	      0.18990382	      1.04578316	      0.00000000
      0.17199462	      0.19193012	      1.04602625	      0.00000000
      0.17361721	      0.19395077	      1.04626554	      0.00000000
      0.17523980	      0.19596578	      1.04650107	      0.00000000
      0.17686239	      0.19797521	      1.04673283	      0.00000000
      0.17848498	      0.19997908	      1.04696087	      0.00000000
      0.18010757	      0.20197747	      1.04718520	      0.00000000
      0.18173016	      0.20397041	      1.04740586	      0.00000000
      0.18335275	      0.20595799	      1.04762288	      0.00000000
      0.18497534	      0.20794028	      1.04783629	      0.00000000
      0.18659793	      0.20991734	      1.04804615	      0.00000000
      0.18822052	      0.21188928	      1.04825250	      0.00000000
      0.18984311	      0.21385617	      1.04845539	      0.00000000
      0.19146571	      0.21581813	      1.04865488	      0.00000000
      0.19308830	      0.21777524	      1.04885102	      0.00000000
      0.19471089	      0.21972763	      1.04904387	      0.00000000
      0.19633348	      0.22167539	      1.04923350	      0.00000000
      0.19795607	      0.22361865	      1.04941998	      0.00000000
      0.19957866	      0.22555752	      1.04960337	      0.00000000
      0.20120125	      0.22749214	      1.04978373	      0.00000000
      0.20282384	      0.22942263	      1.04996114	      0.00000000
      0.20444643	      0.23134913	      1.05013567	      0.00000000
      0.20606902	      0.23327177	      1.05030739	      0.00000000
      0.20769161	      0.23519070	      1.05047636	      0.00000000
      0.20931420	      0.23710605	      1.05064267	      0.00000000
      0.21093679	      0.23901796	      1.05080639	      0.00000000
      0.21255939	      0.24092657	      1.05096759	      0.00000000
      0.21418198	      0.24283203	      1.05112636	      0.00000000
      0.21580457	      0.24473448	      1.05128278	      0.00000000
      0.21742716	      0.24663405	      1.05143693	      0.00000000
      0.21904975	      0.24853088	      1.05158890	      0.00000000
      0.22067234	      0.25042511	      1.05173878	      0.00000000
      0.22229493	      0.25231687	      1.05188665	      0.00000000
      0.22391752	      0.25420630	      1.05203259	      0.00000000
      0.22554011	      0.25609352	      1.05217669	      0.00000000
      0.22716270	      0.25797867	      1.05231901	      0.00000000
      0.22878529	      0.25986187	      1.05245964	      0.00000000
      0.23040788	      0.26174324	      1.05259864	      0.00000000
      0.23203047	      0.26362291	      1.05273607	      0.00000000
      0.23365306	      0.26550099	      1.05287199	      0.00000000
      0.23527566	      0.26737760	      1.05300644	      0.00000000
      0.23689825	      0.26925285	      1.05313946	      0.00000000
      0.23852084	      0.27112685	      1.05327110	      0.00000000
      0.24014343	      0.27299972	      1.05340139	      0.00000000
      0.24176602	      0.27487157	      1.05353036	      0.00000000
      0.24338861	      0.27674249	      1.05365803	      0.00000000
      0.24501120	      0.27861260	      1.05378442	      0.00000000
      0.24663379	      0.28048199	      1.05390956	      0.00000000
      0.24825638	      0.28235078	      1.05403345	      0.00000000
      0.24987897	      0.28421906	      1.05415611	      0.00000000
      0.25150156	      0.28608693	      1.05427754	      0.00000000
      0.25312415	      0.28795450	      1.05439774	      0.00000000
      0.25474674	      0.28982187	      1.05451673	      0.00000000
      0.25636933	      0.29168913	      1.05463449	      0.00000000
      0.25799193	      0.29355638	      1.05475102	      0.00000000
      0.25961452	      0.29542373	      1.05486632	      0.00000000
      0.26123711	      0.29729128	      1.05498037	      0.00000000
      0.26285970	      0.29915913	      1.05509317	      0.00000000
      0.26448229	      0.30102737	      1.05520470	      0.00000000
      0.26610488	      0.30289612	      1.05531495	      0.00000000
      0.26772747	      0.30476547	      1.05542389	      0.00000000
      0.26935006	      0.30663554	      1.05553151	      0.00000000
      0.27097265	      0.30850642	      1.05563780	      0.00000000
      0.27259524	      0.31037823	      1.05574272	      0.00000000
      0.27421783	      0.31225107	      1.05584626	      0.00000000
      0.27584042	      0.31412506	      1.05594838	      0.00000000
      0.27746301	      0.31600029	      1.05604907	      0.00000000
      0.27908560	      0.31787688	      1.05614830	      0.00000000
      0.28070820	      0.31975495	      1.05624604	      0.00000000
      0.28233079	      0.32163460	      1.05634226	      0.00000000
      0.28395338	      0.32351593	      1.05643693	      0.00000000
      0.28557597	      0.32539907	      1.05653003	      0.00000000
      0.28719856	      0.32728412	      1.05662152	      0.00000000
      0.28882115	      0.32917119	      1.05671136	      0.00000000
      0.29044374	      0.33106040	      1.05679954	      0.00000000
      0.29206633	      0.33295184	      1.05688601	      0.00000000
      0.29368892	      0.33484563	      1.05697074	      0.00000000
      0.29531151	      0.33674188	      1.05705370	      0.00000000
      0.29693410	      0.33864070	      1.05713486	      0.00000000
      0.29855669	      0.34054218	      1.05721418	      0.00000000
      0.30017928	      0.34244644	      1.05729162	      0.00000000
      0.30180188	      0.34435358	      1.05736716	      0.00000000
      0.30342447	      0.34626371	      1.05744075	      0.00000000
      0.30504706	      0.34817693	      1.05751236	      0.00000000
      0.30666965	      0.35009333	      1.05758195	      0.00000000
      0.30829224	      0.35201302	      1.05764949	      0.00000000
      0.30991483	      0.35393610	      1.05771495	      0.00000000
      0.31153742	      0.35586267	      1.05777827	      0.00000000
      0.31316001	      0.35779282	      1.05783943	      0.00000000
      0.31478260	      0.35972665	      1.05789839	      0.00000000
      0.31640519	      0.36166426	      1.05795511	      0.00000000
      0.31802778	      0.36360574	      1.05800955	      0.00000000
      0.31965037	      0.36555118	      1.05806167	      0.00000000
      0.32127296	      0.36750068	      1.05811145	      0.00000000
      0.32289555	      0.36945433	      1.05815883	      0.00000000
      0.32451815	      0.37141222	      1.05820377	      0.00000000
      0.32614074	      0.37337444	      1.05824626	      0.00000000
      0.32776333	      0.37534108	      1.05828623	      0.00000000
      0.32938592	      0.37731223	      1.05832367	      0.00000000
      0.33100851	      0.37928798	      1.05835852	      0.00000000
      0.33263110	      0.38126842	      1.05839075	      0.00000000
      0.33425369	      0.38325364	      1.05842033	      0.00000000
      0.33587628	      0.38524373	      1.05844722	      0.00000000
      0.33749887	      0.38723876	      1.05847137	      0.00000000
      0.33912146	      0.38923884	      1.05849276	      0.00000000
      0.34074405	      0.39124404	      1.05851135	      0.00000000
      0.34236664	      0.39325446	      1.05852709	      0.00000000
      0.34398923	      0.39527017	      1.05853995	      0.00000000
      0.34561182	      0.39729127	      1.05854990	      0.00000000
      0.34723442	      0.39931784	      1.05855689	      0.00000000
      0.34885701	      0.40134996	      1.05856089	      0.00000000
      0.35047960	      0.40338772	      1.05856186	      0.00000000
      0.35210219	      0.40543121	      1.05855977	      0.00000000
      0.35372478	      0.40748050	      1.05855456	      0.00000000
      0.35534737	      0.40953568	      1.05854621	      0.00000000
      0.35696996	      0.41159683	      1.05853467	      0.00000000
      0.35859255	      0.41366403	      1.05851991	      0.00000000
      0.36021514	      0.41573736	      1.05850189	      0.00000000
      0.36183773	      0.41781690	      1.05848055	      0.00000000
      0.36346032	      0.41990273	      1.05845586	      0.00000000
      0.36508291	      0.42199492	      1.05842779	      0.00000000
      0.36670550	      0.42409355	      1.05839627	      0.00000000
      0.36832809	      0.42619870	      1.05836128	      0.00000000
      0.36995069	      0.42831043	      1.05832276	      0.00000000
      0.37157328	      0.43042883	      1.05828067	      0.00000000
      0.37319587	      0.43255395	      1.05823496	      0.00000000
      0.37481846	      0.43468589	      1.05818559	      0.00000000
      0.37644105	      0.43682470	      1.05813251	      0.00000000
      0.37806364	      0.43897046	      1.05807567	      0.00000000
      0.37968623	      0.44112324	      1.05801502	      0.00000000
      0.38130882	      0.44328311	      1.05795051	      0.00000000
      0.38293141	      0.44545013	      1.05788208	      0.00000000
      0.38455400	      0.44762439	      1.05780970	      0.00000000
      0.38617659	      0.44980594	      1.05773331	      0.00000000
      0.38779918	      0.45199486	      1.05765285	      0.00000000
      0.38942177	      0.45419121	      1.05756827	      0.00000000
      0.39104437	      0.45639507	      1.05747951	      0.00000000
      0.39266696	      0.45860650	      1.05738653	      0.00000000
      0.39428955	      0.46082556	      1.05728926	      0.00000000
      0.39591214	      0.46305233	      1.05718766	      0.00000000
      0.39753473	      0.46528687	      1.05708165	      0.00000000
      0.39915732	      0.46752925	      1.05697119	      0.00000000
      0.40077991	      0.46977954	      1.05685621	      0.00000000
      0.40240250	      0.47203780	      1.05673665	      0.00000000
      0.40402509	      0.47430408	      1.05661245	      0.00000000
      0.40564768	      0.47657847	      1.05648355	      0.00000000
      0.40727027	      0.47886101	      1.05634988	      0.00000000
      0.40889286	      0.48115176	      1.05621138	      0.00000000
      0.41051545	      0.48345077	      1.05606798	      0.00000000
      0.41213804	      0.48575808	      1.05591961	      0.00000000
      0.41376064	      0.48807375	      1.05576621	      0.00000000
      0.41538323	      0.49039782	      1.05560770	      0.00000000
      0.41700582	      0.49273032	      1.05544401	      0.00000000
      0.41862841	      0.49507132	      1.05527506	      0.00000000
      0.42025100	      0.49742084	      1.05510079	      0.00000000
      0.42187359	      0.49977893	      1.05492111	      0.00000000
      0.42349618	      0.50214562	      1.05473596	      0.00000000
      0.42511877	      0.50452096	      1.05454526	      0.00000000
      0.42674136	      0.50690498	      1.05434893	      0.00000000
      0.42836395	      0.50929774	      1.05414689	      0.00000000
      0.42998654	      0.51169926	      1.05393907	      0.00000000
      0.43160913	      0.51410959	      1.05372539	      0.00000000
      0.43323172	      0.51652878	      1.05350578	      0.00000000
      0.43485431	      0.51895689	      1.05328016	      0.00000000
      0.43647691	      0.52139395	      1.05304845	      0.00000000
      0.43809950	      0.52384004	      1.05281059	      0.00000000
      0.43972209	      0.52629519	      1.05256649	      0.00000000
      0.44134468	      0.52875948	      1.05231608	      0.00000000
      0.44296727	      0.53123297	      1.05205928	      0.00000000
      0.44458986	      0.53371572	      1.05179603	      0.00000000
      0.44621245	      0.53620779	      1.05152623	      0.00000000
      0.44783504	      0.53870926	      1.05124982	      0.00000000
      0.44945763	      0.54122020	      1.05096672	      0.00000000
      0.45108022	      0.54374068	      1.05067684	      0.00000000
      0.45270281	      0.54627078	      1.05038011	      0.00000000
      0.45432540	      0.54881057	      1.05007644	      0.00000000
      0.45594799	      0.55136013	      1.04976574	      0.00000000
      0.45757058	      0.55391956	      1.04944792	      0.00000000
      0.45919318	      0.55648892	      1.04912289	      0.00000000
      0.46081577	      0.55906832	      1.04879055	      0.00000000
      0.46243836	      0.56165782	      1.04845080	      0.00000000
      0.46406095	      0.56425754	      1.04810354	      0.00000000
      0.46568354	      0.56686754	      1.04774865	      0.00000000
      0.46730613	      0.56948791	      1.04738601	      0.00000000
      0.46892872	      0.57211874	      1.04701551	      0.00000000
      0.47055131	      0.57476008	      1.04663701	      0.00000000
      0.47217390	      0.57741201	      1.04625036	      0.00000000
      0.47379649	      0.58007455	      1.04585544	      0.00000000
      0.47541908	      0.58274772	      1.04545210	      0.00000000
      0.47704167	      0.58543152	      1.04504018	      0.00000000
      0.47866426	      0.58812590	      1.04461955	      0.00000000
      0.48028685	      0.59083077	      1.04419008	      0.00000000
      0.48190945	      0.59354602	      1.04375164	      0.00000000
      0.48353204	      0.59627147	      1.04330413	      0.00000000
      0.48515463	      0.59900689	      1.04284748	      0.00000000
      0.48677722	      0.60175202	      1.04238163	      0.00000000
      0.48839981	      0.60450654	      1.04190654	      0.00000000
      0.49002240	      0.60727013	      1.04142219	      0.00000000
      0.49164499	      0.61004243	      1.04092855	      0.00000000
      0.49326758	      0.61282308	      1.04042561	      0.00000000
      0.49489017	      0.61561174	      1.03991336	      0.00000000
      0.49651276	      0.61840804	      1.03939178	      0.00000000
      0.49813535	      0.62121162	      1.03886086	      0.00000000
      0.49975794	      0.62402209	      1.03832062	      0.00000000
      0.50138053	      0.62683900	      1.03777111	      0.00000000
      0.50300313	      0.62966174	      1.03721252	      0.00000000
      0.50462572	      0.63248959	      1.03664516	      0.00000000
      0.50624831	      0.63532153	      1.03606961	      0.00000000
      0.50787090	      0.63815639	      1.03548661	      0.00000000
      0.50949349	      0.64099271	      1.03489721	      0.00000000
      0.51111608	      0.64382886	      1.03430261	      0.00000000
      0.51273867	      0.64666297	      1.03370435	      0.00000000
      0.51436126	      0.64949304	      1.03310416	      0.00000000
      0.51598385	      0.65231689	      1.03250413	      0.00000000
      0.51760644	      0.65513232	      1.03190657	      0.00000000
      0.51922903	      0.65793715	      1.03131414	      0.00000000
      0.52085162	      0.66073114	      1.03072807	      0.00000000
      0.52247421	      0.66351609	      1.03014844	      0.00000000
      0.52409680	      0.66629129	      1.02957760	      0.00000000
      0.52571940	      0.66905404	      1.02901979	      0.00000000
      0.52734199	      0.67180203	      1.02847891	      0.00000000
      0.52896458	      0.67453238	      1.02795966	      0.00000000
      0.53058717	      0.67724207	      1.02746708	      0.00000000
      0.53220976	      0.67992851	      1.02700609	      0.00000000
      0.53383235	      0.68258966	      1.02658105	      0.00000000
      0.53545494	      0.68522432	      1.02619498	      0.00000000
      0.53707753	      0.68783169	      1.02585020	      0.00000000
      0.53870012	      0.69041133	      1.02554763	      0.00000000
      0.54032271	      0.69296291	      1.02528750	      0.00000000
      0.54194530	      0.69548633	      1.02506911	      0.00000000
      0.54356789	      0.69798163	      1.02489162	      0.00000000
      0.54519048	      0.70044933	      1.02475391	      0.00000000
      0.54681307	      0.70289017	      1.02465482	      0.00000000
      0.54843567	      0.70530532	      1.02459304	      0.00000000
      0.55005826	      0.70769607	      1.02456726	      0.00000000
      0.55168085	      0.71006391	      1.02457601	      0.00000000
      0.55330344	      0.71241035	      1.02461771	      0.00000000
      0.55492603	      0.71473684	      1.02469057	      0.00000000
      0.55654862	      0.71704480	      1.02479270	      0.00000000
      0.55817121	      0.71933552	      1.02492210	      0.00000000
      0.55979380	      0.72161027	      1.02507675	      0.00000000
      0.56141639	      0.72387019	      1.02525465	      0.00000000
      0.56303898	      0.72611638	      1.02545385	      0.00000000
      0.56466157	      0.72834985	      1.02567248	      0.00000000
      0.56628416	      0.73057155	      1.02590872	      0.00000000
      0.56790675	      0.73278231	      1.02616085	      0.00000000
      0.56952934	      0.73498294	      1.02642722	      0.00000000
      0.57115194	      0.73717415	      1.02670628	      0.00000000
      0.57277453	      0.73935661	      1.02699656	      0.00000000
      0.57439712	      0.74153091	      1.02729669	      0.00000000
      0.57601971	      0.74369762	      1.02760534	      0.00000000
      0.57764230	      0.74585724	      1.02792132	      0.00000000
      0.57926489	      0.74801024	      1.02824347	      0.00000000
      0.58088748	      0.75015706	      1.02857075	      0.00000000
      0.58251007	      0.75229810	      1.02890215	      0.00000000
      0.58413266	      0.75443372	      1.02923677	      0.00000000
      0.58575525	      0.75656428	      1.02957375	      0.00000000
      0.58737784	      0.75869009	      1.02991231	      0.00000000
      0.58900043	      0.76081144	      1.03025170	      0.00000000
      0.59062302	      0.76292859	      1.03059127	      0.00000000
      0.59224562	      0.76504179	      1.03093037	      0.00000000
      0.59386821	      0.76715126	      1.03126845	      0.00000000
      0.59549080	      0.76925721	      1.03160495	      0.00000000
      0.59711339	      0.77135982	      1.03193940	      0.00000000
      0.59873598	      0.77345927	      1.03227134	      0.00000000
      0.60035857	      0.77555569	      1.03260036	      0.00000000
      0.60198116	      0.77764925	      1.03292606	      0.00000000
      0.60360375	      0.77974007	      1.03324811	      0.00000000
      0.60522634	      0.78182826	      1.03356618	      0.00000000
      0.60684893	      0.78391395	      1.03387999	      0.00000000
      0.60847152	      0.78599723	      1.03418925	      0.00000000
      0.61009411	      0.78807820	      1.03449375	      0.00000000
      0.61171670	      0.79015695	      1.03479324	      0.00000000
      0.61333929	      0.79223357	      1.03508754	      0.00000000
      0.61496189	      0.79430812	      1.03537647	      0.00000000
      0.61658448	      0.79638068	      1.03565987	      0.00000000
      0.61820707	      0.79845133	      1.03593760	      0.00000000
      0.61982966	      0.80052014	      1.03620955	      0.00000000
      0.62145225	      0.80258717	      1.03647559	      0.00000000
      0.62307484	      0.80465248	      1.03673564	      0.00000000
      0.62469743	      0.80671613	      1.03698960	      0.00000000
      0.62632002	      0.80877816	      1.03723743	      0.00000000
      0.62794261	      0.81083863	      1.03747905	      0.00000000
      0.62956520	      0.81289760	      1.03771442	      0.00000000
      0.63118779	      0.81495510	      1.03794352	      0.00000000
      0.63281038	      0.81701119	      1.03816633	      0.00000000
      0.63443297	      0.81906591	      1.03838283	      0.00000000
      0.63605556	      0.82111930	      1.03859303	      0.00000000
      0.63767816	      0.82317140	      1.03879695	      0.00000000
      0.63930075	      0.82522223	      1.03899460	      0.00000000
      0.64092334	      0.82727184	      1.03918602	      0.00000000
      0.64254593	      0.82932023	      1.03937125	      0.00000000
      0.64416852	      0.83136744	      1.03955032	      0.00000000
      0.64579111	      0.83341347	      1.03972331	      0.00000000
      0.64741370	      0.83545833	      1.03989026	      0.00000000
      0.64903629	      0.83750203	      1.04005123	      0.00000000
      0.65065888	      0.83954456	      1.04020631	      0.00000000
      0.65228147	      0.84158593	      1.04035556	      0.00000000
      0.65390406	      0.84362612	      1.04049907	      0.00000000
      0.65552665	      0.84566511	      1.04063690	      0.00000000
      0.65714924	      0.84770289	      1.04076915	      0.00000000
      0.65877183	      0.84973944	      1.04089590	      0.00000000
      0.66039443	      0.85177472	      1.04101725	      0.00000000
      0.66201702	      0.85380870	      1.04113328	      0.00000000
      0.66363961	      0.85584134	      1.04124411	      0.00000000
      0.66526220	      0.85787260	      1.04134982	      0.00000000
      0.66688479	      0.85990242	      1.04145053	      0.00000000
      0.66850738	      0.86193075	      1.04154635	      0.00000000
      0.67012997	      0.86395753	      1.04163738	      0.00000000
      0.67175256	      0.86598269	      1.04172375	      0.00000000
      0.67337515	      0.86800617	      1.04180557	      0.00000000
      0.67499774	      0.87002789	      1.04188296	      0.00000000
      0.67662033	      0.87204778	      1.04195605	      0.00000000
      0.67824292	      0.87406576	      1.04202495	      0.00000000
      0.67986551	      0.87608177	      1.04208981	      0.00000000
      0.68148810	      0.87809575	      1.04215074	      0.00000000
      0.68311070	      0.88010763	      1.04220789	      0.00000000
      0.68473329	      0.88211736	      1.04226139	      0.00000000
      0.68635588	      0.88412489	      1.04231138	      0.00000000
      0.68797847	      0.88613020	      1.04235800	      0.00000000
      0.68960106	      0.88813326	      1.04240140	      0.00000000
      0.69122365	      0.89013405	      1.04244172	      0.00000000
      0.69284624	      0.89213256	      1.04247911	      0.00000000
      0.69446883	      0.89412880	      1.04251373	      0.00000000
      0.69609142	      0.89612276	      1.04254572	      0.00000000
      0.69771401	      0.89811447	      1.04257524	      0.00000000
      0.69933660	      0.90010393	      1.04260246	      0.00000000
      0.70095919	      0.90209117	      1.04262752	      0.00000000
      0.70258178	      0.90407622	      1.04265058	      0.00000000
      0.70420438	      0.90605912	      1.04267182	      0.00000000
      0.70582697	      0.90803991	      1.04269139	      0.00000000
      0.70744956	      0.91001863	      1.04270945	      0.00000000
      0.70907215	      0.91199535	      1.04272616	      0.00000000
      0.71069474	      0.91397011	      1.04274167	      0.00000000
      0.71231733	      0.91594298	      1.04275613	      0.00000000
      0.71393992	      0.91791403	      1.04276970	      0.00000000
      0.71556251	      0.91988334	      1.04278252	      0.00000000
      0.71718510	      0.92185098	      1.04279474	      0.00000000
      0.71880769	      0.92381702	      1.04280649	      0.00000000
      0.72043028	      0.92578156	      1.04281790	      0.00000000
      0.72205287	      0.92774469	      1.04282910	      0.00000000
      0.72367546	      0.92970648	      1.04284021	      0.00000000
      0.72529805	      0.93166703	      1.04285136	      0.00000000
      0.72692065	      0.93362644	      1.04286264	      0.00000000
      0.72854324	      0.93558478	      1.04287416	      0.00000000
      0.73016583	      0.93754217	      1.04288601	      0.00000000
      0.73178842	      0.93949868	      1.04289829	      0.00000000
      0.73341101	      0.94145441	      1.04291107	      0.00000000
      0.73503360	      0.94340945	      1.04292443	      0.00000000
      0.73665619	      0.94536389	      1.04293845	      0.00000000
      0.73827878	      0.94731783	      1.04295317	      0.00000000
      0.73990137	      0.94927135	      1.04296866	      0.00000000
      0.74152396	      0.95122453	      1.04298497	      0.00000000
      0.74314655	      0.95317747	      1.04300213	      0.00000000
      0.74476914	      0.95513025	      1.04302019	      0.00000000
      0.74639173	      0.95708296	      1.04303918	      0.00000000
      0.74801432	      0.95903567	      1.04305911	      0.00000000
      0.74963692	      0.96098846	      1.04308001	      0.00000000
      0.75125951	      0.96294143	      1.04310189	      0.00000000
      0.75288210	      0.96489464	      1.04312477	      0.00000000
      0.75450469	      0.96684818	      1.04314865	      0.00000000
      0.75612728	      0.96880212	      1.04317352	      0.00000000
      0.75774987	      0.97075654	      1.04319939	      0.00000000
      0.75937246	      0.97271153	      1.04322626	      0.00000000
      0.76099505	      0.97466716	      1.04325410	      0.00000000
      0.76261764	      0.97662351	      1.04328293	      0.00000000
      0.76424023	      0.97858066	      1.04331271	      0.00000000
      0.76586282	      0.98053870	      1.04334345	      0.00000000
      0.76748541	      0.98249770	      1.04337512	      0.00000000
      0.76910800	      0.98445775	      1.04340772	      0.00000000
      0.77073059	      0.98641893	      1.04344122	      0.00000000
      0.77235319	      0.98838133	      1.04347563	      0.00000000
      0.77397578	      0.99034505	      1.04351093	      0.00000000
      0.77559837	      0.99231015	      1.04354711	      0.00000000
      0.77722096	      0.99427675	      1.04358418	      0.00000000
      0.77884355	      0.99624493	      1.04362212	      0.00000000
      0.78046614	      0.99821478	      1.04366094	      0.00000000
      0.78208873	      1.00018641	      1.04370065	      0.00000000
      0.78371132	      1.00215990	      1.04374124	      0.00000000
      0.78533391	      1.00413536	      1.04378271	      0.00000000
      0.78695650	      1.00611289	      1.04382507	      0.00000000
      0.78857909	      1.00809258	      1.04386830	      0.00000000
      0.79020168	      1.01007453	      1.04391241	      0.00000000
      0.79182427	      1.01205885	      1.04395739	      0.00000000
      0.79344687	      1.01404564	      1.04400320	      0.00000000
      0.79506946	      1.01603500	      1.04404985	      0.00000000
      0.79669205	      1.01802703	      1.04409730	      0.00000000
      0.79831464	      1.02002182	      1.04414553	      0.00000000
      0.79993723	      1.02201949	      1.04419450	      0.00000000
      0.80155982	      1.02402013	      1.04424419	      0.00000000
      0.80318241	      1.02602384	      1.04429457	      0.00000000
      0.80480500	      1.02803073	      1.04434559	      0.00000000
      0.80642759	      1.03004091	      1.04439721	      0.00000000
      0.80805018	      1.03205448	      1.04444941	      0.00000000
      0.80967277	      1.03407154	      1.04450212	      0.00000000
      0.81129536	      1.03609221	      1.04455531	      0.00000000
      0.81291795	      1.03811660	      1.04460893	      0.00000000
      0.81454054	      1.04014482	      1.04466293	      0.00000000
      0.81616314	      1.04217699	      1.04471725	      0.00000000
      0.81778573	      1.04421322	      1.04477186	      0.00000000
      0.81940832	      1.04625363	      1.04482668	      0.00000000
      0.82103091	      1.04829834	      1.04488166	      0.00000000
      0.82265350	      1.05034748	      1.04493675	      0.00000000
      0.82427609	      1.05240115	      1.04499187	      0.00000000
      0.82589868	      1.05445948	      1.04504697	      0.00000000
      0.82752127	      1.05652258	      1.04510199	      0.00000000
      0.82914386	      1.05859057	      1.04515685	      0.00000000
      0.83076645	      1.06066358	      1.04521148	      0.00000000
      0.83238904	      1.06274170	      1.04526582	      0.00000000
      0.83401163	      1.06482506	      1.04531979	      0.00000000
      0.83563422	      1.06691376	      1.04537333	      0.00000000
      0.83725681	      1.06900791	      1.04542635	      0.00000000
      0.83887941	      1.07110762	      1.04547878	      0.00000000
      0.84050200	      1.07321298	      1.04553054	      0.00000000
      0.84212459	      1.07532411	      1.04558155	      0.00000000
      0.84374718	      1.07744109	      1.04563174	      0.00000000
      0.84536977	      1.07956403	      1.04568102	      0.00000000
      0.84699236	      1.08169302	      1.04572932	      0.00000000
      0.84861495	      1.08382815	      1.04577654	      0.00000000
      0.85023754	      1.08596951	      1.04582261	      0.00000000
      0.85186013	      1.08811719	      1.04586744	      0.00000000
      0.85348272	      1.09027128	      1.04591094	      0.00000000
      0.85510531	      1.09243185	      1.04595303	      0.00000000
      0.85672790	      1.09459901	      1.04599363	      0.00000000
      0.85835049	      1.09677282	      1.04603263	      0.00000000
      0.85997308	      1.09895337	      1.04606997	      0.00000000
      0.86159568	      1.10114074	      1.04610554	      0.00000000
      0.86321827	      1.10333500	      1.04613926	      0.00000000
      0.86484086	      1.10553625	      1.04617104	      0.00000000
      0.86646345	      1.10774454	      1.04620078	      0.00000000
      0.86808604	      1.10995996	      1.04622841	      0.00000000
      0.86970863	      1.11218258	      1.04625382	      0.00000000
      0.87133122	      1.11441247	      1.04627693	      0.00000000
      0.87295381	      1.11664971	      1.04629764	      0.00000000
      0.87457640	      1.11889437	      1.04631587	      0.00000000
      0.87619899	      1.12114652	      1.04633152	      0.00000000
      0.87782158	      1.12340622	      1.04634451	      0.00000000
      0.87944417	      1.12567356	      1.04635473	      0.00000000
      0.88106676	      1.12794860	      1.04636209	      0.00000000
      0.88268936	      1.13023142	      1.04636651	      0.00000000
      0.88431195	      1.13252207	      1.04636789	      0.00000000
      0.88593454	      1.13482063	      1.04636613	      0.00000000
      0.88755713	      1.13712717	      1.04636114	      0.00000000
      0.88917972	      1.13944176	      1.04635282	      0.00000000
      0.89080231	      1.14176446	      1.04634109	      0.00000000
      0.89242490	      1.14409535	      1.04632583	      0.00000000
      0.89404749	      1.14643449	      1.04630696	      0.00000000
      0.89567008	      1.14878195	      1.04628438	      0.00000000
      0.89729267	      1.15113781	      1.04625799	      0.00000000
      0.89891526	      1.15350212	      1.04622769	      0.00000000
      0.90053785	      1.15587496	      1.04619337	      0.00000000
      0.90216044	      1.15825639	      1.04615494	      0.00000000
      0.90378303	      1.16064648	      1.04611229	      0.00000000
      0.90540563	      1.16304530	      1.04606533	      0.00000000
      0.90702822	      1.16545292	      1.04601394	      0.00000000
      0.90865081	      1.16786941	      1.04595802	      0.00000000
      0.91027340	      1.17029484	      1.04589746	      0.00000000
      0.91189599	      1.17272928	      1.04583215	      0.00000000
      0.91351858	      1.17517280	      1.04576198	      0.00000000
      0.91514117	      1.17762545	      1.04568684	      0.00000000
      0.91676376	      1.18008731	      1.04560660	      0.00000000
      0.91838635	      1.18255845	      1.04552116	      0.00000000
      0.92000894	      1.18503895	      1.04543038	      0.00000000
      0.92163153	      1.18752888	      1.04533415	      0.00000000
      0.92325412	      1.19002831	      1.04523234	      0.00000000
      0.92487671	      1.19253732	      1.04512483	      0.00000000
      0.92649930	      1.19505598	      1.04501148	      0.00000000
      0.92812190	      1.19758436	      1.04489217	      0.00000000
      0.92974449	      1.20012254	      1.04476677	      0.00000000
      0.93136708	      1.20267056	      1.04463514	      0.00000000
      0.93298967	      1.20522852	      1.04449716	      0.00000000
      0.93461226	      1.20779646	      1.04435269	      0.00000000
      0.93623485	      1.21037447	      1.04420159	      0.00000000
      0.93785744	      1.21296260	      1.04404373	      0.00000000
      0.93948003	      1.21556093	      1.04387896	      0.00000000
      0.94110262	      1.21816952	      1.04370714	      0.00000000
      0.94272521	      1.22078844	      1.04352814	      0.00000000
      0.94434780	      1.22341775	      1.04334181	      0.00000000
      0.94597039	      1.22605754	      1.04314800	      0.00000000
      0.94759298	      1.22870785	      1.04294657	      0.00000000
      0.94921557	      1.23136877	      1.04273735	      0.00000000
      0.95083817	      1.23404037	      1.04252020	      0.00000000
      0.95246076	      1.23672272	      1.04229495	      0.00000000
      0.95408335	      1.23941589	      1.04206144	      0.00000000
      0.95570594	      1.24211996	      1.04181949	      0.00000000
      0.95732853	      1.24483501	      1.04156892	      0.00000000
      0.95895112	      1.24756111	      1.04130955	      0.00000000
      0.96057371	      1.25029833	      1.04104117	      0.00000000
      0.96219630	      1.25304673	      1.04076360	      0.00000000
      0.96381889	      1.25580636	      1.04047663	      0.00000000
      0.96544148	      1.25857725	      1.04018005	      0.00000000
      0.96706407	      1.26135943	      1.03987367	      0.00000000
      0.96868666	      1.26415287	      1.03955729	      0.00000000
      0.97030925	      1.26695749	      1.03923072	      0.00000000
      0.97193184	      1.26977319	      1.03889379	      0.00000000
      0.97355444	      1.27259975	      1.03854638	      0.00000000
