PointAcceleration
version=1
nRows=601
nColumns=4
inDegrees=no
No description.
endheader
time	state_0	state_1	state_2
      0.00000000	    459.17266336	    330.70375850	      0.00000000
      0.00162259	    455.32272813	    322.87976173	      0.00000000
      0.00324518	    451.35147251	    315.02100487	      0.00000000
      0.00486777	    447.34492952	    307.22267179	      0.00000000
      0.00649036	    442.91037567	    299.28246676	      0.00000000
      0.00811295	    438.10378508	    291.20333764	      0.00000000
      0.00973554	    432.87523809	    282.96923176	      0.00000000
      0.01135814	    427.20239642	    274.58339625	      0.00000000
      0.01298073	    421.06020167	    266.04498738	      0.00000000
      0.01460332	    414.33596282	    257.31271075	      0.00000000
      0.01622591	    406.93874887	    248.34561653	      0.00000000
      0.01784850	    398.76756767	    239.10575241	      0.00000000
      0.01947109	    389.74647830	    229.56160000	      0.00000000
      0.02109368	    379.80743195	    219.70174439	      0.00000000
      0.02271627	    368.90083057	    209.51636909	      0.00000000
      0.02433886	    357.00002521	    199.02732642	      0.00000000
      0.02596145	    344.06903471	    188.22549077	      0.00000000
      0.02758404	    330.11533104	    177.15868074	      0.00000000
      0.02920663	    315.48057593	    165.80750077	      0.00000000
      0.03082922	    300.40722228	    154.26607343	      0.00000000
      0.03245181	    283.95780006	    143.46035420	      0.00000000
      0.03407441	    266.56994436	    132.34815944	      0.00000000
      0.03569700	    248.43921736	    120.99204372	      0.00000000
      0.03731959	    229.86354240	    109.81380000	      0.00000000
      0.03894218	    211.26276744	     98.97050794	      0.00000000
      0.04056477	    192.69789883	     88.60594753	      0.00000000
      0.04218736	    174.43096887	     78.82418894	      0.00000000
      0.04380995	    156.17359741	     69.57085493	      0.00000000
      0.04543254	    138.18183865	     60.92168995	      0.00000000
      0.04705513	    119.78174150	     52.69042882	      0.00000000
      0.04867772	    103.21013088	     45.51347320	      0.00000000
      0.05030031	     81.11716351	     37.44431122	      0.00000000
      0.05192290	     47.52665631	     26.55757149	      0.00000000
      0.05354549	     37.29081978	     21.92056474	      0.00000000
      0.05516808	     37.54006159	     19.91041388	      0.00000000
      0.05679068	     35.35154895	     16.83267609	      0.00000000
      0.05841327	     32.55560264	     13.78456649	      0.00000000
      0.06003586	     29.53080349	     11.06107805	      0.00000000
      0.06165845	     26.81649456	      8.86280740	      0.00000000
      0.06328104	     24.57375130	      7.11616080	      0.00000000
      0.06490363	     22.92272269	      5.75331336	      0.00000000
      0.06652622	     21.66510828	      4.62509425	      0.00000000
      0.06814881	     20.64417238	      3.64254867	      0.00000000
      0.06977140	     19.76000453	      2.75621676	      0.00000000
      0.07139399	     18.92880196	      1.93238948	      0.00000000
      0.07301658	     18.15907336	      1.16938320	      0.00000000
      0.07463917	     17.43605816	      0.45927472	      0.00000000
      0.07626176	     16.77049207	     -0.19837850	      0.00000000
      0.07788435	     16.15809953	     -0.80802875	      0.00000000
      0.07950695	     15.59594114	     -1.37350915	      0.00000000
      0.08112954	     15.07969699	     -1.89953884	      0.00000000
      0.08275213	     14.60635886	     -2.38979370	      0.00000000
      0.08437472	     14.17303679	     -2.84733891	      0.00000000
      0.08599731	     13.77717933	     -3.27485614	      0.00000000
      0.08761990	     13.41550779	     -3.67506073	      0.00000000
      0.08924249	     13.08376683	     -4.05058528	      0.00000000
      0.09086508	     12.77678568	     -4.40412916	      0.00000000
      0.09248767	     12.48961847	     -4.73808227	      0.00000000
      0.09411026	     12.21655135	     -5.05488885	      0.00000000
      0.09573285	     11.95428039	     -5.35632230	      0.00000000
      0.09735544	     11.69883217	     -5.64423086	      0.00000000
      0.09897803	     11.44950305	     -5.91971245	      0.00000000
      0.10060063	     11.20504260	     -6.18395031	      0.00000000
      0.10222322	     10.96648862	     -6.43761178	      0.00000000
      0.10384581	     10.73450522	     -6.68143092	      0.00000000
      0.10546840	     10.51028642	     -6.91595483	      0.00000000
      0.10709099	     10.29481718	     -7.14175998	      0.00000000
      0.10871358	     10.08839979	     -7.35943610	      0.00000000
      0.11033617	      9.89124613	     -7.56956768	      0.00000000
      0.11195876	      9.70273826	     -7.77276756	      0.00000000
      0.11358135	      9.52221843	     -7.96962837	      0.00000000
      0.11520394	      9.34871219	     -8.16068593	      0.00000000
      0.11682653	      9.18118935	     -8.34646356	      0.00000000
      0.11844912	      9.01880299	     -8.52734464	      0.00000000
      0.12007171	      8.86059840	     -8.70371957	      0.00000000
      0.12169430	      8.70598586	     -8.87577121	      0.00000000
      0.12331690	      8.55421750	     -9.04356976	      0.00000000
      0.12493949	      8.40491278	     -9.20715991	      0.00000000
      0.12656208	      8.25761892	     -9.36661845	      0.00000000
      0.12818467	      8.11207590	     -9.52194858	      0.00000000
      0.12980726	      7.96794338	     -9.67316864	      0.00000000
      0.13142985	      7.82487292	     -9.82031249	      0.00000000
      0.13305244	      7.68218555	     -9.96346509	      0.00000000
      0.13467503	      7.53972824	    -10.10266173	      0.00000000
      0.13629762	      7.39721482	    -10.23795572	      0.00000000
      0.13792021	      7.25571653	    -10.36923646	      0.00000000
      0.13954280	      7.11634889	    -10.49639674	      0.00000000
      0.14116539	      6.98128160	    -10.61921074	      0.00000000
      0.14278798	      6.84988017	    -10.73782974	      0.00000000
      0.14441057	      6.84749271	    -10.84689676	      0.00000000
      0.14603317	      6.71217813	    -10.95685428	      0.00000000
      0.14765576	      6.58306227	    -11.06242261	      0.00000000
      0.14927835	      6.46064406	    -11.16362284	      0.00000000
      0.15090094	      6.33986474	    -11.26113558	      0.00000000
      0.15252353	      6.21912708	    -11.35519504	      0.00000000
      0.15414612	      6.09665897	    -11.44604303	      0.00000000
      0.15576871	      5.97163148	    -11.53380241	      0.00000000
      0.15739130	      5.84466866	    -11.61842871	      0.00000000
      0.15901389	      5.71579441	    -11.69994833	      0.00000000
      0.16063648	      5.58649998	    -11.77823064	      0.00000000
      0.16225907	      5.45869518	    -11.85311558	      0.00000000
      0.16388166	      5.33489970	    -11.92439181	      0.00000000
      0.16550425	      5.21820901	    -11.99181001	      0.00000000
      0.16712684	      5.10935726	    -12.05536914	      0.00000000
      0.16874944	      5.00797073	    -12.11517937	      0.00000000
      0.17037203	      4.91245790	    -12.17145987	      0.00000000
      0.17199462	      4.82295847	    -12.22425732	      0.00000000
      0.17361721	      4.73879975	    -12.27369136	      0.00000000
      0.17523980	      4.66036112	    -12.31978195	      0.00000000
      0.17686239	      4.58246636	    -12.36304711	      0.00000000
      0.17848498	      4.49534066	    -12.40438244	      0.00000000
      0.18010757	      4.39173803	    -12.44441254	      0.00000000
      0.18173016	      4.26773674	    -12.48343896	      0.00000000
      0.18335275	      4.12678558	    -12.52112538	      0.00000000
      0.18497534	      3.97054341	    -12.55730913	      0.00000000
      0.18659793	      3.80395809	    -12.59157830	      0.00000000
      0.18822052	      3.63251800	    -12.62351224	      0.00000000
      0.18984311	      3.46070750	    -12.65280418	      0.00000000
      0.19146571	      3.29151480	    -12.67928776	      0.00000000
      0.19308830	      3.12718370	    -12.70286918	      0.00000000
      0.19471089	      2.97293291	    -12.72324171	      0.00000000
      0.19633348	      2.83101194	    -12.74033182	      0.00000000
      0.19795607	      2.70321306	    -12.75409764	      0.00000000
      0.19957866	      2.58516798	    -12.76493312	      0.00000000
      0.20120125	      2.47104992	    -12.77331833	      0.00000000
      0.20282384	      2.35524664	    -12.77970510	      0.00000000
      0.20444643	      2.23431233	    -12.78438652	      0.00000000
      0.20606902	      2.10776809	    -12.78745063	      0.00000000
      0.20769161	      1.97418231	    -12.78905497	      0.00000000
      0.20931420	      1.83273081	    -12.78931982	      0.00000000
      0.21093679	      1.68160104	    -12.78843757	      0.00000000
      0.21255939	      1.52038014	    -12.78651104	      0.00000000
      0.21418198	      1.34897479	    -12.78362930	      0.00000000
      0.21580457	      1.16908144	    -12.77976733	      0.00000000
      0.21742716	      0.98260907	    -12.77489171	      0.00000000
      0.21904975	      0.79114099	    -12.76898983	      0.00000000
      0.22067234	      0.59588178	    -12.76207269	      0.00000000
      0.22229493	      0.39676084	    -12.75422987	      0.00000000
      0.22391752	      0.19372683	    -12.74554695	      0.00000000
      0.22554011	     -0.01351491	    -12.73612794	      0.00000000
      0.22716270	     -0.22498768	    -12.72607253	      0.00000000
      0.22878529	     -0.44034840	    -12.71544347	      0.00000000
      0.23040788	     -0.65912419	    -12.70429389	      0.00000000
      0.23203047	     -0.88093248	    -12.69268630	      0.00000000
      0.23365306	     -1.10543893	    -12.68068836	      0.00000000
      0.23527566	     -1.33280971	    -12.66840272	      0.00000000
      0.23689825	     -1.56325307	    -12.65593809	      0.00000000
      0.23852084	     -1.79722123	    -12.64342268	      0.00000000
      0.24014343	     -2.03512560	    -12.63098774	      0.00000000
      0.24176602	     -2.27720835	    -12.61875572	      0.00000000
      0.24338861	     -2.52368173	    -12.60685191	      0.00000000
      0.24501120	     -2.77452276	    -12.59538713	      0.00000000
      0.24663379	     -3.02973022	    -12.58447701	      0.00000000
      0.24825638	     -3.28923096	    -12.57423324	      0.00000000
      0.24987897	     -3.55297927	    -12.56477227	      0.00000000
      0.25150156	     -3.82096737	    -12.55621483	      0.00000000
      0.25312415	     -4.09319084	    -12.54868514	      0.00000000
      0.25474674	     -4.36968270	    -12.54231242	      0.00000000
      0.25636933	     -4.65046569	    -12.53722883	      0.00000000
      0.25799193	     -4.93557117	    -12.53356991	      0.00000000
      0.25961452	     -5.22502149	    -12.53147432	      0.00000000
      0.26123711	     -5.51884034	    -12.53108402	      0.00000000
      0.26285970	     -5.81704618	    -12.53254439	      0.00000000
      0.26448229	     -6.11966719	    -12.53600528	      0.00000000
      0.26610488	     -6.42672690	    -12.54162019	      0.00000000
      0.26772747	     -6.73826711	    -12.54954827	      0.00000000
      0.26935006	     -7.05432423	    -12.55995249	      0.00000000
      0.27097265	     -7.37495652	    -12.57300230	      0.00000000
      0.27259524	     -7.70021699	    -12.58887143	      0.00000000
      0.27421783	     -8.03017857	    -12.60774035	      0.00000000
      0.27584042	     -8.36491016	    -12.62979448	      0.00000000
      0.27746301	     -8.70449394	    -12.65522575	      0.00000000
      0.27908560	     -9.04900956	    -12.68423162	      0.00000000
      0.28070820	     -9.39854093	    -12.71701541	      0.00000000
      0.28233079	     -9.75317073	    -12.75378653	      0.00000000
      0.28395338	    -10.11297800	    -12.79475948	      0.00000000
      0.28557597	    -10.47804054	    -12.84015515	      0.00000000
      0.28719856	    -10.84843007	    -12.89019932	      0.00000000
      0.28882115	    -11.22421695	    -12.94512437	      0.00000000
      0.29044374	    -11.60546739	    -13.00516798	      0.00000000
      0.29206633	    -11.99224611	    -13.07057465	      0.00000000
      0.29368892	    -12.38461758	    -13.14159490	      0.00000000
      0.29531151	    -12.78264264	    -13.21848612	      0.00000000
      0.29693410	    -13.18638850	    -13.30151303	      0.00000000
      0.29855669	    -13.59591598	    -13.39094732	      0.00000000
      0.30017928	    -14.01130195	    -13.48706993	      0.00000000
      0.30180188	    -14.43261525	    -13.59016924	      0.00000000
      0.30342447	    -14.85995272	    -13.70054554	      0.00000000
      0.30504706	    -15.29340435	    -13.81850789	      0.00000000
      0.30666965	    -15.73309274	    -13.94437931	      0.00000000
      0.30829224	    -16.17913757	    -14.07849382	      0.00000000
      0.30991483	    -16.63167637	    -14.22119836	      0.00000000
      0.31153742	    -17.09084796	    -14.37285301	      0.00000000
      0.31316001	    -17.55677666	    -14.53382611	      0.00000000
      0.31478260	    -18.02959368	    -14.70450095	      0.00000000
      0.31640519	    -18.50937281	    -14.88526097	      0.00000000
      0.31802778	    -18.99620164	    -15.07650563	      0.00000000
      0.31965037	    -19.49006776	    -15.27862462	      0.00000000
      0.32127296	    -19.99097493	    -15.49202248	      0.00000000
      0.32289555	    -20.49879976	    -15.71708553	      0.00000000
      0.32451815	    -21.01343416	    -15.95421196	      0.00000000
      0.32614074	    -21.53463718	    -16.20377645	      0.00000000
      0.32776333	    -22.06218090	    -16.46616147	      0.00000000
      0.32938592	    -22.59572062	    -16.74172543	      0.00000000
      0.33100851	    -23.13491718	    -17.03082897	      0.00000000
      0.33263110	    -23.67934933	    -17.33381347	      0.00000000
      0.33425369	    -24.22859416	    -17.65101751	      0.00000000
      0.33587628	    -24.78218300	    -17.98276680	      0.00000000
      0.33749887	    -25.33964684	    -18.32938227	      0.00000000
      0.33912146	    -25.90048202	    -18.69117282	      0.00000000
      0.34074405	    -26.46419043	    -19.06844221	      0.00000000
      0.34236664	    -27.03020413	    -19.46146990	      0.00000000
      0.34398923	    -27.59796717	    -19.87052853	      0.00000000
      0.34561182	    -28.16678491	    -20.29583207	      0.00000000
      0.34723442	    -28.73598004	    -20.73757808	      0.00000000
      0.34885701	    -29.30466116	    -21.19589286	      0.00000000
      0.35047960	    -29.87194383	    -21.67087547	      0.00000000
      0.35210219	    -30.43673879	    -22.16253222	      0.00000000
      0.35372478	    -30.99794423	    -22.67082171	      0.00000000
      0.35534737	    -31.55436146	    -23.19563286	      0.00000000
      0.35696996	    -32.10475333	    -23.73678618	      0.00000000
      0.35859255	    -32.64797181	    -24.29409035	      0.00000000
      0.36021514	    -33.18280471	    -24.86727176	      0.00000000
      0.36183773	    -33.70831970	    -25.45611766	      0.00000000
      0.36346032	    -34.22350348	    -26.06033188	      0.00000000
      0.36508291	    -34.72773947	    -26.67973741	      0.00000000
      0.36670550	    -35.22032791	    -27.31408676	      0.00000000
      0.36832809	    -35.70096777	    -27.96327286	      0.00000000
      0.36995069	    -36.16928765	    -28.62714118	      0.00000000
      0.37157328	    -36.62521903	    -29.30565863	      0.00000000
      0.37319587	    -37.06866074	    -29.99877754	      0.00000000
      0.37481846	    -37.49964713	    -30.70651473	      0.00000000
      0.37644105	    -37.91823988	    -31.42891064	      0.00000000
      0.37806364	    -38.32439187	    -32.16596336	      0.00000000
      0.37968623	    -38.71812891	    -32.91771441	      0.00000000
      0.38130882	    -39.09909498	    -33.68401745	      0.00000000
      0.38293141	    -39.46698327	    -34.46473346	      0.00000000
      0.38455400	    -39.82104890	    -35.25947243	      0.00000000
      0.38617659	    -40.16059950	    -36.06781700	      0.00000000
      0.38779918	    -40.48477596	    -36.88921088	      0.00000000
      0.38942177	    -40.79290581	    -37.72312873	      0.00000000
      0.39104437	    -41.08422932	    -38.56894168	      0.00000000
      0.39266696	    -41.35810451	    -39.42600398	      0.00000000
      0.39428955	    -41.61362587	    -40.29343999	      0.00000000
      0.39591214	    -41.84990711	    -41.17025935	      0.00000000
      0.39753473	    -42.06597814	    -42.05531289	      0.00000000
      0.39915732	    -42.26130554	    -42.94758721	      0.00000000
      0.40077991	    -42.43490838	    -43.84567033	      0.00000000
      0.40240250	    -42.58650983	    -44.74845228	      0.00000000
      0.40402509	    -42.71365152	    -45.65317037	      0.00000000
      0.40564768	    -42.81607768	    -46.55826663	      0.00000000
      0.40727027	    -42.88973519	    -47.45928199	      0.00000000
      0.40889286	    -43.14721275	    -48.58670713	      0.00000000
      0.41051545	    -43.16157935	    -49.47446722	      0.00000000
      0.41213804	    -43.14348206	    -50.34826829	      0.00000000
      0.41376064	    -43.09352338	    -51.20588907	      0.00000000
      0.41538323	    -43.01086985	    -52.04379990	      0.00000000
      0.41700582	    -42.89606549	    -52.85950727	      0.00000000
      0.41862841	    -42.74826653	    -53.64919812	      0.00000000
      0.42025100	    -42.56811875	    -54.41028598	      0.00000000
      0.42187359	    -42.35700338	    -55.14101465	      0.00000000
      0.42349618	    -42.11638328	    -55.83991709	      0.00000000
      0.42511877	    -41.84643214	    -56.50458837	      0.00000000
      0.42674136	    -41.54695582	    -57.13218714	      0.00000000
      0.42836395	    -41.21801002	    -57.72019477	      0.00000000
      0.42998654	    -40.86022740	    -58.26681275	      0.00000000
      0.43160913	    -40.47452727	    -58.77089513	      0.00000000
      0.43323172	    -40.06163223	    -59.23126551	      0.00000000
      0.43485431	    -39.62191765	    -59.64659479	      0.00000000
      0.43647691	    -39.15563344	    -60.01539576	      0.00000000
      0.43809950	    -38.66358877	    -60.33705811	      0.00000000
      0.43972209	    -38.14664102	    -60.61103142	      0.00000000
      0.44134468	    -37.60578329	    -60.83701801	      0.00000000
      0.44296727	    -37.04216672	    -61.01480504	      0.00000000
      0.44458986	    -36.45719802	    -61.14447434	      0.00000000
      0.44621245	    -35.85309127	    -61.22722084	      0.00000000
      0.44783504	    -35.23246256	    -61.26492925	      0.00000000
      0.44945763	    -34.59886621	    -61.26091912	      0.00000000
      0.45108022	    -33.95591447	    -61.21917072	      0.00000000
      0.45270281	    -33.30736753	    -61.14434863	      0.00000000
      0.45432540	    -32.65709764	    -61.04140403	      0.00000000
      0.45594799	    -32.00930968	    -60.91590168	      0.00000000
      0.45757058	    -31.36874858	    -60.77415984	      0.00000000
      0.45919318	    -30.74126174	    -60.62439056	      0.00000000
      0.46081577	    -30.13415210	    -60.47671670	      0.00000000
      0.46243836	    -29.55684864	    -60.34447816	      0.00000000
      0.46406095	    -29.02206667	    -60.24493932	      0.00000000
      0.46568354	    -28.54658379	    -60.20068755	      0.00000000
      0.46730613	    -28.15407786	    -60.24280778	      0.00000000
      0.46892872	    -27.87515531	    -60.41114816	      0.00000000
      0.47055131	    -27.75146431	    -60.76012056	      0.00000000
      0.47217390	    -27.83243680	    -61.35543064	      0.00000000
      0.47379649	    -28.17958663	    -62.28021058	      0.00000000
      0.47541908	    -28.85804158	    -63.62464511	      0.00000000
      0.47704167	    -29.93500716	    -65.48811706	      0.00000000
      0.47866426	    -31.46264130	    -67.95534711	      0.00000000
      0.48028685	    -33.46889296	    -71.08771390	      0.00000000
      0.48190945	    -35.93835312	    -74.89342799	      0.00000000
      0.48353204	    -38.80010580	    -79.30782955	      0.00000000
      0.48515463	    -41.93238849	    -84.20099384	      0.00000000
      0.48677722	    -45.16371720	    -89.36569940	      0.00000000
      0.48839981	    -48.31949193	    -94.59000223	      0.00000000
      0.49002240	    -51.24643692	    -99.67190524	      0.00000000
      0.49164499	    -53.87820760	   -104.52437536	      0.00000000
      0.49326758	    -56.26086399	   -109.19764014	      0.00000000
      0.49489017	    -58.58734138	   -113.97610520	      0.00000000
      0.49651276	    -61.19690902	   -119.38786629	      0.00000000
      0.49813535	    -64.51375602	   -126.12735093	      0.00000000
      0.49975794	    -69.04564258	   -135.10575878	      0.00000000
      0.50138053	    -75.20843648	   -147.01484418	      0.00000000
      0.50300313	    -83.37273642	   -162.46202330	      0.00000000
      0.50462572	    -93.73512880	   -181.64204218	      0.00000000
      0.50624831	   -106.36590681	   -204.47506439	      0.00000000
      0.50787090	   -121.23657118	   -230.77039300	      0.00000000
      0.50949349	   -138.14843704	   -260.05429696	      0.00000000
      0.51111608	   -156.74358788	   -291.71297374	      0.00000000
      0.51273867	   -176.20165776	   -324.40309168	      0.00000000
      0.51436126	   -195.10710297	   -355.86167217	      0.00000000
      0.51598385	   -211.39254641	   -383.05697048	      0.00000000
      0.51760644	   -221.68095587	   -400.63983008	      0.00000000
      0.51922903	   -226.39722338	   -409.07461328	      0.00000000
      0.52085162	    -43.30149681	   -174.01964744	      0.00000000
      0.52247421	    -39.97706643	   -177.08671240	      0.00000000
      0.52409680	    -42.27036285	   -181.87706847	      0.00000000
      0.52571940	    -30.52985875	   -160.30990959	      0.00000000
      0.52734199	    -35.61738415	   -131.93912166	      0.00000000
      0.52896458	    -30.62250686	    -80.11925358	      0.00000000
      0.53058717	    -31.06951441	    -54.53241490	      0.00000000
      0.53220976	    -23.53724711	    -41.57333508	      0.00000000
      0.53383235	    -19.06175210	    -45.36499051	      0.00000000
      0.53545494	    -14.66448364	    -51.43338107	      0.00000000
      0.53707753	    -12.10266151	    -58.97808117	      0.00000000
      0.53870012	    -10.14039722	    -64.58783572	      0.00000000
      0.54032271	     -9.00325844	    -68.71167636	      0.00000000
      0.54194530	     -8.10703364	    -71.62993174	      0.00000000
      0.54356789	     -7.53247241	    -73.58732507	      0.00000000
      0.54519048	     -7.07761207	    -75.25481561	      0.00000000
      0.54681307	     -6.78686389	    -76.61877426	      0.00000000
      0.54843567	     -6.57153763	    -77.94998039	      0.00000000
      0.55005826	     -6.47239037	    -79.16754455	      0.00000000
      0.55168085	     -6.46314916	    -80.33426772	      0.00000000
      0.55330344	     -6.55891578	    -81.37237185	      0.00000000
      0.55492603	     -6.75000473	    -82.26741715	      0.00000000
      0.55654862	     -7.02706117	    -82.95236433	      0.00000000
      0.55817121	     -7.37906155	    -83.39469972	      0.00000000
      0.55979380	     -7.79288410	    -83.56832358	      0.00000000
      0.56141639	     -8.26086362	    -83.47252945	      0.00000000
      0.56303898	     -8.77051875	    -83.11788354	      0.00000000
      0.56466157	     -9.31730106	    -82.53071627	      0.00000000
      0.56628416	     -9.89125514	    -81.73719474	      0.00000000
      0.56790675	    -10.48939057	    -80.77131310	      0.00000000
      0.56952934	    -11.10583782	    -79.66460645	      0.00000000
      0.57115194	    -11.73908368	    -78.45142913	      0.00000000
      0.57277453	    -12.38762383	    -77.16774311	      0.00000000
      0.57439712	    -13.05201290	    -75.84904977	      0.00000000
      0.57601971	    -13.73325119	    -74.53264460	      0.00000000
      0.57764230	    -14.43365989	    -73.25461688	      0.00000000
      0.57926489	    -15.15416581	    -72.04651174	      0.00000000
      0.58088748	    -15.89696614	    -70.93949629	      0.00000000
      0.58251007	    -16.66078736	    -69.95216127	      0.00000000
      0.58413266	    -17.44553460	    -69.10425873	      0.00000000
      0.58575525	    -18.24672970	    -68.39804322	      0.00000000
      0.58737784	    -19.06093408	    -67.83855991	      0.00000000
      0.58900043	    -19.88081426	    -67.41298831	      0.00000000
      0.59062302	    -20.69966435	    -67.11195804	      0.00000000
      0.59224562	    -21.50843366	    -66.91173816	      0.00000000
      0.59386821	    -22.29805676	    -66.79159908	      0.00000000
      0.59549080	    -23.05932523	    -66.72227433	      0.00000000
      0.59711339	    -23.78234788	    -66.67603232	      0.00000000
      0.59873598	    -24.45938729	    -66.62360868	      0.00000000
      0.60035857	    -25.08157015	    -66.53597410	      0.00000000
      0.60198116	    -25.64332723	    -66.38788065	      0.00000000
      0.60360375	    -26.13781208	    -66.15347487	      0.00000000
      0.60522634	    -26.56133181	    -65.81252552	      0.00000000
      0.60684893	    -26.90888405	    -65.34348445	      0.00000000
      0.60847152	    -27.17842630	    -64.73037681	      0.00000000
      0.61009411	    -27.36678602	    -63.95562004	      0.00000000
      0.61171670	    -27.47342488	    -63.00637703	      0.00000000
      0.61333929	    -27.49701354	    -61.86846248	      0.00000000
      0.61496189	    -27.43784656	    -60.53074874	      0.00000000
      0.61658448	    -27.29594995	    -58.98116735	      0.00000000
      0.61820707	    -27.07207068	    -57.20995107	      0.00000000
      0.61982966	    -26.76685308	    -55.20523538	      0.00000000
      0.62145225	    -26.37964147	    -52.95611739	      0.00000000
      0.62307484	    -25.91122113	    -50.45237483	      0.00000000
      0.62469743	    -25.36026399	    -47.68087522	      0.00000000
      0.62632002	    -24.72535808	    -44.62766823	      0.00000000
      0.62794261	    -24.00370628	    -41.27609668	      0.00000000
      0.62956520	    -23.19190929	    -37.60726412	      0.00000000
      0.63118779	    -22.28739486	    -33.60412423	      0.00000000
      0.63281038	    -21.28704250	    -29.24771376	      0.00000000
      0.63443297	    -20.18933323	    -24.52445432	      0.00000000
      0.63605556	    -18.99249415	    -19.41963615	      0.00000000
      0.63767816	    -17.69546381	    -13.92410775	      0.00000000
      0.63930075	    -16.29737169	     -8.02909694	      0.00000000
      0.64092334	    -14.79654156	     -1.72901024	      0.00000000
      0.64254593	    -13.19198452	      4.97967104	      0.00000000
      0.64416852	    -11.48085478	     12.10009382	      0.00000000
      0.64579111	     -9.66136823	     19.63198078	      0.00000000
      0.64741370	     -7.73012862	     27.57538952	      0.00000000
      0.64903629	     -5.68511796	     35.92542596	      0.00000000
      0.65065888	     -3.52256264	     44.67861314	      0.00000000
      0.65228147	     -1.24033941	     53.82528297	      0.00000000
      0.65390406	      1.16624202	     63.36076414	      0.00000000
      0.65552665	      3.70048220	     73.27509139	      0.00000000
      0.65714924	      6.36751381	     83.56498306	      0.00000000
      0.65877183	      9.17180145	     94.22385658	      0.00000000
      0.66039443	     12.11849726	    105.25058520	      0.00000000
      0.66201702	     15.21269733	    116.64288411	      0.00000000
      0.66363961	     18.45839235	    128.39961277	      0.00000000
      0.66526220	     21.86013636	    140.51988662	      0.00000000
      0.66688479	     25.42051067	    153.00098835	      0.00000000
      0.66850738	     29.14323568	    165.84181581	      0.00000000
      0.67012997	     33.02901383	    179.03745174	      0.00000000
      0.67175256	     37.07975216	    192.58564236	      0.00000000
      0.67337515	     41.29232026	    206.47625018	      0.00000000
      0.67499774	     45.66441918	    220.70071146	      0.00000000
      0.67662033	     50.18951733	    235.24236213	      0.00000000
      0.67824292	     54.86098089	    250.08501050	      0.00000000
      0.67986551	     59.67038011	    265.20586858	      0.00000000
      0.68148810	     64.60802421	    280.57995457	      0.00000000
      0.68311070	     69.66739599	    296.18241896	      0.00000000
      0.68473329	     74.84042141	    311.98538974	      0.00000000
      0.68635588	     80.12356601	    327.96455232	      0.00000000
      0.68797847	     85.51154103	    344.09194844	      0.00000000
      0.68960106	     91.00254910	    360.34468463	      0.00000000
      0.69122365	     96.59330097	    376.69690432	      0.00000000
      0.69284624	    102.28207750	    393.12708537	      0.00000000
      0.69446883	    108.06638765	    409.61203007	      0.00000000
      0.69609142	    113.94393055	    426.13079793	      0.00000000
      0.69771401	    119.91205511	    442.66188150	      0.00000000
      0.69933660	    125.96704765	    459.18323811	      0.00000000
      0.70095919	    132.10518234	    475.67292309	      0.00000000
      0.70258178	    138.32124638	    492.10682092	      0.00000000
      0.70420438	    144.61002542	    508.46114642	      0.00000000
      0.70582697	    150.96488343	    524.70953570	      0.00000000
      0.70744956	    157.37898676	    540.82576852	      0.00000000
      0.70907215	    163.84438884	    556.78177353	      0.00000000
      0.71069474	    170.35278310	    572.54930611	      0.00000000
      0.71231733	    176.89542152	    588.10019367	      0.00000000
      0.71393992	    183.46309731	    603.40601828	      0.00000000
      0.71556251	    190.04679388	    618.44051538	      0.00000000
      0.71718510	    196.63713203	    633.17748344	      0.00000000
      0.71880769	    203.22529057	    647.59415049	      0.00000000
      0.72043028	    209.80234261	    661.66838855	      0.00000000
      0.72205287	    216.35999191	    675.38166295	      0.00000000
      0.72367546	    222.89014360	    688.71674576	      0.00000000
      0.72529805	    229.38518167	    701.65934274	      0.00000000
      0.72692065	    235.83796977	    714.19703942	      0.00000000
      0.72854324	    242.24162735	    726.31942099	      0.00000000
      0.73016583	    248.58995041	    738.01833124	      0.00000000
      0.73178842	    254.87682701	    749.28686004	      0.00000000
      0.73341101	    261.09693785	    760.12056932	      0.00000000
      0.73503360	    267.24488521	    770.51559643	      0.00000000
      0.73665619	    273.31613435	    780.47064810	      0.00000000
      0.73827878	    279.30583921	    789.98421797	      0.00000000
      0.73990137	    285.21002998	    799.05732332	      0.00000000
      0.74152396	    291.02426491	    807.69009017	      0.00000000
      0.74314655	    296.74491065	    815.88497321	      0.00000000
      0.74476914	    302.36789675	    823.64325454	      0.00000000
      0.74639173	    307.88983858	    830.96826756	      0.00000000
      0.74801432	    313.30705255	    837.86212921	      0.00000000
      0.74963692	    318.61639244	    844.32866953	      0.00000000
      0.75125951	    323.81458133	    850.37061830	      0.00000000
      0.75288210	    328.89869672	    855.99199497	      0.00000000
      0.75450469	    333.86598066	    861.19629699	      0.00000000
      0.75612728	    338.71381855	    865.98784373	      0.00000000
      0.75774987	    343.44025557	    870.37158982	      0.00000000
      0.75937246	    348.04330711	    874.35296861	      0.00000000
      0.76099505	    352.52201826	    877.93894305	      0.00000000
      0.76261764	    356.87535156	    881.13682474	      0.00000000
      0.76424023	    361.10326305	    883.95539244	      0.00000000
      0.76586282	    365.20572981	    886.40381852	      0.00000000
      0.76748541	    369.18331737	    888.49191540	      0.00000000
      0.76910800	    373.03695347	    890.23010098	      0.00000000
      0.77073059	    376.76748378	    891.62837702	      0.00000000
      0.77235319	    380.37686866	    892.69783083	      0.00000000
      0.77397578	    383.86599068	    893.44806414	      0.00000000
      0.77559837	    387.23803419	    893.89051200	      0.00000000
      0.77722096	    390.49391789	    894.03425892	      0.00000000
      0.77884355	    393.63785642	    893.89077170	      0.00000000
      0.78046614	    396.67128480	    893.46924222	      0.00000000
      0.78208873	    399.59846587	    892.78077775	      0.00000000
      0.78371132	    402.42198238	    891.83569331	      0.00000000
      0.78533391	    405.14503566	    890.64465376	      0.00000000
      0.78695650	    407.77131725	    889.21926335	      0.00000000
      0.78857909	    410.30301646	    887.56995433	      0.00000000
      0.79020168	    412.74463153	    885.70924744	      0.00000000
      0.79182427	    415.09876223	    883.64829581	      0.00000000
      0.79344687	    417.36987964	    881.39928978	      0.00000000
      0.79506946	    419.56149282	    878.97383187	      0.00000000
      0.79669205	    421.67713033	    876.38261722	      0.00000000
      0.79831464	    423.72040343	    873.63654022	      0.00000000
      0.79993723	    425.69339768	    870.74437059	      0.00000000
      0.80155982	    427.59876250	    867.71543974	      0.00000000
      0.80318241	    429.43713257	    864.55661011	      0.00000000
      0.80480500	    431.20957644	    861.27527385	      0.00000000
      0.80642759	    432.91588159	    857.87676660	      0.00000000
      0.80805018	    434.55590220	    854.36672397	      0.00000000
      0.80967277	    436.12964346	    850.74956741	      0.00000000
      0.81129536	    437.63683167	    847.02970102	      0.00000000
      0.81291795	    439.07862669	    843.21135632	      0.00000000
      0.81454054	    440.45565743	    839.29845399	      0.00000000
      0.81616314	    441.77044115	    835.29549573	      0.00000000
      0.81778573	    443.02481780	    831.20645770	      0.00000000
      0.81940832	    444.22220049	    827.03618030	      0.00000000
      0.82103091	    445.36534232	    822.78885656	      0.00000000
      0.82265350	    446.45798802	    818.46954911	      0.00000000
      0.82427609	    447.50332479	    814.08262525	      0.00000000
      0.82589868	    448.50504525	    809.63323837	      0.00000000
      0.82752127	    449.46640318	    805.12585541	      0.00000000
      0.82914386	    450.39084432	    800.56559618	      0.00000000
      0.83076645	    451.28149326	    795.95694001	      0.00000000
      0.83238904	    452.14150350	    791.30487160	      0.00000000
      0.83401163	    452.97380297	    786.61379855	      0.00000000
      0.83563422	    453.78128978	    781.88850252	      0.00000000
      0.83725681	    454.56670932	    777.13326665	      0.00000000
      0.83887941	    455.33272680	    772.35257683	      0.00000000
      0.84050200	    456.08192180	    767.55050753	      0.00000000
      0.84212459	    456.81671711	    762.73113371	      0.00000000
      0.84374718	    457.53951154	    757.89820398	      0.00000000
      0.84536977	    458.25246559	    753.05528984	      0.00000000
      0.84699236	    458.95776710	    748.20571752	      0.00000000
      0.84861495	    459.65728116	    743.35248677	      0.00000000
      0.85023754	    460.35294918	    738.49843430	      0.00000000
      0.85186013	    461.04627139	    733.64589815	      0.00000000
      0.85348272	    461.73887173	    728.79712783	      0.00000000
      0.85510531	    462.43183853	    723.95374791	      0.00000000
      0.85672790	    463.12642023	    719.11735967	      0.00000000
      0.85835049	    463.82325657	    714.28885544	      0.00000000
      0.85997308	    464.52317314	    709.46915599	      0.00000000
      0.86159568	    465.22633457	    704.65843386	      0.00000000
      0.86321827	    465.93310281	    699.85691984	      0.00000000
      0.86484086	    466.64320496	    695.06417101	      0.00000000
      0.86646345	    467.35656028	    690.27981660	      0.00000000
      0.86808604	    468.07251636	    685.50293248	      0.00000000
      0.86970863	    468.79059833	    680.73266746	      0.00000000
      0.87133122	    469.50985388	    675.96775142	      0.00000000
      0.87295381	    470.22947004	    671.20694909	      0.00000000
      0.87457640	    470.94837067	    666.44886598	      0.00000000
      0.87619899	    471.66555186	    661.69206339	      0.00000000
      0.87782158	    472.38023076	    656.93551250	      0.00000000
      0.87944417	    473.09167233	    652.17813981	      0.00000000
      0.88106676	    473.79929548	    647.41919029	      0.00000000
      0.88268936	    474.50259371	    642.65785918	      0.00000000
      0.88431195	    475.20116633	    637.89357239	      0.00000000
      0.88593454	    475.89466979	    633.12567511	      0.00000000
      0.88755713	    476.58296807	    628.35384630	      0.00000000
      0.88917972	    477.26595684	    623.57767097	      0.00000000
      0.89080231	    477.94372133	    618.79703351	      0.00000000
      0.89242490	    478.61637742	    614.01172873	      0.00000000
      0.89404749	    479.28412838	    609.22167553	      0.00000000
      0.89567008	    479.94722081	    604.42669133	      0.00000000
      0.89729267	    480.60572028	    599.62645394	      0.00000000
      0.89891526	    481.25972386	    594.82050644	      0.00000000
      0.90053785	    481.90893798	    590.00819890	      0.00000000
      0.90216044	    482.55306279	    585.18875684	      0.00000000
      0.90378303	    483.19144537	    580.36127599	      0.00000000
      0.90540563	    483.82342218	    575.52475904	      0.00000000
      0.90702822	    484.44782044	    570.67775897	      0.00000000
      0.90865081	    485.06340755	    565.81854231	      0.00000000
      0.91027340	    485.66811344	    560.94491308	      0.00000000
      0.91189599	    486.25980349	    556.05411248	      0.00000000
      0.91351858	    486.83634238	    551.14590449	      0.00000000
      0.91514117	    487.39835021	    546.21734301	      0.00000000
      0.91676376	    487.94147022	    541.26746149	      0.00000000
      0.91838635	    488.46321065	    536.29290525	      0.00000000
      0.92000894	    488.96044032	    531.29066995	      0.00000000
      0.92163153	    489.42954882	    526.25790499	      0.00000000
      0.92325412	    489.86765481	    521.19244437	      0.00000000
      0.92487671	    490.27131614	    516.09156207	      0.00000000
      0.92649930	    490.63676630	    510.95245119	      0.00000000
      0.92812190	    490.95956975	    505.77179629	      0.00000000
      0.92974449	    491.23566293	    500.54687601	      0.00000000
      0.93136708	    491.46044165	    495.27459383	      0.00000000
      0.93298967	    491.63004398	    489.95223372	      0.00000000
      0.93461226	    491.73980595	    484.57661289	      0.00000000
      0.93623485	    491.78494395	    479.14430686	      0.00000000
      0.93785744	    491.75977722	    473.65132019	      0.00000000
      0.93948003	    491.65881201	    468.09398858	      0.00000000
      0.94110262	    491.47574834	    462.46817781	      0.00000000
      0.94272521	    491.20432308	    456.76981428	      0.00000000
      0.94434780	    490.83698250	    450.99415949	      0.00000000
      0.94597039	    490.36668857	    445.13718741	      0.00000000
      0.94759298	    489.78483858	    439.19403412	      0.00000000
      0.94921557	    489.08373654	    433.16098989	      0.00000000
      0.95083817	    488.25365029	    427.03315321	      0.00000000
      0.95246076	    487.28870139	    420.80903580	      0.00000000
      0.95408335	    486.18069868	    414.48601480	      0.00000000
      0.95570594	    484.92616953	    408.06457670	      0.00000000
      0.95732853	    483.51912849	    401.54424028	      0.00000000
      0.95895112	    481.95189994	    394.92325605	      0.00000000
      0.96057371	    480.21307137	    388.19760997	      0.00000000
      0.96219630	    478.29962894	    381.36998958	      0.00000000
      0.96381889	    476.20388314	    374.44088811	      0.00000000
      0.96544148	    473.94898319	    367.42854533	      0.00000000
      0.96706407	    471.56551023	    360.35780433	      0.00000000
      0.96868666	    469.01573585	    353.21244601	      0.00000000
      0.97030925	    466.26975087	    345.98950717	      0.00000000
      0.97193184	    463.12915092	    338.57195413	      0.00000000
      0.97355444	    459.31506692	    330.78357119	      0.00000000
