PointVelocity
version=1
nRows=601
nColumns=4
inDegrees=no
No description.
endheader
time	state_0	state_1	state_2
      0.00000000	     -0.05694707	      0.06089364	      0.00000000
      0.00162259	     -0.05769295	      0.06296268	      0.00000000
      0.00324518	     -0.05847888	      0.06512214	      0.00000000
      0.00486777	     -0.05927034	      0.06726940	      0.00000000
      0.00649036	     -0.05999531	      0.06950919	      0.00000000
      0.00811295	     -0.06070416	      0.07189457	      0.00000000
      0.00973554	     -0.06140118	      0.07445913	      0.00000000
      0.01135814	     -0.06209771	      0.07723666	      0.00000000
      0.01298073	     -0.06281179	      0.08027206	      0.00000000
      0.01460332	     -0.06353754	      0.08362962	      0.00000000
      0.01622591	     -0.06427828	      0.08737780	      0.00000000
      0.01784850	     -0.06502285	      0.09157216	      0.00000000
      0.01947109	     -0.06577074	      0.09627222	      0.00000000
      0.02109368	     -0.06650773	      0.10151303	      0.00000000
      0.02271627	     -0.06723284	      0.10734265	      0.00000000
      0.02433886	     -0.06793229	      0.11377640	      0.00000000
      0.02596145	     -0.06862045	      0.12088837	      0.00000000
      0.02758404	     -0.06929425	      0.12869337	      0.00000000
      0.02920663	     -0.06976161	      0.13682252	      0.00000000
      0.03082922	     -0.07003223	      0.14519428	      0.00000000
      0.03245181	     -0.07050523	      0.15453557	      0.00000000
      0.03407441	     -0.07133146	      0.16516858	      0.00000000
      0.03569700	     -0.07238289	      0.17684119	      0.00000000
      0.03731959	     -0.07356338	      0.18914881	      0.00000000
      0.03894218	     -0.07486908	      0.20181181	      0.00000000
      0.04056477	     -0.07627164	      0.21472172	      0.00000000
      0.04218736	     -0.07774801	      0.22769365	      0.00000000
      0.04380995	     -0.07920238	      0.24086838	      0.00000000
      0.04543254	     -0.08085929	      0.25421895	      0.00000000
      0.04705513	     -0.08258134	      0.26813616	      0.00000000
      0.04867772	     -0.08678209	      0.28174132	      0.00000000
      0.05030031	     -0.08706043	      0.29806990	      0.00000000
      0.05192290	     -0.07021013	      0.32222679	      0.00000000
      0.05354549	     -0.01608899	      0.35881523	      0.00000000
      0.05516808	      0.08950199	      0.40877317	      0.00000000
      0.05679068	      0.22257648	      0.46249458	      0.00000000
      0.05841327	      0.36202415	      0.51349688	      0.00000000
      0.06003586	      0.49442344	      0.55845627	      0.00000000
      0.06165845	      0.60667613	      0.59492156	      0.00000000
      0.06328104	      0.69883257	      0.62388698	      0.00000000
      0.06490363	      0.77198941	      0.64636050	      0.00000000
      0.06652622	      0.83298173	      0.66453334	      0.00000000
      0.06814881	      0.88629183	      0.67973399	      0.00000000
      0.06977140	      0.93455361	      0.69278639	      0.00000000
      0.07139399	      0.97977355	      0.70427069	      0.00000000
      0.07301658	      1.02191838	      0.71430540	      0.00000000
      0.07463917	      1.06141823	      0.72308853	      0.00000000
      0.07626176	      1.09816592	      0.73069011	      0.00000000
      0.07788435	      1.13236608	      0.73723746	      0.00000000
      0.07950695	      1.16419925	      0.74283372	      0.00000000
      0.08112954	      1.19387016	      0.74758189	      0.00000000
      0.08275213	      1.22155562	      0.75156299	      0.00000000
      0.08437472	      1.24742256	      0.75485363	      0.00000000
      0.08599731	      1.27162753	      0.75751758	      0.00000000
      0.08761990	      1.29433672	      0.75961852	      0.00000000
      0.08924249	      1.31573041	      0.76121469	      0.00000000
      0.09086508	      1.33600005	      0.76236433	      0.00000000
      0.09248767	      1.35532361	      0.76311667	      0.00000000
      0.09411026	      1.37388604	      0.76352053	      0.00000000
      0.09573285	      1.39181338	      0.76360916	      0.00000000
      0.09735544	      1.40923903	      0.76341615	      0.00000000
      0.09897803	      1.42622188	      0.76295845	      0.00000000
      0.10060063	      1.44282968	      0.76225428	      0.00000000
      0.10222322	      1.45907820	      0.76131010	      0.00000000
      0.10384581	      1.47499121	      0.76013396	      0.00000000
      0.10546840	      1.49057739	      0.75872893	      0.00000000
      0.10709099	      1.50585045	      0.75709924	      0.00000000
      0.10871358	      1.52083308	      0.75524841	      0.00000000
      0.11033617	      1.53554951	      0.75318038	      0.00000000
      0.11195876	      1.55003512	      0.75089917	      0.00000000
      0.11358135	      1.56432470	      0.74840861	      0.00000000
      0.11520394	      1.57845397	      0.74571169	      0.00000000
      0.11682653	      1.59245804	      0.74281103	      0.00000000
      0.11844912	      1.60636432	      0.73970770	      0.00000000
      0.12007171	      1.62020093	      0.73640250	      0.00000000
      0.12169430	      1.63398645	      0.73289475	      0.00000000
      0.12331690	      1.64774121	      0.72918370	      0.00000000
      0.12493949	      1.66147800	      0.72526772	      0.00000000
      0.12656208	      1.67521039	      0.72114470	      0.00000000
      0.12818467	      1.68894871	      0.71681238	      0.00000000
      0.12980726	      1.70270433	      0.71226803	      0.00000000
      0.13142985	      1.71648913	      0.70750973	      0.00000000
      0.13305244	      1.73032087	      0.70253566	      0.00000000
      0.13467503	      1.74420628	      0.69734388	      0.00000000
      0.13629762	      1.75815468	      0.69193203	      0.00000000
      0.13792021	      1.77214806	      0.68629632	      0.00000000
      0.13954280	      1.78616947	      0.68043195	      0.00000000
      0.14116539	      1.80018072	      0.67433508	      0.00000000
      0.14278798	      1.81420337	      0.66800232	      0.00000000
      0.14441057	      1.82847266	      0.66144169	      0.00000000
      0.14603317	      1.84297153	      0.65465611	      0.00000000
      0.14765576	      1.85742000	      0.64764512	      0.00000000
      0.14927835	      1.87181463	      0.64041322	      0.00000000
      0.15090094	      1.88625980	      0.63296677	      0.00000000
      0.15252353	      1.90078649	      0.62531156	      0.00000000
      0.15414612	      1.91542799	      0.61745096	      0.00000000
      0.15576871	      1.93019810	      0.60938751	      0.00000000
      0.15739130	      1.94508208	      0.60112088	      0.00000000
      0.15901389	      1.96007748	      0.59265230	      0.00000000
      0.16063648	      1.97515324	      0.58398049	      0.00000000
      0.16225907	      1.99027274	      0.57510381	      0.00000000
      0.16388166	      2.00538798	      0.56601971	      0.00000000
      0.16550425	      2.02044339	      0.55672498	      0.00000000
      0.16712684	      2.03542771	      0.54722066	      0.00000000
      0.16874944	      2.05035093	      0.53750948	      0.00000000
      0.17037203	      2.06524342	      0.52759641	      0.00000000
      0.17199462	      2.08010287	      0.51748308	      0.00000000
      0.17361721	      2.09494091	      0.50717320	      0.00000000
      0.17523980	      2.10974955	      0.49666842	      0.00000000
      0.17686239	      2.12462158	      0.48598001	      0.00000000
      0.17848498	      2.13972819	      0.47512550	      0.00000000
      0.18010757	      2.15518723	      0.46411822	      0.00000000
      0.18173016	      2.17105193	      0.45296540	      0.00000000
      0.18335275	      2.18724065	      0.44166363	      0.00000000
      0.18497534	      2.20370784	      0.43021256	      0.00000000
      0.18659793	      2.22034974	      0.41860797	      0.00000000
      0.18822052	      2.23705826	      0.40684484	      0.00000000
      0.18984311	      2.25374650	      0.39492102	      0.00000000
      0.19146571	      2.27035837	      0.38283665	      0.00000000
      0.19308830	      2.28685205	      0.37059424	      0.00000000
      0.19471089	      2.30313494	      0.35819169	      0.00000000
      0.19633348	      2.31917048	      0.34563196	      0.00000000
      0.19795607	      2.33493181	      0.33291820	      0.00000000
      0.19957866	      2.35050269	      0.32006299	      0.00000000
      0.20120125	      2.36598855	      0.30708069	      0.00000000
      0.20282384	      2.38148794	      0.29398573	      0.00000000
      0.20444643	      2.39705667	      0.28078920	      0.00000000
      0.20606902	      2.41269785	      0.26749820	      0.00000000
      0.20769161	      2.42843074	      0.25412139	      0.00000000
      0.20931420	      2.44426455	      0.24066663	      0.00000000
      0.21093679	      2.46022521	      0.22714353	      0.00000000
      0.21255939	      2.47631420	      0.21355934	      0.00000000
      0.21418198	      2.49252749	      0.19992118	      0.00000000
      0.21580457	      2.50883059	      0.18623305	      0.00000000
      0.21742716	      2.52518689	      0.17249896	      0.00000000
      0.21904975	      2.54156689	      0.15872299	      0.00000000
      0.22067234	      2.55794902	      0.14491023	      0.00000000
      0.22229493	      2.57433446	      0.13106729	      0.00000000
      0.22391752	      2.59072407	      0.11720124	      0.00000000
      0.22554011	      2.60712274	      0.10331889	      0.00000000
      0.22716270	      2.62353045	      0.08942707	      0.00000000
      0.22878529	      2.63994082	      0.07553122	      0.00000000
      0.23040788	      2.65634538	      0.06163699	      0.00000000
      0.23203047	      2.67273779	      0.04774947	      0.00000000
      0.23365306	      2.68911266	      0.03387425	      0.00000000
      0.23527566	      2.70547383	      0.02001723	      0.00000000
      0.23689825	      2.72182561	      0.00618483	      0.00000000
      0.23852084	      2.73817673	     -0.00761662	      0.00000000
      0.24014343	      2.75453478	     -0.02138041	      0.00000000
      0.24176602	      2.77090437	     -0.03510067	      0.00000000
      0.24338861	      2.78728937	     -0.04877123	      0.00000000
      0.24501120	      2.80368954	     -0.06238684	      0.00000000
      0.24663379	      2.82010497	     -0.07594191	      0.00000000
      0.24825638	      2.83653456	     -0.08943141	      0.00000000
      0.24987897	      2.85297765	     -0.10285002	      0.00000000
      0.25150156	      2.86943423	     -0.11619263	      0.00000000
      0.25312415	      2.88590433	     -0.12945394	      0.00000000
      0.25474674	      2.90238858	     -0.14262881	      0.00000000
      0.25636933	      2.91888731	     -0.15571195	      0.00000000
      0.25799193	      2.93540098	     -0.16869827	      0.00000000
      0.25961452	      2.95192978	     -0.18158255	      0.00000000
      0.26123711	      2.96847382	     -0.19435975	      0.00000000
      0.26285970	      2.98503304	     -0.20702473	      0.00000000
      0.26448229	      3.00160750	     -0.21957242	      0.00000000
      0.26610488	      3.01819704	     -0.23199774	      0.00000000
      0.26772747	      3.03480180	     -0.24429555	      0.00000000
      0.26935006	      3.05142168	     -0.25646073	      0.00000000
      0.27097265	      3.06805697	     -0.26848810	      0.00000000
      0.27259524	      3.08470771	     -0.28037243	      0.00000000
      0.27421783	      3.10137430	     -0.29210844	      0.00000000
      0.27584042	      3.11805690	     -0.30369082	      0.00000000
      0.27746301	      3.13475597	     -0.31511418	      0.00000000
      0.27908560	      3.15147171	     -0.32637311	      0.00000000
      0.28070820	      3.16820451	     -0.33746212	      0.00000000
      0.28233079	      3.18495450	     -0.34837570	      0.00000000
      0.28395338	      3.20172188	     -0.35910831	      0.00000000
      0.28557597	      3.21850660	     -0.36965438	      0.00000000
      0.28719856	      3.23530863	     -0.38000832	      0.00000000
      0.28882115	      3.25212770	     -0.39016451	      0.00000000
      0.29044374	      3.26896361	     -0.40011730	      0.00000000
      0.29206633	      3.28581590	     -0.40986101	      0.00000000
      0.29368892	      3.30268430	     -0.41938992	      0.00000000
      0.29531151	      3.31956822	     -0.42869823	      0.00000000
      0.29693410	      3.33646736	     -0.43778011	      0.00000000
      0.29855669	      3.35338107	     -0.44662964	      0.00000000
      0.30017928	      3.37030915	     -0.45524085	      0.00000000
      0.30180188	      3.38725098	     -0.46360763	      0.00000000
      0.30342447	      3.40420661	     -0.47172378	      0.00000000
      0.30504706	      3.42117568	     -0.47958296	      0.00000000
      0.30666965	      3.43815852	     -0.48717867	      0.00000000
      0.30829224	      3.45515512	     -0.49450426	      0.00000000
      0.30991483	      3.47216591	     -0.50155298	      0.00000000
      0.31153742	      3.48919100	     -0.50831784	      0.00000000
      0.31316001	      3.50623035	     -0.51479196	      0.00000000
      0.31478260	      3.52328374	     -0.52096819	      0.00000000
      0.31640519	      3.54035001	     -0.52683974	      0.00000000
      0.31802778	      3.55742799	     -0.53239951	      0.00000000
      0.31965037	      3.57451486	     -0.53764104	      0.00000000
      0.32127296	      3.59160787	     -0.54255758	      0.00000000
      0.32289555	      3.60870216	     -0.54714325	      0.00000000
      0.32451815	      3.62579301	     -0.55139194	      0.00000000
      0.32614074	      3.64287350	     -0.55529850	      0.00000000
      0.32776333	      3.65993690	     -0.55885763	      0.00000000
      0.32938592	      3.67697465	     -0.56206490	      0.00000000
      0.33100851	      3.69397826	     -0.56491587	      0.00000000
      0.33263110	      3.71093798	     -0.56740679	      0.00000000
      0.33425369	      3.72784412	     -0.56953400	      0.00000000
      0.33587628	      3.74468632	     -0.57129429	      0.00000000
      0.33749887	      3.76145431	     -0.57268455	      0.00000000
      0.33912146	      3.77813738	     -0.57370204	      0.00000000
      0.34074405	      3.79472506	     -0.57434411	      0.00000000
      0.34236664	      3.81120572	     -0.57460880	      0.00000000
      0.34398923	      3.82756819	     -0.57449424	      0.00000000
      0.34561182	      3.84379884	     -0.57399994	      0.00000000
      0.34723442	      3.85988464	     -0.57312554	      0.00000000
      0.34885701	      3.87580898	     -0.57187279	      0.00000000
      0.35047960	      3.89155588	     -0.57024385	      0.00000000
      0.35210219	      3.90710591	     -0.56824307	      0.00000000
      0.35372478	      3.92244014	     -0.56587563	      0.00000000
      0.35534737	      3.93753808	     -0.56314797	      0.00000000
      0.35696996	      3.95237945	     -0.56006772	      0.00000000
      0.35859255	      3.96694567	     -0.55664190	      0.00000000
      0.36021514	      3.98121790	     -0.55287897	      0.00000000
      0.36183773	      3.99518231	     -0.54878458	      0.00000000
      0.36346032	      4.00882433	     -0.54436588	      0.00000000
      0.36508291	      4.02213635	     -0.53962556	      0.00000000
      0.36670550	      4.03510965	     -0.53456760	      0.00000000
      0.36832809	      4.04774238	     -0.52919113	      0.00000000
      0.36995069	      4.06003146	     -0.52349618	      0.00000000
      0.37157328	      4.07197886	     -0.51747873	      0.00000000
      0.37319587	      4.08358564	     -0.51113508	      0.00000000
      0.37481846	      4.09485487	     -0.50445934	      0.00000000
      0.37644105	      4.10578957	     -0.49744512	      0.00000000
      0.37806364	      4.11639042	     -0.49008707	      0.00000000
      0.37968623	      4.12665886	     -0.48237881	      0.00000000
      0.38130882	      4.13658919	     -0.47431911	      0.00000000
      0.38293141	      4.14617632	     -0.46590648	      0.00000000
      0.38455400	      4.15540703	     -0.45714601	      0.00000000
      0.38617659	      4.16426906	     -0.44804310	      0.00000000
      0.38779918	      4.17274638	     -0.43860637	      0.00000000
      0.38942177	      4.18082619	     -0.42884308	      0.00000000
      0.39104437	      4.18849274	     -0.41876285	      0.00000000
      0.39266696	      4.19573222	     -0.40837540	      0.00000000
      0.39428955	      4.20252466	     -0.39769599	      0.00000000
      0.39591214	      4.20885067	     -0.38674221	      0.00000000
      0.39753473	      4.21468745	     -0.37553456	      0.00000000
      0.39915732	      4.22002004	     -0.36408898	      0.00000000
      0.40077991	      4.22482363	     -0.35243011	      0.00000000
      0.40240250	      4.22908700	     -0.34057328	      0.00000000
      0.40402509	      4.23276011	     -0.32857292	      0.00000000
      0.40564768	      4.23583697	     -0.31644953	      0.00000000
      0.40727027	      4.23824312	     -0.30429082	      0.00000000
      0.40889286	      4.23975506	     -0.29235566	      0.00000000
      0.41051545	      4.24037737	     -0.28065951	      0.00000000
      0.41213804	      4.24024529	     -0.26907500	      0.00000000
      0.41376064	      4.23937248	     -0.25760830	      0.00000000
      0.41538323	      4.23774911	     -0.24629030	      0.00000000
      0.41700582	      4.23538977	     -0.23512165	      0.00000000
      0.41862841	      4.23228924	     -0.22412974	      0.00000000
      0.42025100	      4.22846833	     -0.21330742	      0.00000000
      0.42187359	      4.22395873	     -0.20262624	      0.00000000
      0.42349618	      4.21879677	     -0.19205161	      0.00000000
      0.42511877	      4.21299964	     -0.18157198	      0.00000000
      0.42674136	      4.20658336	     -0.17118498	      0.00000000
      0.42836395	      4.19956505	     -0.16088081	      0.00000000
      0.42998654	      4.19197514	     -0.15063605	      0.00000000
      0.43160913	      4.18384433	     -0.14041734	      0.00000000
      0.43323172	      4.17520491	     -0.13019824	      0.00000000
      0.43485431	      4.16607905	     -0.11996158	      0.00000000
      0.43647691	      4.15649069	     -0.10969999	      0.00000000
      0.43809950	      4.14646565	     -0.09939450	      0.00000000
      0.43972209	      4.13603219	     -0.08903312	      0.00000000
      0.44134468	      4.12521367	     -0.07860627	      0.00000000
      0.44296727	      4.11403502	     -0.06811087	      0.00000000
      0.44458986	      4.10251790	     -0.05754507	      0.00000000
      0.44621245	      4.09069232	     -0.04689330	      0.00000000
      0.44783504	      4.07858776	     -0.03613491	      0.00000000
      0.44945763	      4.06623954	     -0.02523086	      0.00000000
      0.45108022	      4.05368050	     -0.01414028	      0.00000000
      0.45270281	      4.04093822	     -0.00282152	      0.00000000
      0.45432540	      4.02803733	      0.00876225	      0.00000000
      0.45594799	      4.01499152	      0.02064587	      0.00000000
      0.45757058	      4.00181633	      0.03286375	      0.00000000
      0.45919318	      3.98851208	      0.04546162	      0.00000000
      0.46081577	      3.97508691	      0.05848908	      0.00000000
      0.46243836	      3.96151474	      0.07200292	      0.00000000
      0.46406095	      3.94778414	      0.08606023	      0.00000000
      0.46568354	      3.93381184	      0.10070237	      0.00000000
      0.46730613	      3.91954411	      0.11597698	      0.00000000
      0.46892872	      3.90479570	      0.13187443	      0.00000000
      0.47055131	      3.88942872	      0.14839533	      0.00000000
      0.47217390	      3.87309563	      0.16541493	      0.00000000
      0.47379649	      3.85550991	      0.18281220	      0.00000000
      0.47541908	      3.83611265	      0.20027397	      0.00000000
      0.47704167	      3.81440640	      0.21749104	      0.00000000
      0.47866426	      3.78963507	      0.23390680	      0.00000000
      0.48028685	      3.76107134	      0.24891777	      0.00000000
      0.48190945	      3.72791650	      0.26172993	      0.00000000
      0.48353204	      3.68934885	      0.27139223	      0.00000000
      0.48515463	      3.64487015	      0.27720145	      0.00000000
      0.48677722	      3.59395497	      0.27836931	      0.00000000
      0.48839981	      3.53670376	      0.27484673	      0.00000000
      0.49002240	      3.47321554	      0.26657966	      0.00000000
      0.49164499	      3.40398920	      0.25412835	      0.00000000
      0.49326758	      3.32955046	      0.23786904	      0.00000000
      0.49489017	      3.25009338	      0.21859669	      0.00000000
      0.49651276	      3.16597926	      0.19752204	      0.00000000
      0.49813535	      3.07628065	      0.17525717	      0.00000000
      0.49975794	      2.98035127	      0.15350260	      0.00000000
      0.50138053	      2.87556251	      0.12964065	      0.00000000
      0.50300313	      2.75944728	      0.10021414	      0.00000000
      0.50462572	      2.62821763	      0.05780554	      0.00000000
      0.50624831	      2.47818130	     -0.00544041	      0.00000000
      0.50787090	      2.30603900	     -0.09488308	      0.00000000
      0.50949349	      2.10807890	     -0.21498504	      0.00000000
      0.51111608	      1.88265201	     -0.36558971	      0.00000000
      0.51273867	      1.62718948	     -0.54674021	      0.00000000
      0.51436126	      1.34292301	     -0.75575503	      0.00000000
      0.51598385	      1.03364067	     -0.98555290	      0.00000000
      0.51760644	      0.70183417	     -1.23559060	      0.00000000
      0.51922903	      0.38302918	     -1.46078525	      0.00000000
      0.52085162	      0.20391878	     -1.50766536	      0.00000000
      0.52247421	      0.16853320	     -1.39625865	      0.00000000
      0.52409680	      0.14396877	     -1.29557220	      0.00000000
      0.52571940	      0.11962056	     -1.20689968	      0.00000000
      0.52734199	      0.10434131	     -1.09227219	      0.00000000
      0.52896458	      0.08385371	     -0.94021111	      0.00000000
      0.53058717	      0.06388338	     -0.76740375	      0.00000000
      0.53220976	      0.04449368	     -0.60960946	      0.00000000
      0.53383235	      0.02998369	     -0.47907798	      0.00000000
      0.53545494	      0.02009356	     -0.38115621	      0.00000000
      0.53707753	      0.01369487	     -0.30592414	      0.00000000
      0.53870012	      0.00971659	     -0.24827634	      0.00000000
      0.54032271	      0.00736849	     -0.20239003	      0.00000000
      0.54194530	      0.00587276	     -0.16400212	      0.00000000
      0.54356789	      0.00501740	     -0.13122105	      0.00000000
      0.54519048	      0.00442594	     -0.10189837	      0.00000000
      0.54681307	      0.00406156	     -0.07558489	      0.00000000
      0.54843567	      0.00377906	     -0.05145689	      0.00000000
      0.55005826	      0.00359316	     -0.02945820	      0.00000000
      0.55168085	      0.00345862	     -0.00932451	      0.00000000
      0.55330344	      0.00338982	      0.00893245	      0.00000000
      0.55492603	      0.00337733	      0.02537540	      0.00000000
      0.55654862	      0.00343059	      0.04001899	      0.00000000
      0.55817121	      0.00355276	      0.05289840	      0.00000000
      0.55979380	      0.00374946	      0.06408952	      0.00000000
      0.56141639	      0.00402425	      0.07366596	      0.00000000
      0.56303898	      0.00437726	      0.08173619	      0.00000000
      0.56466157	      0.00480912	      0.08839961	      0.00000000
      0.56628416	      0.00531699	      0.09376445	      0.00000000
      0.56790675	      0.00589935	      0.09793156	      0.00000000
      0.56952934	      0.00655196	      0.10099935	      0.00000000
      0.57115194	      0.00727143	      0.10306314	      0.00000000
      0.57277453	      0.00805164	      0.10421682	      0.00000000
      0.57439712	      0.00888666	      0.10455415	      0.00000000
      0.57601971	      0.00976781	      0.10416918	      0.00000000
      0.57764230	      0.01068639	      0.10315787	      0.00000000
      0.57926489	      0.01163170	      0.10161117	      0.00000000
      0.58088748	      0.01259299	      0.09962356	      0.00000000
      0.58251007	      0.01355903	      0.09727435	      0.00000000
      0.58413266	      0.01451838	      0.09464795	      0.00000000
      0.58575525	      0.01546082	      0.09180430	      0.00000000
      0.58737784	      0.01637569	      0.08880985	      0.00000000
      0.58900043	      0.01725494	      0.08570133	      0.00000000
      0.59062302	      0.01808986	      0.08252254	      0.00000000
      0.59224562	      0.01887506	      0.07928786	      0.00000000
      0.59386821	      0.01960440	      0.07601838	      0.00000000
      0.59549080	      0.02027531	      0.07271091	      0.00000000
      0.59711339	      0.02088455	      0.06936724	      0.00000000
      0.59873598	      0.02143209	      0.06597431	      0.00000000
      0.60035857	      0.02191736	      0.06252257	      0.00000000
      0.60198116	      0.02234194	      0.05899785	      0.00000000
      0.60360375	      0.02270705	      0.05538832	      0.00000000
      0.60522634	      0.02301499	      0.05168377	      0.00000000
      0.60684893	      0.02326792	      0.04787501	      0.00000000
      0.60847152	      0.02346883	      0.04395626	      0.00000000
      0.61009411	      0.02362076	      0.03992162	      0.00000000
      0.61171670	      0.02372751	      0.03576849	      0.00000000
      0.61333929	      0.02379303	      0.03149391	      0.00000000
      0.61496189	      0.02382161	      0.02709770	      0.00000000
      0.61658448	      0.02381808	      0.02257933	      0.00000000
      0.61820707	      0.02378696	      0.01793997	      0.00000000
      0.61982966	      0.02373232	      0.01318035	      0.00000000
      0.62145225	      0.02365764	      0.00830456	      0.00000000
      0.62307484	      0.02356730	      0.00331706	      0.00000000
      0.62469743	      0.02346429	     -0.00177916	      0.00000000
      0.62632002	      0.02335191	     -0.00698161	      0.00000000
      0.62794261	      0.02323288	     -0.01229009	      0.00000000
      0.62956520	      0.02311028	     -0.01770658	      0.00000000
      0.63118779	      0.02298690	     -0.02322778	      0.00000000
      0.63281038	      0.02286581	     -0.02885207	      0.00000000
      0.63443297	      0.02274889	     -0.03456526	      0.00000000
      0.63605556	      0.02263840	     -0.04035533	      0.00000000
      0.63767816	      0.02253446	     -0.04619650	      0.00000000
      0.63930075	      0.02243771	     -0.05206502	      0.00000000
      0.64092334	      0.02234645	     -0.05792827	      0.00000000
      0.64254593	      0.02225957	     -0.06375522	      0.00000000
      0.64416852	      0.02217421	     -0.06951300	      0.00000000
      0.64579111	      0.02208817	     -0.07516968	      0.00000000
      0.64741370	      0.02199824	     -0.08069598	      0.00000000
      0.64903629	      0.02190155	     -0.08606184	      0.00000000
      0.65065888	      0.02179472	     -0.09124334	      0.00000000
      0.65228147	      0.02167445	     -0.09621408	      0.00000000
      0.65390406	      0.02153779	     -0.10096011	      0.00000000
      0.65552665	      0.02138189	     -0.10546530	      0.00000000
      0.65714924	      0.02120555	     -0.10972951	      0.00000000
      0.65877183	      0.02100733	     -0.11375059	      0.00000000
      0.66039443	      0.02078772	     -0.11753927	      0.00000000
      0.66201702	      0.02054684	     -0.12110479	      0.00000000
      0.66363961	      0.02028642	     -0.12446174	      0.00000000
      0.66526220	      0.02000759	     -0.12762344	      0.00000000
      0.66688479	      0.01971258	     -0.13060342	      0.00000000
      0.66850738	      0.01940299	     -0.13341509	      0.00000000
      0.67012997	      0.01908166	     -0.13606999	      0.00000000
      0.67175256	      0.01875110	     -0.13858120	      0.00000000
      0.67337515	      0.01841527	     -0.14095630	      0.00000000
      0.67499774	      0.01807785	     -0.14320369	      0.00000000
      0.67662033	      0.01774314	     -0.14532549	      0.00000000
      0.67824292	      0.01741568	     -0.14732525	      0.00000000
      0.67986551	      0.01709893	     -0.14920001	      0.00000000
      0.68148810	      0.01679681	     -0.15094703	      0.00000000
      0.68311070	      0.01651019	     -0.15256122	      0.00000000
      0.68473329	      0.01624048	     -0.15403739	      0.00000000
      0.68635588	      0.01598626	     -0.15537131	      0.00000000
      0.68797847	      0.01574661	     -0.15655796	      0.00000000
      0.68960106	      0.01551932	     -0.15759623	      0.00000000
      0.69122365	      0.01530259	     -0.15848415	      0.00000000
      0.69284624	      0.01509466	     -0.15922413	      0.00000000
      0.69446883	      0.01489387	     -0.15981772	      0.00000000
      0.69609142	      0.01469902	     -0.16026913	      0.00000000
      0.69771401	      0.01450890	     -0.16058202	      0.00000000
      0.69933660	      0.01432286	     -0.16076046	      0.00000000
      0.70095919	      0.01414011	     -0.16080818	      0.00000000
      0.70258178	      0.01396019	     -0.16072792	      0.00000000
      0.70420438	      0.01378256	     -0.16052240	      0.00000000
      0.70582697	      0.01360677	     -0.16019292	      0.00000000
      0.70744956	      0.01343235	     -0.15974085	      0.00000000
      0.70907215	      0.01325888	     -0.15916666	      0.00000000
      0.71069474	      0.01308591	     -0.15847074	      0.00000000
      0.71231733	      0.01291307	     -0.15765378	      0.00000000
      0.71393992	      0.01273997	     -0.15671626	      0.00000000
      0.71556251	      0.01256635	     -0.15566020	      0.00000000
      0.71718510	      0.01239194	     -0.15448728	      0.00000000
      0.71880769	      0.01221667	     -0.15320123	      0.00000000
      0.72043028	      0.01204039	     -0.15180547	      0.00000000
      0.72205287	      0.01186317	     -0.15030520	      0.00000000
      0.72367546	      0.01168500	     -0.14870539	      0.00000000
      0.72529805	      0.01150602	     -0.14701212	      0.00000000
      0.72692065	      0.01132629	     -0.14523139	      0.00000000
      0.72854324	      0.01114596	     -0.14336959	      0.00000000
      0.73016583	      0.01096510	     -0.14143313	      0.00000000
      0.73178842	      0.01078385	     -0.13942832	      0.00000000
      0.73341101	      0.01060226	     -0.13736164	      0.00000000
      0.73503360	      0.01042044	     -0.13523909	      0.00000000
      0.73665619	      0.01023841	     -0.13306691	      0.00000000
      0.73827878	      0.01005629	     -0.13085054	      0.00000000
      0.73990137	      0.00987409	     -0.12859572	      0.00000000
      0.74152396	      0.00969186	     -0.12630709	      0.00000000
      0.74314655	      0.00950963	     -0.12398965	      0.00000000
      0.74476914	      0.00932733	     -0.12164718	      0.00000000
      0.74639173	      0.00914493	     -0.11928383	      0.00000000
      0.74801432	      0.00896223	     -0.11690257	      0.00000000
      0.74963692	      0.00877905	     -0.11450670	      0.00000000
      0.75125951	      0.00859499	     -0.11209842	      0.00000000
      0.75288210	      0.00840971	     -0.10968019	      0.00000000
      0.75450469	      0.00822257	     -0.10725369	      0.00000000
      0.75612728	      0.00803303	     -0.10482076	      0.00000000
      0.75774987	      0.00784024	     -0.10238299	      0.00000000
      0.75937246	      0.00764342	     -0.09994206	      0.00000000
      0.76099505	      0.00744151	     -0.09749982	      0.00000000
      0.76261764	      0.00723352	     -0.09505813	      0.00000000
      0.76424023	      0.00701816	     -0.09261905	      0.00000000
      0.76586282	      0.00679417	     -0.09018465	      0.00000000
      0.76748541	      0.00656007	     -0.08775689	      0.00000000
      0.76910800	      0.00631427	     -0.08533775	      0.00000000
      0.77073059	      0.00605523	     -0.08292884	      0.00000000
      0.77235319	      0.00578116	     -0.08053175	      0.00000000
      0.77397578	      0.00549095	     -0.07814765	      0.00000000
      0.77559837	      0.00518307	     -0.07577766	      0.00000000
      0.77722096	      0.00485764	     -0.07342267	      0.00000000
      0.77884355	      0.00451436	     -0.07108349	      0.00000000
      0.78046614	      0.00415517	     -0.06876112	      0.00000000
      0.78208873	      0.00378179	     -0.06645651	      0.00000000
      0.78371132	      0.00339742	     -0.06417120	      0.00000000
      0.78533391	      0.00300522	     -0.06190671	      0.00000000
      0.78695650	      0.00260799	     -0.05966502	      0.00000000
      0.78857909	      0.00220852	     -0.05744804	      0.00000000
      0.79020168	      0.00180803	     -0.05525784	      0.00000000
      0.79182427	      0.00140780	     -0.05309644	      0.00000000
      0.79344687	      0.00100780	     -0.05096559	      0.00000000
      0.79506946	      0.00060817	     -0.04886706	      0.00000000
      0.79669205	      0.00020868	     -0.04680211	      0.00000000
      0.79831464	     -0.00019077	     -0.04477211	      0.00000000
      0.79993723	     -0.00058987	     -0.04277791	      0.00000000
      0.80155982	     -0.00098830	     -0.04082055	      0.00000000
      0.80318241	     -0.00138509	     -0.03890058	      0.00000000
      0.80480500	     -0.00177929	     -0.03701876	      0.00000000
      0.80642759	     -0.00216968	     -0.03517524	      0.00000000
      0.80805018	     -0.00255497	     -0.03337044	      0.00000000
      0.80967277	     -0.00293430	     -0.03160400	      0.00000000
      0.81129536	     -0.00330665	     -0.02987577	      0.00000000
      0.81291795	     -0.00367193	     -0.02818485	      0.00000000
      0.81454054	     -0.00402984	     -0.02653051	      0.00000000
      0.81616314	     -0.00438107	     -0.02491155	      0.00000000
      0.81778573	     -0.00472608	     -0.02332685	      0.00000000
      0.81940832	     -0.00506600	     -0.02177517	      0.00000000
      0.82103091	     -0.00540176	     -0.02025526	      0.00000000
      0.82265350	     -0.00573460	     -0.01876606	      0.00000000
      0.82427609	     -0.00606564	     -0.01730642	      0.00000000
      0.82589868	     -0.00639600	     -0.01587556	      0.00000000
      0.82752127	     -0.00672676	     -0.01447253	      0.00000000
      0.82914386	     -0.00705883	     -0.01309686	      0.00000000
      0.83076645	     -0.00739312	     -0.01174786	      0.00000000
      0.83238904	     -0.00773032	     -0.01042529	      0.00000000
      0.83401163	     -0.00807115	     -0.00912869	      0.00000000
      0.83563422	     -0.00841613	     -0.00785801	      0.00000000
      0.83725681	     -0.00876582	     -0.00661298	      0.00000000
      0.83887941	     -0.00912058	     -0.00539363	      0.00000000
      0.84050200	     -0.00948084	     -0.00419983	      0.00000000
      0.84212459	     -0.00984686	     -0.00303164	      0.00000000
      0.84374718	     -0.01021897	     -0.00188898	      0.00000000
      0.84536977	     -0.01059736	     -0.00077185	      0.00000000
      0.84699236	     -0.01098227	      0.00031983	      0.00000000
      0.84861495	     -0.01137382	      0.00138612	      0.00000000
      0.85023754	     -0.01177220	      0.00242715	      0.00000000
      0.85186013	     -0.01217748	      0.00344311	      0.00000000
      0.85348272	     -0.01258976	      0.00443421	      0.00000000
      0.85510531	     -0.01300907	      0.00540078	      0.00000000
      0.85672790	     -0.01343547	      0.00634317	      0.00000000
      0.85835049	     -0.01386893	      0.00726187	      0.00000000
      0.85997308	     -0.01430946	      0.00815734	      0.00000000
      0.86159568	     -0.01475698	      0.00903025	      0.00000000
      0.86321827	     -0.01521145	      0.00988123	      0.00000000
      0.86484086	     -0.01567274	      0.01071105	      0.00000000
      0.86646345	     -0.01614079	      0.01152047	      0.00000000
      0.86808604	     -0.01661539	      0.01231033	      0.00000000
      0.86970863	     -0.01709644	      0.01308148	      0.00000000
      0.87133122	     -0.01758371	      0.01383480	      0.00000000
      0.87295381	     -0.01807706	      0.01457120	      0.00000000
      0.87457640	     -0.01857626	      0.01529155	      0.00000000
      0.87619899	     -0.01908117	      0.01599675	      0.00000000
      0.87782158	     -0.01959159	      0.01668750	      0.00000000
      0.87944417	     -0.02010740	      0.01736453	      0.00000000
      0.88106676	     -0.02062845	      0.01802835	      0.00000000
      0.88268936	     -0.02115464	      0.01867958	      0.00000000
      0.88431195	     -0.02168585	      0.01931864	      0.00000000
      0.88593454	     -0.02222203	      0.01994605	      0.00000000
      0.88755713	     -0.02276311	      0.02056215	      0.00000000
      0.88917972	     -0.02330910	      0.02116734	      0.00000000
      0.89080231	     -0.02385996	      0.02176186	      0.00000000
      0.89242490	     -0.02441572	      0.02234602	      0.00000000
      0.89404749	     -0.02497642	      0.02292004	      0.00000000
      0.89567008	     -0.02554214	      0.02348425	      0.00000000
      0.89729267	     -0.02611293	      0.02403898	      0.00000000
      0.89891526	     -0.02668893	      0.02458469	      0.00000000
      0.90053785	     -0.02727012	      0.02512175	      0.00000000
      0.90216044	     -0.02785656	      0.02565069	      0.00000000
      0.90378303	     -0.02844816	      0.02617192	      0.00000000
      0.90540563	     -0.02904492	      0.02668596	      0.00000000
      0.90702822	     -0.02964674	      0.02719348	      0.00000000
      0.90865081	     -0.03025368	      0.02769541	      0.00000000
      0.91027340	     -0.03086553	      0.02819266	      0.00000000
      0.91189599	     -0.03148241	      0.02868673	      0.00000000
      0.91351858	     -0.03210446	      0.02917834	      0.00000000
      0.91514117	     -0.03273094	      0.02966716	      0.00000000
      0.91676376	     -0.03336124	      0.03015370	      0.00000000
      0.91838635	     -0.03399585	      0.03064015	      0.00000000
      0.92000894	     -0.03463462	      0.03112794	      0.00000000
      0.92163153	     -0.03527717	      0.03161826	      0.00000000
      0.92325412	     -0.03592325	      0.03211204	      0.00000000
      0.92487671	     -0.03657265	      0.03261059	      0.00000000
      0.92649930	     -0.03722507	      0.03311521	      0.00000000
      0.92812190	     -0.03788018	      0.03362752	      0.00000000
      0.92974449	     -0.03853761	      0.03414877	      0.00000000
      0.93136708	     -0.03919699	      0.03468053	      0.00000000
      0.93298967	     -0.03985833	      0.03522448	      0.00000000
      0.93461226	     -0.04052151	      0.03578255	      0.00000000
      0.93623485	     -0.04118661	      0.03635703	      0.00000000
      0.93785744	     -0.04185365	      0.03695059	      0.00000000
      0.93948003	     -0.04252271	      0.03756577	      0.00000000
      0.94110262	     -0.04319380	      0.03820550	      0.00000000
      0.94272521	     -0.04386712	      0.03887285	      0.00000000
      0.94434780	     -0.04454269	      0.03957131	      0.00000000
      0.94597039	     -0.04522058	      0.04030404	      0.00000000
      0.94759298	     -0.04590067	      0.04107472	      0.00000000
      0.94921557	     -0.04658286	      0.04188643	      0.00000000
      0.95083817	     -0.04726685	      0.04274304	      0.00000000
      0.95246076	     -0.04795258	      0.04364662	      0.00000000
      0.95408335	     -0.04863958	      0.04459979	      0.00000000
      0.95570594	     -0.04932837	      0.04560424	      0.00000000
      0.95732853	     -0.05001870	      0.04666187	      0.00000000
      0.95895112	     -0.05071051	      0.04777575	      0.00000000
      0.96057371	     -0.05140347	      0.04895056	      0.00000000
      0.96219630	     -0.05209787	      0.05018738	      0.00000000
      0.96381889	     -0.05279313	      0.05148831	      0.00000000
      0.96544148	     -0.05349497	      0.05284927	      0.00000000
      0.96706407	     -0.05420812	      0.05426056	      0.00000000
      0.96868666	     -0.05492683	      0.05573281	      0.00000000
      0.97030925	     -0.05563957	      0.05726316	      0.00000000
      0.97193184	     -0.05632555	      0.05892625	      0.00000000
      0.97355444	     -0.05697045	      0.06085353	      0.00000000
