PointPosition
version=1
nRows=601
nColumns=4
inDegrees=no
No description.
endheader
time	state_0	state_1	state_2
      0.00000000	      0.21837541	      0.02775229	      0.09478690
      0.00120563	      0.22147866	      0.02739196	      0.09478690
      0.00241127	      0.22421363	      0.02680830	      0.09478690
      0.00361690	      0.22656542	      0.02599287	      0.09478690
      0.00482254	      0.22852839	      0.02494516	      0.09478690
      0.00602817	      0.23010123	      0.02366867	      0.09478690
      0.00723381	      0.23129233	      0.02217431	      0.09478690
      0.00843944	      0.23210551	      0.02046795	      0.09478690
      0.00964508	      0.23259210	      0.01861498	      0.09478690
      0.01085071	      0.23287907	      0.01676664	      0.09478690
      0.01205635	      0.23308905	      0.01504945	      0.09478690
      0.01326198	      0.23326616	      0.01349228	      0.09478690
      0.01446762	      0.23341126	      0.01209204	      0.09478690
      0.01567325	      0.23353157	      0.01086303	      0.09478690
      0.01687888	      0.23362851	      0.00980412	      0.09478690
      0.01808452	      0.23370505	      0.00890499	      0.09478690
      0.01929015	      0.23376448	      0.00814621	      0.09478690
      0.02049579	      0.23381002	      0.00750771	      0.09478690
      0.02170142	      0.23384456	      0.00696870	      0.09478690
      0.02290706	      0.23387083	      0.00650910	      0.09478690
      0.02411269	      0.23389111	      0.00611269	      0.09478690
      0.02531833	      0.23390733	      0.00576588	      0.09478690
      0.02652396	      0.23392080	      0.00545929	      0.09478690
      0.02772960	      0.23393260	      0.00518526	      0.09478690
      0.02893523	      0.23394337	      0.00493873	      0.09478690
      0.03014087	      0.23395362	      0.00471553	      0.09478690
      0.03134650	      0.23396366	      0.00451282	      0.09478690
      0.03255213	      0.23397370	      0.00432810	      0.09478690
      0.03375777	      0.23398387	      0.00415941	      0.09478690
      0.03496340	      0.23399431	      0.00400498	      0.09478690
      0.03616904	      0.23400510	      0.00386316	      0.09478690
      0.03737467	      0.23401636	      0.00373238	      0.09478690
      0.03858031	      0.23402818	      0.00361116	      0.09478690
      0.03978594	      0.23404067	      0.00349812	      0.09478690
      0.04099158	      0.23405391	      0.00339207	      0.09478690
      0.04219721	      0.23406797	      0.00329192	      0.09478690
      0.04340285	      0.23408290	      0.00319666	      0.09478690
      0.04460848	      0.23409873	      0.00310533	      0.09478690
      0.04581412	      0.23411550	      0.00301702	      0.09478690
      0.04701975	      0.23413325	      0.00293089	      0.09478690
      0.04822538	      0.23415198	      0.00284619	      0.09478690
      0.04943102	      0.23417171	      0.00276225	      0.09478690
      0.05063665	      0.23419243	      0.00267850	      0.09478690
      0.05184229	      0.23421412	      0.00259442	      0.09478690
      0.05304792	      0.23423677	      0.00250962	      0.09478690
      0.05425356	      0.23426034	      0.00242373	      0.09478690
      0.05545919	      0.23428480	      0.00233646	      0.09478690
      0.05666483	      0.23431009	      0.00224758	      0.09478690
      0.05787046	      0.23433618	      0.00215680	      0.09478690
      0.05907610	      0.23436303	      0.00206384	      0.09478690
      0.06028173	      0.23439061	      0.00196834	      0.09478690
      0.06148737	      0.23441889	      0.00186995	      0.09478690
      0.06269300	      0.23444785	      0.00176844	      0.09478690
      0.06389863	      0.23447746	      0.00166369	      0.09478690
      0.06510427	      0.23450767	      0.00155572	      0.09478690
      0.06630990	      0.23453842	      0.00144464	      0.09478690
      0.06751554	      0.23456963	      0.00133051	      0.09478690
      0.06872117	      0.23460126	      0.00121337	      0.09478690
      0.06992681	      0.23463324	      0.00109322	      0.09478690
      0.07113244	      0.23466553	      0.00097007	      0.09478690
      0.07233808	      0.23469810	      0.00084396	      0.09478690
      0.07354371	      0.23473092	      0.00071496	      0.09478690
      0.07474935	      0.23476393	      0.00058324	      0.09478690
      0.07595498	      0.23479709	      0.00044897	      0.09478690
      0.07716062	      0.23483036	      0.00031239	      0.09478690
      0.07836625	      0.23486369	      0.00017374	      0.09478690
      0.07957188	      0.23489700	      0.00003326	      0.09478690
      0.08077752	      0.23493024	     -0.00010883	      0.09478690
      0.08198315	      0.23496333	     -0.00025231	      0.09478690
      0.08318879	      0.23499622	     -0.00039695	      0.09478690
      0.08439442	      0.23502888	     -0.00054255	      0.09478690
      0.08560006	      0.23506128	     -0.00068889	      0.09478690
      0.08680569	      0.23509343	     -0.00083576	      0.09478690
      0.08801133	      0.23512531	     -0.00098296	      0.09478690
      0.08921696	      0.23515691	     -0.00113032	      0.09478690
      0.09042260	      0.23518825	     -0.00127771	      0.09478690
      0.09162823	      0.23521931	     -0.00142502	      0.09478690
      0.09283387	      0.23525012	     -0.00157213	      0.09478690
      0.09403950	      0.23528066	     -0.00171894	      0.09478690
      0.09524513	      0.23531094	     -0.00186536	      0.09478690
      0.09645077	      0.23534097	     -0.00201128	      0.09478690
      0.09765640	      0.23537076	     -0.00215662	      0.09478690
      0.09886204	      0.23540031	     -0.00230131	      0.09478690
      0.10006767	      0.23542963	     -0.00244527	      0.09478690
      0.10127331	      0.23545873	     -0.00258845	      0.09478690
      0.10247894	      0.23548761	     -0.00273079	      0.09478690
      0.10368458	      0.23551628	     -0.00287226	      0.09478690
      0.10489021	      0.23554475	     -0.00301280	      0.09478690
      0.10609585	      0.23557304	     -0.00315237	      0.09478690
      0.10730148	      0.23560113	     -0.00329094	      0.09478690
      0.10850712	      0.23562905	     -0.00342847	      0.09478690
      0.10971275	      0.23565680	     -0.00356495	      0.09478690
      0.11091838	      0.23568436	     -0.00370034	      0.09478690
      0.11212402	      0.23571175	     -0.00383465	      0.09478690
      0.11332965	      0.23573896	     -0.00396785	      0.09478690
      0.11453529	      0.23576600	     -0.00409994	      0.09478690
      0.11574092	      0.23579285	     -0.00423088	      0.09478690
      0.11694656	      0.23581953	     -0.00436066	      0.09478690
      0.11815219	      0.23584603	     -0.00448926	      0.09478690
      0.11935783	      0.23587233	     -0.00461664	      0.09478690
      0.12056346	      0.23589845	     -0.00474278	      0.09478690
      0.12176910	      0.23592436	     -0.00486766	      0.09478690
      0.12297473	      0.23595005	     -0.00499127	      0.09478690
      0.12418037	      0.23597553	     -0.00511361	      0.09478690
      0.12538600	      0.23600079	     -0.00523466	      0.09478690
      0.12659163	      0.23602582	     -0.00535443	      0.09478690
      0.12779727	      0.23605062	     -0.00547293	      0.09478690
      0.12900290	      0.23607518	     -0.00559017	      0.09478690
      0.13020854	      0.23609951	     -0.00570617	      0.09478690
      0.13141417	      0.23612358	     -0.00582092	      0.09478690
      0.13261981	      0.23614741	     -0.00593446	      0.09478690
      0.13382544	      0.23617098	     -0.00604678	      0.09478690
      0.13503108	      0.23619428	     -0.00615790	      0.09478690
      0.13623671	      0.23621732	     -0.00626784	      0.09478690
      0.13744235	      0.23624008	     -0.00637658	      0.09478690
      0.13864798	      0.23626256	     -0.00648416	      0.09478690
      0.13985362	      0.23628476	     -0.00659055	      0.09478690
      0.14105925	      0.23630665	     -0.00669578	      0.09478690
      0.14226488	      0.23632824	     -0.00679983	      0.09478690
      0.14347052	      0.23634952	     -0.00690270	      0.09478690
      0.14467615	      0.23637048	     -0.00700438	      0.09478690
      0.14588179	      0.23639111	     -0.00710488	      0.09478690
      0.14708742	      0.23641140	     -0.00720417	      0.09478690
      0.14829306	      0.23643133	     -0.00730226	      0.09478690
      0.14949869	      0.23645091	     -0.00739913	      0.09478690
      0.15070433	      0.23647011	     -0.00749476	      0.09478690
      0.15190996	      0.23648892	     -0.00758916	      0.09478690
      0.15311560	      0.23650733	     -0.00768230	      0.09478690
      0.15432123	      0.23652533	     -0.00777417	      0.09478690
      0.15552687	      0.23654290	     -0.00786475	      0.09478690
      0.15673250	      0.23656002	     -0.00795404	      0.09478690
      0.15793813	      0.23657669	     -0.00804201	      0.09478690
      0.15914377	      0.23659288	     -0.00812864	      0.09478690
      0.16034940	      0.23660859	     -0.00821394	      0.09478690
      0.16155504	      0.23662381	     -0.00829788	      0.09478690
      0.16276067	      0.23663853	     -0.00838046	      0.09478690
      0.16396631	      0.23665275	     -0.00846167	      0.09478690
      0.16517194	      0.23666646	     -0.00854151	      0.09478690
      0.16637758	      0.23667966	     -0.00861997	      0.09478690
      0.16758321	      0.23669237	     -0.00869705	      0.09478690
      0.16878885	      0.23670458	     -0.00877276	      0.09478690
      0.16999448	      0.23671629	     -0.00884710	      0.09478690
      0.17120011	      0.23672751	     -0.00892006	      0.09478690
      0.17240575	      0.23673824	     -0.00899166	      0.09478690
      0.17361138	      0.23674849	     -0.00906190	      0.09478690
      0.17481702	      0.23675825	     -0.00913078	      0.09478690
      0.17602265	      0.23676753	     -0.00919830	      0.09478690
      0.17722829	      0.23677633	     -0.00926447	      0.09478690
      0.17843392	      0.23678466	     -0.00932930	      0.09478690
      0.17963956	      0.23679250	     -0.00939279	      0.09478690
      0.18084519	      0.23679987	     -0.00945494	      0.09478690
      0.18205083	      0.23680677	     -0.00951577	      0.09478690
      0.18325646	      0.23681319	     -0.00957527	      0.09478690
      0.18446210	      0.23681914	     -0.00963345	      0.09478690
      0.18566773	      0.23682462	     -0.00969032	      0.09478690
      0.18687336	      0.23682965	     -0.00974588	      0.09478690
      0.18807900	      0.23683421	     -0.00980014	      0.09478690
      0.18928463	      0.23683831	     -0.00985311	      0.09478690
      0.19049027	      0.23684197	     -0.00990479	      0.09478690
      0.19169590	      0.23684517	     -0.00995522	      0.09478690
      0.19290154	      0.23684793	     -0.01000441	      0.09478690
      0.19410717	      0.23685024	     -0.01005240	      0.09478690
      0.19531281	      0.23685210	     -0.01009922	      0.09478690
      0.19651844	      0.23685353	     -0.01014492	      0.09478690
      0.19772408	      0.23685451	     -0.01018954	      0.09478690
      0.19892971	      0.23685506	     -0.01023309	      0.09478690
      0.20013535	      0.23685520	     -0.01027560	      0.09478690
      0.20134098	      0.23685493	     -0.01031708	      0.09478690
      0.20254661	      0.23685429	     -0.01035754	      0.09478690
      0.20375225	      0.23685331	     -0.01039697	      0.09478690
      0.20495788	      0.23685203	     -0.01043539	      0.09478690
      0.20616352	      0.23685047	     -0.01047279	      0.09478690
      0.20736915	      0.23684863	     -0.01050917	      0.09478690
      0.20857479	      0.23684653	     -0.01054452	      0.09478690
      0.20978042	      0.23684414	     -0.01057882	      0.09478690
      0.21098606	      0.23684146	     -0.01061208	      0.09478690
      0.21219169	      0.23683847	     -0.01064430	      0.09478690
      0.21339733	      0.23683516	     -0.01067548	      0.09478690
      0.21460296	      0.23683152	     -0.01070565	      0.09478690
      0.21580860	      0.23682755	     -0.01073481	      0.09478690
      0.21701423	      0.23682326	     -0.01076300	      0.09478690
      0.21821986	      0.23681865	     -0.01079024	      0.09478690
      0.21942550	      0.23681371	     -0.01081657	      0.09478690
      0.22063113	      0.23680847	     -0.01084201	      0.09478690
      0.22183677	      0.23680292	     -0.01086660	      0.09478690
      0.22304240	      0.23679708	     -0.01089035	      0.09478690
      0.22424804	      0.23679094	     -0.01091330	      0.09478690
      0.22545367	      0.23678451	     -0.01093547	      0.09478690
      0.22665931	      0.23677778	     -0.01095688	      0.09478690
      0.22786494	      0.23677076	     -0.01097753	      0.09478690
      0.22907058	      0.23676343	     -0.01099745	      0.09478690
      0.23027621	      0.23675579	     -0.01101664	      0.09478690
      0.23148185	      0.23674781	     -0.01103510	      0.09478690
      0.23268748	      0.23673949	     -0.01105285	      0.09478690
      0.23389311	      0.23673082	     -0.01106987	      0.09478690
      0.23509875	      0.23672176	     -0.01108617	      0.09478690
      0.23630438	      0.23671231	     -0.01110174	      0.09478690
      0.23751002	      0.23670244	     -0.01111658	      0.09478690
      0.23871565	      0.23669214	     -0.01113068	      0.09478690
      0.23992129	      0.23668138	     -0.01114404	      0.09478690
      0.24112692	      0.23667015	     -0.01115665	      0.09478690
      0.24233256	      0.23665841	     -0.01116850	      0.09478690
      0.24353819	      0.23664616	     -0.01117958	      0.09478690
      0.24474383	      0.23663338	     -0.01118989	      0.09478690
      0.24594946	      0.23662003	     -0.01119941	      0.09478690
      0.24715510	      0.23660611	     -0.01120814	      0.09478690
      0.24836073	      0.23659159	     -0.01121606	      0.09478690
      0.24956636	      0.23657645	     -0.01122316	      0.09478690
      0.25077200	      0.23656068	     -0.01122942	      0.09478690
      0.25197763	      0.23654426	     -0.01123484	      0.09478690
      0.25318327	      0.23652716	     -0.01123939	      0.09478690
      0.25438890	      0.23650937	     -0.01124307	      0.09478690
      0.25559454	      0.23649088	     -0.01124584	      0.09478690
      0.25680017	      0.23647166	     -0.01124771	      0.09478690
      0.25800581	      0.23645172	     -0.01124863	      0.09478690
      0.25921144	      0.23643103	     -0.01124861	      0.09478690
      0.26041708	      0.23640959	     -0.01124762	      0.09478690
      0.26162271	      0.23638739	     -0.01124564	      0.09478690
      0.26282835	      0.23636442	     -0.01124266	      0.09478690
      0.26403398	      0.23634069	     -0.01123867	      0.09478690
      0.26523961	      0.23631620	     -0.01123364	      0.09478690
      0.26644525	      0.23629094	     -0.01122757	      0.09478690
      0.26765088	      0.23626493	     -0.01122046	      0.09478690
      0.26885652	      0.23623815	     -0.01121228	      0.09478690
      0.27006215	      0.23621062	     -0.01120305	      0.09478690
      0.27126779	      0.23618234	     -0.01119274	      0.09478690
      0.27247342	      0.23615330	     -0.01118137	      0.09478690
      0.27367906	      0.23612351	     -0.01116892	      0.09478690
      0.27488469	      0.23609293	     -0.01115539	      0.09478690
      0.27609033	      0.23606157	     -0.01114079	      0.09478690
      0.27729596	      0.23602940	     -0.01112508	      0.09478690
      0.27850160	      0.23599638	     -0.01110827	      0.09478690
      0.27970723	      0.23596249	     -0.01109035	      0.09478690
      0.28091286	      0.23592770	     -0.01107128	      0.09478690
      0.28211850	      0.23589199	     -0.01105108	      0.09478690
      0.28332413	      0.23585535	     -0.01102971	      0.09478690
      0.28452977	      0.23581780	     -0.01100718	      0.09478690
      0.28573540	      0.23577932	     -0.01098346	      0.09478690
      0.28694104	      0.23573995	     -0.01095852	      0.09478690
      0.28814667	      0.23569968	     -0.01093236	      0.09478690
      0.28935231	      0.23565852	     -0.01090492	      0.09478690
      0.29055794	      0.23561647	     -0.01087617	      0.09478690
      0.29176358	      0.23557354	     -0.01084611	      0.09478690
      0.29296921	      0.23552972	     -0.01081471	      0.09478690
      0.29417485	      0.23548502	     -0.01078198	      0.09478690
      0.29538048	      0.23543945	     -0.01074791	      0.09478690
      0.29658611	      0.23539301	     -0.01071252	      0.09478690
      0.29779175	      0.23534572	     -0.01067584	      0.09478690
      0.29899738	      0.23529759	     -0.01063787	      0.09478690
      0.30020302	      0.23524864	     -0.01059865	      0.09478690
      0.30140865	      0.23519888	     -0.01055817	      0.09478690
      0.30261429	      0.23514833	     -0.01051646	      0.09478690
      0.30381992	      0.23509700	     -0.01047351	      0.09478690
      0.30502556	      0.23504490	     -0.01042933	      0.09478690
      0.30623119	      0.23499203	     -0.01038391	      0.09478690
      0.30743683	      0.23493841	     -0.01033724	      0.09478690
      0.30864246	      0.23488403	     -0.01028930	      0.09478690
      0.30984810	      0.23482891	     -0.01024008	      0.09478690
      0.31105373	      0.23477304	     -0.01018955	      0.09478690
      0.31225936	      0.23471642	     -0.01013769	      0.09478690
      0.31346500	      0.23465906	     -0.01008447	      0.09478690
      0.31467063	      0.23460094	     -0.01002986	      0.09478690
      0.31587627	      0.23454208	     -0.00997384	      0.09478690
      0.31708190	      0.23448247	     -0.00991636	      0.09478690
      0.31828754	      0.23442210	     -0.00985740	      0.09478690
      0.31949317	      0.23436098	     -0.00979690	      0.09478690
      0.32069881	      0.23429909	     -0.00973484	      0.09478690
      0.32190444	      0.23423643	     -0.00967116	      0.09478690
      0.32311008	      0.23417300	     -0.00960583	      0.09478690
      0.32431571	      0.23410879	     -0.00953879	      0.09478690
      0.32552135	      0.23404381	     -0.00946999	      0.09478690
      0.32672698	      0.23397804	     -0.00939937	      0.09478690
      0.32793261	      0.23391147	     -0.00932687	      0.09478690
      0.32913825	      0.23384412	     -0.00925243	      0.09478690
      0.33034388	      0.23377596	     -0.00917599	      0.09478690
      0.33154952	      0.23370700	     -0.00909745	      0.09478690
      0.33275515	      0.23363723	     -0.00901675	      0.09478690
      0.33396079	      0.23356664	     -0.00893380	      0.09478690
      0.33516642	      0.23349523	     -0.00884850	      0.09478690
      0.33637206	      0.23342300	     -0.00876076	      0.09478690
      0.33757769	      0.23334994	     -0.00867048	      0.09478690
      0.33878333	      0.23327605	     -0.00857753	      0.09478690
      0.33998896	      0.23320132	     -0.00848179	      0.09478690
      0.34119460	      0.23312576	     -0.00838314	      0.09478690
      0.34240023	      0.23304935	     -0.00828144	      0.09478690
      0.34360586	      0.23297211	     -0.00817655	      0.09478690
      0.34481150	      0.23289404	     -0.00806831	      0.09478690
      0.34601713	      0.23281514	     -0.00795656	      0.09478690
      0.34722277	      0.23273541	     -0.00784115	      0.09478690
      0.34842840	      0.23265487	     -0.00772190	      0.09478690
      0.34963404	      0.23257351	     -0.00759862	      0.09478690
      0.35083967	      0.23249136	     -0.00747114	      0.09478690
      0.35204531	      0.23240842	     -0.00733924	      0.09478690
      0.35325094	      0.23232469	     -0.00720272	      0.09478690
      0.35445658	      0.23224020	     -0.00706134	      0.09478690
      0.35566221	      0.23215495	     -0.00691486	      0.09478690
      0.35686785	      0.23206895	     -0.00676302	      0.09478690
      0.35807348	      0.23198222	     -0.00660557	      0.09478690
      0.35927911	      0.23189478	     -0.00644221	      0.09478690
      0.36048475	      0.23180664	     -0.00627265	      0.09478690
      0.36169038	      0.23171783	     -0.00609658	      0.09478690
      0.36289602	      0.23162837	     -0.00591367	      0.09478690
      0.36410165	      0.23153828	     -0.00572358	      0.09478690
      0.36530729	      0.23144761	     -0.00552594	      0.09478690
      0.36651292	      0.23135640	     -0.00532037	      0.09478690
      0.36771856	      0.23126467	     -0.00510645	      0.09478690
      0.36892419	      0.23117248	     -0.00488377	      0.09478690
      0.37012983	      0.23107988	     -0.00465188	      0.09478690
      0.37133546	      0.23098693	     -0.00441036	      0.09478690
      0.37254110	      0.23089363	     -0.00415871	      0.09478690
      0.37374673	      0.23080036	     -0.00389695	      0.09478690
      0.37495236	      0.23070783	     -0.00362553	      0.09478690
      0.37615800	      0.23061682	     -0.00334457	      0.09478690
      0.37736363	      0.23052795	     -0.00305398	      0.09478690
      0.37856927	      0.23044183	     -0.00275360	      0.09478690
      0.37977490	      0.23035901	     -0.00244317	      0.09478690
      0.38098054	      0.23027957	     -0.00212211	      0.09478690
      0.38218617	      0.23020325	     -0.00178960	      0.09478690
      0.38339181	      0.23012906	     -0.00144478	      0.09478690
      0.38459744	      0.23005607	     -0.00108683	      0.09478690
      0.38580308	      0.22999005	     -0.00071287	      0.09478690
      0.38700871	      0.22994265	     -0.00031877	      0.09478690
      0.38821435	      0.22993689	      0.00010166	      0.09478690
      0.38941998	      0.23000049	      0.00055462	      0.09478690
      0.39062561	      0.23015490	      0.00104404	      0.09478690
      0.39183125	      0.23041384	      0.00157132	      0.09478690
      0.39303688	      0.23078186	      0.00213558	      0.09478690
      0.39424252	      0.23126008	      0.00273533	      0.09478690
      0.39544815	      0.23184492	      0.00336834	      0.09478690
      0.39665379	      0.23253151	      0.00403244	      0.09478690
      0.39785942	      0.23331349	      0.00472538	      0.09478690
      0.39906506	      0.23418433	      0.00544508	      0.09478690
      0.40027069	      0.23513756	      0.00618957	      0.09478690
      0.40147633	      0.23616692	      0.00695704	      0.09478690
      0.40268196	      0.23726680	      0.00774583	      0.09478690
      0.40388760	      0.23843205	      0.00855442	      0.09478690
      0.40509323	      0.23965833	      0.00938142	      0.09478690
      0.40629886	      0.24094165	      0.01022556	      0.09478690
      0.40750450	      0.24227869	      0.01108566	      0.09478690
      0.40871013	      0.24366641	      0.01196063	      0.09478690
      0.40991577	      0.24510228	      0.01284943	      0.09478690
      0.41112140	      0.24658399	      0.01375111	      0.09478690
      0.41232704	      0.24810967	      0.01466477	      0.09478690
      0.41353267	      0.24967761	      0.01558956	      0.09478690
      0.41473831	      0.25128644	      0.01652469	      0.09478690
      0.41594394	      0.25293491	      0.01746939	      0.09478690
      0.41714958	      0.25462198	      0.01842294	      0.09478690
      0.41835521	      0.25634668	      0.01938465	      0.09478690
      0.41956085	      0.25810815	      0.02035384	      0.09478690
      0.42076648	      0.25990553	      0.02132985	      0.09478690
      0.42197211	      0.26173804	      0.02231208	      0.09478690
      0.42317775	      0.26360485	      0.02329990	      0.09478690
      0.42438338	      0.26550517	      0.02429272	      0.09478690
      0.42558902	      0.26743817	      0.02528997	      0.09478690
      0.42679465	      0.26940305	      0.02629109	      0.09478690
      0.42800029	      0.27139900	      0.02729554	      0.09478690
      0.42920592	      0.27342523	      0.02830280	      0.09478690
      0.43041156	      0.27548098	      0.02931236	      0.09478690
      0.43161719	      0.27756555	      0.03032372	      0.09478690
      0.43282283	      0.27967827	      0.03133641	      0.09478690
      0.43402846	      0.28181855	      0.03234995	      0.09478690
      0.43523410	      0.28398586	      0.03336389	      0.09478690
      0.43643973	      0.28617974	      0.03437779	      0.09478690
      0.43764536	      0.28839980	      0.03539121	      0.09478690
      0.43885100	      0.29064575	      0.03640372	      0.09478690
      0.44005663	      0.29291737	      0.03741491	      0.09478690
      0.44126227	      0.29521451	      0.03842436	      0.09478690
      0.44246790	      0.29753711	      0.03943165	      0.09478690
      0.44367354	      0.29988522	      0.04043639	      0.09478690
      0.44487917	      0.30225899	      0.04143817	      0.09478690
      0.44608481	      0.30465861	      0.04243659	      0.09478690
      0.44729044	      0.30708433	      0.04343124	      0.09478690
      0.44849608	      0.30953626	      0.04442173	      0.09478690
      0.44970171	      0.31201437	      0.04540766	      0.09478690
      0.45090735	      0.31451867	      0.04638864	      0.09478690
      0.45211298	      0.31704988	      0.04736425	      0.09478690
      0.45331861	      0.31960965	      0.04833405	      0.09478690
      0.45452425	      0.32219896	      0.04929762	      0.09478690
      0.45572988	      0.32481794	      0.05025456	      0.09478690
      0.45693552	      0.32746672	      0.05120452	      0.09478690
      0.45814115	      0.33014534	      0.05214710	      0.09478690
      0.45934679	      0.33285392	      0.05308195	      0.09478690
      0.46055242	      0.33559258	      0.05400871	      0.09478690
      0.46175806	      0.33836137	      0.05492701	      0.09478690
      0.46296369	      0.34116031	      0.05583651	      0.09478690
      0.46416933	      0.34398941	      0.05673686	      0.09478690
      0.46537496	      0.34684875	      0.05762773	      0.09478690
      0.46658060	      0.34973843	      0.05850876	      0.09478690
      0.46778623	      0.35265860	      0.05937963	      0.09478690
      0.46899186	      0.35560943	      0.06023999	      0.09478690
      0.47019750	      0.35859110	      0.06108953	      0.09478690
      0.47140313	      0.36160380	      0.06192790	      0.09478690
      0.47260877	      0.36464772	      0.06275479	      0.09478690
      0.47381440	      0.36772306	      0.06356989	      0.09478690
      0.47502004	      0.37083003	      0.06437289	      0.09478690
      0.47622567	      0.37396880	      0.06516348	      0.09478690
      0.47743131	      0.37713955	      0.06594137	      0.09478690
      0.47863694	      0.38034246	      0.06670628	      0.09478690
      0.47984258	      0.38357767	      0.06745793	      0.09478690
      0.48104821	      0.38684534	      0.06819603	      0.09478690
      0.48225385	      0.39014560	      0.06892034	      0.09478690
      0.48345948	      0.39347857	      0.06963059	      0.09478690
      0.48466511	      0.39684435	      0.07032654	      0.09478690
      0.48587075	      0.40024300	      0.07100797	      0.09478690
      0.48707638	      0.40367459	      0.07167465	      0.09478690
      0.48828202	      0.40713915	      0.07232636	      0.09478690
      0.48948765	      0.41063667	      0.07296292	      0.09478690
      0.49069329	      0.41416717	      0.07358414	      0.09478690
      0.49189892	      0.41773061	      0.07418984	      0.09478690
      0.49310456	      0.42132694	      0.07477986	      0.09478690
      0.49431019	      0.42495612	      0.07535404	      0.09478690
      0.49551583	      0.42861807	      0.07591221	      0.09478690
      0.49672146	      0.43231267	      0.07645425	      0.09478690
      0.49792710	      0.43603979	      0.07698001	      0.09478690
      0.49913273	      0.43979922	      0.07748937	      0.09478690
      0.50033836	      0.44359072	      0.07798221	      0.09478690
      0.50154400	      0.44741399	      0.07845843	      0.09478690
      0.50274963	      0.45126872	      0.07891794	      0.09478690
      0.50395527	      0.45515459	      0.07936066	      0.09478690
      0.50516090	      0.45907131	      0.07978651	      0.09478690
      0.50636654	      0.46301861	      0.08019538	      0.09478690
      0.50757217	      0.46699626	      0.08058720	      0.09478690
      0.50877781	      0.47100405	      0.08096184	      0.09478690
      0.50998344	      0.47504177	      0.08131915	      0.09478690
      0.51118908	      0.47910918	      0.08165896	      0.09478690
      0.51239471	      0.48320604	      0.08198107	      0.09478690
      0.51360034	      0.48733210	      0.08228526	      0.09478690
      0.51480598	      0.49148707	      0.08257130	      0.09478690
      0.51601161	      0.49567068	      0.08283899	      0.09478690
      0.51721725	      0.49988265	      0.08308814	      0.09478690
      0.51842288	      0.50412269	      0.08331858	      0.09478690
      0.51962852	      0.50839053	      0.08353018	      0.09478690
      0.52083415	      0.51268588	      0.08372283	      0.09478690
      0.52203979	      0.51700847	      0.08389645	      0.09478690
      0.52324542	      0.52135803	      0.08405097	      0.09478690
      0.52445106	      0.52573429	      0.08418634	      0.09478690
      0.52565669	      0.53013699	      0.08430252	      0.09478690
      0.52686233	      0.53456587	      0.08439947	      0.09478690
      0.52806796	      0.53902069	      0.08447715	      0.09478690
      0.52927359	      0.54350123	      0.08453553	      0.09478690
      0.53047923	      0.54800726	      0.08457457	      0.09478690
      0.53168486	      0.55253859	      0.08459422	      0.09478690
      0.53289050	      0.55709503	      0.08459444	      0.09478690
      0.53409613	      0.56167640	      0.08457518	      0.09478690
      0.53530177	      0.56628254	      0.08453642	      0.09478690
      0.53650740	      0.57091329	      0.08447810	      0.09478690
      0.53771304	      0.57556852	      0.08440021	      0.09478690
      0.53891867	      0.58024809	      0.08430271	      0.09478690
      0.54012431	      0.58495189	      0.08418559	      0.09478690
      0.54132994	      0.58967978	      0.08404887	      0.09478690
      0.54253558	      0.59443167	      0.08389255	      0.09478690
      0.54374121	      0.59920744	      0.08371668	      0.09478690
      0.54494684	      0.60400702	      0.08352129	      0.09478690
      0.54615248	      0.60883031	      0.08330647	      0.09478690
      0.54735811	      0.61367722	      0.08307230	      0.09478690
      0.54856375	      0.61854767	      0.08281889	      0.09478690
      0.54976938	      0.62344161	      0.08254638	      0.09478690
      0.55097502	      0.62835895	      0.08225492	      0.09478690
      0.55218065	      0.63329964	      0.08194468	      0.09478690
      0.55338629	      0.63826361	      0.08161586	      0.09478690
      0.55459192	      0.64325081	      0.08126867	      0.09478690
      0.55579756	      0.64826119	      0.08090335	      0.09478690
      0.55700319	      0.65329469	      0.08052016	      0.09478690
      0.55820883	      0.65835127	      0.08011936	      0.09478690
      0.55941446	      0.66343087	      0.07970124	      0.09478690
      0.56062009	      0.66853346	      0.07926612	      0.09478690
      0.56182573	      0.67365898	      0.07881433	      0.09478690
      0.56303136	      0.67880740	      0.07834619	      0.09478690
      0.56423700	      0.68397866	      0.07786207	      0.09478690
      0.56544263	      0.68917274	      0.07736234	      0.09478690
      0.56664827	      0.69438959	      0.07684738	      0.09478690
      0.56785390	      0.69962916	      0.07631758	      0.09478690
      0.56905954	      0.70489141	      0.07577335	      0.09478690
      0.57026517	      0.71017631	      0.07521511	      0.09478690
      0.57147081	      0.71548379	      0.07464329	      0.09478690
      0.57267644	      0.72081381	      0.07405832	      0.09478690
      0.57388208	      0.72616632	      0.07346064	      0.09478690
      0.57508771	      0.73154127	      0.07285071	      0.09478690
      0.57629334	      0.73693860	      0.07222899	      0.09478690
      0.57749898	      0.74235825	      0.07159595	      0.09478690
      0.57870461	      0.74780016	      0.07095206	      0.09478690
      0.57991025	      0.75326427	      0.07029779	      0.09478690
      0.58111588	      0.75875052	      0.06963364	      0.09478690
      0.58232152	      0.76425881	      0.06896008	      0.09478690
      0.58352715	      0.76978908	      0.06827762	      0.09478690
      0.58473279	      0.77534124	      0.06758674	      0.09478690
      0.58593842	      0.78091517	      0.06688793	      0.09478690
      0.58714406	      0.78651078	      0.06618170	      0.09478690
      0.58834969	      0.79212793	      0.06546852	      0.09478690
      0.58955533	      0.79776650	      0.06474890	      0.09478690
      0.59076096	      0.80342635	      0.06402331	      0.09478690
      0.59196659	      0.80910730	      0.06329225	      0.09478690
      0.59317223	      0.81480921	      0.06255619	      0.09478690
      0.59437786	      0.82053187	      0.06181562	      0.09478690
      0.59558350	      0.82627509	      0.06107101	      0.09478690
      0.59678913	      0.83203866	      0.06032283	      0.09478690
      0.59799477	      0.83782234	      0.05957153	      0.09478690
      0.59920040	      0.84362589	      0.05881758	      0.09478690
      0.60040604	      0.84944905	      0.05806143	      0.09478690
      0.60161167	      0.85529157	      0.05730352	      0.09478690
      0.60281731	      0.86115315	      0.05654431	      0.09478690
      0.60402294	      0.86703352	      0.05578422	      0.09478690
      0.60522858	      0.87293239	      0.05502369	      0.09478690
      0.60643421	      0.87884945	      0.05426316	      0.09478690
      0.60763984	      0.88478439	      0.05350304	      0.09478690
      0.60884548	      0.89073690	      0.05274375	      0.09478690
      0.61005111	      0.89670664	      0.05198571	      0.09478690
      0.61125675	      0.90269327	      0.05122933	      0.09478690
      0.61246238	      0.90869646	      0.05047501	      0.09478690
      0.61366802	      0.91471585	      0.04972315	      0.09478690
      0.61487365	      0.92075109	      0.04897414	      0.09478690
      0.61607929	      0.92680181	      0.04822835	      0.09478690
      0.61728492	      0.93286762	      0.04748616	      0.09478690
      0.61849056	      0.93894816	      0.04674793	      0.09478690
      0.61969619	      0.94504300	      0.04601401	      0.09478690
      0.62090183	      0.95115176	      0.04528472	      0.09478690
      0.62210746	      0.95727400	      0.04456038	      0.09478690
      0.62331309	      0.96340929	      0.04384129	      0.09478690
      0.62451873	      0.96955720	      0.04312773	      0.09478690
      0.62572436	      0.97571727	      0.04241996	      0.09478690
      0.62693000	      0.98188907	      0.04171824	      0.09478690
      0.62813563	      0.98807215	      0.04102281	      0.09478690
      0.62934127	      0.99426605	      0.04033387	      0.09478690
      0.63054690	      1.00047033	      0.03965164	      0.09478690
      0.63175254	      1.00668455	      0.03897633	      0.09478690
      0.63295817	      1.01290828	      0.03830812	      0.09478690
      0.63416381	      1.01914108	      0.03764721	      0.09478690
      0.63536944	      1.02538248	      0.03699376	      0.09478690
      0.63657508	      1.03163203	      0.03634792	      0.09478690
      0.63778071	      1.03788926	      0.03570986	      0.09478690
      0.63898634	      1.04415366	      0.03507969	      0.09478690
      0.64019198	      1.05042472	      0.03445753	      0.09478690
      0.64139761	      1.05670191	      0.03384349	      0.09478690
      0.64260325	      1.06298469	      0.03323768	      0.09478690
      0.64380888	      1.06927251	      0.03264018	      0.09478690
      0.64501452	      1.07556480	      0.03205112	      0.09478690
      0.64622015	      1.08186103	      0.03147062	      0.09478690
      0.64742579	      1.08816065	      0.03089881	      0.09478690
      0.64863142	      1.09446314	      0.03033587	      0.09478690
      0.64983706	      1.10076794	      0.02978197	      0.09478690
      0.65104269	      1.10707451	      0.02923728	      0.09478690
      0.65224833	      1.11338227	      0.02870195	      0.09478690
      0.65345396	      1.11969059	      0.02817613	      0.09478690
      0.65465959	      1.12599884	      0.02765995	      0.09478690
      0.65586523	      1.13230640	      0.02715360	      0.09478690
      0.65707086	      1.13861263	      0.02665728	      0.09478690
      0.65827650	      1.14491694	      0.02617132	      0.09478690
      0.65948213	      1.15121873	      0.02569610	      0.09478690
      0.66068777	      1.15751741	      0.02523210	      0.09478690
      0.66189340	      1.16381240	      0.02477986	      0.09478690
      0.66309904	      1.17010302	      0.02433998	      0.09478690
      0.66430467	      1.17638858	      0.02391305	      0.09478690
      0.66551031	      1.18266828	      0.02349971	      0.09478690
      0.66671594	      1.18894125	      0.02310060	      0.09478690
      0.66792158	      1.19520652	      0.02271633	      0.09478690
      0.66912721	      1.20146308	      0.02234754	      0.09478690
      0.67033284	      1.20770981	      0.02199486	      0.09478690
      0.67153848	      1.21394558	      0.02165890	      0.09478690
      0.67274411	      1.22016921	      0.02134031	      0.09478690
      0.67394975	      1.22637954	      0.02103972	      0.09478690
      0.67515538	      1.23257541	      0.02075784	      0.09478690
      0.67636102	      1.23875570	      0.02049541	      0.09478690
      0.67756665	      1.24491933	      0.02025315	      0.09478690
      0.67877229	      1.25106508	      0.02003151	      0.09478690
      0.67997792	      1.25719163	      0.01983059	      0.09478690
      0.68118356	      1.26329794	      0.01965094	      0.09478690
      0.68238919	      1.26938327	      0.01949347	      0.09478690
      0.68359483	      1.27544688	      0.01935890	      0.09478690
      0.68480046	      1.28148819	      0.01924793	      0.09478690
      0.68600609	      1.28750669	      0.01916127	      0.09478690
      0.68721173	      1.29350206	      0.01909967	      0.09478690
      0.68841736	      1.29947404	      0.01906387	      0.09478690
      0.68962300	      1.30542255	      0.01905462	      0.09478690
      0.69082863	      1.31134756	      0.01907266	      0.09478690
      0.69203427	      1.31724918	      0.01911876	      0.09478690
      0.69323990	      1.32312756	      0.01919375	      0.09478690
      0.69444554	      1.32898291	      0.01929852	      0.09478690
      0.69565117	      1.33481544	      0.01943405	      0.09478690
      0.69685681	      1.34062532	      0.01960136	      0.09478690
      0.69806244	      1.34641266	      0.01980155	      0.09478690
      0.69926808	      1.35217736	      0.02003582	      0.09478690
      0.70047371	      1.35791917	      0.02030540	      0.09478690
      0.70167934	      1.36363733	      0.02061150	      0.09478690
      0.70288498	      1.36933074	      0.02095520	      0.09478690
      0.70409061	      1.37499706	      0.02133701	      0.09478690
      0.70529625	      1.38063306	      0.02175687	      0.09478690
      0.70650188	      1.38623296	      0.02221314	      0.09478690
      0.70770752	      1.39178956	      0.02270296	      0.09478690
      0.70891315	      1.39729244	      0.02322110	      0.09478690
      0.71011879	      1.40272955	      0.02376067	      0.09478690
      0.71132442	      1.40808621	      0.02431291	      0.09478690
      0.71253006	      1.41334730	      0.02486835	      0.09478690
      0.71373569	      1.41849779	      0.02541821	      0.09478690
      0.71494133	      1.42352356	      0.02595422	      0.09478690
      0.71614696	      1.42840867	      0.02646617	      0.09478690
      0.71735259	      1.43313434	      0.02693995	      0.09478690
      0.71855823	      1.43767325	      0.02735185	      0.09478690
      0.71976386	      1.44199345	      0.02767221	      0.09478690
      0.72096950	      1.44605860	      0.02786708	      0.09478690
      0.72217513	      1.44983298	      0.02790297	      0.09478690
      0.72338077	      1.45328549	      0.02775229	      0.09478690
