PointVelocity
version=1
nRows=601
nColumns=4
inDegrees=no
No description.
endheader
time	state_0	state_1	state_2
      0.00000000	      2.10160021	     -0.22343580	      0.00000000
      0.00120563	      2.09907328	     -0.22698835	      0.00000000
      0.00241127	      2.09588357	     -0.23012438	      0.00000000
      0.00361690	      2.09186334	     -0.23259000	      0.00000000
      0.00482254	      2.08724882	     -0.23441211	      0.00000000
      0.00602817	      2.08217998	     -0.23553249	      0.00000000
      0.00723381	      2.07672987	     -0.23587656	      0.00000000
      0.00843944	      2.07103525	     -0.23544362	      0.00000000
      0.00964508	      2.06610982	     -0.23466133	      0.00000000
      0.01085071	      2.06229211	     -0.23365793	      0.00000000
      0.01205635	      2.05856146	     -0.23190648	      0.00000000
      0.01326198	      2.05384969	     -0.22884381	      0.00000000
      0.01446762	      2.04795553	     -0.22428676	      0.00000000
      0.01567325	      2.04097709	     -0.21820916	      0.00000000
      0.01687888	      2.03293167	     -0.21053746	      0.00000000
      0.01808452	      2.02408555	     -0.20150377	      0.00000000
      0.01929015	      2.01457908	     -0.19130446	      0.00000000
      0.02049579	      2.00454971	     -0.18018671	      0.00000000
      0.02170142	      1.99414818	     -0.16833928	      0.00000000
      0.02290706	      1.98348323	     -0.15593812	      0.00000000
      0.02411269	      1.97265129	     -0.14318448	      0.00000000
      0.02531833	      1.96168130	     -0.13025858	      0.00000000
      0.02652396	      1.95057884	     -0.11736592	      0.00000000
      0.02772960	      1.93940320	     -0.10455429	      0.00000000
      0.02893523	      1.92827496	     -0.09184206	      0.00000000
      0.03014087	      1.91732516	     -0.07921423	      0.00000000
      0.03134650	      1.90664638	     -0.06669809	      0.00000000
      0.03255213	      1.89627709	     -0.05432423	      0.00000000
      0.03375777	      1.88626984	     -0.04212011	      0.00000000
      0.03496340	      1.87664277	     -0.03010877	      0.00000000
      0.03616904	      1.86742135	     -0.01831454	      0.00000000
      0.03737467	      1.85860807	     -0.00675556	      0.00000000
      0.03858031	      1.85021291	      0.00455020	      0.00000000
      0.03978594	      1.84222748	      0.01558799	      0.00000000
      0.04099158	      1.83464681	      0.02634082	      0.00000000
      0.04219721	      1.82745051	      0.03679357	      0.00000000
      0.04340285	      1.82062079	      0.04693006	      0.00000000
      0.04460848	      1.81413226	      0.05673947	      0.00000000
      0.04581412	      1.80796152	      0.06621000	      0.00000000
      0.04701975	      1.80208373	      0.07533669	      0.00000000
      0.04822538	      1.79647461	      0.08411312	      0.00000000
      0.04943102	      1.79111172	      0.09253918	      0.00000000
      0.05063665	      1.78597221	      0.10061345	      0.00000000
      0.05184229	      1.78103662	      0.10833934	      0.00000000
      0.05304792	      1.77628479	      0.11571911	      0.00000000
      0.05425356	      1.77170033	      0.12275856	      0.00000000
      0.05545919	      1.76726607	      0.12946230	      0.00000000
      0.05666483	      1.76296830	      0.13583849	      0.00000000
      0.05787046	      1.75879236	      0.14189487	      0.00000000
      0.05907610	      1.75472655	      0.14764218	      0.00000000
      0.06028173	      1.75075815	      0.15309134	      0.00000000
      0.06148737	      1.74687771	      0.15825320	      0.00000000
      0.06269300	      1.74307535	      0.16313808	      0.00000000
      0.06389863	      1.73934398	      0.16775445	      0.00000000
      0.06510427	      1.73567595	      0.17211067	      0.00000000
      0.06630990	      1.73206501	      0.17621452	      0.00000000
      0.06751554	      1.72850409	      0.18007446	      0.00000000
      0.06872117	      1.72498725	      0.18369879	      0.00000000
      0.06992681	      1.72150816	      0.18709603	      0.00000000
      0.07113244	      1.71806223	      0.19027346	      0.00000000
      0.07233808	      1.71464460	      0.19323853	      0.00000000
      0.07354371	      1.71125210	      0.19599699	      0.00000000
      0.07474935	      1.70788133	      0.19855485	      0.00000000
      0.07595498	      1.70452978	      0.20091673	      0.00000000
      0.07716062	      1.70119516	      0.20308771	      0.00000000
      0.07836625	      1.69787419	      0.20507149	      0.00000000
      0.07957188	      1.69456282	      0.20687194	      0.00000000
      0.08077752	      1.69125613	      0.20849161	      0.00000000
      0.08198315	      1.68794813	      0.20993300	      0.00000000
      0.08318879	      1.68463643	      0.21119866	      0.00000000
      0.08439442	      1.68131979	      0.21229153	      0.00000000
      0.08560006	      1.67800080	      0.21321546	      0.00000000
      0.08680569	      1.67468090	      0.21397384	      0.00000000
      0.08801133	      1.67136235	      0.21457094	      0.00000000
      0.08921696	      1.66804726	      0.21501118	      0.00000000
      0.09042260	      1.66473728	      0.21529958	      0.00000000
      0.09162823	      1.66143410	      0.21544102	      0.00000000
      0.09283387	      1.65813826	      0.21544025	      0.00000000
      0.09403950	      1.65485033	      0.21530174	      0.00000000
      0.09524513	      1.65156995	      0.21503015	      0.00000000
      0.09645077	      1.64829719	      0.21463089	      0.00000000
      0.09765640	      1.64503123	      0.21410883	      0.00000000
      0.09886204	      1.64177172	      0.21347089	      0.00000000
      0.10006767	      1.63851676	      0.21271967	      0.00000000
      0.10127331	      1.63526255	      0.21185055	      0.00000000
      0.10247894	      1.63200708	      0.21086686	      0.00000000
      0.10368458	      1.62874940	      0.20977855	      0.00000000
      0.10489021	      1.62549113	      0.20859228	      0.00000000
      0.10609585	      1.62223333	      0.20731300	      0.00000000
      0.10730148	      1.61897986	      0.20594574	      0.00000000
      0.10850712	      1.61573505	      0.20449498	      0.00000000
      0.10971275	      1.61250284	      0.20296565	      0.00000000
      0.11091838	      1.60928769	      0.20136396	      0.00000000
      0.11212402	      1.60608896	      0.19969439	      0.00000000
      0.11332965	      1.60290533	      0.19796096	      0.00000000
      0.11453529	      1.59973114	      0.19616410	      0.00000000
      0.11574092	      1.59656143	      0.19430437	      0.00000000
      0.11694656	      1.59339125	      0.19238107	      0.00000000
      0.11815219	      1.59021494	      0.19039357	      0.00000000
      0.11935783	      1.58703097	      0.18834315	      0.00000000
      0.12056346	      1.58383740	      0.18623105	      0.00000000
      0.12176910	      1.58063857	      0.18406178	      0.00000000
      0.12297473	      1.57743942	      0.18183997	      0.00000000
      0.12418037	      1.57424703	      0.17957173	      0.00000000
      0.12538600	      1.57106759	      0.17726261	      0.00000000
      0.12659163	      1.56790470	      0.17491743	      0.00000000
      0.12779727	      1.56476174	      0.17254073	      0.00000000
      0.12900290	      1.56163985	      0.17013619	      0.00000000
      0.13020854	      1.55854052	      0.16770754	      0.00000000
      0.13141417	      1.55546545	      0.16525853	      0.00000000
      0.13261981	      1.55241656	      0.16279298	      0.00000000
      0.13382544	      1.54939742	      0.16031530	      0.00000000
      0.13503108	      1.54641151	      0.15782985	      0.00000000
      0.13623671	      1.54346387	      0.15534142	      0.00000000
      0.13744235	      1.54055936	      0.15285480	      0.00000000
      0.13864798	      1.53770356	      0.15037477	      0.00000000
      0.13985362	      1.53490196	      0.14790614	      0.00000000
      0.14105925	      1.53215997	      0.14545340	      0.00000000
      0.14226488	      1.52948309	      0.14302114	      0.00000000
      0.14347052	      1.52687632	      0.14061341	      0.00000000
      0.14467615	      1.52434487	      0.13823442	      0.00000000
      0.14588179	      1.52189308	      0.13588770	      0.00000000
      0.14708742	      1.51952560	      0.13357696	      0.00000000
      0.14829306	      1.51724561	      0.13130502	      0.00000000
      0.14949869	      1.51505661	      0.12907490	      0.00000000
      0.15070433	      1.51296024	      0.12688853	      0.00000000
      0.15190996	      1.51095833	      0.12474803	      0.00000000
      0.15311560	      1.50905115	      0.12265448	      0.00000000
      0.15432123	      1.50723912	      0.12060913	      0.00000000
      0.15552687	      1.50552202	      0.11861256	      0.00000000
      0.15673250	      1.50389974	      0.11666555	      0.00000000
      0.15793813	      1.50237236	      0.11476840	      0.00000000
      0.15914377	      1.50094006	      0.11292168	      0.00000000
      0.16034940	      1.49960320	      0.11112532	      0.00000000
      0.16155504	      1.49836224	      0.10937948	      0.00000000
      0.16276067	      1.49721713	      0.10768337	      0.00000000
      0.16396631	      1.49616794	      0.10603641	      0.00000000
      0.16517194	      1.49521357	      0.10443687	      0.00000000
      0.16637758	      1.49435307	      0.10288322	      0.00000000
      0.16758321	      1.49358419	      0.10137300	      0.00000000
      0.16878885	      1.49290482	      0.09990388	      0.00000000
      0.16999448	      1.49231197	      0.09847303	      0.00000000
      0.17120011	      1.49180277	      0.09707771	      0.00000000
      0.17240575	      1.49137414	      0.09571512	      0.00000000
      0.17361138	      1.49102306	      0.09438246	      0.00000000
      0.17481702	      1.49074694	      0.09307724	      0.00000000
      0.17602265	      1.49054314	      0.09179693	      0.00000000
      0.17722829	      1.49040988	      0.09053948	      0.00000000
      0.17843392	      1.49034524	      0.08930277	      0.00000000
      0.17963956	      1.49034815	      0.08808516	      0.00000000
      0.18084519	      1.49041745	      0.08688495	      0.00000000
      0.18205083	      1.49055239	      0.08570067	      0.00000000
      0.18325646	      1.49075215	      0.08453080	      0.00000000
      0.18446210	      1.49101585	      0.08337376	      0.00000000
      0.18566773	      1.49134250	      0.08222786	      0.00000000
      0.18687336	      1.49173101	      0.08109144	      0.00000000
      0.18807900	      1.49218013	      0.07996264	      0.00000000
      0.18928463	      1.49268926	      0.07884017	      0.00000000
      0.19049027	      1.49325780	      0.07772264	      0.00000000
      0.19169590	      1.49388639	      0.07660974	      0.00000000
      0.19290154	      1.49457586	      0.07550125	      0.00000000
      0.19410717	      1.49532737	      0.07439753	      0.00000000
      0.19531281	      1.49614200	      0.07329899	      0.00000000
      0.19651844	      1.49701961	      0.07220537	      0.00000000
      0.19772408	      1.49795949	      0.07111622	      0.00000000
      0.19892971	      1.49896071	      0.07003009	      0.00000000
      0.20013535	      1.50002217	      0.06894551	      0.00000000
      0.20134098	      1.50114524	      0.06786102	      0.00000000
      0.20254661	      1.50233216	      0.06677545	      0.00000000
      0.20375225	      1.50358638	      0.06568797	      0.00000000
      0.20495788	      1.50491105	      0.06459763	      0.00000000
      0.20616352	      1.50630721	      0.06350342	      0.00000000
      0.20736915	      1.50777560	      0.06240420	      0.00000000
      0.20857479	      1.50931490	      0.06129898	      0.00000000
      0.20978042	      1.51092420	      0.06018677	      0.00000000
      0.21098606	      1.51260224	      0.05906709	      0.00000000
      0.21219169	      1.51434798	      0.05793939	      0.00000000
      0.21339733	      1.51616082	      0.05680339	      0.00000000
      0.21460296	      1.51804014	      0.05565876	      0.00000000
      0.21580860	      1.51998589	      0.05450517	      0.00000000
      0.21701423	      1.52199795	      0.05334228	      0.00000000
      0.21821986	      1.52407677	      0.05216984	      0.00000000
      0.21942550	      1.52622272	      0.05098759	      0.00000000
      0.22063113	      1.52843655	      0.04979547	      0.00000000
      0.22183677	      1.53071898	      0.04859341	      0.00000000
      0.22304240	      1.53307078	      0.04738143	      0.00000000
      0.22424804	      1.53549273	      0.04615958	      0.00000000
      0.22545367	      1.53798526	      0.04492781	      0.00000000
      0.22665931	      1.54054886	      0.04368606	      0.00000000
      0.22786494	      1.54318338	      0.04243430	      0.00000000
      0.22907058	      1.54588879	      0.04117249	      0.00000000
      0.23027621	      1.54866433	      0.03990053	      0.00000000
      0.23148185	      1.55150938	      0.03861836	      0.00000000
      0.23268748	      1.55442273	      0.03732565	      0.00000000
      0.23389311	      1.55740327	      0.03602213	      0.00000000
      0.23509875	      1.56044953	      0.03470738	      0.00000000
      0.23630438	      1.56356012	      0.03338105	      0.00000000
      0.23751002	      1.56673340	      0.03204254	      0.00000000
      0.23871565	      1.56996783	      0.03069129	      0.00000000
      0.23992129	      1.57326170	      0.02932672	      0.00000000
      0.24112692	      1.57661335	      0.02794825	      0.00000000
      0.24233256	      1.58002097	      0.02655523	      0.00000000
      0.24353819	      1.58348280	      0.02514700	      0.00000000
      0.24474383	      1.58699694	      0.02372295	      0.00000000
      0.24594946	      1.59056152	      0.02228245	      0.00000000
      0.24715510	      1.59417456	      0.02082469	      0.00000000
      0.24836073	      1.59783410	      0.01934889	      0.00000000
      0.24956636	      1.60153816	      0.01785411	      0.00000000
      0.25077200	      1.60528472	      0.01633941	      0.00000000
      0.25197763	      1.60907187	      0.01480388	      0.00000000
      0.25318327	      1.61289761	      0.01324664	      0.00000000
      0.25438890	      1.61676022	      0.01166671	      0.00000000
      0.25559454	      1.62065789	      0.01006316	      0.00000000
      0.25680017	      1.62458929	      0.00843490	      0.00000000
      0.25800581	      1.62855299	      0.00678091	      0.00000000
      0.25921144	      1.63254810	      0.00510007	      0.00000000
      0.26041708	      1.63657362	      0.00339131	      0.00000000
      0.26162271	      1.64062901	      0.00165349	      0.00000000
      0.26282835	      1.64471366	     -0.00011447	      0.00000000
      0.26403398	      1.64882717	     -0.00191391	      0.00000000
      0.26523961	      1.65296918	     -0.00374613	      0.00000000
      0.26644525	      1.65713908	     -0.00561278	      0.00000000
      0.26765088	      1.66133640	     -0.00751548	      0.00000000
      0.26885652	      1.66555990	     -0.00945610	      0.00000000
      0.27006215	      1.66980852	     -0.01143654	      0.00000000
      0.27126779	      1.67408006	     -0.01345882	      0.00000000
      0.27247342	      1.67837244	     -0.01552506	      0.00000000
      0.27367906	      1.68268254	     -0.01763708	      0.00000000
      0.27488469	      1.68700714	     -0.01979692	      0.00000000
      0.27609033	      1.69134310	     -0.02200572	      0.00000000
      0.27729596	      1.69568674	     -0.02426486	      0.00000000
      0.27850160	      1.70003678	     -0.02657417	      0.00000000
      0.27970723	      1.70439129	     -0.02893355	      0.00000000
      0.28091286	      1.70875308	     -0.03134138	      0.00000000
      0.28211850	      1.71312549	     -0.03379568	      0.00000000
      0.28332413	      1.71751435	     -0.03629488	      0.00000000
      0.28452977	      1.72192627	     -0.03883724	      0.00000000
      0.28573540	      1.72636280	     -0.04142379	      0.00000000
      0.28694104	      1.73082630	     -0.04405565	      0.00000000
      0.28814667	      1.73530919	     -0.04673682	      0.00000000
      0.28935231	      1.73980043	     -0.04947061	      0.00000000
      0.29055794	      1.74428917	     -0.05226237	      0.00000000
      0.29176358	      1.74876778	     -0.05511834	      0.00000000
      0.29296921	      1.75323159	     -0.05804044	      0.00000000
      0.29417485	      1.75767555	     -0.06103063	      0.00000000
      0.29538048	      1.76210292	     -0.06408693	      0.00000000
      0.29658611	      1.76651594	     -0.06720785	      0.00000000
      0.29779175	      1.77092169	     -0.07038970	      0.00000000
      0.29899738	      1.77532600	     -0.07362909	      0.00000000
      0.30020302	      1.77973562	     -0.07692248	      0.00000000
      0.30140865	      1.78415679	     -0.08026634	      0.00000000
      0.30261429	      1.78859464	     -0.08365830	      0.00000000
      0.30381992	      1.79305412	     -0.08709584	      0.00000000
      0.30502556	      1.79753865	     -0.09057792	      0.00000000
      0.30623119	      1.80205170	     -0.09410322	      0.00000000
      0.30743683	      1.80659592	     -0.09767147	      0.00000000
      0.30864246	      1.81117415	     -0.10128210	      0.00000000
      0.30984810	      1.81578900	     -0.10493512	      0.00000000
      0.31105373	      1.82044325	     -0.10863029	      0.00000000
      0.31225936	      1.82513921	     -0.11236778	      0.00000000
      0.31346500	      1.82987923	     -0.11614762	      0.00000000
      0.31467063	      1.83466480	     -0.11997026	      0.00000000
      0.31587627	      1.83949745	     -0.12383609	      0.00000000
      0.31708190	      1.84437785	     -0.12774580	      0.00000000
      0.31828754	      1.84930689	     -0.13170001	      0.00000000
      0.31949317	      1.85428476	     -0.13569951	      0.00000000
      0.32069881	      1.85931203	     -0.13974506	      0.00000000
      0.32190444	      1.86438842	     -0.14383747	      0.00000000
      0.32311008	      1.86951408	     -0.14797753	      0.00000000
      0.32431571	      1.87468743	     -0.15216622	      0.00000000
      0.32552135	      1.87990773	     -0.15640452	      0.00000000
      0.32672698	      1.88517180	     -0.16069373	      0.00000000
      0.32793261	      1.89047752	     -0.16503534	      0.00000000
      0.32913825	      1.89581836	     -0.16943065	      0.00000000
      0.33034388	      1.90118925	     -0.17388133	      0.00000000
      0.33154952	      1.90657905	     -0.17838786	      0.00000000
      0.33275515	      1.91197797	     -0.18295119	      0.00000000
      0.33396079	      1.91736970	     -0.18757002	      0.00000000
      0.33516642	      1.92273858	     -0.19224355	      0.00000000
      0.33637206	      1.92806544	     -0.19696822	      0.00000000
      0.33757769	      1.93333099	     -0.20174097	      0.00000000
      0.33878333	      1.93851877	     -0.20655663	      0.00000000
      0.33998896	      1.94361277	     -0.21140985	      0.00000000
      0.34119460	      1.94860381	     -0.21629562	      0.00000000
      0.34240023	      1.95348286	     -0.22120908	      0.00000000
      0.34360586	      1.95824488	     -0.22614772	      0.00000000
      0.34481150	      1.96288497	     -0.23111009	      0.00000000
      0.34601713	      1.96739559	     -0.23609477	      0.00000000
      0.34722277	      1.97177110	     -0.24110121	      0.00000000
      0.34842840	      1.97599509	     -0.24612305	      0.00000000
      0.34963404	      1.98005317	     -0.25115486	      0.00000000
      0.35083967	      1.98391499	     -0.25618137	      0.00000000
      0.35204531	      1.98755215	     -0.26118890	      0.00000000
      0.35325094	      1.99092251	     -0.26615437	      0.00000000
      0.35445658	      1.99398563	     -0.27105712	      0.00000000
      0.35566221	      1.99669364	     -0.27586848	      0.00000000
      0.35686785	      1.99899874	     -0.28056249	      0.00000000
      0.35807348	      2.00085204	     -0.28510311	      0.00000000
      0.35927911	      2.00220212	     -0.28945700	      0.00000000
      0.36048475	      2.00300452	     -0.29357626	      0.00000000
      0.36169038	      2.00320958	     -0.29741527	      0.00000000
      0.36289602	      2.00278615	     -0.30091189	      0.00000000
      0.36410165	      2.00169396	     -0.30400363	      0.00000000
      0.36530729	      1.99992847	     -0.30662006	      0.00000000
      0.36651292	      1.99746782	     -0.30868121	      0.00000000
      0.36771856	      1.99435650	     -0.31013143	      0.00000000
      0.36892419	      1.99058054	     -0.31087445	      0.00000000
      0.37012983	      1.98628801	     -0.31093311	      0.00000000
      0.37133546	      1.98129037	     -0.31010377	      0.00000000
      0.37254110	      1.97584319	     -0.30851008	      0.00000000
      0.37374673	      1.97151692	     -0.30716575	      0.00000000
      0.37495236	      1.96830824	     -0.30600952	      0.00000000
      0.37615800	      1.96487221	     -0.30404647	      0.00000000
      0.37736363	      1.96078795	     -0.30099493	      0.00000000
      0.37856927	      1.95611044	     -0.29690013	      0.00000000
      0.37977490	      1.95086309	     -0.29184062	      0.00000000
      0.38098054	      1.94503469	     -0.28586360	      0.00000000
      0.38218617	      1.93864462	     -0.27905194	      0.00000000
      0.38339181	      1.93174306	     -0.27145747	      0.00000000
      0.38459744	      1.92433990	     -0.26319199	      0.00000000
      0.38580308	      1.91636139	     -0.25444556	      0.00000000
      0.38700871	      1.90777693	     -0.24532114	      0.00000000
      0.38821435	      1.89862552	     -0.23583220	      0.00000000
      0.38941998	      1.88904360	     -0.22587664	      0.00000000
      0.39062561	      1.87914530	     -0.21542674	      0.00000000
      0.39183125	      1.86899321	     -0.20443363	      0.00000000
      0.39303688	      1.85861622	     -0.19280770	      0.00000000
      0.39424252	      1.84802867	     -0.18048452	      0.00000000
      0.39544815	      1.83726576	     -0.16740304	      0.00000000
      0.39665379	      1.82643402	     -0.15366451	      0.00000000
      0.39785942	      1.81564443	     -0.13936987	      0.00000000
      0.39906506	      1.80500978	     -0.12470961	      0.00000000
      0.40027069	      1.79463798	     -0.10985268	      0.00000000
      0.40147633	      1.78458992	     -0.09495688	      0.00000000
      0.40268196	      1.77493008	     -0.08017703	      0.00000000
      0.40388760	      1.76567544	     -0.06562113	      0.00000000
      0.40509323	      1.75685183	     -0.05140470	      0.00000000
      0.40629886	      1.74845586	     -0.03759385	      0.00000000
      0.40750450	      1.74049156	     -0.02426449	      0.00000000
      0.40871013	      1.73294733	     -0.01145262	      0.00000000
      0.40991577	      1.72581547	      0.00079687	      0.00000000
      0.41112140	      1.71907943	      0.01246782	      0.00000000
      0.41232704	      1.71272441	      0.02353731	      0.00000000
      0.41353267	      1.70673112	      0.03400255	      0.00000000
      0.41473831	      1.70108118	      0.04385604	      0.00000000
      0.41594394	      1.69575520	      0.05310450	      0.00000000
      0.41714958	      1.69073391	      0.06175138	      0.00000000
      0.41835521	      1.68599920	      0.06981023	      0.00000000
      0.41956085	      1.68153270	      0.07729244	      0.00000000
      0.42076648	      1.67731824	      0.08421616	      0.00000000
      0.42197211	      1.67333921	      0.09059825	      0.00000000
      0.42317775	      1.66958106	      0.09645903	      0.00000000
      0.42438338	      1.66602860	      0.10181814	      0.00000000
      0.42558902	      1.66266820	      0.10669602	      0.00000000
      0.42679465	      1.65948554	      0.11111272	      0.00000000
      0.42800029	      1.65646814	      0.11508803	      0.00000000
      0.42920592	      1.65360260	      0.11864138	      0.00000000
      0.43041156	      1.65087850	      0.12179234	      0.00000000
      0.43161719	      1.64828467	      0.12456049	      0.00000000
      0.43282283	      1.64581417	      0.12696639	      0.00000000
      0.43402846	      1.64346010	      0.12903150	      0.00000000
      0.43523410	      1.64121813	      0.13077674	      0.00000000
      0.43643973	      1.63908422	      0.13222382	      0.00000000
      0.43764536	      1.63705177	      0.13338976	      0.00000000
      0.43885100	      1.63511335	      0.13429118	      0.00000000
      0.44005663	      1.63325720	      0.13493935	      0.00000000
      0.44126227	      1.63147062	      0.13534586	      0.00000000
      0.44246790	      1.62974252	      0.13552130	      0.00000000
      0.44367354	      1.62806203	      0.13547745	      0.00000000
      0.44487917	      1.62642553	      0.13522759	      0.00000000
      0.44608481	      1.62482962	      0.13478503	      0.00000000
      0.44729044	      1.62327603	      0.13416368	      0.00000000
      0.44849608	      1.62176574	      0.13337753	      0.00000000
      0.44970171	      1.62029926	      0.13243907	      0.00000000
      0.45090735	      1.61887603	      0.13135895	      0.00000000
      0.45211298	      1.61749131	      0.13013895	      0.00000000
      0.45331861	      1.61614179	      0.12878815	      0.00000000
      0.45452425	      1.61482618	      0.12732453	      0.00000000
      0.45572988	      1.61354243	      0.12575953	      0.00000000
      0.45693552	      1.61228761	      0.12410095	      0.00000000
      0.45814115	      1.61105880	      0.12235751	      0.00000000
      0.45934679	      1.60985280	      0.12053631	      0.00000000
      0.46055242	      1.60866688	      0.11864654	      0.00000000
      0.46175806	      1.60749851	      0.11669616	      0.00000000
      0.46296369	      1.60634527	      0.11469283	      0.00000000
      0.46416933	      1.60520431	      0.11264157	      0.00000000
      0.46537496	      1.60407281	      0.11054737	      0.00000000
      0.46658060	      1.60294717	      0.10841419	      0.00000000
      0.46778623	      1.60182376	      0.10624675	      0.00000000
      0.46899186	      1.60069857	      0.10404977	      0.00000000
      0.47019750	      1.59956760	      0.10182820	      0.00000000
      0.47140313	      1.59842711	      0.09958635	      0.00000000
      0.47260877	      1.59727318	      0.09732863	      0.00000000
      0.47381440	      1.59610290	      0.09505839	      0.00000000
      0.47502004	      1.59491317	      0.09277916	      0.00000000
      0.47622567	      1.59370234	      0.09049343	      0.00000000
      0.47743131	      1.59246879	      0.08820388	      0.00000000
      0.47863694	      1.59121179	      0.08591253	      0.00000000
      0.47984258	      1.58993083	      0.08362164	      0.00000000
      0.48104821	      1.58862436	      0.08133295	      0.00000000
      0.48225385	      1.58728962	      0.07904821	      0.00000000
      0.48345948	      1.58592419	      0.07676869	      0.00000000
      0.48466511	      1.58452649	      0.07449637	      0.00000000
      0.48587075	      1.58309689	      0.07223191	      0.00000000
      0.48707638	      1.58163517	      0.06997554	      0.00000000
      0.48828202	      1.58014245	      0.06772634	      0.00000000
      0.48948765	      1.57861888	      0.06548321	      0.00000000
      0.49069329	      1.57706715	      0.06324621	      0.00000000
      0.49189892	      1.57548996	      0.06101567	      0.00000000
      0.49310456	      1.57389321	      0.05879406	      0.00000000
      0.49431019	      1.57228289	      0.05658373	      0.00000000
      0.49551583	      1.57066585	      0.05438805	      0.00000000
      0.49672146	      1.56904932	      0.05221044	      0.00000000
      0.49792710	      1.56743748	      0.05005331	      0.00000000
      0.49913273	      1.56583441	      0.04791903	      0.00000000
      0.50033836	      1.56423981	      0.04580773	      0.00000000
      0.50154400	      1.56265373	      0.04371963	      0.00000000
      0.50274963	      1.56107403	      0.04165347	      0.00000000
      0.50395527	      1.55949903	      0.03960811	      0.00000000
      0.50516090	      1.55792736	      0.03758251	      0.00000000
      0.50636654	      1.55635700	      0.03557535	      0.00000000
      0.50757217	      1.55478911	      0.03358720	      0.00000000
      0.50877781	      1.55322512	      0.03161880	      0.00000000
      0.50998344	      1.55167004	      0.02967297	      0.00000000
      0.51118908	      1.55012883	      0.02775250	      0.00000000
      0.51239471	      1.54860667	      0.02586021	      0.00000000
      0.51360034	      1.54710818	      0.02399859	      0.00000000
      0.51480598	      1.54563618	      0.02216892	      0.00000000
      0.51601161	      1.54419356	      0.02037253	      0.00000000
      0.51721725	      1.54278205	      0.01860996	      0.00000000
      0.51842288	      1.54140368	      0.01688193	      0.00000000
      0.51962852	      1.54006019	      0.01518905	      0.00000000
      0.52083415	      1.53875347	      0.01353200	      0.00000000
      0.52203979	      1.53748548	      0.01191166	      0.00000000
      0.52324542	      1.53625818	      0.01032887	      0.00000000
      0.52445106	      1.53507370	      0.00878471	      0.00000000
      0.52565669	      1.53393414	      0.00728022	      0.00000000
      0.52686233	      1.53284189	      0.00581666	      0.00000000
      0.52806796	      1.53179927	      0.00439527	      0.00000000
      0.52927359	      1.53080891	      0.00301743	      0.00000000
      0.53047923	      1.52987340	      0.00168455	      0.00000000
      0.53168486	      1.52899541	      0.00039802	      0.00000000
      0.53289050	      1.52817762	     -0.00084075	      0.00000000
      0.53409613	      1.52742248	     -0.00203054	      0.00000000
      0.53530177	      1.52673251	     -0.00317007	      0.00000000
      0.53650740	      1.52610978	     -0.00425842	      0.00000000
      0.53771304	      1.52555642	     -0.00529458	      0.00000000
      0.53891867	      1.52507405	     -0.00627798	      0.00000000
      0.54012431	      1.52466437	     -0.00720795	      0.00000000
      0.54132994	      1.52432859	     -0.00808420	      0.00000000
      0.54253558	      1.52406799	     -0.00890639	      0.00000000
      0.54374121	      1.52388345	     -0.00967448	      0.00000000
      0.54494684	      1.52377592	     -0.01038840	      0.00000000
      0.54615248	      1.52374603	     -0.01104831	      0.00000000
      0.54735811	      1.52379447	     -0.01165432	      0.00000000
      0.54856375	      1.52392171	     -0.01220672	      0.00000000
      0.54976938	      1.52412823	     -0.01270573	      0.00000000
      0.55097502	      1.52441437	     -0.01315171	      0.00000000
      0.55218065	      1.52478048	     -0.01354498	      0.00000000
      0.55338629	      1.52522679	     -0.01388589	      0.00000000
      0.55459192	      1.52575356	     -0.01417481	      0.00000000
      0.55579756	      1.52636088	     -0.01441207	      0.00000000
      0.55700319	      1.52704894	     -0.01459802	      0.00000000
      0.55820883	      1.52781767	     -0.01473301	      0.00000000
      0.55941446	      1.52866710	     -0.01481735	      0.00000000
      0.56062009	      1.52959693	     -0.01485146	      0.00000000
      0.56182573	      1.53060696	     -0.01483570	      0.00000000
      0.56303136	      1.53169666	     -0.01477056	      0.00000000
      0.56423700	      1.53286556	     -0.01465647	      0.00000000
      0.56544263	      1.53411300	     -0.01449423	      0.00000000
      0.56664827	      1.53543837	     -0.01428448	      0.00000000
      0.56785390	      1.53684095	     -0.01402870	      0.00000000
      0.56905954	      1.53832010	     -0.01372822	      0.00000000
      0.57026517	      1.53987497	     -0.01338533	      0.00000000
      0.57147081	      1.54150482	     -0.01300218	      0.00000000
      0.57267644	      1.54320859	     -0.01258154	      0.00000000
      0.57388208	      1.54498530	     -0.01212608	      0.00000000
      0.57508771	      1.54683364	     -0.01163900	      0.00000000
      0.57629334	      1.54875230	     -0.01112343	      0.00000000
      0.57749898	      1.55073977	     -0.01058262	      0.00000000
      0.57870461	      1.55279448	     -0.01001989	      0.00000000
      0.57991025	      1.55491504	     -0.00943794	      0.00000000
      0.58111588	      1.55709998	     -0.00883958	      0.00000000
      0.58232152	      1.55934852	     -0.00822718	      0.00000000
      0.58352715	      1.56165982	     -0.00760316	      0.00000000
      0.58473279	      1.56403399	     -0.00696955	      0.00000000
      0.58593842	      1.56647104	     -0.00632849	      0.00000000
      0.58714406	      1.56897174	     -0.00568124	      0.00000000
      0.58834969	      1.57153677	     -0.00502923	      0.00000000
      0.58955533	      1.57416714	     -0.00437317	      0.00000000
      0.59076096	      1.57686379	     -0.00371385	      0.00000000
      0.59196659	      1.57962753	     -0.00305226	      0.00000000
      0.59317223	      1.58245911	     -0.00238942	      0.00000000
      0.59437786	      1.58535890	     -0.00172681	      0.00000000
      0.59558350	      1.58832728	     -0.00106595	      0.00000000
      0.59678913	      1.59136443	     -0.00040764	      0.00000000
      0.59799477	      1.59447072	      0.00024735	      0.00000000
      0.59920040	      1.59764630	      0.00089842	      0.00000000
      0.60040604	      1.60089158	      0.00154516	      0.00000000
      0.60161167	      1.60420610	      0.00218648	      0.00000000
      0.60281731	      1.60758951	      0.00282141	      0.00000000
      0.60402294	      1.61104006	      0.00344812	      0.00000000
      0.60522858	      1.61455594	      0.00406482	      0.00000000
      0.60643421	      1.61813462	      0.00466884	      0.00000000
      0.60763984	      1.62177361	      0.00525756	      0.00000000
      0.60884548	      1.62547111	      0.00582863	      0.00000000
      0.61005111	      1.62922547	      0.00637975	      0.00000000
      0.61125675	      1.63303620	      0.00690916	      0.00000000
      0.61246238	      1.63690280	      0.00741510	      0.00000000
      0.61366802	      1.64082514	      0.00789654	      0.00000000
      0.61487365	      1.64480295	      0.00835245	      0.00000000
      0.61607929	      1.64883546	      0.00878137	      0.00000000
      0.61728492	      1.65292185	      0.00918182	      0.00000000
      0.61849056	      1.65706051	      0.00955239	      0.00000000
      0.61969619	      1.66124975	      0.00989150	      0.00000000
      0.62090183	      1.66548771	      0.01019824	      0.00000000
      0.62210746	      1.66977238	      0.01047159	      0.00000000
      0.62331309	      1.67410279	      0.01071069	      0.00000000
      0.62451873	      1.67847786	      0.01091472	      0.00000000
      0.62572436	      1.68289820	      0.01108305	      0.00000000
      0.62693000	      1.68736438	      0.01121513	      0.00000000
      0.62813563	      1.69187793	      0.01131056	      0.00000000
      0.62934127	      1.69644053	      0.01136907	      0.00000000
      0.63054690	      1.70105292	      0.01138983	      0.00000000
      0.63175254	      1.70571616	      0.01137220	      0.00000000
      0.63295817	      1.71042849	      0.01131375	      0.00000000
      0.63416381	      1.71518846	      0.01121217	      0.00000000
      0.63536944	      1.71999140	      0.01106360	      0.00000000
      0.63657508	      1.72483278	      0.01086412	      0.00000000
      0.63778071	      1.72970688	      0.01060984	      0.00000000
      0.63898634	      1.73460801	      0.01029673	      0.00000000
      0.64019198	      1.73953283	      0.00992227	      0.00000000
      0.64139761	      1.74447696	      0.00948320	      0.00000000
      0.64260325	      1.74944195	      0.00897935	      0.00000000
      0.64380888	      1.75442946	      0.00841078	      0.00000000
      0.64501452	      1.75944550	      0.00777943	      0.00000000
      0.64622015	      1.76449602	      0.00708729	      0.00000000
      0.64742579	      1.76958679	      0.00633602	      0.00000000
      0.64863142	      1.77472384	      0.00552758	      0.00000000
      0.64983706	      1.77990707	      0.00466080	      0.00000000
      0.65104269	      1.78513647	      0.00373473	      0.00000000
      0.65224833	      1.79040478	      0.00274461	      0.00000000
      0.65345396	      1.79570510	      0.00168581	      0.00000000
      0.65465959	      1.80102822	      0.00055213	      0.00000000
      0.65586523	      1.80636530	     -0.00066260	      0.00000000
      0.65707086	      1.81171143	     -0.00196297	      0.00000000
      0.65827650	      1.81706159	     -0.00335369	      0.00000000
      0.65948213	      1.82241713	     -0.00483628	      0.00000000
      0.66068777	      1.82777875	     -0.00641252	      0.00000000
      0.66189340	      1.83315162	     -0.00808173	      0.00000000
      0.66309904	      1.83854030	     -0.00984347	      0.00000000
      0.66430467	      1.84395007	     -0.01169688	      0.00000000
      0.66551031	      1.84938568	     -0.01364129	      0.00000000
      0.66671594	      1.85484998	     -0.01567706	      0.00000000
      0.66792158	      1.86034583	     -0.01780456	      0.00000000
      0.66912721	      1.86587378	     -0.02002514	      0.00000000
      0.67033284	      1.87143448	     -0.02233997	      0.00000000
      0.67153848	      1.87702753	     -0.02475052	      0.00000000
      0.67274411	      1.88265277	     -0.02725823	      0.00000000
      0.67394975	      1.88831048	     -0.02986419	      0.00000000
      0.67515538	      1.89400113	     -0.03256937	      0.00000000
      0.67636102	      1.89972575	     -0.03537407	      0.00000000
      0.67756665	      1.90548387	     -0.03827771	      0.00000000
      0.67877229	      1.91126970	     -0.04127862	      0.00000000
      0.67997792	      1.91708408	     -0.04437789	      0.00000000
      0.68118356	      1.92293341	     -0.04757887	      0.00000000
      0.68238919	      1.92881702	     -0.05088189	      0.00000000
      0.68359483	      1.93473085	     -0.05428741	      0.00000000
      0.68480046	      1.94067351	     -0.05779669	      0.00000000
      0.68600609	      1.94664219	     -0.06141188	      0.00000000
      0.68721173	      1.95263459	     -0.06513500	      0.00000000
      0.68841736	      1.95864723	     -0.06896889	      0.00000000
      0.68962300	      1.96467608	     -0.07291647	      0.00000000
      0.69082863	      1.97071812	     -0.07698117	      0.00000000
      0.69203427	      1.97677044	     -0.08116654	      0.00000000
      0.69323990	      1.98283374	     -0.08547568	      0.00000000
      0.69444554	      1.98890879	     -0.08991147	      0.00000000
      0.69565117	      1.99499929	     -0.09447606	      0.00000000
      0.69685681	      2.00110945	     -0.09917140	      0.00000000
      0.69806244	      2.00724303	     -0.10399959	      0.00000000
      0.69926808	      2.01340507	     -0.10896340	      0.00000000
      0.70047371	      2.01959293	     -0.11406689	      0.00000000
      0.70167934	      2.02580463	     -0.11931582	      0.00000000
      0.70288498	      2.03202969	     -0.12471171	      0.00000000
      0.70409061	      2.03826489	     -0.13025618	      0.00000000
      0.70529625	      2.04448842	     -0.13594192	      0.00000000
      0.70650188	      2.05068081	     -0.14176402	      0.00000000
      0.70770752	      2.05679848	     -0.14770855	      0.00000000
      0.70891315	      2.06279719	     -0.15376264	      0.00000000
      0.71011879	      2.06861940	     -0.15990575	      0.00000000
      0.71132442	      2.07421285	     -0.16611994	      0.00000000
      0.71253006	      2.07953651	     -0.17238460	      0.00000000
      0.71373569	      2.08457420	     -0.17869121	      0.00000000
      0.71494133	      2.08926930	     -0.18500750	      0.00000000
      0.71614696	      2.09355821	     -0.19130285	      0.00000000
      0.71735259	      2.09726098	     -0.19748316	      0.00000000
      0.71855823	      2.10018546	     -0.20345288	      0.00000000
      0.71976386	      2.10214376	     -0.20909526	      0.00000000
      0.72096950	      2.10303966	     -0.21434027	      0.00000000
      0.72217513	      2.10273634	     -0.21907182	      0.00000000
      0.72338077	      2.10163821	     -0.22342122	      0.00000000
