PointAcceleration
version=1
nRows=601
nColumns=4
inDegrees=no
No description.
endheader
time	state_0	state_1	state_2
      0.00000000	      0.49418419	     -6.97270324	      0.00000000
      0.00193664	      0.44410314	     -6.94575614	      0.00000000
      0.00387329	      0.36846212	     -6.91471692	      0.00000000
      0.00580993	      0.25125300	     -6.87394145	      0.00000000
      0.00774657	      0.07454192	     -6.81183735	      0.00000000
      0.00968321	     -0.18907300	     -6.70977243	      0.00000000
      0.01161986	     -0.57760829	     -6.54106032	      0.00000000
      0.01355650	     -1.14135141	     -6.26624576	      0.00000000
      0.01549314	     -1.94616600	     -5.83171821	      0.00000000
      0.01742979	     -3.06219838	     -5.17293526	      0.00000000
      0.01936643	     -4.55706362	     -4.21452118	      0.00000000
      0.02130307	     -6.44591805	     -2.90675274	      0.00000000
      0.02323971	     -8.63354533	     -1.24576218	      0.00000000
      0.02517636	     -9.63118331	     -0.07678987	      0.00000000
      0.02711300	     -7.95001412	     -0.42932284	      0.00000000
      0.02904964	    -11.12850010	      1.98619646	      0.00000000
      0.03098628	    -12.70777055	      3.54843847	      0.00000000
      0.03292293	    -14.42094686	      5.20705046	      0.00000000
      0.03485957	    -15.97797723	      6.76641522	      0.00000000
      0.03679621	    -17.17620254	      8.07960210	      0.00000000
      0.03873286	    -18.22218756	      9.24667654	      0.00000000
      0.04066950	    -18.92656973	     10.13376798	      0.00000000
      0.04260614	    -19.44880030	     10.79721209	      0.00000000
      0.04454278	    -19.75365756	     11.17784144	      0.00000000
      0.04647943	    -19.85617469	     11.51922585	      0.00000000
      0.04841607	    -19.73581830	     11.79794772	      0.00000000
      0.05035271	    -19.51578941	     11.92586726	      0.00000000
      0.05228936	    -19.20125741	     11.91865197	      0.00000000
      0.05422600	    -18.82705506	     11.81020866	      0.00000000
      0.05616264	    -18.39484170	     11.61210181	      0.00000000
      0.05809928	    -17.92013481	     11.34253686	      0.00000000
      0.06003593	    -17.40413933	     11.00683712	      0.00000000
      0.06197257	    -16.85417047	     10.61374137	      0.00000000
      0.06390921	    -16.27470850	     10.16967709	      0.00000000
      0.06584586	    -15.67273301	      9.68271258	      0.00000000
      0.06778250	    -15.05604357	      9.16268431	      0.00000000
      0.06971914	    -14.43322136	      8.61972888	      0.00000000
      0.07165578	    -13.81205092	      8.06401884	      0.00000000
      0.07359243	    -13.20024137	      7.50521699	      0.00000000
      0.07552907	    -12.60305448	      6.95076397	      0.00000000
      0.07746571	    -12.02550830	      6.40752120	      0.00000000
      0.07940236	    -11.47002266	      5.87954293	      0.00000000
      0.08133900	    -10.93875784	      5.37046813	      0.00000000
      0.08327564	    -10.43209108	      4.88178650	      0.00000000
      0.08521228	     -9.95007097	      4.41464289	      0.00000000
      0.08714893	     -9.49208067	      3.96911542	      0.00000000
      0.08908557	     -9.05713093	      3.54494048	      0.00000000
      0.09102221	     -8.64439449	      3.14167641	      0.00000000
      0.09295885	     -8.25268462	      2.75852183	      0.00000000
      0.09489550	     -7.88131638	      2.39502691	      0.00000000
      0.09683214	     -7.52927740	      2.05038046	      0.00000000
      0.09876878	     -7.19601457	      1.72437536	      0.00000000
      0.10070543	     -6.88072261	      1.41654081	      0.00000000
      0.10264207	     -6.58282287	      1.12696214	      0.00000000
      0.10457871	     -6.30155353	      0.85525882	      0.00000000
      0.10651535	     -6.03608421	      0.60124891	      0.00000000
      0.10845200	     -5.78541944	      0.36488268	      0.00000000
      0.11038864	     -5.54853137	      0.14600020	      0.00000000
      0.11232528	     -5.32438141	     -0.05567890	      0.00000000
      0.11426193	     -5.11211040	     -0.24091123	      0.00000000
      0.11619857	     -4.91085354	     -0.41052985	      0.00000000
      0.11813521	     -4.71990226	     -0.56564278	      0.00000000
      0.12007185	     -4.53854716	     -0.70738436	      0.00000000
      0.12200850	     -4.36621017	     -0.83686932	      0.00000000
      0.12394514	     -4.20231619	     -0.95521738	      0.00000000
      0.12588178	     -4.04640090	     -1.06337606	      0.00000000
      0.12781843	     -3.89800874	     -1.16230352	      0.00000000
      0.12975507	     -3.75677752	     -1.25279681	      0.00000000
      0.13169171	     -3.62236124	     -1.33570092	      0.00000000
      0.13362835	     -3.49446903	     -1.41168959	      0.00000000
      0.13556500	     -3.37283467	     -1.48155528	      0.00000000
      0.13750164	     -3.25719305	     -1.54561392	      0.00000000
      0.13943828	     -3.14727009	     -1.60415550	      0.00000000
      0.14137493	     -3.04279782	     -1.65686725	      0.00000000
      0.14331157	     -2.94348488	     -1.70331117	      0.00000000
      0.14524821	     -2.84917981	     -1.74300461	      0.00000000
      0.14718485	     -2.75975337	     -1.77552294	      0.00000000
      0.14912150	     -2.67527700	     -1.80081554	      0.00000000
      0.15105814	     -2.59584603	     -1.81879362	      0.00000000
      0.15299478	     -2.52157841	     -1.82970851	      0.00000000
      0.15493142	     -2.45262621	     -1.83372830	      0.00000000
      0.15686807	     -2.38893625	     -1.83128335	      0.00000000
      0.15880471	     -2.33051103	     -1.82275883	      0.00000000
      0.16074135	     -2.27705923	     -1.80877243	      0.00000000
      0.16267800	     -2.22834166	     -1.78998098	      0.00000000
      0.16461464	     -2.18392610	     -1.76706665	      0.00000000
      0.16655128	     -2.14339916	     -1.74068938	      0.00000000
      0.16848792	     -2.10630067	     -1.71142361	      0.00000000
      0.17042457	     -2.07213648	     -1.67986941	      0.00000000
      0.17236121	     -2.04045379	     -1.64665286	      0.00000000
      0.17429785	     -2.01076459	     -1.61266056	      0.00000000
      0.17623450	     -1.98268159	     -1.57831222	      0.00000000
      0.17817114	     -1.95578210	     -1.54391337	      0.00000000
      0.18010778	     -1.92975453	     -1.50913852	      0.00000000
      0.18204442	     -1.90424642	     -1.47344470	      0.00000000
      0.18398107	     -1.87909618	     -1.43661590	      0.00000000
      0.18591771	     -1.85417619	     -1.39851271	      0.00000000
      0.18785435	     -1.82962145	     -1.35989989	      0.00000000
      0.18979100	     -1.80560963	     -1.32154198	      0.00000000
      0.19172764	     -1.78249325	     -1.28474774	      0.00000000
      0.19366428	     -1.76069215	     -1.25096243	      0.00000000
      0.19560092	     -1.74071073	     -1.22133989	      0.00000000
      0.19753757	     -1.72309599	     -1.19725648	      0.00000000
      0.19947421	     -1.70835326	     -1.17912120	      0.00000000
      0.20141085	     -1.69694274	     -1.16742559	      0.00000000
      0.20334750	     -1.68929060	     -1.16194276	      0.00000000
      0.20528414	     -1.68585358	     -1.16239105	      0.00000000
      0.20722078	     -1.68706029	     -1.16906927	      0.00000000
      0.20915742	     -1.69338565	     -1.18259472	      0.00000000
      0.21109407	     -1.70538919	     -1.20470533	      0.00000000
      0.21303071	     -1.72397241	     -1.23774574	      0.00000000
      0.21496735	     -1.75041096	     -1.28388945	      0.00000000
      0.21690399	     -1.78673777	     -1.34500149	      0.00000000
      0.21884064	     -1.83592470	     -1.42115783	      0.00000000
      0.22077728	     -1.90159194	     -1.50796180	      0.00000000
      0.22271392	     -1.98826232	     -1.60166221	      0.00000000
      0.22465057	     -2.10152721	     -1.70619220	      0.00000000
      0.22658721	     -2.24029318	     -1.81675755	      0.00000000
      0.22852385	     -2.38562039	     -1.92367349	      0.00000000
      0.23046049	     -2.50714964	     -2.01818522	      0.00000000
      0.23239714	     -2.57243501	     -2.09206629	      0.00000000
      0.23433378	     -2.57164793	     -2.14184643	      0.00000000
      0.23627042	     -2.51356309	     -2.16270634	      0.00000000
      0.23820707	     -2.37667782	     -2.15883912	      0.00000000
      0.24014371	     -2.24942838	     -2.12561953	      0.00000000
      0.24208035	     -2.18506682	     -2.07683839	      0.00000000
      0.24401699	     -2.15300527	     -2.03194999	      0.00000000
      0.24595364	     -2.14737910	     -1.98714308	      0.00000000
      0.24789028	     -2.15962167	     -1.94023816	      0.00000000
      0.24982692	     -2.18307307	     -1.88922076	      0.00000000
      0.25176357	     -2.21374066	     -1.82872735	      0.00000000
      0.25370021	     -2.24713243	     -1.76045158	      0.00000000
      0.25563685	     -2.27979343	     -1.68452129	      0.00000000
      0.25757349	     -2.30913603	     -1.60238067	      0.00000000
      0.25951014	     -2.33252066	     -1.51564367	      0.00000000
      0.26144678	     -2.34815085	     -1.42591782	      0.00000000
      0.26338342	     -2.35425195	     -1.33497656	      0.00000000
      0.26532006	     -2.35008744	     -1.24377761	      0.00000000
      0.26725671	     -2.33494741	     -1.15345425	      0.00000000
      0.26919335	     -2.30906045	     -1.06421639	      0.00000000
      0.27112999	     -2.27261622	     -0.97652241	      0.00000000
      0.27306664	     -2.22649761	     -0.89004102	      0.00000000
      0.27500328	     -2.17124341	     -0.80516443	      0.00000000
      0.27693992	     -2.10762628	     -0.72066354	      0.00000000
      0.27887656	     -2.03708012	     -0.63629591	      0.00000000
      0.28081321	     -1.96440402	     -0.54571891	      0.00000000
      0.28274985	     -1.89842649	     -0.43430129	      0.00000000
      0.28468649	     -1.84047058	     -0.30090625	      0.00000000
      0.28662314	     -1.78569684	     -0.15494953	      0.00000000
      0.28855978	     -1.72791848	     -0.00982541	      0.00000000
      0.29049642	     -1.66544727	      0.12780532	      0.00000000
      0.29243306	     -1.59766450	      0.25577119	      0.00000000
      0.29436971	     -1.51949864	      0.36486192	      0.00000000
      0.29630635	     -1.43162656	      0.45575624	      0.00000000
      0.29824299	     -1.33621944	      0.53127631	      0.00000000
      0.30017964	     -1.23559819	      0.59496698	      0.00000000
      0.30211628	     -1.13149807	      0.64968732	      0.00000000
      0.30405292	     -1.02499369	      0.69721261	      0.00000000
      0.30598956	     -0.91725066	      0.73941856	      0.00000000
      0.30792621	     -0.80875384	      0.77698371	      0.00000000
      0.30986285	     -0.70011881	      0.81089707	      0.00000000
      0.31179949	     -0.59151646	      0.84141427	      0.00000000
      0.31373614	     -0.48319759	      0.86903029	      0.00000000
      0.31567278	     -0.37521668	      0.89392203	      0.00000000
      0.31760942	     -0.26763854	      0.91639499	      0.00000000
      0.31954606	     -0.16050231	      0.93668353	      0.00000000
      0.32148271	     -0.05383046	      0.95510322	      0.00000000
      0.32341935	      0.05230795	      0.97200251	      0.00000000
      0.32535599	      0.15785876	      0.98780000	      0.00000000
      0.32729263	      0.26273608	      1.00290816	      0.00000000
      0.32922928	      0.36687058	      1.01779227	      0.00000000
      0.33116592	      0.47020297	      1.03282925	      0.00000000
      0.33310256	      0.57268159	      1.04845243	      0.00000000
      0.33503921	      0.67428134	      1.06495946	      0.00000000
      0.33697585	      0.77497847	      1.08270135	      0.00000000
      0.33891249	      0.87476717	      1.10187968	      0.00000000
      0.34084913	      0.97363978	      1.12273735	      0.00000000
      0.34278578	      1.07158510	      1.14537450	      0.00000000
      0.34472242	      1.16858435	      1.16991729	      0.00000000
      0.34665906	      1.26459467	      1.19636259	      0.00000000
      0.34859571	      1.35956049	      1.22471462	      0.00000000
      0.35053235	      1.45338872	      1.25485885	      0.00000000
      0.35246899	      1.54597095	      1.28666780	      0.00000000
      0.35440563	      1.63714898	      1.31990251	      0.00000000
      0.35634228	      1.72674833	      1.35428764	      0.00000000
      0.35827892	      1.81453458	      1.38944953	      0.00000000
      0.36021556	      1.90025916	      1.42495373	      0.00000000
      0.36215221	      1.98361826	      1.46030094	      0.00000000
      0.36408885	      2.06430072	      1.49491200	      0.00000000
      0.36602549	      2.14196753	      1.52820471	      0.00000000
      0.36796213	      2.21628088	      1.55950881	      0.00000000
      0.36989878	      2.28691967	      1.58823333	      0.00000000
      0.37183542	      2.35357770	      1.61370053	      0.00000000
      0.37377206	      2.41599987	      1.63539627	      0.00000000
      0.37570871	      2.47395478	      1.65273658	      0.00000000
      0.37764535	      2.52726628	      1.66535988	      0.00000000
      0.37958199	      2.57577380	      1.67286599	      0.00000000
      0.38151863	      2.61938030	      1.67506899	      0.00000000
      0.38345528	      2.65800757	      1.67176544	      0.00000000
      0.38539192	      2.69165805	      1.66288819	      0.00000000
      0.38732856	      2.72033620	      1.64838737	      0.00000000
      0.38926520	      2.74417967	      1.62824206	      0.00000000
      0.39120185	      2.76333751	      1.60246088	      0.00000000
      0.39313849	      2.77814779	      1.57100589	      0.00000000
      0.39507513	      2.78898258	      1.53386668	      0.00000000
      0.39701178	      2.79635009	      1.49096689	      0.00000000
      0.39894842	      2.80080466	      1.44225541	      0.00000000
      0.40088506	      2.80291414	      1.38769002	      0.00000000
      0.40282170	      2.80329828	      1.32724169	      0.00000000
      0.40475835	      2.80250258	      1.26097847	      0.00000000
      0.40669499	      2.80113194	      1.18896243	      0.00000000
      0.40863163	      2.79968693	      1.11134545	      0.00000000
      0.41056828	      2.79873584	      1.02825870	      0.00000000
      0.41250492	      2.79877138	      0.93989000	      0.00000000
      0.41444156	      2.80035629	      0.84639262	      0.00000000
      0.41637820	      2.80403512	      0.74796412	      0.00000000
      0.41831485	      2.81041754	      0.64474764	      0.00000000
      0.42025149	      2.82016137	      0.53693590	      0.00000000
      0.42218813	      2.83398145	      0.42464016	      0.00000000
      0.42412478	      2.85272341	      0.30806076	      0.00000000
      0.42606142	      2.87726225	      0.18729454	      0.00000000
      0.42799806	      2.90873200	      0.06254671	      0.00000000
      0.42993470	      2.94825198	     -0.06607907	      0.00000000
      0.43187135	      2.99743557	     -0.19851135	      0.00000000
      0.43380799	      3.05787180	     -0.33476630	      0.00000000
      0.43574463	      3.13230648	     -0.47541797	      0.00000000
      0.43768127	      3.22490134	     -0.62194196	      0.00000000
      0.43961792	      3.33956769	     -0.77565651	      0.00000000
      0.44155456	      3.48166829	     -0.93879187	      0.00000000
      0.44349120	      3.65071430	     -1.11058479	      0.00000000
      0.44542785	      3.83536103	     -1.28494005	      0.00000000
      0.44736449	      4.01393938	     -1.45577679	      0.00000000
      0.44930113	      4.20108749	     -1.62498222	      0.00000000
      0.45123777	      4.39121459	     -1.79289365	      0.00000000
      0.45317442	      4.58233939	     -1.96026227	      0.00000000
      0.45511106	      4.76725018	     -2.12597763	      0.00000000
      0.45704770	      4.93593605	     -2.28787782	      0.00000000
      0.45898435	      5.06639775	     -2.43903294	      0.00000000
      0.46092099	      5.11906867	     -2.56540755	      0.00000000
      0.46285763	      5.02013552	     -2.64472391	      0.00000000
      0.46479427	      4.68345658	     -2.64507151	      0.00000000
      0.46673092	      4.12219818	     -2.54963795	      0.00000000
      0.46866756	      3.38275199	     -2.35333753	      0.00000000
      0.47060420	      2.02337234	     -1.94040099	      0.00000000
      0.47254085	     -0.02554426	     -1.24245007	      0.00000000
      0.47447749	     -1.98772199	     -0.45380653	      0.00000000
      0.47641413	     -3.43806422	      0.24014651	      0.00000000
      0.47835077	     -4.49610844	      0.78839429	      0.00000000
      0.48028742	     -5.36838605	      1.22601425	      0.00000000
      0.48222406	     -6.01817725	      1.54721707	      0.00000000
      0.48416070	     -6.64167629	      1.82372370	      0.00000000
      0.48609735	     -5.14211841	      1.72381863	      0.00000000
      0.48803399	     -6.24104351	      2.01201495	      0.00000000
      0.48997063	     -7.05350818	      2.15125324	      0.00000000
      0.49190727	     -7.83700023	      2.23705989	      0.00000000
      0.49384392	     -8.73162641	      2.30637400	      0.00000000
      0.49578056	     -9.45907767	      2.31181569	      0.00000000
      0.49771720	    -10.20196594	      2.29095049	      0.00000000
      0.49965384	    -10.83233248	      2.22247368	      0.00000000
      0.50159049	    -11.43074830	      2.12582714	      0.00000000
      0.50352713	    -11.95727164	      1.99822087	      0.00000000
      0.50546377	    -12.44317169	      1.85060725	      0.00000000
      0.50740042	    -12.87868576	      1.68713312	      0.00000000
      0.50933706	    -13.27222602	      1.51388449	      0.00000000
      0.51127370	    -13.61844835	      1.33412989	      0.00000000
      0.51321034	    -13.91729625	      1.14878737	      0.00000000
      0.51514699	    -14.16652409	      0.95425671	      0.00000000
      0.51708363	    -14.36633437	      0.74860494	      0.00000000
      0.51902027	    -14.46309139	      0.60090393	      0.00000000
      0.52095692	    -14.39564723	      0.58670092	      0.00000000
      0.52289356	    -14.25888744	      0.56275744	      0.00000000
      0.52483020	    -14.08328522	      0.49788176	      0.00000000
      0.52676684	    -13.86852597	      0.40271442	      0.00000000
      0.52870349	    -13.62066002	      0.28398261	      0.00000000
      0.53064013	    -13.34728042	      0.14686046	      0.00000000
      0.53257677	    -13.05514907	     -0.00455221	      0.00000000
      0.53451342	    -12.75155924	     -0.16549948	      0.00000000
      0.53645006	    -12.44205440	     -0.33223717	      0.00000000
      0.53838670	    -12.13226378	     -0.50077446	      0.00000000
      0.54032334	    -11.82578334	     -0.66836592	      0.00000000
      0.54225999	    -11.52622728	     -0.83217057	      0.00000000
      0.54419663	    -11.23545360	     -0.99047177	      0.00000000
      0.54613327	    -10.95526489	     -1.14157841	      0.00000000
      0.54806992	    -10.68621646	     -1.28463149	      0.00000000
      0.55000656	    -10.42876925	     -1.41886694	      0.00000000
      0.55194320	    -10.18265378	     -1.54403926	      0.00000000
      0.55387984	     -9.94750091	     -1.66002405	      0.00000000
      0.55581649	     -9.72266349	     -1.76697246	      0.00000000
      0.55775313	     -9.50767341	     -1.86520498	      0.00000000
      0.55968977	     -9.30180336	     -1.95511523	      0.00000000
      0.56162641	     -9.10420397	     -2.03721378	      0.00000000
      0.56356306	     -8.91415119	     -2.11197220	      0.00000000
      0.56549970	     -8.73084112	     -2.17997197	      0.00000000
      0.56743634	     -8.55367203	     -2.24169357	      0.00000000
      0.56937299	     -8.38196311	     -2.29771511	      0.00000000
      0.57130963	     -8.21526579	     -2.34847875	      0.00000000
      0.57324627	     -8.05303850	     -2.39451887	      0.00000000
      0.57518291	     -7.89500102	     -2.43619570	      0.00000000
      0.57711956	     -7.74080534	     -2.47392869	      0.00000000
      0.57905620	     -7.59035142	     -2.50796209	      0.00000000
      0.58099284	     -7.44347477	     -2.53858793	      0.00000000
      0.58292949	     -7.30014872	     -2.56599820	      0.00000000
      0.58486613	     -7.16029991	     -2.59041737	      0.00000000
      0.58680277	     -7.02383055	     -2.61209103	      0.00000000
      0.58873941	     -6.89064505	     -2.63124855	      0.00000000
      0.59067606	     -6.76068422	     -2.64827565	      0.00000000
      0.59261270	     -6.63442927	     -2.66344548	      0.00000000
      0.59454934	     -6.51023808	     -2.67757844	      0.00000000
      0.59648599	     -6.38764590	     -2.69130406	      0.00000000
      0.59842263	     -6.26577618	     -2.70554202	      0.00000000
      0.60035927	     -6.14387002	     -2.72116816	      0.00000000
      0.60229591	     -6.02091867	     -2.73918933	      0.00000000
      0.60423256	     -5.89603617	     -2.76054746	      0.00000000
      0.60616920	     -5.76838097	     -2.78607641	      0.00000000
      0.60810584	     -5.63712889	     -2.81659873	      0.00000000
      0.61004249	     -5.50191088	     -2.85256127	      0.00000000
      0.61197913	     -5.36238445	     -2.89439570	      0.00000000
      0.61391577	     -5.21893025	     -2.94202366	      0.00000000
      0.61585241	     -5.07192904	     -2.99538843	      0.00000000
      0.61778906	     -4.92238667	     -3.05398750	      0.00000000
      0.61972570	     -4.77111367	     -3.11743244	      0.00000000
      0.62166234	     -4.61912825	     -3.18511016	      0.00000000
      0.62359898	     -4.46738419	     -3.25638254	      0.00000000
      0.62553563	     -4.31676293	     -3.33058493	      0.00000000
      0.62747227	     -4.16811229	     -3.40688972	      0.00000000
      0.62940891	     -4.02139259	     -3.48507868	      0.00000000
      0.63134556	     -3.87417187	     -3.56557807	      0.00000000
      0.63328220	     -3.72898778	     -3.64816707	      0.00000000
      0.63521884	     -3.58611367	     -3.73341131	      0.00000000
      0.63715548	     -3.44561576	     -3.82201116	      0.00000000
      0.63909213	     -3.30766415	     -3.91460061	      0.00000000
      0.64102877	     -3.17235659	     -4.01130691	      0.00000000
      0.64296541	     -3.03980430	     -4.11225977	      0.00000000
      0.64490206	     -2.91041866	     -4.21696965	      0.00000000
      0.64683870	     -2.78457020	     -4.32495400	      0.00000000
      0.64877534	     -2.66286985	     -4.43543348	      0.00000000
      0.65071198	     -2.54577983	     -4.54768938	      0.00000000
      0.65264863	     -2.43368286	     -4.66103653	      0.00000000
      0.65458527	     -2.32679160	     -4.77481917	      0.00000000
      0.65652191	     -2.22505708	     -4.88861711	      0.00000000
      0.65845856	     -2.12834452	     -5.00197241	      0.00000000
      0.66039520	     -2.03639581	     -5.11476066	      0.00000000
      0.66233184	     -1.94899272	     -5.22685224	      0.00000000
      0.66426848	     -1.86595745	     -5.33837241	      0.00000000
      0.66620513	     -1.78716154	     -5.44943412	      0.00000000
      0.66814177	     -1.71246891	     -5.56020269	      0.00000000
      0.67007841	     -1.64176429	     -5.67082324	      0.00000000
      0.67201505	     -1.57486335	     -5.78135524	      0.00000000
      0.67395170	     -1.51159596	     -5.89185748	      0.00000000
      0.67588834	     -1.45175632	     -6.00226748	      0.00000000
      0.67782498	     -1.39513926	     -6.11253096	      0.00000000
      0.67976163	     -1.34156044	     -6.22249983	      0.00000000
      0.68169827	     -1.29081991	     -6.33203576	      0.00000000
      0.68363491	     -1.24276094	     -6.44095963	      0.00000000
      0.68557155	     -1.19721814	     -6.54910692	      0.00000000
      0.68750820	     -1.15406076	     -6.65630080	      0.00000000
      0.68944484	     -1.11314959	     -6.76237897	      0.00000000
      0.69138148	     -1.07435431	     -6.86715723	      0.00000000
      0.69331813	     -1.03753209	     -6.97045503	      0.00000000
      0.69525477	     -1.00253937	     -7.07206849	      0.00000000
      0.69719141	     -0.96921787	     -7.17177954	      0.00000000
      0.69912805	     -0.93744686	     -7.26941134	      0.00000000
      0.70106470	     -0.90710512	     -7.36479088	      0.00000000
      0.70300134	     -0.87814181	     -7.45786457	      0.00000000
      0.70493798	     -0.85052706	     -7.54859656	      0.00000000
      0.70687463	     -0.82426077	     -7.63703135	      0.00000000
      0.70881127	     -0.79935677	     -7.72321034	      0.00000000
      0.71074791	     -0.77579340	     -7.80715922	      0.00000000
      0.71268455	     -0.75355654	     -7.88889959	      0.00000000
      0.71462120	     -0.73258967	     -7.96840984	      0.00000000
      0.71655784	     -0.71284716	     -8.04567660	      0.00000000
      0.71849448	     -0.69427586	     -8.12067431	      0.00000000
      0.72043113	     -0.67683577	     -8.19339110	      0.00000000
      0.72236777	     -0.66049753	     -8.26382433	      0.00000000
      0.72430441	     -0.64524227	     -8.33197790	      0.00000000
      0.72624105	     -0.63105205	     -8.39785637	      0.00000000
      0.72817770	     -0.61791760	     -8.46146383	      0.00000000
      0.73011434	     -0.60581746	     -8.52279132	      0.00000000
      0.73205098	     -0.59474059	     -8.58182553	      0.00000000
      0.73398762	     -0.58466192	     -8.63853544	      0.00000000
      0.73592427	     -0.57556948	     -8.69287992	      0.00000000
      0.73786091	     -0.56744383	     -8.74480134	      0.00000000
      0.73979755	     -0.56028013	     -8.79422433	      0.00000000
      0.74173420	     -0.55407349	     -8.84105902	      0.00000000
      0.74367084	     -0.54883191	     -8.88519421	      0.00000000
      0.74560748	     -0.54456753	     -8.92650930	      0.00000000
      0.74754412	     -0.54129686	     -8.96487237	      0.00000000
      0.74948077	     -0.53904025	     -9.00015918	      0.00000000
      0.75141741	     -0.53780322	     -9.03226747	      0.00000000
      0.75335405	     -0.53758943	     -9.06113857	      0.00000000
      0.75529070	     -0.53836031	     -9.08678873	      0.00000000
      0.75722734	     -0.54006767	     -9.10932009	      0.00000000
      0.75916398	     -0.54260375	     -9.12894688	      0.00000000
      0.76110062	     -0.54585193	     -9.14597496	      0.00000000
      0.76303727	     -0.54965296	     -9.16079136	      0.00000000
      0.76497391	     -0.55385349	     -9.17381305	      0.00000000
      0.76691055	     -0.55830327	     -9.18544535	      0.00000000
      0.76884720	     -0.56287213	     -9.19604230	      0.00000000
      0.77078384	     -0.56746785	     -9.20587571	      0.00000000
      0.77272048	     -0.57201665	     -9.21513852	      0.00000000
      0.77465712	     -0.57648497	     -9.22394116	      0.00000000
      0.77659377	     -0.58084667	     -9.23234066	      0.00000000
      0.77853041	     -0.58509936	     -9.24034909	      0.00000000
      0.78046705	     -0.58923986	     -9.24796008	      0.00000000
      0.78240370	     -0.59327274	     -9.25515558	      0.00000000
      0.78434034	     -0.59719930	     -9.26191950	      0.00000000
      0.78627698	     -0.60102021	     -9.26823990	      0.00000000
      0.78821362	     -0.60473363	     -9.27411304	      0.00000000
      0.79015027	     -0.60833493	     -9.27954258	      0.00000000
      0.79208691	     -0.61181843	     -9.28453975	      0.00000000
      0.79402355	     -0.61517644	     -9.28912115	      0.00000000
      0.79596019	     -0.61840110	     -9.29330818	      0.00000000
      0.79789684	     -0.62148401	     -9.29712465	      0.00000000
      0.79983348	     -0.62441688	     -9.30059625	      0.00000000
      0.80177012	     -0.62719195	     -9.30374877	      0.00000000
      0.80370677	     -0.62980166	     -9.30660768	      0.00000000
      0.80564341	     -0.63223972	     -9.30919717	      0.00000000
      0.80758005	     -0.63450004	     -9.31153984	      0.00000000
      0.80951669	     -0.63657818	     -9.31365645	      0.00000000
      0.81145334	     -0.63846984	     -9.31556576	      0.00000000
      0.81338998	     -0.64017235	     -9.31728466	      0.00000000
      0.81532662	     -0.64168307	     -9.31882826	      0.00000000
      0.81726327	     -0.64300079	     -9.32020995	      0.00000000
      0.81919991	     -0.64412419	     -9.32144165	      0.00000000
      0.82113655	     -0.64505315	     -9.32253386	      0.00000000
      0.82307319	     -0.64578745	     -9.32349570	      0.00000000
      0.82500984	     -0.64632781	     -9.32433519	      0.00000000
      0.82694648	     -0.64667496	     -9.32505899	      0.00000000
      0.82888312	     -0.64683035	     -9.32567294	      0.00000000
      0.83081977	     -0.64679553	     -9.32618165	      0.00000000
      0.83275641	     -0.64657258	     -9.32658913	      0.00000000
      0.83469305	     -0.64616373	     -9.32689839	      0.00000000
      0.83662969	     -0.64557160	     -9.32711205	      0.00000000
      0.83856634	     -0.64479891	     -9.32723200	      0.00000000
      0.84050298	     -0.64384867	     -9.32725983	      0.00000000
      0.84243962	     -0.64272391	     -9.32719670	      0.00000000
      0.84437626	     -0.64142785	     -9.32704354	      0.00000000
      0.84631291	     -0.63996367	     -9.32680101	      0.00000000
      0.84824955	     -0.63833467	     -9.32646962	      0.00000000
      0.85018619	     -0.63654413	     -9.32604977	      0.00000000
      0.85212284	     -0.63459544	     -9.32554173	      0.00000000
      0.85405948	     -0.63249201	     -9.32494577	      0.00000000
      0.85599612	     -0.63023735	     -9.32426208	      0.00000000
      0.85793276	     -0.62783497	     -9.32349092	      0.00000000
      0.85986941	     -0.62528840	     -9.32263256	      0.00000000
      0.86180605	     -0.62260129	     -9.32168736	      0.00000000
      0.86374269	     -0.61977718	     -9.32065577	      0.00000000
      0.86567934	     -0.61682005	     -9.31953828	      0.00000000
      0.86761598	     -0.61373384	     -9.31833545	      0.00000000
      0.86955262	     -0.61052310	     -9.31704778	      0.00000000
      0.87148926	     -0.60719239	     -9.31567587	      0.00000000
      0.87342591	     -0.60374685	     -9.31422018	      0.00000000
      0.87536255	     -0.60019155	     -9.31268126	      0.00000000
      0.87729919	     -0.59653207	     -9.31105968	      0.00000000
      0.87923584	     -0.59277388	     -9.30935608	      0.00000000
      0.88117248	     -0.58892284	     -9.30757134	      0.00000000
      0.88310912	     -0.58498465	     -9.30570649	      0.00000000
      0.88504576	     -0.58096540	     -9.30376278	      0.00000000
      0.88698241	     -0.57687101	     -9.30174161	      0.00000000
      0.88891905	     -0.57270809	     -9.29964428	      0.00000000
      0.89085569	     -0.56848306	     -9.29747223	      0.00000000
      0.89279234	     -0.56420325	     -9.29522671	      0.00000000
      0.89472898	     -0.55987568	     -9.29290912	      0.00000000
      0.89666562	     -0.55550827	     -9.29052070	      0.00000000
      0.89860226	     -0.55110871	     -9.28806286	      0.00000000
      0.90053891	     -0.54668546	     -9.28553687	      0.00000000
      0.90247555	     -0.54224674	     -9.28294415	      0.00000000
      0.90441219	     -0.53780142	     -9.28028598	      0.00000000
      0.90634883	     -0.53335810	     -9.27756376	      0.00000000
      0.90828548	     -0.52892580	     -9.27477880	      0.00000000
      0.91022212	     -0.52451335	     -9.27193255	      0.00000000
      0.91215876	     -0.52012996	     -9.26902649	      0.00000000
      0.91409541	     -0.51578412	     -9.26606198	      0.00000000
      0.91603205	     -0.51148467	     -9.26304025	      0.00000000
      0.91796869	     -0.50724016	     -9.25996257	      0.00000000
      0.91990533	     -0.50305960	     -9.25683006	      0.00000000
      0.92184198	     -0.49895170	     -9.25364387	      0.00000000
      0.92377862	     -0.49492531	     -9.25040501	      0.00000000
      0.92571526	     -0.49098897	     -9.24711449	      0.00000000
      0.92765191	     -0.48715072	     -9.24377301	      0.00000000
      0.92958855	     -0.48341804	     -9.24038130	      0.00000000
      0.93152519	     -0.47979792	     -9.23693981	      0.00000000
      0.93346183	     -0.47629688	     -9.23344900	      0.00000000
      0.93539848	     -0.47292124	     -9.22990906	      0.00000000
      0.93733512	     -0.46967713	     -9.22632011	      0.00000000
      0.93927176	     -0.46656993	     -9.22268171	      0.00000000
      0.94120841	     -0.46360457	     -9.21899349	      0.00000000
      0.94314505	     -0.46078553	     -9.21525461	      0.00000000
      0.94508169	     -0.45811681	     -9.21146415	      0.00000000
      0.94701833	     -0.45560163	     -9.20762056	      0.00000000
      0.94895498	     -0.45324275	     -9.20372222	      0.00000000
      0.95089162	     -0.45104212	     -9.19976679	      0.00000000
      0.95282826	     -0.44900121	     -9.19575183	      0.00000000
      0.95476491	     -0.44712073	     -9.19167421	      0.00000000
      0.95670155	     -0.44540087	     -9.18753066	      0.00000000
      0.95863819	     -0.44384114	     -9.18331735	      0.00000000
      0.96057483	     -0.44244052	     -9.17903024	      0.00000000
      0.96251148	     -0.44119737	     -9.17466482	      0.00000000
      0.96444812	     -0.44010953	     -9.17021630	      0.00000000
      0.96638476	     -0.43917423	     -9.16567950	      0.00000000
      0.96832140	     -0.43838841	     -9.16104891	      0.00000000
      0.97025805	     -0.43774773	     -9.15631892	      0.00000000
      0.97219469	     -0.43724710	     -9.15148358	      0.00000000
      0.97413133	     -0.43688045	     -9.14653695	      0.00000000
      0.97606798	     -0.43664110	     -9.14147261	      0.00000000
      0.97800462	     -0.43652246	     -9.13628414	      0.00000000
      0.97994126	     -0.43651745	     -9.13096466	      0.00000000
      0.98187790	     -0.43661948	     -9.12550766	      0.00000000
      0.98381455	     -0.43682121	     -9.11990609	      0.00000000
      0.98575119	     -0.43711628	     -9.11415340	      0.00000000
      0.98768783	     -0.43749758	     -9.10824242	      0.00000000
      0.98962448	     -0.43795965	     -9.10216647	      0.00000000
      0.99156112	     -0.43849660	     -9.09591837	      0.00000000
      0.99349776	     -0.43910376	     -9.08949143	      0.00000000
      0.99543440	     -0.43977608	     -9.08287843	      0.00000000
      0.99737105	     -0.44050854	     -9.07607168	      0.00000000
      0.99930769	     -0.44129523	     -9.06906307	      0.00000000
      1.00124433	     -0.44213074	     -9.06184370	      0.00000000
      1.00318098	     -0.44300934	     -9.05440419	      0.00000000
      1.00511762	     -0.44392591	     -9.04673441	      0.00000000
      1.00705426	     -0.44487514	     -9.03882375	      0.00000000
      1.00899090	     -0.44585129	     -9.03066060	      0.00000000
      1.01092755	     -0.44684815	     -9.02223288	      0.00000000
      1.01286419	     -0.44785806	     -9.01352736	      0.00000000
      1.01480083	     -0.44887257	     -9.00453025	      0.00000000
      1.01673748	     -0.44988216	     -8.99522658	      0.00000000
      1.01867412	     -0.45087646	     -8.98560076	      0.00000000
      1.02061076	     -0.45184514	     -8.97563689	      0.00000000
      1.02254740	     -0.45277766	     -8.96531809	      0.00000000
      1.02448405	     -0.45366199	     -8.95462761	      0.00000000
      1.02642069	     -0.45448474	     -8.94354750	      0.00000000
      1.02835733	     -0.45523117	     -8.93206057	      0.00000000
      1.03029397	     -0.45588583	     -8.92014808	      0.00000000
      1.03223062	     -0.45643138	     -8.90779327	      0.00000000
      1.03416726	     -0.45684960	     -8.89497757	      0.00000000
      1.03610390	     -0.45712024	     -8.88168548	      0.00000000
      1.03804055	     -0.45722247	     -8.86789942	      0.00000000
      1.03997719	     -0.45713268	     -8.85360617	      0.00000000
      1.04191383	     -0.45682631	     -8.83879036	      0.00000000
      1.04385047	     -0.45627629	     -8.82344160	      0.00000000
      1.04578712	     -0.45545495	     -8.80754755	      0.00000000
      1.04772376	     -0.45433219	     -8.79110122	      0.00000000
      1.04966040	     -0.45287720	     -8.77409338	      0.00000000
      1.05159705	     -0.45105672	     -8.75652071	      0.00000000
      1.05353369	     -0.44883677	     -8.73837903	      0.00000000
      1.05547033	     -0.44618082	     -8.71966847	      0.00000000
      1.05740697	     -0.44305218	     -8.70038907	      0.00000000
      1.05934362	     -0.43941178	     -8.68054419	      0.00000000
      1.06128026	     -0.43522045	     -8.66013814	      0.00000000
      1.06321690	     -0.43043687	     -8.63917665	      0.00000000
      1.06515355	     -0.42501993	     -8.61766756	      0.00000000
      1.06709019	     -0.41892640	     -8.59561763	      0.00000000
      1.06902683	     -0.41211392	     -8.57303698	      0.00000000
      1.07096347	     -0.40453767	     -8.54993200	      0.00000000
      1.07290012	     -0.39615442	     -8.52631351	      0.00000000
      1.07483676	     -0.38691803	     -8.50218591	      0.00000000
      1.07677340	     -0.37678474	     -8.47755895	      0.00000000
      1.07871004	     -0.36570797	     -8.45243339	      0.00000000
      1.08064669	     -0.35364452	     -8.42681601	      0.00000000
      1.08258333	     -0.34054945	     -8.40070257	      0.00000000
      1.08451997	     -0.32638344	     -8.37409469	      0.00000000
      1.08645662	     -0.31110499	     -8.34698215	      0.00000000
      1.08839326	     -0.29467920	     -8.31936051	      0.00000000
      1.09032990	     -0.27706858	     -8.29121407	      0.00000000
      1.09226654	     -0.25824343	     -8.26253204	      0.00000000
      1.09420319	     -0.23817457	     -8.23329469	      0.00000000
      1.09613983	     -0.21684260	     -8.20348573	      0.00000000
      1.09807647	     -0.19423309	     -8.17308568	      0.00000000
      1.10001312	     -0.17034342	     -8.14207706	      0.00000000
      1.10194976	     -0.14517981	     -8.11044691	      0.00000000
      1.10388640	     -0.11876773	     -8.07818727	      0.00000000
      1.10582304	     -0.09114390	     -8.04530262	      0.00000000
      1.10775969	     -0.06235578	     -8.01179590	      0.00000000
      1.10969633	     -0.03246356	     -7.97767642	      0.00000000
      1.11163297	     -0.00155813	     -7.94296836	      0.00000000
      1.11356962	      0.03026361	     -7.90769561	      0.00000000
      1.11550626	      0.06288822	     -7.87187467	      0.00000000
      1.11744290	      0.09619303	     -7.83552075	      0.00000000
      1.11937954	      0.13002848	     -7.79864939	      0.00000000
      1.12131619	      0.16423006	     -7.76127306	      0.00000000
      1.12325283	      0.19860954	     -7.72340347	      0.00000000
      1.12518947	      0.23294504	     -7.68505248	      0.00000000
      1.12712612	      0.26699982	     -7.64623028	      0.00000000
      1.12906276	      0.30047778	     -7.60695325	      0.00000000
      1.13099940	      0.33308590	     -7.56723732	      0.00000000
      1.13293604	      0.36445663	     -7.52710995	      0.00000000
      1.13487269	      0.39425514	     -7.48660168	      0.00000000
      1.13680933	      0.42209119	     -7.44576744	      0.00000000
      1.13874597	      0.44765135	     -7.40467455	      0.00000000
      1.14068261	      0.47062492	     -7.36344190	      0.00000000
      1.14261926	      0.49082659	     -7.32221892	      0.00000000
      1.14455590	      0.50811877	     -7.28123658	      0.00000000
      1.14649254	      0.52249365	     -7.24076654	      0.00000000
      1.14842919	      0.53391445	     -7.20117826	      0.00000000
      1.15036583	      0.54241812	     -7.16280718	      0.00000000
      1.15230247	      0.54782211	     -7.12605016	      0.00000000
      1.15423911	      0.54984083	     -7.09109117	      0.00000000
      1.15617576	      0.54745689	     -7.05836964	      0.00000000
      1.15811240	      0.53931397	     -7.02819466	      0.00000000
      1.16004904	      0.52212321	     -7.00040196	      0.00000000
      1.16198569	      0.49374226	     -6.97314378	      0.00000000
