PointVelocity
version=1
nRows=601
nColumns=4
inDegrees=no
No description.
endheader
time	state_0	state_1	state_2
      0.00000000	      1.57384053	     -0.25514517	      0.00000000
      0.00193664	      1.58368186	     -0.26039391	      0.00000000
      0.00387329	      1.59354244	     -0.26565339	      0.00000000
      0.00580993	      1.60341021	     -0.27087197	      0.00000000
      0.00774657	      1.61328462	     -0.27599068	      0.00000000
      0.00968321	      1.62300811	     -0.28091972	      0.00000000
      0.01161986	      1.63244696	     -0.28562301	      0.00000000
      0.01355650	      1.64117168	     -0.28996535	      0.00000000
      0.01549314	      1.64878374	     -0.29384001	      0.00000000
      0.01742979	      1.65465412	     -0.29692825	      0.00000000
      0.01936643	      1.65796343	     -0.29882644	      0.00000000
      0.02130307	      1.65823454	     -0.29907593	      0.00000000
      0.02323971	      1.65410645	     -0.29662528	      0.00000000
      0.02517636	      1.64709204	     -0.29192393	      0.00000000
      0.02711300	      1.64088746	     -0.28685615	      0.00000000
      0.02904964	      1.63338986	     -0.28024720	      0.00000000
      0.03098628	      1.62174105	     -0.27030149	      0.00000000
      0.03292293	      1.60700028	     -0.25744326	      0.00000000
      0.03485957	      1.58945313	     -0.24167663	      0.00000000
      0.03679621	      1.56956037	     -0.22336342	      0.00000000
      0.03873286	      1.54795213	     -0.20279959	      0.00000000
      0.04066950	      1.52480099	     -0.18066869	      0.00000000
      0.04260614	      1.49988897	     -0.15808895	      0.00000000
      0.04454278	      1.47343293	     -0.13562347	      0.00000000
      0.04647943	      1.44636346	     -0.11323687	      0.00000000
      0.04841607	      1.41975354	     -0.09036742	      0.00000000
      0.05035271	      1.39423707	     -0.06692592	      0.00000000
      0.05228936	      1.36974251	     -0.04324411	      0.00000000
      0.05422600	      1.34635227	     -0.01957341	      0.00000000
      0.05616264	      1.32396508	      0.00385524	      0.00000000
      0.05809928	      1.30254706	      0.02683863	      0.00000000
      0.06003593	      1.28204141	      0.04925533	      0.00000000
      0.06197257	      1.26241910	      0.07097121	      0.00000000
      0.06390921	      1.24366393	      0.09190570	      0.00000000
      0.06584586	      1.22576446	      0.11196000	      0.00000000
      0.06778250	      1.20870738	      0.13107420	      0.00000000
      0.06971914	      1.19248124	      0.14917649	      0.00000000
      0.07165578	      1.17705694	      0.16623510	      0.00000000
      0.07359243	      1.16240728	      0.18220956	      0.00000000
      0.07552907	      1.14848693	      0.19709781	      0.00000000
      0.07746571	      1.13525259	      0.21089030	      0.00000000
      0.07940236	      1.12265343	      0.22360729	      0.00000000
      0.08133900	      1.11063896	      0.23526298	      0.00000000
      0.08327564	      1.09916346	      0.24589070	      0.00000000
      0.08521228	      1.08817933	      0.25551972	      0.00000000
      0.08714893	      1.07765226	      0.26418987	      0.00000000
      0.08908557	      1.06754458	      0.27193883	      0.00000000
      0.09102221	      1.05783489	      0.27880906	      0.00000000
      0.09295885	      1.04849788	      0.28484226	      0.00000000
      0.09489550	      1.03952319	      0.29008119	      0.00000000
      0.09683214	      1.03089695	      0.29456870	      0.00000000
      0.09876878	      1.02261698	      0.29834607	      0.00000000
      0.10070543	      1.01467971	      0.30145550	      0.00000000
      0.10264207	      1.00708663	      0.30393495	      0.00000000
      0.10457871	      0.99983782	      0.30582226	      0.00000000
      0.10651535	      0.99293210	      0.30715090	      0.00000000
      0.10845200	      0.98636768	      0.30795462	      0.00000000
      0.11038864	      0.98014063	      0.30826704	      0.00000000
      0.11232528	      0.97424847	      0.30812270	      0.00000000
      0.11426193	      0.96868608	      0.30755674	      0.00000000
      0.11619857	      0.96344999	      0.30660511	      0.00000000
      0.11813521	      0.95853112	      0.30530104	      0.00000000
      0.12007185	      0.95392198	      0.30367854	      0.00000000
      0.12200850	      0.94960682	      0.30176504	      0.00000000
      0.12394514	      0.94557146	      0.29958899	      0.00000000
      0.12588178	      0.94179361	      0.29717121	      0.00000000
      0.12781843	      0.93825258	      0.29453388	      0.00000000
      0.12975507	      0.93492202	      0.29169289	      0.00000000
      0.13169171	      0.93177723	      0.28866600	      0.00000000
      0.13362835	      0.92878983	      0.28546527	      0.00000000
      0.13556500	      0.92593309	      0.28210530	      0.00000000
      0.13750164	      0.92317594	      0.27859188	      0.00000000
      0.13943828	      0.92048630	      0.27493082	      0.00000000
      0.14137493	      0.91783116	      0.27112029	      0.00000000
      0.14331157	      0.91517567	      0.26715719	      0.00000000
      0.14524821	      0.91249444	      0.26304195	      0.00000000
      0.14718485	      0.90976255	      0.25877638	      0.00000000
      0.14912150	      0.90696806	      0.25437152	      0.00000000
      0.15105814	      0.90409795	      0.24983812	      0.00000000
      0.15299478	      0.90114574	      0.24519122	      0.00000000
      0.15493142	      0.89810285	      0.24044489	      0.00000000
      0.15686807	      0.89496210	      0.23561140	      0.00000000
      0.15880471	      0.89171654	      0.23070337	      0.00000000
      0.16074135	      0.88835812	      0.22572835	      0.00000000
      0.16267800	      0.88487796	      0.22069476	      0.00000000
      0.16461464	      0.88126549	      0.21560471	      0.00000000
      0.16655128	      0.87750821	      0.21046019	      0.00000000
      0.16848792	      0.87359746	      0.20526078	      0.00000000
      0.17042457	      0.86952272	      0.20000621	      0.00000000
      0.17236121	      0.86528477	      0.19470021	      0.00000000
      0.17429785	      0.86088158	      0.18934847	      0.00000000
      0.17623450	      0.85632631	      0.18395801	      0.00000000
      0.17817114	      0.85162930	      0.17853360	      0.00000000
      0.18010778	      0.84681603	      0.17308049	      0.00000000
      0.18204442	      0.84190948	      0.16760098	      0.00000000
      0.18398107	      0.83694331	      0.16210700	      0.00000000
      0.18591771	      0.83194974	      0.15661145	      0.00000000
      0.18785435	      0.82696387	      0.15113813	      0.00000000
      0.18979100	      0.82201827	      0.14570989	      0.00000000
      0.19172764	      0.81714596	      0.14035201	      0.00000000
      0.19366428	      0.81237911	      0.13509029	      0.00000000
      0.19560092	      0.80775398	      0.12994360	      0.00000000
      0.19753757	      0.80331384	      0.12493419	      0.00000000
      0.19947421	      0.79909252	      0.12006735	      0.00000000
      0.20141085	      0.79512966	      0.11534994	      0.00000000
      0.20334750	      0.79142776	      0.11076940	      0.00000000
      0.20528414	      0.78800136	      0.10631768	      0.00000000
      0.20722078	      0.78480109	      0.10197101	      0.00000000
      0.20915742	      0.78176633	      0.09770516	      0.00000000
      0.21109407	      0.77880981	      0.09349054	      0.00000000
      0.21303071	      0.77585428	      0.08930458	      0.00000000
      0.21496735	      0.77285572	      0.08511844	      0.00000000
      0.21690399	      0.76977105	      0.08089703	      0.00000000
      0.21884064	      0.76659859	      0.07660477	      0.00000000
      0.22077728	      0.76332779	      0.07220168	      0.00000000
      0.22271392	      0.75997253	      0.06769616	      0.00000000
      0.22465057	      0.75652666	      0.06312925	      0.00000000
      0.22658721	      0.75301639	      0.05845017	      0.00000000
      0.22852385	      0.74946044	      0.05352076	      0.00000000
      0.23046049	      0.74596307	      0.04833180	      0.00000000
      0.23239714	      0.74263226	      0.04293653	      0.00000000
      0.23433378	      0.73962855	      0.03749036	      0.00000000
      0.23627042	      0.73710564	      0.03210305	      0.00000000
      0.23820707	      0.73522164	      0.02692244	      0.00000000
      0.24014371	      0.73416922	      0.02214199	      0.00000000
      0.24208035	      0.73390248	      0.01786433	      0.00000000
      0.24401699	      0.73435556	      0.01415134	      0.00000000
      0.24595364	      0.73541453	      0.01093588	      0.00000000
      0.24789028	      0.73700315	      0.00817732	      0.00000000
      0.24982692	      0.73904699	      0.00581126	      0.00000000
      0.25176357	      0.74148175	      0.00379625	      0.00000000
      0.25370021	      0.74423320	      0.00209852	      0.00000000
      0.25563685	      0.74722071	      0.00068022	      0.00000000
      0.25757349	      0.75034991	     -0.00050236	      0.00000000
      0.25951014	      0.75351972	     -0.00149374	      0.00000000
      0.26144678	      0.75664344	     -0.00233964	      0.00000000
      0.26338342	      0.75962782	     -0.00308579	      0.00000000
      0.26532006	      0.76242042	     -0.00376894	      0.00000000
      0.26725671	      0.76495926	     -0.00442771	      0.00000000
      0.26919335	      0.76723054	     -0.00508458	      0.00000000
      0.27112999	      0.76921048	     -0.00576330	      0.00000000
      0.27306664	      0.77091670	     -0.00647234	      0.00000000
      0.27500328	      0.77235708	     -0.00721264	      0.00000000
      0.27693992	      0.77357378	     -0.00799784	      0.00000000
      0.27887656	      0.77459666	     -0.00882183	      0.00000000
      0.28081321	      0.77550809	     -0.00978381	      0.00000000
      0.28274985	      0.77646208	     -0.01113513	      0.00000000
      0.28468649	      0.77748166	     -0.01287471	      0.00000000
      0.28662314	      0.77848839	     -0.01478841	      0.00000000
      0.28855978	      0.77936540	     -0.01658787	      0.00000000
      0.29049642	      0.78006765	     -0.01813065	      0.00000000
      0.29243306	      0.78060466	     -0.01940348	      0.00000000
      0.29436971	      0.78097142	     -0.02035664	      0.00000000
      0.29630635	      0.78121462	     -0.02104845	      0.00000000
      0.29824299	      0.78137751	     -0.02152462	      0.00000000
      0.30017964	      0.78149809	     -0.02184535	      0.00000000
      0.30211628	      0.78161133	     -0.02206131	      0.00000000
      0.30405292	      0.78173549	     -0.02221147	      0.00000000
      0.30598956	      0.78188983	     -0.02233403	      0.00000000
      0.30792621	      0.78207835	     -0.02245048	      0.00000000
      0.30986285	      0.78230738	     -0.02258511	      0.00000000
      0.31179949	      0.78257549	     -0.02275062	      0.00000000
      0.31373614	      0.78288256	     -0.02296242	      0.00000000
      0.31567278	      0.78322678	     -0.02322929	      0.00000000
      0.31760942	      0.78360649	     -0.02356155	      0.00000000
      0.31954606	      0.78402163	     -0.02396593	      0.00000000
      0.32148271	      0.78447190	     -0.02445012	      0.00000000
      0.32341935	      0.78495908	     -0.02501991	      0.00000000
      0.32535599	      0.78548456	     -0.02568195	      0.00000000
      0.32729263	      0.78605056	     -0.02644087	      0.00000000
      0.32922928	      0.78665879	     -0.02730188	      0.00000000
      0.33116592	      0.78731071	     -0.02826724	      0.00000000
      0.33310256	      0.78800758	     -0.02933990	      0.00000000
      0.33503921	      0.78875027	     -0.03051925	      0.00000000
      0.33697585	      0.78953973	     -0.03180546	      0.00000000
      0.33891249	      0.79037687	     -0.03319509	      0.00000000
      0.34084913	      0.79126279	     -0.03468552	      0.00000000
      0.34278578	      0.79219873	     -0.03627097	      0.00000000
      0.34472242	      0.79318628	     -0.03794642	      0.00000000
      0.34665906	      0.79422730	     -0.03970429	      0.00000000
      0.34859571	      0.79532401	     -0.04153768	      0.00000000
      0.35053235	      0.79647920	     -0.04343749	      0.00000000
      0.35246899	      0.79769596	     -0.04539529	      0.00000000
      0.35440563	      0.79897870	     -0.04740052	      0.00000000
      0.35634228	      0.80033215	     -0.04944311	      0.00000000
      0.35827892	      0.80176346	     -0.05151106	      0.00000000
      0.36021556	      0.80328009	     -0.05359258	      0.00000000
      0.36215221	      0.80489239	     -0.05567477	      0.00000000
      0.36408885	      0.80661094	     -0.05774464	      0.00000000
      0.36602549	      0.80844832	     -0.05978987	      0.00000000
      0.36796213	      0.81041729	     -0.06179768	      0.00000000
      0.36989878	      0.81253050	     -0.06375826	      0.00000000
      0.37183542	      0.81480069	     -0.06566095	      0.00000000
      0.37377206	      0.81723834	     -0.06750007	      0.00000000
      0.37570871	      0.81985389	     -0.06926885	      0.00000000
      0.37764535	      0.82265464	     -0.07096656	      0.00000000
      0.37958199	      0.82564791	     -0.07259145	      0.00000000
      0.38151863	      0.82883797	     -0.07414725	      0.00000000
      0.38345528	      0.83222892	     -0.07563673	      0.00000000
      0.38539192	      0.83582250	     -0.07706615	      0.00000000
      0.38732856	      0.83962040	     -0.07844125	      0.00000000
      0.38926520	      0.84362227	     -0.07976886	      0.00000000
      0.39120185	      0.84782728	     -0.08105551	      0.00000000
      0.39313849	      0.85223269	     -0.08230724	      0.00000000
      0.39507513	      0.85683473	     -0.08352983	      0.00000000
      0.39701178	      0.86162933	     -0.08472765	      0.00000000
      0.39894842	      0.86661098	     -0.08590501	      0.00000000
      0.40088506	      0.87177684	     -0.08706577	      0.00000000
      0.40282170	      0.87712217	     -0.08821373	      0.00000000
      0.40475835	      0.88264744	     -0.08935382	      0.00000000
      0.40669499	      0.88835074	     -0.09049073	      0.00000000
      0.40863163	      0.89423646	     -0.09163003	      0.00000000
      0.41056828	      0.90030629	     -0.09277686	      0.00000000
      0.41250492	      0.90656804	     -0.09393676	      0.00000000
      0.41444156	      0.91302698	     -0.09511464	      0.00000000
      0.41637820	      0.91969311	     -0.09631616	      0.00000000
      0.41831485	      0.92657469	     -0.09754608	      0.00000000
      0.42025149	      0.93368148	     -0.09881092	      0.00000000
      0.42218813	      0.94102306	     -0.10011582	      0.00000000
      0.42412478	      0.94860483	     -0.10147033	      0.00000000
      0.42606142	      0.95643430	     -0.10288251	      0.00000000
      0.42799806	      0.96450674	     -0.10436742	      0.00000000
      0.42993470	      0.97282257	     -0.10593933	      0.00000000
      0.43187135	      0.98136055	     -0.10761874	      0.00000000
      0.43380799	      0.99010794	     -0.10942679	      0.00000000
      0.43574463	      0.99901708	     -0.11138322	      0.00000000
      0.43768127	      1.00802699	     -0.11350005	      0.00000000
      0.43961792	      1.01709343	     -0.11580163	      0.00000000
      0.44155456	      1.02617132	     -0.11831110	      0.00000000
      0.44349120	      1.03532500	     -0.12109439	      0.00000000
      0.44542785	      1.04465740	     -0.12423700	      0.00000000
      0.44736449	      1.05418994	     -0.12777710	      0.00000000
      0.44930113	      1.06389276	     -0.13173110	      0.00000000
      0.45123777	      1.07375381	     -0.13609587	      0.00000000
      0.45317442	      1.08378701	     -0.14088048	      0.00000000
      0.45511106	      1.09403182	     -0.14609742	      0.00000000
      0.45704770	      1.10453883	     -0.15176116	      0.00000000
      0.45898435	      1.11533697	     -0.15789605	      0.00000000
      0.46092099	      1.12653634	     -0.16457200	      0.00000000
      0.46285763	      1.13799137	     -0.17176836	      0.00000000
      0.46479427	      1.14950756	     -0.17947502	      0.00000000
      0.46673092	      1.16060626	     -0.18746692	      0.00000000
      0.46866756	      1.17100713	     -0.19558219	      0.00000000
      0.47060420	      1.17995623	     -0.20338358	      0.00000000
      0.47254085	      1.18611110	     -0.21030067	      0.00000000
      0.47447749	      1.18930264	     -0.21588284	      0.00000000
      0.47641413	      1.19006163	     -0.21987832	      0.00000000
      0.47835077	      1.18946733	     -0.22223899	      0.00000000
      0.48028742	      1.18818776	     -0.22276862	      0.00000000
      0.48222406	      1.18633148	     -0.22119699	      0.00000000
      0.48416070	      1.18462751	     -0.21718043	      0.00000000
      0.48609735	      1.18385733	     -0.21097511	      0.00000000
      0.48803399	      1.18299034	     -0.20283014	      0.00000000
      0.48997063	      1.18077483	     -0.19333812	      0.00000000
      0.49190727	      1.17749347	     -0.18304092	      0.00000000
      0.49384392	      1.17331538	     -0.17206685	      0.00000000
      0.49578056	      1.16825763	     -0.16058671	      0.00000000
      0.49771720	      1.16254503	     -0.14865779	      0.00000000
      0.49965384	      1.15629567	     -0.13636546	      0.00000000
      0.50159049	      1.14969109	     -0.12376805	      0.00000000
      0.50352713	      1.14287411	     -0.11092426	      0.00000000
      0.50546377	      1.13592626	     -0.09789358	      0.00000000
      0.50740042	      1.12892610	     -0.08473746	      0.00000000
      0.50933706	      1.12185058	     -0.07152992	      0.00000000
      0.51127370	      1.11468543	     -0.05834756	      0.00000000
      0.51321034	      1.10735747	     -0.04527312	      0.00000000
      0.51514699	      1.09979153	     -0.03241177	      0.00000000
      0.51708363	      1.09192745	     -0.01984982	      0.00000000
      0.51902027	      1.08372691	     -0.00763675	      0.00000000
      0.52095692	      1.07532213	      0.00434306	      0.00000000
      0.52289356	      1.06681711	      0.01616112	      0.00000000
      0.52483020	      1.05823421	      0.02770644	      0.00000000
      0.52676684	      1.04959562	      0.03888503	      0.00000000
      0.52870349	      1.04094976	      0.04962961	      0.00000000
      0.53064013	      1.03234507	      0.05987916	      0.00000000
      0.53257677	      1.02383367	      0.06960451	      0.00000000
      0.53451342	      1.01546602	      0.07877000	      0.00000000
      0.53645006	      1.00728177	      0.08736873	      0.00000000
      0.53838670	      0.99932242	      0.09538759	      0.00000000
      0.54032334	      0.99161302	      0.10283572	      0.00000000
      0.54225999	      0.98418259	      0.10971730	      0.00000000
      0.54419663	      0.97704396	      0.11605158	      0.00000000
      0.54613327	      0.97021414	      0.12185435	      0.00000000
      0.54806992	      0.96369688	      0.12715015	      0.00000000
      0.55000656	      0.95749935	      0.13196142	      0.00000000
      0.55194320	      0.95161907	      0.13631442	      0.00000000
      0.55387984	      0.94605627	      0.14023455	      0.00000000
      0.55581649	      0.94080468	      0.14374744	      0.00000000
      0.55775313	      0.93585951	      0.14687862	      0.00000000
      0.55968977	      0.93121135	      0.14965158	      0.00000000
      0.56162641	      0.92685185	      0.15209012	      0.00000000
      0.56356306	      0.92277077	      0.15421520	      0.00000000
      0.56549970	      0.91895827	      0.15604824	      0.00000000
      0.56743634	      0.91540436	      0.15760802	      0.00000000
      0.56937299	      0.91209895	      0.15891386	      0.00000000
      0.57130963	      0.90903325	      0.15998306	      0.00000000
      0.57324627	      0.90619774	      0.16083313	      0.00000000
      0.57518291	      0.90358607	      0.16148056	      0.00000000
      0.57711956	      0.90119112	      0.16194180	      0.00000000
      0.57905620	      0.89901111	      0.16223401	      0.00000000
      0.58099284	      0.89704367	      0.16237446	      0.00000000
      0.58292949	      0.89529195	      0.16238209	      0.00000000
      0.58486613	      0.89375923	      0.16227628	      0.00000000
      0.58680277	      0.89245090	      0.16207641	      0.00000000
      0.58873941	      0.89137426	      0.16180281	      0.00000000
      0.59067606	      0.89052992	      0.16147139	      0.00000000
      0.59261270	      0.88992121	      0.16109998	      0.00000000
      0.59454934	      0.88953443	      0.16069639	      0.00000000
      0.59648599	      0.88935957	      0.16027065	      0.00000000
      0.59842263	      0.88936181	      0.15981882	      0.00000000
      0.60035927	      0.88950935	      0.15933955	      0.00000000
      0.60229591	      0.88974970	      0.15881766	      0.00000000
      0.60423256	      0.89003198	      0.15823999	      0.00000000
      0.60616920	      0.89029790	      0.15758398	      0.00000000
      0.60810584	      0.89048491	      0.15682655	      0.00000000
      0.61004249	      0.89054792	      0.15594592	      0.00000000
      0.61197913	      0.89043894	      0.15491974	      0.00000000
      0.61391577	      0.89014804	      0.15373864	      0.00000000
      0.61585241	      0.88966194	      0.15239318	      0.00000000
      0.61778906	      0.88900136	      0.15088745	      0.00000000
      0.61972570	      0.88818187	      0.14922456	      0.00000000
      0.62166234	      0.88723391	      0.14741094	      0.00000000
      0.62359898	      0.88618254	      0.14544896	      0.00000000
      0.62553563	      0.88505534	      0.14334047	      0.00000000
      0.62747227	      0.88387543	      0.14107975	      0.00000000
      0.62940891	      0.88267352	      0.13868112	      0.00000000
      0.63134556	      0.88149463	      0.13616729	      0.00000000
      0.63328220	      0.88036977	      0.13357784	      0.00000000
      0.63521884	      0.87933346	      0.13095321	      0.00000000
      0.63715548	      0.87836407	      0.12831394	      0.00000000
      0.63909213	      0.87743415	      0.12567498	      0.00000000
      0.64102877	      0.87647677	      0.12302593	      0.00000000
      0.64296541	      0.87542693	      0.12035851	      0.00000000
      0.64490206	      0.87423958	      0.11766274	      0.00000000
      0.64683870	      0.87287586	      0.11493272	      0.00000000
      0.64877534	      0.87133901	      0.11217328	      0.00000000
      0.65071198	      0.86962857	      0.10938933	      0.00000000
      0.65264863	      0.86776552	      0.10659115	      0.00000000
      0.65458527	      0.86576443	      0.10378660	      0.00000000
      0.65652191	      0.86364160	      0.10098341	      0.00000000
      0.65845856	      0.86140987	      0.09818715	      0.00000000
      0.66039520	      0.85908169	      0.09540685	      0.00000000
      0.66233184	      0.85667104	      0.09265299	      0.00000000
      0.66426848	      0.85419250	      0.08994037	      0.00000000
      0.66620513	      0.85166182	      0.08728440	      0.00000000
      0.66814177	      0.84909049	      0.08469771	      0.00000000
      0.67007841	      0.84649023	      0.08219274	      0.00000000
      0.67201505	      0.84386524	      0.07977452	      0.00000000
      0.67395170	      0.84122040	      0.07744895	      0.00000000
      0.67588834	      0.83855489	      0.07521546	      0.00000000
      0.67782498	      0.83586886	      0.07307463	      0.00000000
      0.67976163	      0.83316055	      0.07102379	      0.00000000
      0.68169827	      0.83042879	      0.06906106	      0.00000000
      0.68363491	      0.82767295	      0.06718371	      0.00000000
      0.68557155	      0.82489260	      0.06538953	      0.00000000
      0.68750820	      0.82208824	      0.06367624	      0.00000000
      0.68944484	      0.81926032	      0.06204190	      0.00000000
      0.69138148	      0.81640962	      0.06048364	      0.00000000
      0.69331813	      0.81353654	      0.05899838	      0.00000000
      0.69525477	      0.81064199	      0.05758203	      0.00000000
      0.69719141	      0.80772654	      0.05622969	      0.00000000
      0.69912805	      0.80479259	      0.05493849	      0.00000000
      0.70106470	      0.80184273	      0.05370550	      0.00000000
      0.70300134	      0.79888125	      0.05253250	      0.00000000
      0.70493798	      0.79591277	      0.05142175	      0.00000000
      0.70687463	      0.79294083	      0.05037737	      0.00000000
      0.70881127	      0.78996890	      0.04940309	      0.00000000
      0.71074791	      0.78699732	      0.04850000	      0.00000000
      0.71268455	      0.78402645	      0.04766889	      0.00000000
      0.71462120	      0.78105465	      0.04690734	      0.00000000
      0.71655784	      0.77808055	      0.04621325	      0.00000000
      0.71849448	      0.77510315	      0.04558348	      0.00000000
      0.72043113	      0.77212163	      0.04501547	      0.00000000
      0.72236777	      0.76913658	      0.04450688	      0.00000000
      0.72430441	      0.76614849	      0.04405560	      0.00000000
      0.72624105	      0.76315880	      0.04365931	      0.00000000
      0.72817770	      0.76016869	      0.04331571	      0.00000000
      0.73011434	      0.75717965	      0.04302163	      0.00000000
      0.73205098	      0.75419295	      0.04277395	      0.00000000
      0.73398762	      0.75121003	      0.04256883	      0.00000000
      0.73592427	      0.74823221	      0.04240247	      0.00000000
      0.73786091	      0.74526119	      0.04227104	      0.00000000
      0.73979755	      0.74229860	      0.04217065	      0.00000000
      0.74173420	      0.73934657	      0.04209806	      0.00000000
      0.74367084	      0.73640715	      0.04204987	      0.00000000
      0.74560748	      0.73348282	      0.04202383	      0.00000000
      0.74754412	      0.73057596	      0.04201744	      0.00000000
      0.74948077	      0.72768919	      0.04202954	      0.00000000
      0.75141741	      0.72482507	      0.04205877	      0.00000000
      0.75335405	      0.72198632	      0.04210481	      0.00000000
      0.75529070	      0.71917557	      0.04216729	      0.00000000
      0.75722734	      0.71639559	      0.04224612	      0.00000000
      0.75916398	      0.71364912	      0.04234128	      0.00000000
      0.76110062	      0.71093905	      0.04245207	      0.00000000
      0.76303727	      0.70826825	      0.04257792	      0.00000000
      0.76497391	      0.70563975	      0.04271698	      0.00000000
      0.76691055	      0.70305657	      0.04286755	      0.00000000
      0.76884720	      0.70052172	      0.04302678	      0.00000000
      0.77078384	      0.69803825	      0.04319199	      0.00000000
      0.77272048	      0.69560890	      0.04335998	      0.00000000
      0.77465712	      0.69323649	      0.04352768	      0.00000000
      0.77659377	      0.69092322	      0.04369216	      0.00000000
      0.77853041	      0.68867144	      0.04385048	      0.00000000
      0.78046705	      0.68648265	      0.04400017	      0.00000000
      0.78240370	      0.68435854	      0.04413867	      0.00000000
      0.78434034	      0.68229984	      0.04426383	      0.00000000
      0.78627698	      0.68030752	      0.04437345	      0.00000000
      0.78821362	      0.67838163	      0.04446560	      0.00000000
      0.79015027	      0.67652243	      0.04453828	      0.00000000
      0.79208691	      0.67472945	      0.04458971	      0.00000000
      0.79402355	      0.67300237	      0.04461803	      0.00000000
      0.79596019	      0.67134034	      0.04462157	      0.00000000
      0.79789684	      0.66974263	      0.04459861	      0.00000000
      0.79983348	      0.66820816	      0.04454758	      0.00000000
      0.80177012	      0.66673594	      0.04446686	      0.00000000
      0.80370677	      0.66532479	      0.04435497	      0.00000000
      0.80564341	      0.66397358	      0.04421039	      0.00000000
      0.80758005	      0.66268117	      0.04403177	      0.00000000
      0.80951669	      0.66144642	      0.04381768	      0.00000000
      0.81145334	      0.66026827	      0.04356693	      0.00000000
      0.81338998	      0.65914567	      0.04327826	      0.00000000
      0.81532662	      0.65807770	      0.04295067	      0.00000000
      0.81726327	      0.65706343	      0.04258310	      0.00000000
      0.81919991	      0.65610209	      0.04217476	      0.00000000
      0.82113655	      0.65519289	      0.04172480	      0.00000000
      0.82307319	      0.65433523	      0.04123265	      0.00000000
      0.82500984	      0.65352844	      0.04069769	      0.00000000
      0.82694648	      0.65277208	      0.04011952	      0.00000000
      0.82888312	      0.65206565	      0.03949772	      0.00000000
      0.83081977	      0.65140883	      0.03883208	      0.00000000
      0.83275641	      0.65080126	      0.03812234	      0.00000000
      0.83469305	      0.65024274	      0.03736847	      0.00000000
      0.83662969	      0.64973307	      0.03657037	      0.00000000
      0.83856634	      0.64927213	      0.03572817	      0.00000000
      0.84050298	      0.64885981	      0.03484193	      0.00000000
      0.84243962	      0.64849609	      0.03391190	      0.00000000
      0.84437626	      0.64818093	      0.03293829	      0.00000000
      0.84631291	      0.64791435	      0.03192147	      0.00000000
      0.84824955	      0.64769635	      0.03086178	      0.00000000
      0.85018619	      0.64752702	      0.02975969	      0.00000000
      0.85212284	      0.64740639	      0.02861563	      0.00000000
      0.85405948	      0.64733455	      0.02743019	      0.00000000
      0.85599612	      0.64731160	      0.02620388	      0.00000000
      0.85793276	      0.64733763	      0.02493738	      0.00000000
      0.85986941	      0.64741275	      0.02363129	      0.00000000
      0.86180605	      0.64753709	      0.02228636	      0.00000000
      0.86374269	      0.64771078	      0.02090331	      0.00000000
      0.86567934	      0.64793397	      0.01948293	      0.00000000
      0.86761598	      0.64820682	      0.01802602	      0.00000000
      0.86955262	      0.64852955	      0.01653346	      0.00000000
      0.87148926	      0.64890236	      0.01500611	      0.00000000
      0.87342591	      0.64932550	      0.01344492	      0.00000000
      0.87536255	      0.64979924	      0.01185082	      0.00000000
      0.87729919	      0.65032384	      0.01022482	      0.00000000
      0.87923584	      0.65089961	      0.00856792	      0.00000000
      0.88117248	      0.65152685	      0.00688122	      0.00000000
      0.88310912	      0.65220587	      0.00516580	      0.00000000
      0.88504576	      0.65293701	      0.00342285	      0.00000000
      0.88698241	      0.65372060	      0.00165352	      0.00000000
      0.88891905	      0.65455702	     -0.00014092	      0.00000000
      0.89085569	      0.65544666	     -0.00195925	      0.00000000
      0.89279234	      0.65638999	     -0.00380013	      0.00000000
      0.89472898	      0.65738743	     -0.00566228	      0.00000000
      0.89666562	      0.65843953	     -0.00754430	      0.00000000
      0.89860226	      0.65954680	     -0.00944481	      0.00000000
      0.90053891	      0.66070986	     -0.01136236	      0.00000000
      0.90247555	      0.66192929	     -0.01329550	      0.00000000
      0.90441219	      0.66320576	     -0.01524268	      0.00000000
      0.90634883	      0.66453994	     -0.01720241	      0.00000000
      0.90828548	      0.66593254	     -0.01917310	      0.00000000
      0.91022212	      0.66738427	     -0.02115318	      0.00000000
      0.91215876	      0.66889587	     -0.02314103	      0.00000000
      0.91409541	      0.67046808	     -0.02513505	      0.00000000
      0.91603205	      0.67210170	     -0.02713357	      0.00000000
      0.91796869	      0.67379753	     -0.02913495	      0.00000000
      0.91990533	      0.67555643	     -0.03113749	      0.00000000
      0.92184198	      0.67737925	     -0.03313951	      0.00000000
      0.92377862	      0.67926694	     -0.03513933	      0.00000000
      0.92571526	      0.68122040	     -0.03713523	      0.00000000
      0.92765191	      0.68324057	     -0.03912554	      0.00000000
      0.92958855	      0.68532837	     -0.04110861	      0.00000000
      0.93152519	      0.68748476	     -0.04308280	      0.00000000
      0.93346183	      0.68971066	     -0.04504649	      0.00000000
      0.93539848	      0.69200703	     -0.04699813	      0.00000000
      0.93733512	      0.69437485	     -0.04893614	      0.00000000
      0.93927176	      0.69681511	     -0.05085902	      0.00000000
      0.94120841	      0.69932882	     -0.05276527	      0.00000000
      0.94314505	      0.70191700	     -0.05465352	      0.00000000
      0.94508169	      0.70458068	     -0.05652234	      0.00000000
      0.94701833	      0.70732090	     -0.05837051	      0.00000000
      0.94895498	      0.71013868	     -0.06019673	      0.00000000
      0.95089162	      0.71303509	     -0.06199993	      0.00000000
      0.95282826	      0.71601116	     -0.06377898	      0.00000000
      0.95476491	      0.71906796	     -0.06553297	      0.00000000
      0.95670155	      0.72220654	     -0.06726095	      0.00000000
      0.95863819	      0.72542798	     -0.06896219	      0.00000000
      0.96057483	      0.72873335	     -0.07063592	      0.00000000
      0.96251148	      0.73212371	     -0.07228162	      0.00000000
      0.96444812	      0.73560013	     -0.07389873	      0.00000000
      0.96638476	      0.73916366	     -0.07548696	      0.00000000
      0.96832140	      0.74281536	     -0.07704593	      0.00000000
      0.97025805	      0.74655620	     -0.07857560	      0.00000000
      0.97219469	      0.75038716	     -0.08007583	      0.00000000
      0.97413133	      0.75430905	     -0.08154681	      0.00000000
      0.97606798	      0.75832274	     -0.08298869	      0.00000000
      0.97800462	      0.76242896	     -0.08440186	      0.00000000
      0.97994126	      0.76662851	     -0.08578669	      0.00000000
      0.98187790	      0.77092207	     -0.08714375	      0.00000000
      0.98381455	      0.77531036	     -0.08847357	      0.00000000
      0.98575119	      0.77979395	     -0.08977688	      0.00000000
      0.98768783	      0.78437348	     -0.09105437	      0.00000000
      0.98962448	      0.78904946	     -0.09230679	      0.00000000
      0.99156112	      0.79382248	     -0.09353487	      0.00000000
      0.99349776	      0.79869300	     -0.09473936	      0.00000000
      0.99543440	      0.80366155	     -0.09592099	      0.00000000
      0.99737105	      0.80872851	     -0.09708049	      0.00000000
      0.99930769	      0.81389428	     -0.09821864	      0.00000000
      1.00124433	      0.81915915	     -0.09933618	      0.00000000
      1.00318098	      0.82452347	     -0.10043384	      0.00000000
      1.00511762	      0.82998760	     -0.10151228	      0.00000000
      1.00705426	      0.83555192	     -0.10257213	      0.00000000
      1.00899090	      0.84121690	     -0.10361393	      0.00000000
      1.01092755	      0.84698302	     -0.10463826	      0.00000000
      1.01286419	      0.85285080	     -0.10564561	      0.00000000
      1.01480083	      0.85882079	     -0.10663651	      0.00000000
      1.01673748	      0.86489364	     -0.10761148	      0.00000000
      1.01867412	      0.87107000	     -0.10857103	      0.00000000
      1.02061076	      0.87735078	     -0.10951567	      0.00000000
      1.02254740	      0.88373691	     -0.11044588	      0.00000000
      1.02448405	      0.89022958	     -0.11136221	      0.00000000
      1.02642069	      0.89682990	     -0.11226522	      0.00000000
      1.02835733	      0.90353925	     -0.11315562	      0.00000000
      1.03029397	      0.91035897	     -0.11403407	      0.00000000
      1.03223062	      0.91729063	     -0.11490139	      0.00000000
      1.03416726	      0.92433577	     -0.11575835	      0.00000000
      1.03610390	      0.93149612	     -0.11660586	      0.00000000
      1.03804055	      0.93877342	     -0.11744479	      0.00000000
      1.03997719	      0.94616950	     -0.11827615	      0.00000000
      1.04191383	      0.95368619	     -0.11910089	      0.00000000
      1.04385047	      0.96132529	     -0.11992010	      0.00000000
      1.04578712	      0.96908869	     -0.12073480	      0.00000000
      1.04772376	      0.97697810	     -0.12154613	      0.00000000
      1.04966040	      0.98499536	     -0.12235519	      0.00000000
      1.05159705	      0.99314191	     -0.12316317	      0.00000000
      1.05353369	      1.00141931	     -0.12397129	      0.00000000
      1.05547033	      1.00982848	     -0.12478087	      0.00000000
      1.05740697	      1.01837056	     -0.12559321	      0.00000000
      1.05934362	      1.02704589	     -0.12640980	      0.00000000
      1.06128026	      1.03585503	     -0.12723208	      0.00000000
      1.06321690	      1.04479760	     -0.12806179	      0.00000000
      1.06515355	      1.05387347	     -0.12890059	      0.00000000
      1.06709019	      1.06308140	     -0.12975058	      0.00000000
      1.06902683	      1.07242042	     -0.13061374	      0.00000000
      1.07096347	      1.08188831	     -0.13149265	      0.00000000
      1.07290012	      1.09148316	     -0.13238971	      0.00000000
      1.07483676	      1.10120170	     -0.13330807	      0.00000000
      1.07677340	      1.11104096	     -0.13425067	      0.00000000
      1.07871004	      1.12099657	     -0.13522125	      0.00000000
      1.08064669	      1.13106447	     -0.13622337	      0.00000000
      1.08258333	      1.14123929	     -0.13726133	      0.00000000
      1.08451997	      1.15151600	     -0.13833931	      0.00000000
      1.08645662	      1.16188835	     -0.13946215	      0.00000000
      1.08839326	      1.17235037	     -0.14063456	      0.00000000
      1.09032990	      1.18289491	     -0.14186171	      0.00000000
      1.09226654	      1.19351508	     -0.14314874	      0.00000000
      1.09420319	      1.20420313	     -0.14450079	      0.00000000
      1.09613983	      1.21495153	     -0.14592310	      0.00000000
      1.09807647	      1.22575250	     -0.14742036	      0.00000000
      1.10001312	      1.23659840	     -0.14899741	      0.00000000
      1.10194976	      1.24748195	     -0.15065808	      0.00000000
      1.10388640	      1.25839591	     -0.15240643	      0.00000000
      1.10582304	      1.26933364	     -0.15424530	      0.00000000
      1.10775969	      1.28028846	     -0.15617776	      0.00000000
      1.10969633	      1.29125445	     -0.15820572	      0.00000000
      1.11163297	      1.30222565	     -0.16033135	      0.00000000
      1.11356962	      1.31319652	     -0.16255612	      0.00000000
      1.11550626	      1.32416143	     -0.16488174	      0.00000000
      1.11744290	      1.33511495	     -0.16730948	      0.00000000
      1.11937954	      1.34605166	     -0.16984078	      0.00000000
      1.12131619	      1.35696623	     -0.17247685	      0.00000000
      1.12325283	      1.36785325	     -0.17521902	      0.00000000
      1.12518947	      1.37870783	     -0.17806845	      0.00000000
      1.12712612	      1.38952488	     -0.18102628	      0.00000000
      1.12906276	      1.40030049	     -0.18409381	      0.00000000
      1.13099940	      1.41103047	     -0.18727216	      0.00000000
      1.13293604	      1.42171197	     -0.19056323	      0.00000000
      1.13487269	      1.43234165	     -0.19396871	      0.00000000
      1.13680933	      1.44291676	     -0.19749133	      0.00000000
      1.13874597	      1.45343349	     -0.20113358	      0.00000000
      1.14068261	      1.46388771	     -0.20489866	      0.00000000
      1.14261926	      1.47427311	     -0.20878917	      0.00000000
      1.14455590	      1.48458449	     -0.21280823	      0.00000000
      1.14649254	      1.49481319	     -0.21695802	      0.00000000
      1.14842919	      1.50495654	     -0.22124266	      0.00000000
      1.15036583	      1.51500621	     -0.22566625	      0.00000000
      1.15230247	      1.52496847	     -0.23023304	      0.00000000
      1.15423911	      1.53484101	     -0.23494797	      0.00000000
      1.15617576	      1.54464592	     -0.23980990	      0.00000000
      1.15811240	      1.55438871	     -0.24481251	      0.00000000
      1.16004904	      1.56411587	     -0.24994205	      0.00000000
      1.16198569	      1.57385332	     -0.25513173	      0.00000000
