moco_WoC_Solution_iter01_metabolic
nRows=601
nColumns=6
inDegrees=no
Body mass(kg)=80.0000
Distance(m)=1.2623
Total metabolic energy(J)=322.5205
Avg metabolic rate(W)=274.4246
endheader
time	met_rate_W	act_rate_W	maint_rate_W	short_rate_W	mech_rate_W
0.000000	459.753490	44.254456	57.504317	62.901294	198.969406
0.001959	443.969182	41.014275	53.694054	61.498656	191.603447
0.003918	427.785602	37.868470	49.930658	59.954518	183.771939
0.005876	413.692627	35.910339	47.788202	58.274559	175.440609
0.007835	399.200545	34.076980	45.713282	56.502823	166.608024
0.009794	387.901979	32.345999	43.642401	58.136681	157.444006
0.011753	377.641764	30.702468	41.619348	60.857659	148.098736
0.013711	369.699732	30.878451	41.991158	63.003034	137.437568
0.015670	362.419612	31.237309	42.450589	67.678407	124.639632
0.017629	357.176176	32.914422	44.423131	73.284839	110.116666
0.019588	352.741644	34.914408	46.557165	79.301832	95.507927
0.021546	337.819392	31.952526	43.299668	78.858537	87.224777
0.023505	323.415300	29.306166	40.259732	71.183791	86.094561
0.025464	311.946516	27.870739	38.612640	61.570538	86.885156
0.027423	301.277798	26.560716	37.053281	53.184226	87.115131
0.029382	293.266462	26.100489	36.565700	46.786270	86.191885
0.031340	286.299370	25.651359	36.086265	42.327420	84.536636
0.033299	282.352639	25.147917	35.501071	40.719938	82.557837
0.035258	278.654368	24.649797	34.917658	40.774167	80.497940
0.037217	275.165942	24.258133	34.474378	40.573839	78.466549
0.039175	271.787538	23.870195	34.032131	40.278827	76.502859
0.041134	268.698150	23.537430	33.657820	39.975123	74.627098
0.043093	265.771284	23.207732	33.284027	39.658654	72.848364
0.045052	263.137033	22.918301	32.961945	39.380320	71.167639
0.047010	260.651131	22.631809	32.640136	39.121349	69.581999
0.048969	258.348555	22.367164	32.347557	38.899921	68.081399
0.050928	256.152153	22.105610	32.055219	38.705883	66.654240
0.052887	254.044580	21.848503	31.768878	38.532514	65.286097
0.054846	252.005598	21.594619	31.482855	38.381913	63.963115
0.056804	249.976753	21.336638	31.191419	38.221878	62.672837
0.058763	247.981140	21.081812	30.900402	38.072538	61.404841
0.060722	245.974977	20.825213	30.605789	37.903436	60.153925
0.062681	243.980535	20.571570	30.311661	37.729983	58.916481
0.064639	242.007662	20.326759	30.026108	37.543822	57.695134
0.066598	240.042056	20.084615	29.740998	37.340792	56.492661
0.068557	238.142404	19.863004	29.479218	37.131191	55.315717
0.070516	236.256071	19.643733	29.214731	36.900811	54.169826
0.072474	234.463071	19.452674	28.984015	36.661460	53.060748
0.074433	232.690804	19.263674	28.753426	36.396607	51.992663
0.076392	231.014017	19.104293	28.559735	36.115142	50.967504
0.078351	229.360649	18.946761	28.366040	35.809476	49.986079
0.080310	227.786291	18.814583	28.204353	35.481831	49.046720
0.082268	226.232745	18.684081	28.042555	35.132172	48.147452
0.084227	224.736299	18.572001	27.904257	34.759820	47.285176
0.086186	223.255941	18.461415	27.765767	34.367334	46.457072
0.088145	221.817971	18.363881	27.644294	33.954810	45.660662
0.090103	220.392671	18.267637	27.522570	33.523646	44.893882
0.092062	219.008084	18.183541	27.416984	33.075763	44.155600
0.094021	217.606107	18.100533	27.282432	32.610183	43.444896
0.095980	216.245144	18.033401	27.161638	32.128008	42.761575
0.097938	214.894572	17.967194	27.041347	31.627189	42.105360
0.099897	213.639157	17.923219	26.943685	31.149074	41.476290
0.101856	212.462750	17.880064	26.843346	30.724563	40.874132
0.103815	211.384569	17.864812	26.778356	30.308013	40.298715
0.105774	210.320732	17.850352	26.709878	29.882033	39.749567
0.107732	209.340744	17.866025	26.675661	29.449618	39.226179
0.109691	208.385062	17.882526	26.641943	29.015033	38.727843
0.111650	207.512832	17.926463	26.641634	28.578914	38.253612
0.113609	206.665876	17.971297	26.641894	28.143447	37.802524
0.115567	205.885177	18.036287	26.666499	27.708127	37.373074
0.117526	205.127621	18.102221	26.691736	27.274133	36.963939
0.119485	204.413010	18.179086	26.730386	26.840531	36.573163
0.121444	203.717024	18.256885	26.770222	26.407028	36.199091
0.123402	203.043022	18.337888	26.815474	25.972799	35.839632
0.125361	202.381864	18.419764	26.861392	25.537845	35.493028
0.127320	201.732853	18.500926	26.907568	25.105415	35.157446
0.129279	201.102997	18.582879	26.954425	24.681223	34.831339
0.131238	200.494844	18.664214	27.001677	24.267143	34.513336
0.133196	199.916071	18.746274	27.049627	23.862990	34.202261
0.135155	199.365384	18.830422	27.100814	23.458929	33.897055
0.137114	198.836468	18.915264	27.152727	23.056954	33.596837
0.139073	198.324980	19.005705	27.211420	22.651560	33.300855
0.141031	197.820431	19.096855	27.270886	22.250770	33.008446
0.142990	197.334207	19.196492	27.339877	21.853778	32.718953
0.144949	196.857652	19.296888	27.409705	21.469505	32.431805
0.146908	196.409394	19.407229	27.490241	21.097341	32.146437
0.148866	195.977448	19.518406	27.571691	20.741651	31.862372
0.150825	195.576206	19.639383	27.663420	20.397128	31.579221
0.152784	195.188532	19.761282	27.756142	20.063022	31.296674
0.154743	194.822943	19.891504	27.857490	19.733156	31.014575
0.156701	194.466171	20.022723	27.959900	19.408462	30.732828
0.158660	194.124101	20.159922	28.068567	19.085949	30.451481
0.160619	193.790229	20.298165	28.178343	18.768222	30.170631
0.162578	193.466149	20.439723	28.291778	18.453400	29.890508
0.164537	193.151173	20.582340	28.406345	18.144173	29.611349
0.166495	192.842689	20.725825	28.522232	17.838672	29.333557
0.168454	192.544546	20.870352	28.639250	17.539521	29.057466
0.170413	192.251051	21.013843	28.755846	17.244814	28.783478
0.172372	191.969166	21.158335	28.873558	16.957245	28.511879
0.174330	191.690465	21.300425	28.989741	16.674859	28.242731
0.176289	191.423933	21.443461	29.107014	16.400280	27.976038
0.178248	191.158545	21.583195	29.222170	16.131208	27.711372
0.180207	190.904390	21.723814	29.338381	15.869934	27.448369
0.182165	190.649115	21.860736	29.452366	15.613615	27.186355
0.184124	190.402947	21.998482	29.567372	15.364311	26.924788
0.186083	190.154076	22.132636	29.680506	15.118850	26.663068
0.188042	189.912138	22.267556	29.794624	14.879455	26.400716
0.190001	189.666760	22.399279	29.907509	14.642939	26.137282
0.191959	189.426779	22.531716	30.021343	14.411895	25.872426
0.193918	189.183104	22.661398	30.134608	14.183203	25.605812
0.195877	188.943901	22.791748	30.248788	13.959761	25.337225
0.197836	188.700981	22.919653	30.362873	13.738428	25.066494
0.199794	188.462086	23.048181	30.477834	13.522276	24.793561
0.201753	188.219406	23.174269	30.592801	13.308094	24.518488
0.203712	187.980756	23.300938	30.708604	13.099049	24.241407
0.205671	187.738016	23.424773	30.824062	12.891892	23.962605
0.207629	187.499735	23.549146	30.940312	12.689848	23.682387
0.209588	187.256868	23.669974	31.055523	12.489709	23.401190
0.211547	187.019221	23.791296	31.171479	12.294729	23.119422
0.213506	186.776054	23.908116	31.285443	12.101812	22.837496
0.215465	186.538884	24.025384	31.400102	11.914166	22.555794
0.217423	186.294797	24.137063	31.511669	11.728863	22.274571
0.219382	186.057235	24.249143	31.623878	11.548944	21.994091
0.221341	185.811609	24.354539	31.731887	11.371786	21.714558
0.223300	185.573213	24.460292	31.840488	11.200123	21.436185
0.225258	185.325887	24.557908	31.943431	11.031639	21.159267
0.227217	185.087002	24.655838	32.043852	10.870781	20.884065
0.229176	184.836213	24.743347	32.134940	10.713950	20.610895
0.231135	184.594457	24.831125	32.226477	10.570832	20.339998
0.233093	184.337550	24.906429	32.307926	10.465589	20.071629
0.235052	184.089799	24.981957	32.389764	10.400249	19.805982
0.237011	183.830412	25.047017	32.463328	10.348506	19.543517
0.238970	183.579158	25.112268	32.537217	10.301469	19.284726
0.240929	183.328922	25.173910	32.609409	10.258810	19.030535
0.242887	183.091450	25.235725	32.681870	10.222054	18.782003
0.244846	182.880460	25.291412	32.750041	10.191225	18.539680
0.246805	182.721538	25.347260	32.818440	10.166045	18.304039
0.248764	182.517724	25.368110	32.854088	10.145260	18.073639
0.250722	182.318407	25.389121	32.889961	10.128297	17.846271
0.252681	182.013028	25.355606	32.873885	10.113679	17.619503
0.254640	181.706663	25.322361	32.858099	10.101073	17.390327
0.256599	181.416851	25.295756	32.851081	10.091480	17.160120
0.258557	181.129501	25.269394	32.844288	10.085302	16.932111
0.260516	181.018185	25.318290	32.913741	10.085771	16.711935
0.262475	181.006332	25.367325	32.983262	10.093472	16.507548
0.264434	180.972903	25.376686	33.012452	10.107152	16.319143
0.266393	180.953890	25.386206	33.041752	10.126297	16.143048
0.268351	180.581914	25.216691	32.894483	10.143348	15.970807
0.270310	180.203000	25.048305	32.747975	10.152228	15.788672
0.272269	179.883637	24.913225	32.635921	10.207275	15.595624
0.274228	179.539374	24.778999	32.524461	10.360491	15.375755
0.276186	179.496777	24.789136	32.556796	10.516838	15.167214
0.278145	179.484707	24.799414	32.589192	10.673531	14.983441
0.280104	179.398687	24.758623	32.568274	10.837761	14.820131
0.282063	179.340974	24.718071	32.547513	11.008195	14.675477
0.284021	178.881268	24.452567	32.302895	11.215679	14.536709
0.285980	178.436666	24.189332	32.059757	11.443201	14.383868
0.287939	178.128092	24.009411	31.901882	11.647524	14.214734
0.289898	177.821912	23.830765	31.744858	11.852097	14.039582
0.291857	177.696417	23.745442	31.681265	12.044577	13.867496
0.293815	177.585721	23.660614	31.618024	12.237826	13.708850
0.295774	177.287042	23.464236	31.442386	12.455122	13.562693
0.297733	176.995091	23.269380	31.267836	12.662429	13.419376
0.299692	176.548336	23.001085	31.018217	13.021432	13.272324
0.301650	176.233410	22.735335	30.770340	13.477868	13.116157
0.303609	176.006351	22.479185	30.530143	13.930294	12.950689
0.305568	175.773537	22.225420	30.291623	14.387039	12.779673
0.307527	175.530369	21.967335	30.047165	14.846405	12.605492
0.309485	175.289307	21.711729	29.802268	15.304865	12.430194
0.311444	174.983761	21.421832	29.521650	15.766782	12.253482
0.313403	174.684568	21.135100	29.243285	16.228068	12.073704
0.315362	174.322651	20.815899	28.930447	16.692834	11.889531
0.317321	173.967913	20.500660	28.620401	17.158840	11.699799
0.319279	173.557570	20.159379	28.280700	17.626998	11.504339
0.321238	173.153244	19.822809	27.944286	18.096291	11.303391
0.323197	172.700020	19.466936	27.582745	18.563768	11.098553
0.325156	172.252781	19.116395	27.224887	19.029339	10.892145
0.327114	171.785689	18.762902	26.857321	19.485429	10.688038
0.329073	171.326014	18.414941	26.493567	19.932549	10.491215
0.331032	170.879817	18.079931	26.136340	20.361289	10.307087
0.332991	170.442181	17.750193	25.782768	20.770825	10.142114
0.334949	170.048291	17.447049	25.449928	21.152304	10.001896
0.336908	169.663360	17.148573	25.120361	21.503980	9.892736
0.338867	169.406332	16.917955	24.854353	21.816618	9.819298
0.340826	169.158128	16.690515	24.590640	22.091477	9.787152
0.342785	169.120647	16.571998	24.435110	22.316151	9.798956
0.344743	169.089720	16.454922	24.280588	22.501246	9.856825
0.346702	169.209903	16.418034	24.211182	22.635544	9.960705
0.348661	169.446124	16.381891	24.142120	22.732926	10.107554
0.350620	169.785156	16.389751	24.128408	22.792422	10.292127
0.352578	170.118163	16.398074	24.114824	22.820302	10.506921
0.354537	170.470614	16.432630	24.137712	22.822026	10.743726
0.356496	170.811855	16.467545	24.160679	22.800013	10.993401
0.358455	171.164877	16.521111	24.207277	22.759667	11.248676
0.360413	171.501393	16.575058	24.253933	22.704390	11.502385
0.362372	171.836751	16.642414	24.313878	22.636812	11.750155
0.364331	172.154615	16.710228	24.373833	22.561497	11.988108
0.366290	172.455849	16.785144	24.436450	22.477608	12.214666
0.368249	172.740737	16.860595	24.498983	22.390027	12.428555
0.370207	173.001527	16.939438	24.558654	22.295374	12.629639
0.372166	173.246881	17.018878	24.618121	22.198273	12.817871
0.374125	173.468526	17.101044	24.674478	22.094079	12.993459
0.376084	173.674369	17.183862	24.730519	21.986800	13.156647
0.378042	173.855706	17.268593	24.783163	21.871463	13.307572
0.380001	174.019702	17.354023	24.835389	21.751240	13.446390
0.381960	174.150292	17.437614	24.883980	21.617236	13.572833
0.383919	174.260748	17.521928	24.937941	21.469788	13.686605
0.385877	174.330397	17.601782	24.982644	21.309918	13.786061
0.387836	174.373953	17.682365	25.027525	21.138051	13.869304
0.389795	174.381220	17.761005	25.068143	20.951839	13.935204
0.391754	174.359497	17.840380	25.108869	20.751280	13.982838
0.393713	174.300433	17.918237	25.146017	20.534844	14.011197
0.395671	174.209054	17.996843	25.183218	20.302206	14.019531
0.397630	174.067659	18.070903	25.210907	20.051760	14.007210
0.399589	173.890456	18.145739	25.238587	19.783753	13.973815
0.401548	173.653504	18.213824	25.252569	19.496630	13.918962
0.403506	173.377998	18.282725	25.266474	19.191078	13.842352
0.405465	173.044486	18.345784	25.269075	18.866414	13.743712
0.407424	172.670101	18.409686	25.270859	18.522826	13.622934
0.409383	172.243430	18.469376	25.265638	18.161136	13.479850
0.411341	171.774385	18.529910	25.260251	17.780561	13.314480
0.413300	171.243276	18.583975	25.245220	17.382697	13.126590
0.415259	170.687425	18.638875	25.229985	16.966514	12.916109
0.417218	170.158084	18.685880	25.202337	16.533507	12.683048
0.419177	169.615548	18.733716	25.174447	16.083441	12.427604
0.421135	169.018603	18.776766	25.139400	15.618483	12.150181
0.423094	168.380935	18.820636	25.104086	15.138567	11.851413
0.425053	167.705439	18.861678	25.068238	14.648209	11.531678
0.427012	167.131285	18.903491	25.032108	14.145361	11.191529
0.428970	166.555908	18.942458	24.984959	13.636987	10.831040
0.430929	165.933687	18.982118	24.927785	13.118813	10.450495
0.432888	165.288652	19.018435	24.875479	12.598663	10.050014
0.434847	164.615992	19.055375	24.824070	12.071618	9.630039
0.436805	163.920448	19.087953	24.775804	11.545164	9.191648
0.438764	163.201382	19.121102	24.728379	11.007774	8.736974
0.440723	162.457912	19.146906	24.681307	10.792367	8.266727
0.442682	161.692599	19.173230	24.635016	11.234696	7.781721
0.444640	161.061725	19.184583	24.581834	11.676980	7.282369
0.446599	160.921360	19.196399	24.528472	12.122440	6.768952
0.448558	160.738298	19.186374	24.455641	12.588628	6.241648
0.450517	160.541887	19.176769	24.383576	13.056566	5.700322
0.452476	160.307748	19.144544	24.298204	13.539008	5.145323
0.454434	160.060997	19.112726	24.213590	14.023041	4.576846
0.456393	159.787526	19.062815	24.120440	14.521259	3.996015
0.458352	159.506036	19.013320	24.028054	15.022701	3.404124
0.460311	159.218784	18.953654	23.935401	15.537829	2.803631
0.462269	158.932117	18.894417	23.843522	16.057257	2.197501
0.464228	158.662441	18.832935	23.759737	16.575743	1.589767
0.466187	158.400272	18.771896	23.676746	17.372044	0.985053
0.468146	158.207173	18.712109	23.605141	18.232273	0.388703
0.470104	158.337810	18.652790	23.534361	19.118313	-0.193665
0.472063	158.501213	18.590104	23.469022	20.027840	-0.756333
0.474022	158.715393	18.527936	23.404547	20.961697	-1.293923
0.475981	158.954148	18.449964	23.331341	21.914833	-1.801785
0.477940	159.247450	18.372592	23.259025	22.887936	-2.276318
0.479898	159.539805	18.265896	23.164272	23.875213	-2.715264
0.481857	159.891459	18.159944	23.070418	24.877098	-3.117916
0.483816	160.245378	18.019773	22.952081	25.888285	-3.485300
0.485775	160.662339	17.880586	22.833715	26.909438	-3.819694
0.487733	161.072081	17.708390	22.695411	27.936163	-4.124833
0.489692	161.517627	17.537536	22.557816	28.969809	-4.405156
0.491651	161.952960	17.339625	22.414426	30.006996	-4.665900
0.493610	162.412244	17.143568	22.271705	31.050598	-4.912428
0.495568	162.832041	16.922932	22.123786	32.089812	-5.168453
0.497527	163.292683	16.704839	21.976549	33.137069	-5.402224
0.499486	163.732766	16.458938	21.820898	34.191851	-5.630741
0.501445	164.196021	16.216457	21.665851	35.260460	-5.859255
0.503404	164.616389	15.936152	21.496115	36.342243	-6.095518
0.505362	165.072276	15.660582	21.326096	37.444381	-6.345706
0.507321	165.540127	15.364345	21.179097	38.575752	-6.639885
0.509280	166.001762	15.074274	21.033008	39.748014	-6.996789
0.511239	166.404158	14.759969	20.891950	40.982647	-7.395029
0.513197	166.804191	14.454277	20.751654	42.284406	-7.818987
0.515156	167.252205	14.179160	20.614916	43.563428	-8.202848
0.517115	167.787727	13.913221	20.478516	44.867666	-8.496646
0.519074	168.580535	13.748972	20.429295	46.228343	-8.711481
0.521032	169.535620	13.591472	20.380434	47.648015	-8.844331
0.522991	170.761065	13.801087	20.646223	48.944900	-8.994638
0.524950	172.482850	14.015926	20.917487	50.501434	-9.226463
0.526909	175.152970	14.618673	21.634558	52.200737	-9.634697
0.528868	177.998593	15.247793	22.359461	54.353628	-10.280059
0.530826	181.636999	16.102390	23.243559	56.638914	-10.950135
0.532785	185.350180	16.998482	24.155264	58.799272	-11.474467
0.534744	188.632871	17.768353	24.765071	60.704403	-11.528062
0.536703	192.198205	18.581600	25.405063	62.288996	-10.938289
0.538661	195.933632	19.340192	26.070404	63.702718	-10.040742
0.540620	199.918927	20.127533	26.757757	65.076817	-8.912386
0.542579	203.649377	20.738864	27.315220	66.442375	-7.731161
0.544538	207.347013	21.366580	27.886629	67.782082	-6.570389
0.546496	210.558394	21.807655	28.206456	68.979028	-5.310182
0.548455	213.919948	22.261551	28.539277	70.035191	-3.873087
0.550414	217.278750	22.709806	29.036747	71.118538	-2.614074
0.552373	220.307371	23.171077	29.546630	72.257451	-1.750883
0.554332	224.376399	24.120514	30.931091	73.728220	-1.566397
0.556290	228.271412	25.132137	32.360880	75.451542	-2.035446
0.558249	231.194277	25.962293	33.567863	76.471521	-2.251482
0.560208	233.746488	26.839124	34.808980	75.956542	-1.355751
0.562167	235.047246	27.385769	35.653192	73.211908	1.324871
0.564125	235.980902	27.961830	36.521265	67.672455	6.105367
0.566084	232.201352	26.749673	34.938553	59.729487	12.612419
0.568043	236.033048	25.605024	33.412201	61.027965	18.907676
0.570002	244.920328	25.249091	33.147345	65.678310	23.759486
0.571960	253.316013	24.909079	32.885568	71.787212	27.018341
0.573919	259.106049	23.970379	31.831536	80.591023	26.717867
0.575878	263.525133	23.085144	30.814353	94.138581	19.487117
0.577837	263.978241	22.719410	30.763929	101.122543	13.373962
0.579796	262.031141	22.406883	30.737767	101.093152	11.799858
0.581754	258.550022	22.651887	31.477336	99.534090	8.879410
0.583713	258.032159	23.062474	32.308427	103.880070	2.786317
0.585672	258.185546	23.823647	33.448211	113.001442	-8.064790
0.587631	257.433597	24.792328	34.708367	125.241369	-23.285663
0.589589	254.550107	25.482949	35.560708	138.978518	-41.475355
0.591548	250.637695	26.278040	36.470293	152.580370	-60.747835
0.593507	241.531665	25.558710	35.713003	162.138549	-78.067407
0.595466	232.529747	24.867686	34.950747	167.549145	-90.995917
0.597424	221.401499	23.653342	32.860581	171.540767	-102.901702
0.599383	212.181735	23.158614	31.218844	179.510932	-118.059398
0.601342	205.883369	22.999690	30.721948	189.717381	-134.107037
0.603301	201.796376	22.910998	30.303252	196.431350	-144.584749
0.605260	197.765250	21.964556	29.556483	191.995355	-142.591015
0.607218	194.312552	21.062682	28.763970	176.619724	-129.044625
0.609177	191.023582	20.315685	28.035550	155.330473	-109.648322
0.611136	187.570439	19.595212	27.289663	132.129868	-88.519742
0.613095	183.604163	18.762040	26.425478	109.661142	-68.416006
0.615053	179.799449	17.980761	25.566282	90.150084	-51.130160
0.617012	176.829817	17.543643	25.078629	74.531997	-37.545926
0.618971	174.947005	17.121762	24.598822	63.075034	-27.116295
0.620930	174.189358	16.812066	24.231036	54.975894	-19.028877
0.622888	176.080944	16.508927	23.869700	51.023877	-12.517003
0.624847	177.511422	16.232918	23.534038	47.645976	-7.080406
0.626806	178.547685	15.962651	23.202712	44.674056	-2.447182
0.628765	179.439017	15.734963	22.923371	42.112123	1.547502
0.630724	180.121119	15.512415	22.647058	39.875264	5.005920
0.632682	180.816602	15.358701	22.457997	37.959082	8.005247
0.634641	181.368710	15.209415	22.271571	36.291597	10.608459
0.636600	181.967506	15.153674	22.212784	34.779273	12.876111
0.638559	182.480162	15.100882	22.155820	33.452969	14.862792
0.640517	183.001262	15.113944	22.196533	32.186128	16.622401
0.642476	183.490728	15.128464	22.237472	31.063559	18.197370
0.644435	184.015297	15.188882	22.344774	30.007763	19.619812
0.646394	184.527128	15.250447	22.451770	29.060773	20.915406
0.648352	185.120015	15.332527	22.582948	28.261119	22.098723
0.650311	185.885301	15.415393	22.713958	27.726325	23.186935
0.652270	186.596366	15.485686	22.822603	27.260297	24.189484
0.654229	187.290966	15.556461	22.931364	26.851840	25.116576
0.656188	187.887141	15.601044	23.001082	26.482260	25.975064
0.658146	188.460894	15.646033	23.071162	26.153490	26.769798
0.660105	188.947127	15.671275	23.112551	25.846539	27.507889
0.662064	189.408159	15.697018	23.154416	25.566975	28.194099
0.664023	189.831079	15.717685	23.188431	25.307702	28.834445
0.665981	190.255986	15.738937	23.222863	25.071237	29.435258
0.667940	190.714840	15.766141	23.265177	24.853996	30.004941
0.669899	191.185487	15.793933	23.305269	24.657156	30.550432
0.671858	191.680864	15.831514	23.357114	24.479627	31.078133
0.673816	192.180727	15.869647	23.409132	24.322371	31.593662
0.675775	192.709562	15.916244	23.473074	24.184612	32.101277
0.677734	193.251095	15.963357	23.537139	24.067376	32.604754
0.679693	193.818872	16.015574	23.608728	23.968671	33.106217
0.681652	194.402299	16.068301	23.680372	23.890196	33.607241
0.683610	195.005053	16.123015	23.755292	23.829071	34.107824
0.685569	195.621370	16.178274	23.830170	23.787151	34.607419
0.687528	196.247351	16.233163	23.904895	23.761402	35.104110
0.689487	196.881056	16.288669	23.979481	23.753345	35.595613
0.691445	197.512490	16.341883	24.051063	23.760539	36.078681
0.693404	198.145072	16.395779	24.122438	23.784970	36.550018
0.695363	198.765419	16.446051	24.188966	23.825086	37.006049
0.697322	199.382518	16.497007	24.255226	23.884140	37.443348
0.699280	199.978221	16.543595	24.315682	23.957508	37.858841
0.701239	200.561511	16.590805	24.375799	24.045486	38.249670
0.703198	201.105352	16.631840	24.428155	24.138417	38.613236
0.705157	201.624220	16.673395	24.480185	24.236456	38.947655
0.707116	202.069402	16.701150	24.513916	24.327329	39.250274
0.709074	202.478860	16.729335	24.547384	24.415643	39.518613
0.711033	202.792768	16.739795	24.555928	24.489222	39.749314
0.712992	203.060078	16.750657	24.564224	24.554217	39.938765
0.714951	203.281816	16.762522	24.574131	24.607983	40.087149
0.716909	203.456704	16.774744	24.583767	24.651830	40.195611
0.718868	203.667013	16.810797	24.627127	24.699247	40.270822
0.720827	203.841314	16.847192	24.664550	24.742970	40.319849
0.722786	204.084912	16.915672	24.749619	24.792936	40.350526
0.724744	204.319190	16.984767	24.834774	24.848133	40.370587
0.726703	204.528326	17.052323	24.913973	24.904203	40.380040
0.728662	204.598392	17.120469	25.025842	24.917342	40.265236
0.730621	204.752772	17.159746	25.069247	24.978260	40.292928
0.732580	204.870909	17.199251	25.112712	25.032812	40.290183
0.734538	204.825085	17.194480	25.096181	25.068090	40.247825
0.736497	204.722081	17.190115	25.080119	25.085629	40.157366
0.738456	204.650249	17.213899	25.103401	25.095194	40.025985
0.740415	204.539515	17.237952	25.126998	25.080811	39.862043
0.742373	204.627665	17.341071	25.258606	25.263354	39.684474
0.744332	204.717897	17.444972	25.390471	25.565668	39.511004
0.746291	205.065696	17.570694	25.553170	25.879114	39.344803
0.748250	205.552850	17.697399	25.716173	26.218688	39.187632
0.750208	205.858880	17.750674	25.784262	26.556397	39.023437
0.752167	206.152068	17.804172	25.852584	26.901676	38.836021
0.754126	206.162428	17.768823	25.804119	27.219773	38.606076
0.756085	206.095450	17.734369	25.756918	27.518411	38.315800
0.758043	205.937886	17.697308	25.707345	27.791318	37.966571
0.760002	205.702707	17.661223	25.659220	28.038657	37.562311
0.761961	205.801760	17.769097	25.807132	28.288081	37.139001
0.763920	205.923253	17.877651	25.955544	28.543733	36.730429
0.765879	206.262536	18.059152	26.204178	28.811607	36.351514
0.767837	206.676220	18.242516	26.453727	29.109021	36.014402
0.769796	206.969831	18.363638	26.622400	29.410830	35.703295
0.771755	207.291013	18.485447	26.791517	29.729240	35.402017
0.773714	207.129351	18.426104	26.726885	30.015685	35.071046
0.775672	206.876446	18.368236	26.664234	30.274631	34.672705
0.777631	205.890180	18.086357	26.307555	30.448045	34.157950
0.779590	204.686734	17.815814	25.960769	30.541132	33.485266
0.781549	203.487116	17.723086	25.850616	30.435653	32.665904
0.783507	202.106954	17.637809	25.747545	30.262776	31.720968
0.785466	201.039576	17.696547	25.838316	30.122822	30.728412
0.787425	199.998998	17.756366	25.930878	29.969489	29.752639
0.789384	199.106700	17.756412	25.950929	29.869395	28.819222
0.791343	198.279975	17.756893	25.972025	29.778857	27.941062
0.793301	197.441855	17.766735	25.995861	29.762379	27.085737
0.795260	196.657440	17.777709	26.021410	29.810052	26.229047
0.797219	195.728231	17.886437	26.157034	29.784745	25.337510
0.799178	195.057394	17.999399	26.296711	29.760127	24.392505
0.801136	195.296628	18.433807	26.822328	29.973675	23.386920
0.803095	195.669478	18.879160	27.355960	30.343838	22.332614
0.805054	196.024393	19.381319	27.954149	30.564259	21.289263
0.807013	196.391482	19.894379	28.560060	30.730071	20.297192
0.808971	197.210725	20.586704	29.345875	30.818697	19.363244
0.810930	198.153066	21.297818	30.133997	30.907850	18.503077
0.812889	199.691658	22.294710	31.216082	31.097262	17.731434
0.814848	201.344159	23.325761	32.318539	31.234896	17.076454
0.816807	203.605672	24.648577	33.708283	31.302321	16.572907
0.818765	206.013692	26.022473	35.127739	31.275256	16.251398
0.820724	209.085175	27.686928	36.814244	31.127846	16.137964
0.822683	212.414718	29.419645	38.539708	30.842173	16.249721
0.824642	216.113741	31.319187	40.395301	30.406921	16.591088
0.826600	219.988640	33.293549	42.291601	29.826480	17.146886
0.828559	223.821329	35.233951	44.127524	29.113622	17.884101
0.830518	228.686485	37.240675	46.001225	28.300653	18.754492
0.832477	233.257833	39.071984	47.692985	28.238581	19.703980
0.834435	237.924662	40.954640	49.414513	28.560290	20.682952
0.836394	242.270332	42.690957	50.988601	28.844534	21.654976
0.838353	246.633677	44.468417	52.586998	29.091675	22.602247
0.840312	250.891083	46.211351	54.139855	29.305913	23.523048
0.842271	255.243409	47.991807	55.715031	29.493688	24.429389
0.844229	259.612299	49.786235	57.287442	29.660524	25.337846
0.846188	264.030575	51.616895	58.881383	29.811229	26.265862
0.848147	268.474577	53.424025	60.442018	29.946155	27.226897
0.850106	273.109899	55.264807	62.022692	30.081633	28.228448
0.852064	277.631385	57.033470	63.531903	30.286486	29.274941
0.854023	282.236910	58.831867	65.058951	30.521469	30.366058
0.855982	286.722044	60.548232	66.508997	30.746460	31.502323
0.857941	291.288271	62.290619	67.974769	30.964319	32.682926
0.859899	295.763863	63.965489	69.377563	31.177962	33.908882
0.861858	300.319387	65.663504	70.794392	31.388782	35.181247
0.863817	304.810209	67.304643	72.159040	31.597598	36.501756
0.865776	309.381776	68.966591	73.536290	31.805308	37.871838
0.867735	313.895487	70.571586	74.863867	32.012015	39.292929
0.869693	318.488732	72.195229	76.202680	32.217941	40.765703
0.871652	323.017406	73.756229	77.489278	32.422426	42.290746
0.873611	327.621340	75.333773	78.785760	32.624994	43.867876
0.875570	332.142474	76.839760	80.022793	32.825072	45.496113
0.877528	336.731880	78.360264	81.268309	33.022262	47.173951
0.879487	341.204487	79.797746	82.437125	33.217163	48.897984
0.881446	345.736537	81.247821	83.613496	33.410428	50.664534
0.883405	350.128427	82.603255	84.708628	33.603619	52.468180
0.885363	354.568881	83.969453	85.810131	33.798316	54.303355
0.887322	358.842963	85.230053	86.823033	33.995473	56.164371
0.889281	363.154583	86.499645	87.841154	34.196250	58.045356
0.891240	367.269146	87.649751	88.760954	34.400964	59.940446
0.893199	371.412461	88.807131	89.684857	34.610236	61.843537
0.895157	375.319551	89.828427	90.495416	34.826972	63.745523
0.897116	379.243672	90.855415	91.309061	35.053977	65.637224
0.899075	382.894606	91.734579	91.999460	35.296155	67.506681
0.901034	386.540841	92.618037	92.692034	35.558226	69.342196
0.902992	389.909498	93.356576	93.268677	35.841295	71.136752
0.904951	393.254365	94.098172	93.844880	36.147071	72.883428
0.906910	396.386259	94.719011	94.348935	36.460135	74.596767
0.908869	400.366124	95.341784	94.851120	36.966775	76.970184
0.910827	403.208913	95.825740	95.269879	37.237892	78.669776
0.912786	406.005675	96.310885	95.688298	37.463454	80.376499
0.914745	408.484898	96.654230	95.987489	37.648647	82.068973
0.916704	410.910787	96.998290	96.285981	37.808354	83.731281
0.918663	413.015889	97.208821	96.457432	37.956093	85.341183
0.920621	415.064005	97.419865	96.628050	38.115258	86.878309
0.922580	416.865980	97.526298	96.714305	38.284560	88.342298
0.924539	418.613612	97.633085	96.799554	38.467013	89.732643
0.926498	420.178149	97.662601	96.831624	38.654355	91.058506
0.928456	421.689694	97.692374	96.862531	38.839455	92.328668
0.930415	423.028773	97.651553	96.844352	39.023327	93.543267
0.932374	424.314694	97.610950	96.824925	39.208063	94.702726
0.934333	425.430996	97.502715	96.755660	39.396372	95.805689
0.936291	426.497904	97.394712	96.685127	39.593922	96.851108
0.938250	427.432825	97.235349	96.580344	39.797084	97.845028
0.940209	428.325066	97.076255	96.474307	40.005005	98.793242
0.942168	429.123562	96.886035	96.353037	40.203297	99.704646
0.944127	429.978528	96.696134	96.230563	40.488679	100.587422
0.946085	430.901646	96.492253	96.107376	40.879090	101.448986
0.948044	431.790426	96.288751	95.983074	41.250261	102.295883
0.950003	432.659681	96.080744	95.864825	41.603346	103.134696
0.951962	433.525460	95.873191	95.745579	41.940431	103.971015
0.953920	434.397448	95.661790	95.627863	42.260075	104.807066
0.955879	435.281816	95.450909	95.509273	42.572721	105.644532
0.957838	436.160491	95.237347	95.384628	42.914385	106.478186
0.959797	437.040230	95.024316	95.259208	43.318144	107.303114
0.961755	437.949399	94.830703	95.142796	43.756188	108.114823
0.963714	438.861246	94.637565	95.025686	44.208930	108.909263
0.965673	439.830179	94.478216	94.937491	44.668846	109.691210
0.967632	440.807152	94.319294	94.848654	45.138049	110.465029
0.969591	441.826821	94.176724	94.782974	45.601702	111.239015
0.971549	442.863167	94.034594	94.716682	46.062774	112.020527
0.973508	443.900835	93.886732	94.652049	46.515844	112.808152
0.975467	444.944322	93.739323	94.586818	46.968612	113.600221
0.977426	445.936311	93.565492	94.494571	47.430025	114.386417
0.979384	446.924104	93.392111	94.401715	47.905052	115.156908
0.981343	447.798864	93.162577	94.252448	48.407385	115.901474
0.983302	448.658602	92.933574	94.102551	48.932100	116.610157
0.985261	449.422506	92.664552	93.917088	49.479090	117.277358
0.987219	450.161784	92.396145	93.730975	50.048499	117.897555
0.989178	450.848913	92.117401	93.544637	50.619521	118.472785
0.991137	451.508973	91.839318	93.357583	51.202698	119.004861
0.993096	452.113828	91.546080	93.169744	51.778827	119.498563
0.995055	452.687518	91.253586	92.981155	52.351541	119.958082
0.997013	453.179997	90.939807	92.782044	52.898627	120.388873
0.998972	453.633616	90.626919	92.582143	53.427697	120.796095
1.000931	454.031256	90.317156	92.388949	53.908360	121.185596
1.002890	454.396171	90.008460	92.194824	54.368185	121.563747
1.004848	454.746954	89.708527	92.011886	54.802560	121.935041
1.006807	455.067959	89.409705	91.827932	55.211482	122.303369
1.008766	455.380821	89.128516	91.668304	55.566358	122.677838
1.010725	455.664794	88.848598	91.507536	55.878979	123.066954
1.012683	456.008759	88.618342	91.405336	56.115444	123.486035
1.014642	456.462616	88.389922	91.300859	56.417731	123.950895
1.016601	457.057060	88.223338	91.259536	56.679792	124.473495
1.018560	457.671608	88.059160	91.216391	56.893333	125.065294
1.020519	458.476707	87.968542	91.249530	57.074347	125.733103
1.022477	459.331394	87.881454	91.280375	57.220130	126.484267
1.024436	460.403637	87.868309	91.382043	57.345271	127.327408
1.026395	461.569744	87.860820	91.480914	57.483790	128.274194
1.028354	462.673594	87.799113	91.509042	57.705225	129.306462
1.030312	463.780528	87.740197	91.532829	57.890068	130.392459
1.032271	465.124039	87.765596	91.609241	58.028812	131.551729
1.034230	466.635711	87.798340	91.681664	58.149743	132.828156
1.036189	468.445461	87.891983	91.793225	58.278093	134.296665
1.038147	470.224443	87.996940	91.801525	58.340948	135.895598
1.040106	471.586252	87.842894	91.644232	58.307886	137.599226
1.042065	473.256618	87.691879	91.483454	58.368272	139.518964
1.044024	475.308453	87.594267	91.358239	58.481058	141.681926
1.045982	477.928400	87.504104	91.228546	58.868680	144.135610
1.047941	480.914113	87.396899	91.076396	59.335458	146.914690
1.049900	484.359970	87.301601	90.920824	59.913916	150.034310
1.051859	488.425842	87.341297	90.861793	60.515925	153.521339
1.053818	493.085364	87.404081	90.797145	61.274002	157.429387
1.055776	498.221777	87.471875	90.754106	62.047805	161.774451
1.057735	503.973179	87.567378	90.706435	62.991811	166.542642
1.059694	509.859381	87.561765	90.632669	63.868007	171.645629
1.061653	516.065561	87.583542	90.559215	64.816286	176.970849
1.063611	522.231381	87.597386	90.546007	65.568442	182.406943
1.065570	528.389765	87.640748	90.538477	66.263339	187.860200
1.067529	534.474892	87.751645	90.622526	66.770883	193.274506
1.069488	540.389626	87.893839	90.715622	67.138602	198.616973
1.071446	546.079457	88.032409	90.832942	67.367910	203.846303
1.073405	551.890208	88.202156	90.964422	67.813069	208.923016
1.075364	557.822286	88.371210	91.090755	68.564385	213.809147
1.077323	563.398216	88.570579	91.234478	69.128530	218.473516
1.079282	568.166434	88.589750	91.259498	69.492484	222.829505
1.081240	572.616608	88.639519	91.306107	69.902499	226.770691
1.083199	575.416060	88.022146	91.011970	70.360550	230.022347
1.085158	576.816910	87.468139	90.779356	70.360970	232.208822
1.087117	575.785961	86.641159	90.360157	69.790361	232.994408
1.089075	572.625148	85.893865	90.010786	68.627184	232.093355
1.091034	567.659761	85.505609	89.751642	66.994608	229.407919
1.092993	561.005843	85.144012	89.528276	65.233606	225.111587
1.094952	552.907512	83.603890	88.827571	65.314104	219.174399
1.096910	558.201897	82.345463	88.254719	80.251119	211.350696
1.098869	561.278412	82.128074	88.325745	92.719125	202.107778
1.100828	561.104976	81.941984	88.424639	100.119407	194.424967
1.102787	553.146352	80.813780	87.315615	97.248394	191.336517
1.104746	538.564293	79.698349	86.217786	82.964836	193.176989
1.106704	521.571384	79.436227	85.822368	57.835983	202.504766
1.108663	534.182891	79.245075	85.530605	65.062092	208.348411
1.110622	541.203157	78.689269	85.335020	73.209544	207.911733
1.112581	544.605192	78.164935	85.156591	78.126806	207.069956
1.114539	547.731956	77.821345	84.978596	80.979561	207.868333
1.116498	551.652655	77.484178	84.804074	82.879171	210.423776
1.118457	555.719570	76.864565	84.355959	84.296303	214.173775
1.120416	560.201768	76.251492	83.910656	85.355711	218.683102
1.122374	564.888979	75.675819	83.486039	86.149063	223.590442
1.124333	569.618760	75.106744	83.063347	86.760068	228.702008
1.126292	574.185202	74.446278	82.661939	87.383868	233.703164
1.128251	578.343001	73.793441	82.268718	87.883032	238.404400
1.130210	581.789196	73.006641	81.776024	88.299869	242.710781
1.132168	584.710361	72.229019	81.291746	88.638894	246.553262
1.134127	586.513046	71.193349	80.540723	88.863279	249.917317
1.136086	587.702770	70.169359	79.797676	88.956734	252.780077
1.138045	587.569408	68.843187	78.731446	88.865017	255.130520
1.140003	586.701006	67.532292	77.673555	88.557218	256.938542
1.141962	584.809655	66.092311	76.503306	88.071707	258.142871
1.143921	582.129188	64.670935	75.341950	87.403456	258.713435
1.145880	578.693741	63.263900	74.204493	86.583459	258.642648
1.147838	574.508406	61.877785	73.075805	85.612166	257.943858
1.149797	569.761871	60.584852	72.035308	84.502675	256.641229
1.151756	564.345206	59.315398	71.003023	83.257554	254.773796
1.153715	558.332138	58.087450	69.986868	81.871617	252.395549
1.155674	551.713080	56.883394	68.979367	80.314865	249.551793
1.157632	544.598787	55.723732	67.994429	78.623491	246.277077
1.159591	537.059079	54.587101	67.015565	76.741911	242.598089
1.161550	528.931715	53.367335	65.923273	74.884046	238.524341
1.163509	520.254266	52.170741	64.836723	73.001906	234.054801
1.165467	510.890512	50.915006	63.679685	70.984206	229.212802
1.167426	501.109142	49.682446	62.528822	68.860380	224.011129
1.169385	489.655394	47.802441	60.566610	66.841142	218.407568
1.171344	478.599592	45.955507	58.615807	65.574956	212.361111
1.173302	469.749575	45.259193	58.296979	64.241146	205.871032
1.175261	460.618390	44.620223	58.006075	62.894824	198.969406
