PointVelocity
version=1
nRows=601
nColumns=4
inDegrees=no
No description.
endheader
time	state_0	state_1	state_2
      0.00000000	      1.20084008	     -0.81310968	      0.00000000
      0.00151900	      1.07008127	     -1.04731427	      0.00000000
      0.00303799	      0.92485621	     -1.33366985	      0.00000000
      0.00455699	      0.78500405	     -1.59124060	      0.00000000
      0.00607598	      0.69727258	     -1.64486369	      0.00000000
      0.00759498	      0.64586850	     -1.57802417	      0.00000000
      0.00911398	      0.59733384	     -1.52510277	      0.00000000
      0.01063297	      0.55473959	     -1.47369607	      0.00000000
      0.01215197	      0.51862723	     -1.42293294	      0.00000000
      0.01367096	      0.48743978	     -1.37568154	      0.00000000
      0.01518996	      0.46097556	     -1.32916711	      0.00000000
      0.01670895	      0.43772323	     -1.28401513	      0.00000000
      0.01822795	      0.41710566	     -1.23895379	      0.00000000
      0.01974695	      0.39856595	     -1.19440135	      0.00000000
      0.02126594	      0.38176036	     -1.15005774	      0.00000000
      0.02278494	      0.36650411	     -1.10633382	      0.00000000
      0.02430393	      0.35262719	     -1.06334162	      0.00000000
      0.02582293	      0.34002889	     -1.02142857	      0.00000000
      0.02734193	      0.32860200	     -0.98087170	      0.00000000
      0.02886092	      0.31826353	     -0.94195652	      0.00000000
      0.03037992	      0.30894996	     -0.90498758	      0.00000000
      0.03189891	      0.30057198	     -0.86996266	      0.00000000
      0.03341791	      0.29304307	     -0.83683855	      0.00000000
      0.03493690	      0.28617268	     -0.80535734	      0.00000000
      0.03645590	      0.27976718	     -0.77528777	      0.00000000
      0.03797490	      0.27364106	     -0.74637087	      0.00000000
      0.03949389	      0.26762290	     -0.71835179	      0.00000000
      0.04101289	      0.26163346	     -0.69110593	      0.00000000
      0.04253188	      0.25559558	     -0.66450979	      0.00000000
      0.04405088	      0.24952534	     -0.63858594	      0.00000000
      0.04556988	      0.24343200	     -0.61335294	      0.00000000
      0.04708887	      0.23735580	     -0.58886050	      0.00000000
      0.04860787	      0.23132436	     -0.56514249	      0.00000000
      0.05012686	      0.22534613	     -0.54217432	      0.00000000
      0.05164586	      0.21942879	     -0.51993521	      0.00000000
      0.05316486	      0.21355311	     -0.49833477	      0.00000000
      0.05468385	      0.20770910	     -0.47730418	      0.00000000
      0.05620285	      0.20186105	     -0.45670616	      0.00000000
      0.05772184	      0.19597352	     -0.43639914	      0.00000000
      0.05924084	      0.18999721	     -0.41620275	      0.00000000
      0.06075983	      0.18384940	     -0.39583952	      0.00000000
      0.06227883	      0.17753394	     -0.37528187	      0.00000000
      0.06379783	      0.17104591	     -0.35448162	      0.00000000
      0.06531682	      0.16456419	     -0.33389452	      0.00000000
      0.06683582	      0.15830821	     -0.31412790	      0.00000000
      0.06835481	      0.15250534	     -0.29575028	      0.00000000
      0.06987381	      0.14734689	     -0.27926499	      0.00000000
      0.07139281	      0.14281245	     -0.26460865	      0.00000000
      0.07291180	      0.13886878	     -0.25166721	      0.00000000
      0.07443080	      0.13534155	     -0.23999730	      0.00000000
      0.07594979	      0.13209144	     -0.22922642	      0.00000000
      0.07746879	      0.12900877	     -0.21908148	      0.00000000
      0.07898778	      0.12600435	     -0.20933507	      0.00000000
      0.08050678	      0.12306730	     -0.19996076	      0.00000000
      0.08202578	      0.12017948	     -0.19090959	      0.00000000
      0.08354477	      0.11736040	     -0.18222711	      0.00000000
      0.08506377	      0.11462102	     -0.17393734	      0.00000000
      0.08658276	      0.11196927	     -0.16605050	      0.00000000
      0.08810176	      0.10940882	     -0.15856515	      0.00000000
      0.08962076	      0.10692684	     -0.15143444	      0.00000000
      0.09113975	      0.10451244	     -0.14461586	      0.00000000
      0.09265875	      0.10214492	     -0.13803974	      0.00000000
      0.09417774	      0.09980585	     -0.13164029	      0.00000000
      0.09569674	      0.09747582	     -0.12534976	      0.00000000
      0.09721574	      0.09513469	     -0.11909468	      0.00000000
      0.09873473	      0.09277025	     -0.11283022	      0.00000000
      0.10025373	      0.09036812	     -0.10650304	      0.00000000
      0.10177272	      0.08793075	     -0.10011685	      0.00000000
      0.10329172	      0.08545754	     -0.09366649	      0.00000000
      0.10481071	      0.08296747	     -0.08721036	      0.00000000
      0.10632971	      0.08047631	     -0.08079948	      0.00000000
      0.10784871	      0.07801339	     -0.07452686	      0.00000000
      0.10936770	      0.07560566	     -0.06848162	      0.00000000
      0.11088670	      0.07328240	     -0.06275760	      0.00000000
      0.11240569	      0.07107212	     -0.05744933	      0.00000000
      0.11392469	      0.06899529	     -0.05262315	      0.00000000
      0.11544369	      0.06707388	     -0.04835015	      0.00000000
      0.11696268	      0.06531590	     -0.04465929	      0.00000000
      0.11848168	      0.06373132	     -0.04158791	      0.00000000
      0.12000067	      0.06231753	     -0.03912432	      0.00000000
      0.12151967	      0.06107483	     -0.03726529	      0.00000000
      0.12303866	      0.05999210	     -0.03597771	      0.00000000
      0.12455766	      0.05906079	     -0.03523379	      0.00000000
      0.12607666	      0.05826667	     -0.03498866	      0.00000000
      0.12759565	      0.05759705	     -0.03520121	      0.00000000
      0.12911465	      0.05703764	     -0.03582512	      0.00000000
      0.13063364	      0.05657498	     -0.03681543	      0.00000000
      0.13215264	      0.05619616	     -0.03812925	      0.00000000
      0.13367164	      0.05588856	     -0.03972399	      0.00000000
      0.13519063	      0.05564090	     -0.04156144	      0.00000000
      0.13670963	      0.05544199	     -0.04360218	      0.00000000
      0.13822862	      0.05528197	     -0.04581035	      0.00000000
      0.13974762	      0.05515090	     -0.04814848	      0.00000000
      0.14126662	      0.05503971	     -0.05058412	      0.00000000
      0.14278561	      0.05493901	     -0.05308372	      0.00000000
      0.14430461	      0.05484061	     -0.05562120	      0.00000000
      0.14582360	      0.05473628	     -0.05816873	      0.00000000
      0.14734260	      0.05461999	     -0.06070518	      0.00000000
      0.14886159	      0.05448534	     -0.06320684	      0.00000000
      0.15038059	      0.05432839	     -0.06565834	      0.00000000
      0.15189959	      0.05414454	     -0.06804150	      0.00000000
      0.15341858	      0.05393223	     -0.07035064	      0.00000000
      0.15493758	      0.05368926	     -0.07257752	      0.00000000
      0.15645657	      0.05341727	     -0.07472831	      0.00000000
      0.15797557	      0.05311742	     -0.07680761	      0.00000000
      0.15949457	      0.05279418	     -0.07883029	      0.00000000
      0.16101356	      0.05245157	     -0.08081023	      0.00000000
      0.16253256	      0.05209472	     -0.08276302	      0.00000000
      0.16405155	      0.05172852	     -0.08470400	      0.00000000
      0.16557055	      0.05135663	     -0.08664275	      0.00000000
      0.16708954	      0.05098279	     -0.08858969	      0.00000000
      0.16860854	      0.05060827	     -0.09054606	      0.00000000
      0.17012754	      0.05023470	     -0.09251449	      0.00000000
      0.17164653	      0.04986131	     -0.09448925	      0.00000000
      0.17316553	      0.04948767	     -0.09646551	      0.00000000
      0.17468452	      0.04911200	     -0.09843419	      0.00000000
      0.17620352	      0.04873227	     -0.10038442	      0.00000000
      0.17772252	      0.04834727	     -0.10231122	      0.00000000
      0.17924151	      0.04795542	     -0.10420787	      0.00000000
      0.18076051	      0.04755874	     -0.10608420	      0.00000000
      0.18227950	      0.04715893	     -0.10794944	      0.00000000
      0.18379850	      0.04676183	     -0.10982802	      0.00000000
      0.18531750	      0.04637253	     -0.11174185	      0.00000000
      0.18683649	      0.04599819	     -0.11371912	      0.00000000
      0.18835549	      0.04564511	     -0.11578570	      0.00000000
      0.18987448	      0.04531988	     -0.11796709	      0.00000000
      0.19139348	      0.04502662	     -0.12027811	      0.00000000
      0.19291247	      0.04477256	     -0.12275554	      0.00000000
      0.19443147	      0.04456702	     -0.12544977	      0.00000000
      0.19595047	      0.04442347	     -0.12842242	      0.00000000
      0.19746946	      0.04435902	     -0.13175713	      0.00000000
      0.19898846	      0.04437859	     -0.13545612	      0.00000000
      0.20050745	      0.04448386	     -0.13949995	      0.00000000
      0.20202645	      0.04465295	     -0.14379113	      0.00000000
      0.20354545	      0.04486820	     -0.14825178	      0.00000000
      0.20506444	      0.04510610	     -0.15278796	      0.00000000
      0.20658344	      0.04534550	     -0.15731084	      0.00000000
      0.20810243	      0.04556877	     -0.16175029	      0.00000000
      0.20962143	      0.04575890	     -0.16603483	      0.00000000
      0.21114042	      0.04590607	     -0.17012315	      0.00000000
      0.21265942	      0.04599996	     -0.17396934	      0.00000000
      0.21417842	      0.04603689	     -0.17755335	      0.00000000
      0.21569741	      0.04601256	     -0.18085167	      0.00000000
      0.21721641	      0.04592661	     -0.18385389	      0.00000000
      0.21873540	      0.04577850	     -0.18654892	      0.00000000
      0.22025440	      0.04556796	     -0.18892196	      0.00000000
      0.22177340	      0.04529518	     -0.19096039	      0.00000000
      0.22329239	      0.04495699	     -0.19263203	      0.00000000
      0.22481139	      0.04455138	     -0.19390892	      0.00000000
      0.22633038	      0.04407068	     -0.19473450	      0.00000000
      0.22784938	      0.04350872	     -0.19505649	      0.00000000
      0.22936838	      0.04285393	     -0.19479674	      0.00000000
      0.23088737	      0.04209587	     -0.19387839	      0.00000000
      0.23240637	      0.04122196	     -0.19221663	      0.00000000
      0.23392536	      0.04021992	     -0.18972263	      0.00000000
      0.23544436	      0.03908089	     -0.18633131	      0.00000000
      0.23696335	      0.03779576	     -0.18196887	      0.00000000
      0.23848235	      0.03636358	     -0.17661884	      0.00000000
      0.24000135	      0.03478606	     -0.17025646	      0.00000000
      0.24152034	      0.03307056	     -0.16293270	      0.00000000
      0.24303934	      0.03120563	     -0.15465361	      0.00000000
      0.24455833	      0.02922701	     -0.14553596	      0.00000000
      0.24607733	      0.02717003	     -0.13572697	      0.00000000
      0.24759633	      0.02505457	     -0.12542325	      0.00000000
      0.24911532	      0.02290617	     -0.11479237	      0.00000000
      0.25063432	      0.02075203	     -0.10399457	      0.00000000
      0.25215331	      0.01861535	     -0.09319032	      0.00000000
      0.25367231	      0.01651422	     -0.08249658	      0.00000000
      0.25519130	      0.01446722	     -0.07204342	      0.00000000
      0.25671030	      0.01248411	     -0.06189843	      0.00000000
      0.25822930	      0.01057621	     -0.05213872	      0.00000000
      0.25974829	      0.00874443	     -0.04277922	      0.00000000
      0.26126729	      0.00699147	     -0.03384299	      0.00000000
      0.26278628	      0.00531277	     -0.02531699	      0.00000000
      0.26430528	      0.00370586	     -0.01719778	      0.00000000
      0.26582428	      0.00216601	     -0.00947042	      0.00000000
      0.26734327	      0.00068995	     -0.00212640	      0.00000000
      0.26886227	     -0.00072598	      0.00484870	      0.00000000
      0.27038126	     -0.00208461	      0.01146592	      0.00000000
      0.27190026	     -0.00339006	      0.01774791	      0.00000000
      0.27341926	     -0.00464587	      0.02371492	      0.00000000
      0.27493825	     -0.00585809	      0.02940342	      0.00000000
      0.27645725	     -0.00703244	      0.03484851	      0.00000000
      0.27797624	     -0.00817712	      0.04009750	      0.00000000
      0.27949524	     -0.00930040	      0.04519867	      0.00000000
      0.28101423	     -0.01041106	      0.05019771	      0.00000000
      0.28253323	     -0.01151848	      0.05514413	      0.00000000
      0.28405223	     -0.01262900	      0.06006394	      0.00000000
      0.28557122	     -0.01374990	      0.06498820	      0.00000000
      0.28709022	     -0.01488216	      0.06990996	      0.00000000
      0.28860921	     -0.01602744	      0.07482574	      0.00000000
      0.29012821	     -0.01718069	      0.07970025	      0.00000000
      0.29164721	     -0.01833732	      0.08450081	      0.00000000
      0.29316620	     -0.01948962	      0.08918706	      0.00000000
      0.29468520	     -0.02063043	      0.09372243	      0.00000000
      0.29620419	     -0.02175358	      0.09807899	      0.00000000
      0.29772319	     -0.02285237	      0.10222581	      0.00000000
      0.29924218	     -0.02392281	      0.10614895	      0.00000000
      0.30076118	     -0.02496005	      0.10983082	      0.00000000
      0.30228018	     -0.02596322	      0.11327499	      0.00000000
      0.30379917	     -0.02693086	      0.11648272	      0.00000000
      0.30531817	     -0.02786528	      0.11947136	      0.00000000
      0.30683716	     -0.02876841	      0.12225679	      0.00000000
      0.30835616	     -0.02964382	      0.12485821	      0.00000000
      0.30987516	     -0.03049498	      0.12729462	      0.00000000
      0.31139415	     -0.03132433	      0.12957611	      0.00000000
      0.31291315	     -0.03213449	      0.13171389	      0.00000000
      0.31443214	     -0.03292534	      0.13370474	      0.00000000
      0.31595114	     -0.03369710	      0.13554722	      0.00000000
      0.31747014	     -0.03444708	      0.13722751	      0.00000000
      0.31898913	     -0.03517290	      0.13873332	      0.00000000
      0.32050813	     -0.03587036	      0.14004677	      0.00000000
      0.32202712	     -0.03653534	      0.14115051	      0.00000000
      0.32354612	     -0.03716354	      0.14202927	      0.00000000
      0.32506511	     -0.03775049	      0.14266714	      0.00000000
      0.32658411	     -0.03829291	      0.14305596	      0.00000000
      0.32810311	     -0.03878725	      0.14318607	      0.00000000
      0.32962210	     -0.03923192	      0.14305785	      0.00000000
      0.33114110	     -0.03962502	      0.14266996	      0.00000000
      0.33266009	     -0.03996668	      0.14203009	      0.00000000
      0.33417909	     -0.04025682	      0.14114450	      0.00000000
      0.33569809	     -0.04049688	      0.14002520	      0.00000000
      0.33721708	     -0.04068820	      0.13868333	      0.00000000
      0.33873608	     -0.04083281	      0.13713177	      0.00000000
      0.34025507	     -0.04093277	      0.13538319	      0.00000000
      0.34177407	     -0.04099005	      0.13344862	      0.00000000
      0.34329306	     -0.04100679	      0.13133973	      0.00000000
      0.34481206	     -0.04098443	      0.12906415	      0.00000000
      0.34633106	     -0.04092474	      0.12663106	      0.00000000
      0.34785005	     -0.04082832	      0.12404327	      0.00000000
      0.34936905	     -0.04069627	      0.12130591	      0.00000000
      0.35088804	     -0.04052777	      0.11841447	      0.00000000
      0.35240704	     -0.04032258	      0.11536678	      0.00000000
      0.35392604	     -0.04007767	      0.11214848	      0.00000000
      0.35544503	     -0.03979042	      0.10874666	      0.00000000
      0.35696403	     -0.03945535	      0.10513834	      0.00000000
      0.35848302	     -0.03906703	      0.10130066	      0.00000000
      0.36000202	     -0.03861898	      0.09720919	      0.00000000
      0.36152102	     -0.03810470	      0.09283907	      0.00000000
      0.36304001	     -0.03751935	      0.08817425	      0.00000000
      0.36455901	     -0.03685820	      0.08319830	      0.00000000
      0.36607800	     -0.03611925	      0.07790692	      0.00000000
      0.36759700	     -0.03529978	      0.07229259	      0.00000000
      0.36911599	     -0.03439987	      0.06635942	      0.00000000
      0.37063499	     -0.03341909	      0.06010838	      0.00000000
      0.37215399	     -0.03236009	      0.05355370	      0.00000000
      0.37367298	     -0.03122508	      0.04670645	      0.00000000
      0.37519198	     -0.03002089	      0.03959378	      0.00000000
      0.37671097	     -0.02875347	      0.03224117	      0.00000000
      0.37822997	     -0.02743264	      0.02468675	      0.00000000
      0.37974897	     -0.02606775	      0.01696723	      0.00000000
      0.38126796	     -0.02467081	      0.00912562	      0.00000000
      0.38278696	     -0.02325349	      0.00120480	      0.00000000
      0.38430595	     -0.02182825	     -0.00675347	      0.00000000
      0.38582495	     -0.02040737	     -0.01470624	      0.00000000
      0.38734395	     -0.01900218	     -0.02261793	      0.00000000
      0.38886294	     -0.01762392	     -0.03045121	      0.00000000
      0.39038194	     -0.01628181	     -0.03817868	      0.00000000
      0.39190093	     -0.01498473	     -0.04577195	      0.00000000
      0.39341993	     -0.01373972	     -0.05320810	      0.00000000
      0.39493892	     -0.01255325	     -0.06046262	      0.00000000
      0.39645792	     -0.01143235	     -0.06750981	      0.00000000
      0.39797692	     -0.01038333	     -0.07432403	      0.00000000
      0.39949591	     -0.00941680	     -0.08087350	      0.00000000
      0.40101491	     -0.00854293	     -0.08712641	      0.00000000
      0.40253390	     -0.00777295	     -0.09303888	      0.00000000
      0.40405290	     -0.00712114	     -0.09856456	      0.00000000
      0.40557190	     -0.00659349	     -0.10364769	      0.00000000
      0.40709089	     -0.00618562	     -0.10824763	      0.00000000
      0.40860989	     -0.00590789	     -0.11231480	      0.00000000
      0.41012888	     -0.00578429	     -0.11577091	      0.00000000
      0.41164788	     -0.00580574	     -0.11853471	      0.00000000
      0.41316687	     -0.00596345	     -0.12051488	      0.00000000
      0.41468587	     -0.00620810	     -0.12171681	      0.00000000
      0.41620487	     -0.00648981	     -0.12214895	      0.00000000
      0.41772386	     -0.00677011	     -0.12191270	      0.00000000
      0.41924286	     -0.00700318	     -0.12109303	      0.00000000
      0.42076185	     -0.00714879	     -0.11982074	      0.00000000
      0.42228085	     -0.00720451	     -0.11818929	      0.00000000
      0.42379985	     -0.00722037	     -0.11627515	      0.00000000
      0.42531884	     -0.00720969	     -0.11418536	      0.00000000
      0.42683784	     -0.00719244	     -0.11208187	      0.00000000
      0.42835683	     -0.00718572	     -0.11010287	      0.00000000
      0.42987583	     -0.00719819	     -0.10839424	      0.00000000
      0.43139483	     -0.00724101	     -0.10711068	      0.00000000
      0.43291382	     -0.00733810	     -0.10639628	      0.00000000
      0.43443282	     -0.00751119	     -0.10642648	      0.00000000
      0.43595181	     -0.00781499	     -0.10729169	      0.00000000
      0.43747081	     -0.00829628	     -0.10909932	      0.00000000
      0.43898980	     -0.00905702	     -0.11180564	      0.00000000
      0.44050880	     -0.01017116	     -0.11527067	      0.00000000
      0.44202780	     -0.01183282	     -0.11947724	      0.00000000
      0.44354679	     -0.01427711	     -0.12457064	      0.00000000
      0.44506579	     -0.01783194	     -0.13089354	      0.00000000
      0.44658478	     -0.02343407	     -0.13966827	      0.00000000
      0.44810378	     -0.03070698	     -0.14983612	      0.00000000
      0.44962278	     -0.03793152	     -0.15828939	      0.00000000
      0.45114177	     -0.04364356	     -0.16291984	      0.00000000
      0.45266077	     -0.04756036	     -0.16351756	      0.00000000
      0.45417976	     -0.05012944	     -0.16106911	      0.00000000
      0.45569876	     -0.05133508	     -0.15580795	      0.00000000
      0.45721775	     -0.05129516	     -0.14818636	      0.00000000
      0.45873675	     -0.05009264	     -0.13858076	      0.00000000
      0.46025575	     -0.04784292	     -0.12737469	      0.00000000
      0.46177474	     -0.04466465	     -0.11494482	      0.00000000
      0.46329374	     -0.04067059	     -0.10159553	      0.00000000
      0.46481273	     -0.03598990	     -0.08764281	      0.00000000
      0.46633173	     -0.03071832	     -0.07329829	      0.00000000
      0.46785073	     -0.02497251	     -0.05879317	      0.00000000
      0.46936972	     -0.01880327	     -0.04424838	      0.00000000
      0.47088872	     -0.01226902	     -0.02980788	      0.00000000
      0.47240771	     -0.00536462	     -0.01551544	      0.00000000
      0.47392671	      0.00189961	     -0.00143449	      0.00000000
      0.47544571	      0.00954747	      0.01244894	      0.00000000
      0.47696470	      0.01759610	      0.02613353	      0.00000000
      0.47848370	      0.02607588	      0.03966056	      0.00000000
      0.48000269	      0.03501549	      0.05306255	      0.00000000
      0.48152169	      0.04444668	      0.06637839	      0.00000000
      0.48304068	      0.05440662	      0.07964417	      0.00000000
      0.48455968	      0.06492480	      0.09287525	      0.00000000
      0.48607868	      0.07603451	      0.10608996	      0.00000000
      0.48759767	      0.08775213	      0.11927233	      0.00000000
      0.48911667	      0.10009869	      0.13241148	      0.00000000
      0.49063566	      0.11307606	      0.14546296	      0.00000000
      0.49215466	      0.12668967	      0.15838725	      0.00000000
      0.49367366	      0.14092911	      0.17112625	      0.00000000
      0.49519265	      0.15578602	      0.18362497	      0.00000000
      0.49671165	      0.17124350	      0.19583325	      0.00000000
      0.49823064	      0.18728719	      0.20770388	      0.00000000
      0.49974964	      0.20389920	      0.21921104	      0.00000000
      0.50126863	      0.22106375	      0.23033022	      0.00000000
      0.50278763	      0.23876083	      0.24105834	      0.00000000
      0.50430663	      0.25696883	      0.25139006	      0.00000000
      0.50582562	      0.27566451	      0.26133541	      0.00000000
      0.50734462	      0.29483588	      0.27091114	      0.00000000
      0.50886361	      0.31448088	      0.28014767	      0.00000000
      0.51038261	      0.33458812	      0.28906955	      0.00000000
      0.51190161	      0.35512069	      0.29768031	      0.00000000
      0.51342060	      0.37605120	      0.30599319	      0.00000000
      0.51493960	      0.39735621	      0.31401717	      0.00000000
      0.51645859	      0.41901274	      0.32176535	      0.00000000
      0.51797759	      0.44100101	      0.32924397	      0.00000000
      0.51949659	      0.46330124	      0.33646496	      0.00000000
      0.52101558	      0.48589642	      0.34342750	      0.00000000
      0.52253458	      0.50876984	      0.35013443	      0.00000000
      0.52405357	      0.53190481	      0.35657397	      0.00000000
      0.52557257	      0.55528373	      0.36273866	      0.00000000
      0.52709156	      0.57888636	      0.36861062	      0.00000000
      0.52861056	      0.60269162	      0.37417607	      0.00000000
      0.53012956	      0.62667717	      0.37941532	      0.00000000
      0.53164855	      0.65081989	      0.38431172	      0.00000000
      0.53316755	      0.67509761	      0.38884606	      0.00000000
      0.53468654	      0.69948674	      0.39300135	      0.00000000
      0.53620554	      0.72396614	      0.39676008	      0.00000000
      0.53772454	      0.74851356	      0.40010610	      0.00000000
      0.53924353	      0.77310978	      0.40302377	      0.00000000
      0.54076253	      0.79773439	      0.40549838	      0.00000000
      0.54228152	      0.82236880	      0.40751643	      0.00000000
      0.54380052	      0.84699301	      0.40906442	      0.00000000
      0.54531951	      0.87158816	      0.41013160	      0.00000000
      0.54683851	      0.89613604	      0.41070833	      0.00000000
      0.54835751	      0.92063727	      0.41080813	      0.00000000
      0.54987650	      0.94507854	      0.41043098	      0.00000000
      0.55139550	      0.96943537	      0.40956952	      0.00000000
      0.55291449	      0.99369773	      0.40823024	      0.00000000
      0.55443349	      1.01786547	      0.40643139	      0.00000000
      0.55595249	      1.04193209	      0.40418430	      0.00000000
      0.55747148	      1.06589654	      0.40150718	      0.00000000
      0.55899048	      1.08975728	      0.39841732	      0.00000000
      0.56050947	      1.11351680	      0.39493697	      0.00000000
      0.56202847	      1.13717697	      0.39108699	      0.00000000
      0.56354747	      1.16074189	      0.38689076	      0.00000000
      0.56506646	      1.18421551	      0.38237084	      0.00000000
      0.56658546	      1.20760331	      0.37755128	      0.00000000
      0.56810445	      1.23091097	      0.37245580	      0.00000000
      0.56962345	      1.25414513	      0.36710890	      0.00000000
      0.57114244	      1.27731283	      0.36153504	      0.00000000
      0.57266144	      1.30042089	      0.35575803	      0.00000000
      0.57418044	      1.32347660	      0.34980190	      0.00000000
      0.57569943	      1.34648557	      0.34368835	      0.00000000
      0.57721843	      1.36945406	      0.33743961	      0.00000000
      0.57873742	      1.39238547	      0.33107426	      0.00000000
      0.58025642	      1.41528400	      0.32461175	      0.00000000
      0.58177542	      1.43815033	      0.31806710	      0.00000000
      0.58329441	      1.46098598	      0.31145639	      0.00000000
      0.58481341	      1.48378885	      0.30479109	      0.00000000
      0.58633240	      1.50655755	      0.29808375	      0.00000000
      0.58785140	      1.52928737	      0.29134250	      0.00000000
      0.58937039	      1.55197417	      0.28457651	      0.00000000
      0.59088939	      1.57461103	      0.27779105	      0.00000000
      0.59240839	      1.59719143	      0.27099227	      0.00000000
      0.59392738	      1.61970697	      0.26418331	      0.00000000
      0.59544638	      1.64214946	      0.25736796	      0.00000000
      0.59696537	      1.66450984	      0.25054805	      0.00000000
      0.59848437	      1.68677906	      0.24372578	      0.00000000
      0.60000337	      1.70894813	      0.23690233	      0.00000000
      0.60152236	      1.73100789	      0.23007900	      0.00000000
      0.60304136	      1.75294985	      0.22325667	      0.00000000
      0.60456035	      1.77476525	      0.21643620	      0.00000000
      0.60607935	      1.79644639	      0.20961842	      0.00000000
      0.60759835	      1.81798526	      0.20280398	      0.00000000
      0.60911734	      1.83937516	      0.19599386	      0.00000000
      0.61063634	      1.86060905	      0.18918869	      0.00000000
      0.61215533	      1.88168141	      0.18238975	      0.00000000
      0.61367433	      1.90258638	      0.17559788	      0.00000000
      0.61519332	      1.92331978	      0.16881481	      0.00000000
      0.61671232	      1.94387709	      0.16204179	      0.00000000
      0.61823132	      1.96425546	      0.15528114	      0.00000000
      0.61975031	      1.98445174	      0.14853464	      0.00000000
      0.62126931	      2.00446432	      0.14180527	      0.00000000
      0.62278830	      2.02429128	      0.13509543	      0.00000000
      0.62430730	      2.04393204	      0.12840873	      0.00000000
      0.62582630	      2.06338574	      0.12174820	      0.00000000
      0.62734529	      2.08265268	      0.11511809	      0.00000000
      0.62886429	      2.10173292	      0.10852207	      0.00000000
      0.63038328	      2.12062767	      0.10196505	      0.00000000
      0.63190228	      2.13933786	      0.09545140	      0.00000000
      0.63342127	      2.15786568	      0.08898676	      0.00000000
      0.63494027	      2.17621301	      0.08257626	      0.00000000
      0.63645927	      2.19438301	      0.07622628	      0.00000000
      0.63797826	      2.21237852	      0.06994277	      0.00000000
      0.63949726	      2.23020353	      0.06373281	      0.00000000
      0.64101625	      2.24786175	      0.05760308	      0.00000000
      0.64253525	      2.26535776	      0.05156122	      0.00000000
      0.64405425	      2.28269590	      0.04561453	      0.00000000
      0.64557324	      2.29988107	      0.03977098	      0.00000000
      0.64709224	      2.31691795	      0.03403832	      0.00000000
      0.64861123	      2.33381148	      0.02842464	      0.00000000
      0.65013023	      2.35056640	      0.02293791	      0.00000000
      0.65164923	      2.36718743	      0.01758615	      0.00000000
      0.65316822	      2.38367911	      0.01237734	      0.00000000
      0.65468722	      2.40004572	      0.00731925	      0.00000000
      0.65620621	      2.41629140	      0.00241969	      0.00000000
      0.65772521	      2.43241978	     -0.00231399	      0.00000000
      0.65924420	      2.44843443	     -0.00687430	      0.00000000
      0.66076320	      2.46433822	     -0.01125441	      0.00000000
      0.66228220	      2.48013396	     -0.01544731	      0.00000000
      0.66380119	      2.49582369	     -0.01944675	      0.00000000
      0.66532019	      2.51140938	     -0.02324633	      0.00000000
      0.66683918	      2.52689216	     -0.02684043	      0.00000000
      0.66835818	      2.54227310	     -0.03022329	      0.00000000
      0.66987718	      2.55755240	     -0.03338999	      0.00000000
      0.67139617	      2.57273024	     -0.03633542	      0.00000000
      0.67291517	      2.58780591	     -0.03905535	      0.00000000
      0.67443416	      2.60277869	     -0.04154538	      0.00000000
      0.67595316	      2.61764703	     -0.04380193	      0.00000000
      0.67747215	      2.63240936	     -0.04582126	      0.00000000
      0.67899115	      2.64706336	     -0.04760043	      0.00000000
      0.68051015	      2.66160665	     -0.04913636	      0.00000000
      0.68202914	      2.67603623	     -0.05042671	      0.00000000
      0.68354814	      2.69034903	     -0.05146903	      0.00000000
      0.68506713	      2.70454138	     -0.05226156	      0.00000000
      0.68658613	      2.71860958	     -0.05280247	      0.00000000
      0.68810513	      2.73254941	     -0.05309059	      0.00000000
      0.68962412	      2.74635659	     -0.05312472	      0.00000000
      0.69114312	      2.76002633	     -0.05290434	      0.00000000
      0.69266211	      2.77355384	     -0.05242890	      0.00000000
      0.69418111	      2.78693381	     -0.05169856	      0.00000000
      0.69570011	      2.80016096	     -0.05071351	      0.00000000
      0.69721910	      2.81322952	     -0.04947469	      0.00000000
      0.69873810	      2.82613371	     -0.04798303	      0.00000000
      0.70025709	      2.83886735	     -0.04624030	      0.00000000
      0.70177609	      2.85142427	     -0.04424827	      0.00000000
      0.70329508	      2.86379789	     -0.04200956	      0.00000000
      0.70481408	      2.87598172	     -0.03952682	      0.00000000
      0.70633308	      2.88796888	     -0.03680353	      0.00000000
      0.70785207	      2.89975261	     -0.03384325	      0.00000000
      0.70937107	      2.91132582	     -0.03065037	      0.00000000
      0.71089006	      2.92268155	     -0.02722937	      0.00000000
      0.71240906	      2.93381261	     -0.02358552	      0.00000000
      0.71392806	      2.94471196	     -0.01972422	      0.00000000
      0.71544705	      2.95537243	     -0.01565156	      0.00000000
      0.71696605	      2.96578701	     -0.01137378	      0.00000000
      0.71848504	      2.97594873	     -0.00689770	      0.00000000
      0.72000404	      2.98585075	     -0.00223031	      0.00000000
      0.72152303	      2.99548639	      0.00262096	      0.00000000
      0.72304203	      3.00484914	      0.00764845	      0.00000000
      0.72456103	      3.01393269	      0.01284413	      0.00000000
      0.72608002	      3.02273093	      0.01819975	      0.00000000
      0.72759902	      3.03123796	      0.02370661	      0.00000000
      0.72911801	      3.03944811	      0.02935581	      0.00000000
      0.73063701	      3.04735595	      0.03513798	      0.00000000
      0.73215601	      3.05495628	      0.04104348	      0.00000000
      0.73367500	      3.06224421	      0.04706234	      0.00000000
      0.73519400	      3.06921509	      0.05318420	      0.00000000
      0.73671299	      3.07586473	      0.05939868	      0.00000000
      0.73823199	      3.08218922	      0.06569500	      0.00000000
      0.73975099	      3.08818528	      0.07206278	      0.00000000
      0.74126998	      3.09384991	      0.07849123	      0.00000000
      0.74278898	      3.09918094	      0.08497038	      0.00000000
      0.74430797	      3.10417639	      0.09148975	      0.00000000
      0.74582697	      3.10883527	      0.09804012	      0.00000000
      0.74734596	      3.11315670	      0.10461169	      0.00000000
      0.74886496	      3.11714097	      0.11119646	      0.00000000
      0.75038396	      3.12078841	      0.11778582	      0.00000000
      0.75190295	      3.12410064	      0.12437351	      0.00000000
      0.75342195	      3.12707924	      0.13095273	      0.00000000
      0.75494094	      3.12972705	      0.13751920	      0.00000000
      0.75645994	      3.13204680	      0.14406816	      0.00000000
      0.75797894	      3.13404222	      0.15059702	      0.00000000
      0.75949793	      3.13571675	      0.15710248	      0.00000000
      0.76101693	      3.13707475	      0.16358337	      0.00000000
      0.76253592	      3.13812019	      0.17003780	      0.00000000
      0.76405492	      3.13885825	      0.17646708	      0.00000000
      0.76557391	      3.13929368	      0.18287217	      0.00000000
      0.76709291	      3.13943251	      0.18925791	      0.00000000
      0.76861191	      3.13927993	      0.19562796	      0.00000000
      0.77013090	      3.13884250	      0.20199066	      0.00000000
      0.77164990	      3.13812578	      0.20835331	      0.00000000
      0.77316889	      3.13713702	      0.21472955	      0.00000000
      0.77468789	      3.13588093	      0.22112896	      0.00000000
      0.77620689	      3.13435093	      0.22753207	      0.00000000
      0.77772588	      3.13255074	      0.23394684	      0.00000000
      0.77924488	      3.13049652	      0.24041281	      0.00000000
      0.78076387	      3.12819191	      0.24693811	      0.00000000
      0.78228287	      3.12563590	      0.25351521	      0.00000000
      0.78380187	      3.12283080	      0.26014793	      0.00000000
      0.78532086	      3.11977721	      0.26683432	      0.00000000
      0.78683986	      3.11647631	      0.27357495	      0.00000000
      0.78835885	      3.11292829	      0.28036619	      0.00000000
      0.78987785	      3.10913363	      0.28720564	      0.00000000
      0.79139684	      3.10509186	      0.29408604	      0.00000000
      0.79291584	      3.10080294	      0.30100129	      0.00000000
      0.79443484	      3.09626600	      0.30794011	      0.00000000
      0.79595383	      3.09148083	      0.31489247	      0.00000000
      0.79747283	      3.08644663	      0.32184313	      0.00000000
      0.79899182	      3.08116334	      0.32877818	      0.00000000
      0.80051082	      3.07563042	      0.33567838	      0.00000000
      0.80202982	      3.06984836	      0.34252588	      0.00000000
      0.80354881	      3.06381717	      0.34929716	      0.00000000
      0.80506781	      3.05753826	      0.35597012	      0.00000000
      0.80658680	      3.05101217	      0.36251641	      0.00000000
      0.80810580	      3.04424130	      0.36890911	      0.00000000
      0.80962479	      3.03722609	      0.37511457	      0.00000000
      0.81114379	      3.02996944	      0.38110044	      0.00000000
      0.81266279	      3.02247073	      0.38682766	      0.00000000
      0.81418178	      3.01473234	      0.39225803	      0.00000000
      0.81570078	      3.00675161	      0.39734770	      0.00000000
      0.81721977	      2.99852938	      0.40205284	      0.00000000
      0.81873877	      2.99006043	      0.40632635	      0.00000000
      0.82025777	      2.98134334	      0.41011993	      0.00000000
      0.82177676	      2.97237053	      0.41338593	      0.00000000
      0.82329576	      2.96313822	      0.41607390	      0.00000000
      0.82481475	      2.95363708	      0.41813985	      0.00000000
      0.82633375	      2.94386109	      0.41953492	      0.00000000
      0.82785275	      2.93379929	      0.42022450	      0.00000000
      0.82937174	      2.92344349	      0.42016699	      0.00000000
      0.83089074	      2.91278102	      0.41934419	      0.00000000
      0.83240973	      2.90180073	      0.41772885	      0.00000000
      0.83392873	      2.89048633	      0.41532609	      0.00000000
      0.83544772	      2.87882161	      0.41213050	      0.00000000
      0.83696672	      2.86678476	      0.40817551	      0.00000000
      0.83848572	      2.85435232	      0.40348363	      0.00000000
      0.84000471	      2.84149600	      0.39811722	      0.00000000
      0.84152371	      2.82818364	      0.39212876	      0.00000000
      0.84304270	      2.81438169	      0.38560354	      0.00000000
      0.84456170	      2.80005056	      0.37861965	      0.00000000
      0.84608070	      2.78515663	      0.37127275	      0.00000000
      0.84759969	      2.76965793	      0.36365512	      0.00000000
      0.84911869	      2.75352996	      0.35585695	      0.00000000
      0.85063768	      2.73673922	      0.34797013	      0.00000000
      0.85215668	      2.71928114	      0.34006607	      0.00000000
      0.85367567	      2.70114436	      0.33222394	      0.00000000
      0.85519467	      2.68234631	      0.32448806	      0.00000000
      0.85671367	      2.66289798	      0.31691442	      0.00000000
      0.85823266	      2.64282730	      0.30951599	      0.00000000
      0.85975166	      2.62215820	      0.30231926	      0.00000000
      0.86127065	      2.60091767	      0.29530764	      0.00000000
      0.86278965	      2.57913239	      0.28847778	      0.00000000
      0.86430865	      2.55682202	      0.28178995	      0.00000000
      0.86582764	      2.53400907	      0.27521555	      0.00000000
      0.86734664	      2.51070279	      0.26869934	      0.00000000
      0.86886563	      2.48691743	      0.26219416	      0.00000000
      0.87038463	      2.46265028	      0.25563562	      0.00000000
      0.87190363	      2.43790505	      0.24896435	      0.00000000
      0.87342262	      2.41266585	      0.24211071	      0.00000000
      0.87494162	      2.38692441	      0.23500778	      0.00000000
      0.87646061	      2.36065011	      0.22758147	      0.00000000
      0.87797961	      2.33382128	      0.21975931	      0.00000000
      0.87949860	      2.30638982	      0.21145968	      0.00000000
      0.88101760	      2.27831864	      0.20260327	      0.00000000
      0.88253660	      2.24953777	      0.19309270	      0.00000000
      0.88405559	      2.21999299	      0.18283693	      0.00000000
      0.88557459	      2.18958264	      0.17170563	      0.00000000
      0.88709358	      2.15822824	      0.15958425	      0.00000000
      0.88861258	      2.12577607	      0.14627529	      0.00000000
      0.89013158	      2.09211046	      0.13161776	      0.00000000
      0.89165057	      2.05698849	      0.11527852	      0.00000000
      0.89316957	      2.02022872	      0.09700032	      0.00000000
      0.89468856	      1.98143220	      0.07617779	      0.00000000
      0.89620756	      1.94029137	      0.05235070	      0.00000000
      0.89772655	      1.89615196	      0.02438992	      0.00000000
      0.89924555	      1.84847234	     -0.00856944	      0.00000000
      0.90076455	      1.79624219	     -0.04861537	      0.00000000
      0.90228354	      1.73856285	     -0.09741005	      0.00000000
      0.90380254	      1.67404698	     -0.15866449	      0.00000000
      0.90532153	      1.60141078	     -0.23531182	      0.00000000
      0.90684053	      1.51898617	     -0.33359132	      0.00000000
      0.90835953	      1.42579719	     -0.45758138	      0.00000000
      0.90987852	      1.31935786	     -0.61778449	      0.00000000
      0.91139752	      1.20326138	     -0.80644411	      0.00000000
