PointAcceleration
version=1
nRows=601
nColumns=4
inDegrees=no
No description.
endheader
time	state_0	state_1	state_2
      0.00000000	    -42.67538793	   -256.24518736	      0.00000000
      0.00151900	    -47.94425131	   -292.03478792	      0.00000000
      0.00303799	    -51.80778206	   -320.96699899	      0.00000000
      0.00455699	    -34.80762360	   -266.05110812	      0.00000000
      0.00607598	     17.45247576	    -87.69374426	      0.00000000
      0.00759498	     16.53763026	   -122.80573220	      0.00000000
      0.00911398	     22.67300442	   -130.96941208	      0.00000000
      0.01063297	     28.86071371	   -138.42156756	      0.00000000
      0.01215197	     33.25049403	   -150.49081749	      0.00000000
      0.01367096	     38.46610691	   -157.97894953	      0.00000000
      0.01518996	     42.02222306	   -168.34005091	      0.00000000
      0.01670895	     45.49054306	   -176.40454962	      0.00000000
      0.01822795	     47.94910589	   -184.71373352	      0.00000000
      0.01974695	     50.00604595	   -191.37834631	      0.00000000
      0.02126594	     51.38578322	   -197.15151193	      0.00000000
      0.02278494	     52.31188459	   -201.45694649	      0.00000000
      0.02430393	     52.72570541	   -204.56536427	      0.00000000
      0.02582293	     52.73075334	   -206.37020732	      0.00000000
      0.02734193	     52.34779536	   -207.05764896	      0.00000000
      0.02886092	     51.64298770	   -206.70902652	      0.00000000
      0.03037992	     50.66583174	   -205.47321499	      0.00000000
      0.03189891	     49.44225795	   -203.44529892	      0.00000000
      0.03341791	     47.99140477	   -200.77297652	      0.00000000
      0.03493690	     46.32134908	   -197.62044069	      0.00000000
      0.03645590	     44.46843921	   -194.10775261	      0.00000000
      0.03797490	     42.47566580	   -190.32733607	      0.00000000
      0.03949389	     40.38739070	   -186.36416571	      0.00000000
      0.04101289	     38.24488226	   -182.26957163	      0.00000000
      0.04253188	     36.08719741	   -178.09731888	      0.00000000
      0.04405088	     33.94106636	   -173.88332194	      0.00000000
      0.04556988	     31.83036036	   -169.66619327	      0.00000000
      0.04708887	     29.76491371	   -165.48271397	      0.00000000
      0.04860787	     27.75158727	   -161.37244552	      0.00000000
      0.05012686	     25.79371886	   -157.36741546	      0.00000000
      0.05164586	     23.89266020	   -153.49817467	      0.00000000
      0.05316486	     22.05088324	   -149.78544654	      0.00000000
      0.05468385	     20.26916063	   -146.24656870	      0.00000000
      0.05620285	     18.54690943	   -142.89839087	      0.00000000
      0.05772184	     16.88206859	   -139.75603340	      0.00000000
      0.05924084	     15.27362659	   -136.83004368	      0.00000000
      0.06075983	     13.71610931	   -134.14141371	      0.00000000
      0.06227883	     12.22996868	   -131.64468907	      0.00000000
      0.06379783	     10.83266105	   -129.29896460	      0.00000000
      0.06531682	      9.54882621	   -127.01712089	      0.00000000
      0.06683582	      8.40916211	   -124.69321959	      0.00000000
      0.06835481	      7.37913858	   -122.34078549	      0.00000000
      0.06987381	      6.42775184	   -119.97276021	      0.00000000
      0.07139281	      5.51498009	   -117.66069223	      0.00000000
      0.07291180	      4.59985080	   -115.47695201	      0.00000000
      0.07443080	      3.68245601	   -113.44768369	      0.00000000
      0.07594979	      2.76202556	   -111.59125625	      0.00000000
      0.07746879	      1.85601378	   -109.88741493	      0.00000000
      0.07898778	      0.98119989	   -108.31237896	      0.00000000
      0.08050678	      0.14525989	   -106.84385149	      0.00000000
      0.08202578	     -0.64481304	   -105.46190316	      0.00000000
      0.08354477	     -1.39112663	   -104.15698080	      0.00000000
      0.08506377	     -2.09476130	   -102.91918035	      0.00000000
      0.08658276	     -2.76135689	   -101.74849913	      0.00000000
      0.08810176	     -3.39566585	   -100.64384161	      0.00000000
      0.08962076	     -4.00137494	    -99.60622267	      0.00000000
      0.09113975	     -4.58154229	    -98.63488216	      0.00000000
      0.09265875	     -5.13773211	    -97.72875045	      0.00000000
      0.09417774	     -5.67147435	    -96.88601600	      0.00000000
      0.09569674	     -6.18327576	    -96.10375531	      0.00000000
      0.09721574	     -6.67398339	    -95.37951448	      0.00000000
      0.09873473	     -7.14252992	    -94.70702302	      0.00000000
      0.10025373	     -7.58790052	    -94.08034815	      0.00000000
      0.10177272	     -8.00787935	    -93.48979574	      0.00000000
      0.10329172	     -8.39996439	    -92.92573549	      0.00000000
      0.10481071	     -8.76237420	    -92.37773210	      0.00000000
      0.10632971	     -9.09272387	    -91.83504721	      0.00000000
      0.10784871	     -9.39109719	    -91.29001518	      0.00000000
      0.10936770	     -9.65683317	    -90.73441861	      0.00000000
      0.11088670	     -9.89210694	    -90.16525688	      0.00000000
      0.11240569	    -10.09853079	    -89.57909917	      0.00000000
      0.11392469	    -10.27917845	    -88.97641493	      0.00000000
      0.11544369	    -10.43733356	    -88.35797352	      0.00000000
      0.11696268	    -10.57708661	    -87.72996426	      0.00000000
      0.11848168	    -10.70097402	    -87.09355326	      0.00000000
      0.12000067	    -10.81091317	    -86.45064147	      0.00000000
      0.12151967	    -10.91124644	    -85.80731150	      0.00000000
      0.12303866	    -11.00356842	    -85.16733761	      0.00000000
      0.12455766	    -11.08980431	    -84.53425282	      0.00000000
      0.12607666	    -11.17082799	    -83.91071857	      0.00000000
      0.12759565	    -11.24754330	    -83.29904892	      0.00000000
      0.12911465	    -11.32013120	    -82.70041934	      0.00000000
      0.13063364	    -11.38895292	    -82.11607323	      0.00000000
      0.13215264	    -11.45397344	    -81.54649869	      0.00000000
      0.13367164	    -11.51533281	    -80.99248444	      0.00000000
      0.13519063	    -11.57280438	    -80.45393400	      0.00000000
      0.13670963	    -11.62624990	    -79.93070167	      0.00000000
      0.13822862	    -11.67568394	    -79.42270306	      0.00000000
      0.13974762	    -11.72123052	    -78.92991201	      0.00000000
      0.14126662	    -11.76319032	    -78.45304638	      0.00000000
      0.14278561	    -11.80207863	    -77.99335876	      0.00000000
      0.14430461	    -11.83756260	    -77.55095375	      0.00000000
      0.14582360	    -11.86936507	    -77.12581913	      0.00000000
      0.14734260	    -11.89702997	    -76.71721566	      0.00000000
      0.14886159	    -11.92024147	    -76.32459188	      0.00000000
      0.15038059	    -11.93870960	    -75.94716194	      0.00000000
      0.15189959	    -11.95229550	    -75.58452459	      0.00000000
      0.15341858	    -11.96046815	    -75.23549334	      0.00000000
      0.15493758	    -11.96272823	    -74.89903063	      0.00000000
      0.15645657	    -11.95833446	    -74.57330772	      0.00000000
      0.15797557	    -11.94646304	    -74.25644461	      0.00000000
      0.15949457	    -11.92672622	    -73.94673170	      0.00000000
      0.16101356	    -11.89864135	    -73.64240454	      0.00000000
      0.16253256	    -11.86245459	    -73.34257133	      0.00000000
      0.16405155	    -11.81835829	    -73.04631251	      0.00000000
      0.16557055	    -11.76712435	    -72.75372908	      0.00000000
      0.16708954	    -11.70939884	    -72.46472494	      0.00000000
      0.16860854	    -11.64599841	    -72.17977606	      0.00000000
      0.17012754	    -11.57772873	    -71.89928271	      0.00000000
      0.17164653	    -11.50523509	    -71.62371178	      0.00000000
      0.17316553	    -11.42927390	    -71.35362554	      0.00000000
      0.17468452	    -11.35023032	    -71.08920825	      0.00000000
      0.17620352	    -11.26869318	    -70.83091182	      0.00000000
      0.17772252	    -11.18427189	    -70.57769362	      0.00000000
      0.17924151	    -11.09658919	    -70.32854655	      0.00000000
      0.18076051	    -11.00448557	    -70.08092273	      0.00000000
      0.18227950	    -10.90662301	    -69.83204422	      0.00000000
      0.18379850	    -10.80220466	    -69.57935790	      0.00000000
      0.18531750	    -10.69042307	    -69.32034506	      0.00000000
      0.18683649	    -10.57142543	    -69.05353650	      0.00000000
      0.18835549	    -10.44526892	    -68.77735384	      0.00000000
      0.18987448	    -10.31270855	    -68.49106055	      0.00000000
      0.19139348	    -10.17496656	    -68.19474179	      0.00000000
      0.19291247	    -10.03034940	    -67.88388262	      0.00000000
      0.19443147	     -9.87591550	    -67.55178749	      0.00000000
      0.19595047	     -9.71108746	    -67.19419873	      0.00000000
      0.19746946	     -9.53368254	    -66.80378976	      0.00000000
      0.19898846	     -9.35221379	    -66.38919876	      0.00000000
      0.20050745	     -9.17800365	    -65.96286370	      0.00000000
      0.20202645	     -9.01546697	    -65.53073547	      0.00000000
      0.20354545	     -8.86761511	    -65.09595996	      0.00000000
      0.20506444	     -8.73380745	    -64.65731137	      0.00000000
      0.20658344	     -8.61393762	    -64.21384161	      0.00000000
      0.20810243	     -8.50579741	    -63.76107419	      0.00000000
      0.20962143	     -8.40746681	    -63.29489464	      0.00000000
      0.21114042	     -8.31659528	    -62.80945906	      0.00000000
      0.21265942	     -8.23086478	    -62.29927480	      0.00000000
      0.21417842	     -8.14843046	    -61.75858434	      0.00000000
      0.21569741	     -8.06728392	    -61.18195720	      0.00000000
      0.21721641	     -7.98648958	    -60.56523216	      0.00000000
      0.21873540	     -7.90495191	    -59.90483476	      0.00000000
      0.22025440	     -7.82288798	    -59.19988485	      0.00000000
      0.22177340	     -7.74051832	    -58.45064454	      0.00000000
      0.22329239	     -7.65911302	    -57.66096666	      0.00000000
      0.22481139	     -7.58017978	    -56.83649122	      0.00000000
      0.22633038	     -7.50557842	    -55.98636046	      0.00000000
      0.22784938	     -7.43760134	    -55.12173138	      0.00000000
      0.22936838	     -7.37793571	    -54.25553962	      0.00000000
      0.23088737	     -7.32875761	    -53.40189198	      0.00000000
      0.23240637	     -7.29042912	    -52.57260157	      0.00000000
      0.23392536	     -7.26375845	    -51.77880521	      0.00000000
      0.23544436	     -7.24638061	    -51.02383927	      0.00000000
      0.23696335	     -7.23705839	    -50.31014901	      0.00000000
      0.23848235	     -7.22937910	    -49.62818286	      0.00000000
      0.24000135	     -7.22367480	    -48.97611264	      0.00000000
      0.24152034	     -7.20811171	    -48.33491023	      0.00000000
      0.24303934	     -7.17432017	    -47.67753729	      0.00000000
      0.24455833	     -7.10901721	    -47.02788051	      0.00000000
      0.24607733	     -7.03965115	    -46.40443934	      0.00000000
      0.24759633	     -6.94534080	    -45.79013932	      0.00000000
      0.24911532	     -6.82534723	    -45.19517144	      0.00000000
      0.25063432	     -6.68650468	    -44.63973612	      0.00000000
      0.25215331	     -6.53013735	    -44.13436538	      0.00000000
      0.25367231	     -6.36297902	    -43.69589985	      0.00000000
      0.25519130	     -6.18773207	    -43.32927682	      0.00000000
      0.25671030	     -6.01063353	    -43.04416275	      0.00000000
      0.25822930	     -5.83590733	    -42.84151109	      0.00000000
      0.25974829	     -5.66814861	    -42.72483227	      0.00000000
      0.26126729	     -5.51081254	    -42.69221804	      0.00000000
      0.26278628	     -5.36505743	    -42.74056689	      0.00000000
      0.26430528	     -5.23138785	    -42.86350230	      0.00000000
      0.26582428	     -5.10898364	    -43.05318536	      0.00000000
      0.26734327	     -4.99672625	    -43.30020887	      0.00000000
      0.26886227	     -4.89375460	    -43.59559448	      0.00000000
      0.27038126	     -4.79912849	    -43.92998539	      0.00000000
      0.27190026	     -4.71269940	    -44.29612184	      0.00000000
      0.27341926	     -4.63438835	    -44.68707216	      0.00000000
      0.27493825	     -4.56450861	    -45.09825862	      0.00000000
      0.27645725	     -4.50364505	    -45.52596085	      0.00000000
      0.27797624	     -4.45177900	    -45.96725562	      0.00000000
      0.27949524	     -4.40938132	    -46.42049019	      0.00000000
      0.28101423	     -4.37513866	    -46.88184363	      0.00000000
      0.28253323	     -4.34829712	    -47.34887592	      0.00000000
      0.28405223	     -4.32577841	    -47.81427491	      0.00000000
      0.28557122	     -4.30481782	    -48.27174470	      0.00000000
      0.28709022	     -4.28117141	    -48.70996587	      0.00000000
      0.28860921	     -4.25060429	    -49.11821070	      0.00000000
      0.29012821	     -4.21000987	    -49.48477642	      0.00000000
      0.29164721	     -4.15613024	    -49.79867799	      0.00000000
      0.29316620	     -4.08844261	    -50.05239224	      0.00000000
      0.29468520	     -4.00658109	    -50.23993420	      0.00000000
      0.29620419	     -3.91125418	    -50.35847382	      0.00000000
      0.29772319	     -3.80304362	    -50.40600858	      0.00000000
      0.29924218	     -3.68354432	    -50.38413885	      0.00000000
      0.30076118	     -3.55455287	    -50.29546036	      0.00000000
      0.30228018	     -3.41820151	    -50.14525892	      0.00000000
      0.30379917	     -3.27689075	    -49.93956574	      0.00000000
      0.30531817	     -3.13218914	    -49.68485266	      0.00000000
      0.30683716	     -2.98589115	    -49.38782917	      0.00000000
      0.30835616	     -2.83836862	    -49.05367609	      0.00000000
      0.30987516	     -2.69013431	    -48.68740574	      0.00000000
      0.31139415	     -2.54058992	    -48.29186886	      0.00000000
      0.31291315	     -2.38914637	    -47.86951419	      0.00000000
      0.31443214	     -2.23488309	    -47.42119565	      0.00000000
      0.31595114	     -2.07677554	    -46.94731262	      0.00000000
      0.31747014	     -1.91420816	    -46.44777063	      0.00000000
      0.31898913	     -1.74638243	    -45.92206973	      0.00000000
      0.32050813	     -1.57330363	    -45.37019490	      0.00000000
      0.32202712	     -1.39476933	    -44.79182185	      0.00000000
      0.32354612	     -1.21139401	    -44.18762587	      0.00000000
      0.32506511	     -1.02361471	    -43.55808026	      0.00000000
      0.32658411	     -0.83243440	    -42.90467128	      0.00000000
      0.32810311	     -0.63874690	    -42.22878009	      0.00000000
      0.32962210	     -0.44364946	    -41.53245548	      0.00000000
      0.33114110	     -0.24821293	    -40.81772049	      0.00000000
      0.33266009	     -0.05336322	    -40.08676301	      0.00000000
      0.33417909	      0.13992784	    -39.34180292	      0.00000000
      0.33569809	      0.33107191	    -38.58476651	      0.00000000
      0.33721708	      0.51939008	    -37.81764537	      0.00000000
      0.33873608	      0.70465764	    -37.04187732	      0.00000000
      0.34025507	      0.88654053	    -36.25898352	      0.00000000
      0.34177407	      1.06508854	    -35.46989392	      0.00000000
      0.34329306	      1.24022403	    -34.67565511	      0.00000000
      0.34481206	      1.41220097	    -33.87672409	      0.00000000
      0.34633106	      1.58111924	    -33.07372950	      0.00000000
      0.34785005	      1.74750539	    -32.26656072	      0.00000000
      0.34936905	      1.91172638	    -31.45531300	      0.00000000
      0.35088804	      2.07470808	    -30.63913959	      0.00000000
      0.35240704	      2.23730347	    -29.81731804	      0.00000000
      0.35392604	      2.40063948	    -28.98850025	      0.00000000
      0.35544503	      2.56589486	    -28.15132660	      0.00000000
      0.35696403	      2.73377993	    -27.30477592	      0.00000000
      0.35848302	      2.90508164	    -26.44778432	      0.00000000
      0.36000202	      3.07976497	    -25.58027627	      0.00000000
      0.36152102	      3.25790669	    -24.70210185	      0.00000000
      0.36304001	      3.43891228	    -23.81414759	      0.00000000
      0.36455901	      3.62225691	    -22.91725702	      0.00000000
      0.36607800	      3.80716301	    -22.01280067	      0.00000000
      0.36759700	      3.99279904	    -21.10213344	      0.00000000
      0.36911599	      4.17822758	    -20.18692089	      0.00000000
      0.37063499	      4.36150001	    -19.26861339	      0.00000000
      0.37215399	      4.54322795	    -18.34982828	      0.00000000
      0.37367298	      4.72101432	    -17.43274569	      0.00000000
      0.37519198	      4.89438852	    -16.51876940	      0.00000000
      0.37671097	      5.06199514	    -15.61027337	      0.00000000
      0.37822997	      5.22281748	    -14.70942884	      0.00000000
      0.37974897	      5.37563957	    -13.81849524	      0.00000000
      0.38126796	      5.52001568	    -12.93887695	      0.00000000
      0.38278696	      5.65514562	    -12.07225404	      0.00000000
      0.38430595	      5.78120434	    -11.21907156	      0.00000000
      0.38582495	      5.89789715	    -10.38018925	      0.00000000
      0.38734395	      6.00589231	     -9.55509996	      0.00000000
      0.38886294	      6.10541690	     -8.74371646	      0.00000000
      0.39038194	      6.19746649	     -7.94477098	      0.00000000
      0.39190093	      6.28282707	     -7.15715857	      0.00000000
      0.39341993	      6.36148881	     -6.38047139	      0.00000000
      0.39493892	      6.43286946	     -5.61484788	      0.00000000
      0.39645792	      6.49511815	     -4.86145040	      0.00000000
      0.39797692	      6.54449240	     -4.12309272	      0.00000000
      0.39949591	      6.58174399	     -3.39637568	      0.00000000
      0.40101491	      6.60652791	     -2.67817495	      0.00000000
      0.40253390	      6.62054690	     -1.96231602	      0.00000000
      0.40405290	      6.62794515	     -1.24017391	      0.00000000
      0.40557190	      6.63089714	     -0.50965668	      0.00000000
      0.40709089	      6.65143597	      0.21868340	      0.00000000
      0.40860989	      6.64384907	      0.96379915	      0.00000000
      0.41012888	      6.64092704	      1.74996398	      0.00000000
      0.41164788	      6.62557101	      2.56616378	      0.00000000
      0.41316687	      6.62577891	      3.39814635	      0.00000000
      0.41468587	      6.66122369	      4.20731055	      0.00000000
      0.41620487	      6.73130909	      4.95133414	      0.00000000
      0.41772386	      6.84025137	      5.62060524	      0.00000000
      0.41924286	      6.95891824	      6.18758730	      0.00000000
      0.42076185	      7.18261137	      6.63796033	      0.00000000
      0.42228085	      7.33923629	      7.00509688	      0.00000000
      0.42379985	      7.45052601	      7.26679419	      0.00000000
      0.42531884	      7.54187733	      7.38000648	      0.00000000
      0.42683784	      7.60185976	      7.35483020	      0.00000000
      0.42835683	      7.64448397	      7.19182261	      0.00000000
      0.42987583	      7.66129546	      6.88898876	      0.00000000
      0.43139483	      7.64893205	      6.44361539	      0.00000000
      0.43291382	      7.60332547	      5.86026221	      0.00000000
      0.43443282	      7.51570924	      5.14178988	      0.00000000
      0.43595181	      7.38082610	      4.29439239	      0.00000000
      0.43747081	      7.17989901	      3.31237301	      0.00000000
      0.43898980	      6.89099780	      2.18687717	      0.00000000
      0.44050880	      6.46301550	      0.88022004	      0.00000000
      0.44202780	      5.87588804	     -0.61232026	      0.00000000
      0.44354679	      5.07426083	     -2.33366637	      0.00000000
      0.44506579	      3.92538295	     -4.42515126	      0.00000000
      0.44658478	      2.31193563	     -6.92672145	      0.00000000
      0.44810378	      1.26468503	     -8.03899946	      0.00000000
      0.44962278	      1.93608605	     -6.34853962	      0.00000000
      0.45114177	      2.77934659	     -4.48435919	      0.00000000
      0.45266077	      3.44875399	     -2.97183661	      0.00000000
      0.45417976	      4.04186063	     -1.65576281	      0.00000000
      0.45569876	      4.57228935	     -0.52099978	      0.00000000
      0.45721775	      5.03394992	      0.42471650	      0.00000000
      0.45873675	      5.41657968	      1.16953473	      0.00000000
      0.46025575	      5.71360304	      1.70903885	      0.00000000
      0.46177474	      5.92242754	      2.04668657	      0.00000000
      0.46329374	      6.04184256	      2.18627208	      0.00000000
      0.46481273	      6.07471204	      2.13905972	      0.00000000
      0.46633173	      6.02311493	      1.91271605	      0.00000000
      0.46785073	      5.89328606	      1.52301175	      0.00000000
      0.46936972	      5.68919707	      0.98090770	      0.00000000
      0.47088872	      5.41829067	      0.30504822	      0.00000000
      0.47240771	      5.08572493	     -0.49043351	      0.00000000
      0.47392671	      4.69970457	     -1.38519298	      0.00000000
      0.47544571	      4.26715962	     -2.36227160	      0.00000000
      0.47696470	      3.79680154	     -3.40131737	      0.00000000
      0.47848370	      3.29689906	     -4.48399578	      0.00000000
      0.48000269	      2.77646936	     -5.59123916	      0.00000000
      0.48152169	      2.24749008	     -6.70544508	      0.00000000
      0.48304068	      1.72012147	     -7.81026167	      0.00000000
      0.48455968	      1.20308357	     -8.88941293	      0.00000000
      0.48607868	      0.70405302	     -9.92949332	      0.00000000
      0.48759767	      0.23051752	    -10.91748064	      0.00000000
      0.48911667	     -0.21146415	    -11.84371404	      0.00000000
      0.49063566	     -0.61635318	    -12.69916733	      0.00000000
      0.49215466	     -0.98000698	    -13.47761727	      0.00000000
      0.49367366	     -1.29909545	    -14.17377306	      0.00000000
      0.49519265	     -1.57154552	    -14.78422992	      0.00000000
      0.49671165	     -1.79641257	    -15.30711677	      0.00000000
      0.49823064	     -1.97404343	    -15.74211320	      0.00000000
      0.49974964	     -2.10609348	    -16.09102356	      0.00000000
      0.50126863	     -2.19549992	    -16.35725200	      0.00000000
      0.50278763	     -2.24633454	    -16.54631909	      0.00000000
      0.50430663	     -2.26360268	    -16.66510791	      0.00000000
      0.50582562	     -2.25241482	    -16.72212979	      0.00000000
      0.50734462	     -2.20777425	    -16.71934620	      0.00000000
      0.50886361	     -2.12954148	    -16.66209942	      0.00000000
      0.51038261	     -2.05163421	    -16.58405427	      0.00000000
      0.51190161	     -1.97428160	    -16.48959471	      0.00000000
      0.51342060	     -1.89762816	    -16.38282010	      0.00000000
      0.51493960	     -1.82191641	    -16.26708602	      0.00000000
      0.51645859	     -1.74759430	    -16.14505526	      0.00000000
      0.51797759	     -1.67513643	    -16.01902538	      0.00000000
      0.51949659	     -1.60445467	    -15.89182860	      0.00000000
      0.52101558	     -1.53469307	    -15.76653599	      0.00000000
      0.52253458	     -1.46490564	    -15.64555879	      0.00000000
      0.52405357	     -1.39469212	    -15.52995142	      0.00000000
      0.52557257	     -1.32414986	    -15.42002559	      0.00000000
      0.52709156	     -1.25359780	    -15.31567250	      0.00000000
      0.52861056	     -1.18339560	    -15.21674080	      0.00000000
      0.53012956	     -1.11388104	    -15.12299321	      0.00000000
      0.53164855	     -1.04535155	    -15.03419844	      0.00000000
      0.53316755	     -0.97814503	    -14.95004762	      0.00000000
      0.53468654	     -0.91264531	    -14.87017306	      0.00000000
      0.53620554	     -0.84902898	    -14.79426733	      0.00000000
      0.53772454	     -0.78742741	    -14.72200353	      0.00000000
      0.53924353	     -0.72793724	    -14.65305607	      0.00000000
      0.54076253	     -0.67061661	    -14.58707666	      0.00000000
      0.54228152	     -0.61549227	    -14.52372061	      0.00000000
      0.54380052	     -0.56255223	    -14.46261326	      0.00000000
      0.54531951	     -0.51175690	    -14.40339694	      0.00000000
      0.54683851	     -0.46303192	    -14.34571199	      0.00000000
      0.54835751	     -0.38905959	    -14.25934877	      0.00000000
      0.54987650	     -0.34459817	    -14.20407745	      0.00000000
      0.55139550	     -0.30188611	    -14.14959924	      0.00000000
      0.55291449	     -0.26081650	    -14.09573452	      0.00000000
      0.55443349	     -0.22131906	    -14.04247691	      0.00000000
      0.55595249	     -0.18329794	    -13.98971521	      0.00000000
      0.55747148	     -0.14668175	    -13.93743500	      0.00000000
      0.55899048	     -0.11140017	    -13.88561309	      0.00000000
      0.56050947	     -0.07740956	    -13.83429803	      0.00000000
      0.56202847	     -0.04467174	    -13.78352690	      0.00000000
      0.56354747	     -0.01317013	    -13.73337585	      0.00000000
      0.56506646	      0.01710164	    -13.68391773	      0.00000000
      0.56658546	      0.04612966	    -13.63525156	      0.00000000
      0.56810445	      0.07388559	    -13.58748001	      0.00000000
      0.56962345	      0.10032241	    -13.54072137	      0.00000000
      0.57114244	      0.12537576	    -13.49510162	      0.00000000
      0.57266144	      0.14896970	    -13.45074279	      0.00000000
      0.57418044	      0.17101032	    -13.40777639	      0.00000000
      0.57569943	      0.19140390	    -13.36630704	      0.00000000
      0.57721843	      0.21003965	    -13.32645115	      0.00000000
      0.57873742	      0.22681899	    -13.28828098	      0.00000000
      0.58025642	      0.24162888	    -13.25188192	      0.00000000
      0.58177542	      0.25437831	    -13.21728642	      0.00000000
      0.58329441	      0.26496573	    -13.18453995	      0.00000000
      0.58481341	      0.27331825	    -13.15363390	      0.00000000
      0.58633240	      0.27935736	    -13.12457121	      0.00000000
      0.58785140	      0.28303662	    -13.09730532	      0.00000000
      0.58937039	      0.28430939	    -13.07179864	      0.00000000
      0.59088939	      0.28316093	    -13.04797319	      0.00000000
      0.59240839	      0.27958165	    -13.02575697	      0.00000000
      0.59392738	      0.27358981	    -13.00505049	      0.00000000
      0.59544638	      0.26521303	    -12.98575783	      0.00000000
      0.59696537	      0.25449989	    -12.96776971	      0.00000000
      0.59848437	      0.24151150	    -12.95097834	      0.00000000
      0.60000337	      0.22632274	    -12.93527437	      0.00000000
      0.60152236	      0.20902306	    -12.92054843	      0.00000000
      0.60304136	      0.18970990	    -12.90669756	      0.00000000
      0.60456035	      0.16849632	    -12.89361784	      0.00000000
      0.60607935	      0.14549893	    -12.88121648	      0.00000000
      0.60759835	      0.12085009	    -12.86939899	      0.00000000
      0.60911734	      0.09468141	    -12.85808482	      0.00000000
      0.61063634	      0.06713889	    -12.84719032	      0.00000000
      0.61215533	      0.03836224	    -12.83664717	      0.00000000
      0.61367433	      0.00850204	    -12.82638114	      0.00000000
      0.61519332	     -0.02230501	    -12.81633278	      0.00000000
      0.61671232	     -0.05391733	    -12.80643218	      0.00000000
      0.61823132	     -0.08621598	    -12.79662194	      0.00000000
      0.61975031	     -0.11908383	    -12.78682954	      0.00000000
      0.62126931	     -0.15243290	    -12.77699326	      0.00000000
      0.62278830	     -0.18618012	    -12.76703560	      0.00000000
      0.62430730	     -0.22027126	    -12.75689213	      0.00000000
      0.62582630	     -0.25465309	    -12.74648860	      0.00000000
      0.62734529	     -0.28929396	    -12.73577003	      0.00000000
      0.62886429	     -0.32415571	    -12.72468061	      0.00000000
      0.63038328	     -0.35921443	    -12.71318844	      0.00000000
      0.63190228	     -0.39443598	    -12.70126622	      0.00000000
      0.63342127	     -0.42979866	    -12.68890977	      0.00000000
      0.63494027	     -0.46527287	    -12.67611963	      0.00000000
      0.63645927	     -0.50084353	    -12.66291487	      0.00000000
      0.63797826	     -0.53649277	    -12.64931717	      0.00000000
      0.63949726	     -0.57221901	    -12.63536151	      0.00000000
      0.64101625	     -0.60802235	    -12.62108400	      0.00000000
      0.64253525	     -0.64391845	    -12.60652973	      0.00000000
      0.64405425	     -0.67992689	    -12.59174526	      0.00000000
      0.64557324	     -0.71608059	    -12.57678230	      0.00000000
      0.64709224	     -0.75241886	    -12.56169437	      0.00000000
      0.64861123	     -0.78898951	    -12.54653788	      0.00000000
      0.65013023	     -0.82584719	    -12.53137258	      0.00000000
      0.65164923	     -0.86305069	    -12.51625891	      0.00000000
      0.65316822	     -0.90066590	    -12.50126182	      0.00000000
      0.65468722	     -0.93875881	    -12.48644515	      0.00000000
      0.65620621	     -0.97740250	    -12.47187810	      0.00000000
      0.65772521	     -1.01666653	    -12.45762730	      0.00000000
      0.65924420	     -1.05662742	    -12.44376531	      0.00000000
      0.66076320	     -1.09735511	    -12.43036090	      0.00000000
      0.66228220	     -1.13892616	    -12.41748905	      0.00000000
      0.66380119	     -1.18140818	    -12.40522011	      0.00000000
      0.66532019	     -1.22487487	    -12.39363058	      0.00000000
      0.66683918	     -1.26938927	    -12.38279181	      0.00000000
      0.66835818	     -1.31501981	    -12.37278106	      0.00000000
      0.66987718	     -1.36182319	    -12.36367024	      0.00000000
      0.67139617	     -1.40986072	    -12.35553672	      0.00000000
      0.67291517	     -1.45918151	    -12.34845262	      0.00000000
      0.67443416	     -1.50983839	    -12.34249497	      0.00000000
      0.67595316	     -1.56187205	    -12.33773585	      0.00000000
      0.67747215	     -1.61532655	    -12.33425133	      0.00000000
      0.67899115	     -1.67023439	    -12.33211286	      0.00000000
      0.68051015	     -1.72662958	    -12.33139581	      0.00000000
      0.68202914	     -1.78453488	    -12.33217150	      0.00000000
      0.68354814	     -1.84397426	    -12.33451424	      0.00000000
      0.68506713	     -1.90496082	    -12.33849460	      0.00000000
      0.68658613	     -1.96750820	    -12.34418561	      0.00000000
      0.68810513	     -2.03161928	    -12.35165655	      0.00000000
      0.68962412	     -2.09729686	    -12.36097861	      0.00000000
      0.69114312	     -2.16453270	    -12.37221909	      0.00000000
      0.69266211	     -2.23331802	    -12.38544656	      0.00000000
      0.69418111	     -2.30363246	    -12.40072531	      0.00000000
      0.69570011	     -2.37545464	    -12.41812034	      0.00000000
      0.69721910	     -2.44875110	    -12.43769185	      0.00000000
      0.69873810	     -2.52348690	    -12.45950008	      0.00000000
      0.70025709	     -2.59961469	    -12.48360006	      0.00000000
      0.70177609	     -2.67708525	    -12.51004611	      0.00000000
      0.70329508	     -2.75583687	    -12.53888700	      0.00000000
      0.70481408	     -2.83580569	    -12.57017002	      0.00000000
      0.70633308	     -2.91691543	    -12.60393654	      0.00000000
      0.70785207	     -2.99908727	    -12.64022556	      0.00000000
      0.70937107	     -3.08223030	    -12.67906984	      0.00000000
      0.71089006	     -3.16625069	    -12.72049876	      0.00000000
      0.71240906	     -3.25104345	    -12.76453538	      0.00000000
      0.71392806	     -3.33650034	    -12.81119834	      0.00000000
      0.71544705	     -3.42250358	    -12.86050013	      0.00000000
      0.71696605	     -3.50893192	    -12.91244779	      0.00000000
      0.71848504	     -3.59565667	    -12.96704260	      0.00000000
      0.72000404	     -3.68254571	    -13.02427952	      0.00000000
      0.72152303	     -3.76946149	    -13.08414804	      0.00000000
      0.72304203	     -3.85626330	    -13.14663056	      0.00000000
      0.72456103	     -3.94280603	    -13.21170375	      0.00000000
      0.72608002	     -4.02894174	    -13.27933640	      0.00000000
      0.72759902	     -4.11451832	    -13.34949079	      0.00000000
      0.72911801	     -4.19938118	    -13.42212049	      0.00000000
      0.73063701	     -4.28337195	    -13.49717179	      0.00000000
      0.73215601	     -4.36633009	    -13.57458134	      0.00000000
      0.73367500	     -4.44809286	    -13.65427826	      0.00000000
      0.73519400	     -4.52849515	    -13.73618077	      0.00000000
      0.73671299	     -4.60737404	    -13.82020082	      0.00000000
      0.73823199	     -4.68456458	    -13.90623864	      0.00000000
      0.73975099	     -4.75991052	    -13.99419071	      0.00000000
      0.74126998	     -4.83325361	    -14.08394125	      0.00000000
      0.74278898	     -4.90445042	    -14.17537331	      0.00000000
      0.74430797	     -4.97335513	    -14.26835725	      0.00000000
      0.74582697	     -5.03984262	    -14.36276514	      0.00000000
      0.74734596	     -5.10378508	    -14.45845643	      0.00000000
      0.74886496	     -5.16508244	    -14.55529618	      0.00000000
      0.75038396	     -5.22363214	    -14.65313793	      0.00000000
      0.75190295	     -5.27936619	    -14.75184532	      0.00000000
      0.75342195	     -5.33221532	    -14.85127293	      0.00000000
      0.75494094	     -5.38214673	    -14.95128796	      0.00000000
      0.75645994	     -5.42912734	    -15.05175150	      0.00000000
      0.75797894	     -5.47315516	    -15.15253580	      0.00000000
      0.75949793	     -5.51422503	    -15.25350744	      0.00000000
      0.76101693	     -5.55236163	    -15.35454492	      0.00000000
      0.76253592	     -5.58758539	    -15.45552244	      0.00000000
      0.76405492	     -5.61995905	    -15.55633575	      0.00000000
      0.76557391	     -5.64954507	    -15.65688269	      0.00000000
      0.76709291	     -5.67645465	    -15.75709052	      0.00000000
      0.76861191	     -5.70078817	    -15.85688704	      0.00000000
      0.77013090	     -5.72270162	    -15.95623779	      0.00000000
      0.77164990	     -5.74233995	    -16.05511482	      0.00000000
      0.77316889	     -5.75991971	    -16.15354364	      0.00000000
      0.77468789	     -5.77560828	    -16.25154182	      0.00000000
      0.77620689	     -5.80552361	    -16.39642700	      0.00000000
      0.77772588	     -5.81817648	    -16.49536081	      0.00000000
      0.77924488	     -5.82946071	    -16.59407679	      0.00000000
      0.78076387	     -5.83953016	    -16.69264214	      0.00000000
      0.78228287	     -5.84836672	    -16.79101063	      0.00000000
      0.78380187	     -5.85607648	    -16.88922411	      0.00000000
      0.78532086	     -5.86270348	    -16.98728793	      0.00000000
      0.78683986	     -5.86831779	    -17.08523124	      0.00000000
      0.78835885	     -5.87294696	    -17.18305737	      0.00000000
      0.78987785	     -5.87663146	    -17.28078188	      0.00000000
      0.79139684	     -5.87936499	    -17.37838831	      0.00000000
      0.79291584	     -5.88115569	    -17.47586950	      0.00000000
      0.79443484	     -5.88194542	    -17.57318268	      0.00000000
      0.79595383	     -5.88167927	    -17.67029273	      0.00000000
      0.79747283	     -5.88030168	    -17.76713287	      0.00000000
      0.79899182	     -5.87778432	    -17.86364853	      0.00000000
      0.80051082	     -5.87406545	    -17.95975848	      0.00000000
      0.80202982	     -5.86911993	    -18.05540217	      0.00000000
      0.80354881	     -5.86289744	    -18.15050303	      0.00000000
      0.80506781	     -5.85539944	    -18.24502162	      0.00000000
      0.80658680	     -5.84661151	    -18.33892098	      0.00000000
      0.80810580	     -5.83659164	    -18.43222805	      0.00000000
      0.80962479	     -5.82539499	    -18.52500384	      0.00000000
      0.81114379	     -5.81317439	    -18.61741176	      0.00000000
      0.81266279	     -5.80010102	    -18.70969898	      0.00000000
      0.81418178	     -5.78647068	    -18.80226420	      0.00000000
      0.81570078	     -5.77262992	    -18.89565875	      0.00000000
      0.81721977	     -5.75907223	    -18.99063891	      0.00000000
      0.81873877	     -5.74638332	    -19.08819450	      0.00000000
      0.82025777	     -5.73530318	    -19.18956327	      0.00000000
      0.82177676	     -5.72670592	    -19.29629202	      0.00000000
      0.82329576	     -5.72159995	    -19.41018416	      0.00000000
      0.82481475	     -5.72117536	    -19.53340094	      0.00000000
      0.82633375	     -5.72682067	    -19.66833336	      0.00000000
      0.82785275	     -5.73993783	    -19.81768414	      0.00000000
      0.82937174	     -5.76186377	    -19.98421101	      0.00000000
      0.83089074	     -5.79406999	    -20.17092398	      0.00000000
      0.83240973	     -5.83786128	    -20.38067334	      0.00000000
      0.83392873	     -5.89460356	    -20.61639520	      0.00000000
      0.83544772	     -5.96534331	    -20.88059385	      0.00000000
      0.83696672	     -6.05109064	    -21.17564378	      0.00000000
      0.83848572	     -6.15240851	    -21.50323754	      0.00000000
      0.84000471	     -6.26972348	    -21.86472494	      0.00000000
      0.84152371	     -6.40295082	    -22.26063635	      0.00000000
      0.84304270	     -6.55179241	    -22.69100615	      0.00000000
      0.84456170	     -6.71546497	    -23.15509387	      0.00000000
      0.84608070	     -6.89294547	    -23.65161701	      0.00000000
      0.84759969	     -7.08284037	    -24.17875647	      0.00000000
      0.84911869	     -7.28357035	    -24.73425389	      0.00000000
      0.85063768	     -7.49337533	    -25.31571578	      0.00000000
      0.85215668	     -7.71043702	    -25.92056345	      0.00000000
      0.85367567	     -7.93302487	    -26.54657762	      0.00000000
      0.85519467	     -8.15948275	    -27.19163771	      0.00000000
      0.85671367	     -8.38824274	    -27.85429258	      0.00000000
      0.85823266	     -8.61782739	    -28.53334699	      0.00000000
      0.85975166	     -8.84706605	    -29.22850380	      0.00000000
      0.86127065	     -9.07488122	    -29.93979260	      0.00000000
      0.86278965	     -9.30052537	    -30.66815537	      0.00000000
      0.86430865	     -9.52333270	    -31.41489135	      0.00000000
      0.86582764	     -9.74294016	    -32.18212262	      0.00000000
      0.86734664	     -9.95905127	    -32.97235363	      0.00000000
      0.86886563	    -10.17162292	    -33.78879632	      0.00000000
      0.87038463	    -10.38066393	    -34.63509110	      0.00000000
      0.87190363	    -10.58639313	    -35.51552236	      0.00000000
      0.87342262	    -10.78907724	    -36.43491348	      0.00000000
      0.87494162	    -10.98918085	    -37.39880549	      0.00000000
      0.87646061	    -11.18724065	    -38.41353696	      0.00000000
      0.87797961	    -11.38404143	    -39.48651363	      0.00000000
      0.87949860	    -11.58052790	    -40.62653050	      0.00000000
      0.88101760	    -11.77806147	    -41.84436598	      0.00000000
      0.88253660	    -11.97839863	    -43.15353761	      0.00000000
      0.88405559	    -12.18413894	    -44.57167704	      0.00000000
      0.88557459	    -12.39876148	    -46.12211453	      0.00000000
      0.88709358	    -12.62739954	    -47.83686861	      0.00000000
      0.88861258	    -12.87706412	    -49.75993897	      0.00000000
      0.89013158	    -13.15803318	    -51.95338342	      0.00000000
      0.89165057	    -13.48429045	    -54.50353271	      0.00000000
      0.89316957	    -13.87583789	    -57.53209086	      0.00000000
      0.89468856	    -14.35910661	    -61.20543885	      0.00000000
      0.89620756	    -14.97044785	    -65.75236323	      0.00000000
      0.89772655	    -15.75561606	    -71.47246853	      0.00000000
      0.89924555	    -16.77439599	    -78.75965998	      0.00000000
      0.90076455	    -18.09693769	    -88.09331261	      0.00000000
      0.90228354	    -19.80967031	   -100.06416892	      0.00000000
      0.90380254	    -22.00450311	   -115.31110492	      0.00000000
      0.90532153	    -24.78543440	   -134.53791664	      0.00000000
      0.90684053	    -28.23805105	   -158.29899395	      0.00000000
      0.90835953	    -32.43043016	   -186.95620472	      0.00000000
      0.90987852	    -37.29765778	   -219.99200840	      0.00000000
      0.91139752	    -42.73323540	   -256.50472398	      0.00000000
