PointPosition
version=1
nRows=601
nColumns=4
inDegrees=no
No description.
endheader
time	state_0	state_1	state_2
      0.00000000	     -0.06741040	      1.07989165	      0.00000000
      0.00057736	     -0.06662505	      1.07973366	      0.00000000
      0.00115472	     -0.06583826	      1.07957435	      0.00000000
      0.00173207	     -0.06505004	      1.07941373	      0.00000000
      0.00230943	     -0.06426038	      1.07925180	      0.00000000
      0.00288679	     -0.06346928	      1.07908857	      0.00000000
      0.00346415	     -0.06267674	      1.07892403	      0.00000000
      0.00404151	     -0.06188276	      1.07875819	      0.00000000
      0.00461886	     -0.06108734	      1.07859105	      0.00000000
      0.00519622	     -0.06029047	      1.07842261	      0.00000000
      0.00577358	     -0.05949217	      1.07825287	      0.00000000
      0.00635094	     -0.05869243	      1.07808182	      0.00000000
      0.00692830	     -0.05789126	      1.07790947	      0.00000000
      0.00750565	     -0.05708865	      1.07773582	      0.00000000
      0.00808301	     -0.05628461	      1.07756085	      0.00000000
      0.00866037	     -0.05547914	      1.07738457	      0.00000000
      0.00923773	     -0.05467224	      1.07720697	      0.00000000
      0.00981508	     -0.05386392	      1.07702805	      0.00000000
      0.01039244	     -0.05305417	      1.07684780	      0.00000000
      0.01096980	     -0.05224301	      1.07666621	      0.00000000
      0.01154716	     -0.05143044	      1.07648329	      0.00000000
      0.01212452	     -0.05061645	      1.07629901	      0.00000000
      0.01270187	     -0.04980106	      1.07611339	      0.00000000
      0.01327923	     -0.04898426	      1.07592640	      0.00000000
      0.01385659	     -0.04816606	      1.07573803	      0.00000000
      0.01443395	     -0.04734646	      1.07554829	      0.00000000
      0.01501131	     -0.04652547	      1.07535717	      0.00000000
      0.01558866	     -0.04570309	      1.07516464	      0.00000000
      0.01616602	     -0.04487931	      1.07497071	      0.00000000
      0.01674338	     -0.04405415	      1.07477537	      0.00000000
      0.01732074	     -0.04322761	      1.07457859	      0.00000000
      0.01789810	     -0.04239968	      1.07438039	      0.00000000
      0.01847545	     -0.04157037	      1.07418073	      0.00000000
      0.01905281	     -0.04073969	      1.07397962	      0.00000000
      0.01963017	     -0.03990763	      1.07377703	      0.00000000
      0.02020753	     -0.03907420	      1.07357297	      0.00000000
      0.02078489	     -0.03823939	      1.07336741	      0.00000000
      0.02136224	     -0.03740321	      1.07316035	      0.00000000
      0.02193960	     -0.03656567	      1.07295177	      0.00000000
      0.02251696	     -0.03572675	      1.07274166	      0.00000000
      0.02309432	     -0.03488647	      1.07253001	      0.00000000
      0.02367168	     -0.03404482	      1.07231680	      0.00000000
      0.02424903	     -0.03320180	      1.07210202	      0.00000000
      0.02482639	     -0.03235741	      1.07188566	      0.00000000
      0.02540375	     -0.03151166	      1.07166770	      0.00000000
      0.02598111	     -0.03066454	      1.07144813	      0.00000000
      0.02655847	     -0.02981605	      1.07122694	      0.00000000
      0.02713582	     -0.02896619	      1.07100410	      0.00000000
      0.02771318	     -0.02811496	      1.07077962	      0.00000000
      0.02829054	     -0.02726235	      1.07055346	      0.00000000
      0.02886790	     -0.02640836	      1.07032562	      0.00000000
      0.02944525	     -0.02555299	      1.07009609	      0.00000000
      0.03002261	     -0.02469623	      1.06986485	      0.00000000
      0.03059997	     -0.02383808	      1.06963189	      0.00000000
      0.03117733	     -0.02297852	      1.06939719	      0.00000000
      0.03175469	     -0.02211755	      1.06916075	      0.00000000
      0.03233204	     -0.02125516	      1.06892254	      0.00000000
      0.03290940	     -0.02039135	      1.06868255	      0.00000000
      0.03348676	     -0.01952609	      1.06844078	      0.00000000
      0.03406412	     -0.01865938	      1.06819721	      0.00000000
      0.03464148	     -0.01779121	      1.06795183	      0.00000000
      0.03521883	     -0.01692157	      1.06770461	      0.00000000
      0.03579619	     -0.01605045	      1.06745556	      0.00000000
      0.03637355	     -0.01517782	      1.06720464	      0.00000000
      0.03695091	     -0.01430369	      1.06695186	      0.00000000
      0.03752827	     -0.01342803	      1.06669720	      0.00000000
      0.03810562	     -0.01255085	      1.06644063	      0.00000000
      0.03868298	     -0.01167211	      1.06618215	      0.00000000
      0.03926034	     -0.01079182	      1.06592174	      0.00000000
      0.03983770	     -0.00990995	      1.06565939	      0.00000000
      0.04041506	     -0.00902650	      1.06539507	      0.00000000
      0.04099241	     -0.00814147	      1.06512877	      0.00000000
      0.04156977	     -0.00725482	      1.06486047	      0.00000000
      0.04214713	     -0.00636656	      1.06459015	      0.00000000
      0.04272449	     -0.00547668	      1.06431780	      0.00000000
      0.04330185	     -0.00458516	      1.06404339	      0.00000000
      0.04387920	     -0.00369200	      1.06376690	      0.00000000
      0.04445656	     -0.00279719	      1.06348832	      0.00000000
      0.04503392	     -0.00190072	      1.06320763	      0.00000000
      0.04561128	     -0.00100258	      1.06292480	      0.00000000
      0.04618863	     -0.00010277	      1.06263980	      0.00000000
      0.04676599	      0.00079872	      1.06235263	      0.00000000
      0.04734335	      0.00170189	      1.06206325	      0.00000000
      0.04792071	      0.00260675	      1.06177164	      0.00000000
      0.04849807	      0.00351330	      1.06147778	      0.00000000
      0.04907542	      0.00442155	      1.06118165	      0.00000000
      0.04965278	      0.00533149	      1.06088321	      0.00000000
      0.05023014	      0.00624313	      1.06058245	      0.00000000
      0.05080750	      0.00715647	      1.06027934	      0.00000000
      0.05138486	      0.00807151	      1.05997385	      0.00000000
      0.05196221	      0.00898825	      1.05966596	      0.00000000
      0.05253957	      0.00990668	      1.05935565	      0.00000000
      0.05311693	      0.01082681	      1.05904288	      0.00000000
      0.05369429	      0.01174863	      1.05872763	      0.00000000
      0.05427165	      0.01267215	      1.05840988	      0.00000000
      0.05484900	      0.01359734	      1.05808959	      0.00000000
      0.05542636	      0.01452422	      1.05776674	      0.00000000
      0.05600372	      0.01545277	      1.05744131	      0.00000000
      0.05658108	      0.01638299	      1.05711326	      0.00000000
      0.05715844	      0.01731487	      1.05678258	      0.00000000
      0.05773579	      0.01824840	      1.05644922	      0.00000000
      0.05831315	      0.01918356	      1.05611318	      0.00000000
      0.05889051	      0.02012035	      1.05577443	      0.00000000
      0.05946787	      0.02105874	      1.05543294	      0.00000000
      0.06004523	      0.02199870	      1.05508870	      0.00000000
      0.06062258	      0.02294020	      1.05474169	      0.00000000
      0.06119994	      0.02388321	      1.05439191	      0.00000000
      0.06177730	      0.02482765	      1.05403935	      0.00000000
      0.06235466	      0.02577346	      1.05368403	      0.00000000
      0.06293202	      0.02672056	      1.05332595	      0.00000000
      0.06350937	      0.02766885	      1.05296515	      0.00000000
      0.06408673	      0.02861823	      1.05260166	      0.00000000
      0.06466409	      0.02956860	      1.05223553	      0.00000000
      0.06524145	      0.03051985	      1.05186680	      0.00000000
      0.06581880	      0.03147188	      1.05149553	      0.00000000
      0.06639616	      0.03242456	      1.05112180	      0.00000000
      0.06697352	      0.03337769	      1.05074575	      0.00000000
      0.06755088	      0.03433104	      1.05036756	      0.00000000
      0.06812824	      0.03528433	      1.04998746	      0.00000000
      0.06870559	      0.03623724	      1.04960573	      0.00000000
      0.06928295	      0.03718950	      1.04922264	      0.00000000
      0.06986031	      0.03814084	      1.04883850	      0.00000000
      0.07043767	      0.03909106	      1.04845358	      0.00000000
      0.07101503	      0.04004003	      1.04806812	      0.00000000
      0.07159238	      0.04098767	      1.04768236	      0.00000000
      0.07216974	      0.04193392	      1.04729649	      0.00000000
      0.07274710	      0.04287880	      1.04691067	      0.00000000
      0.07332446	      0.04382235	      1.04652506	      0.00000000
      0.07390182	      0.04476461	      1.04613980	      0.00000000
      0.07447917	      0.04570565	      1.04575502	      0.00000000
      0.07505653	      0.04664554	      1.04537082	      0.00000000
      0.07563389	      0.04758432	      1.04498735	      0.00000000
      0.07621125	      0.04852228	      1.04460459	      0.00000000
      0.07678861	      0.04945989	      1.04422242	      0.00000000
      0.07736596	      0.05039730	      1.04384095	      0.00000000
      0.07794332	      0.05133440	      1.04346044	      0.00000000
      0.07852068	      0.05227102	      1.04308121	      0.00000000
      0.07909804	      0.05320697	      1.04270362	      0.00000000
      0.07967540	      0.05414208	      1.04232805	      0.00000000
      0.08025275	      0.05507619	      1.04195489	      0.00000000
      0.08083011	      0.05600918	      1.04158456	      0.00000000
      0.08140747	      0.05694099	      1.04121743	      0.00000000
      0.08198483	      0.05787158	      1.04085390	      0.00000000
      0.08256218	      0.05880091	      1.04049428	      0.00000000
      0.08313954	      0.05972895	      1.04013888	      0.00000000
      0.08371690	      0.06065569	      1.03978798	      0.00000000
      0.08429426	      0.06158109	      1.03944182	      0.00000000
      0.08487162	      0.06250513	      1.03910063	      0.00000000
      0.08544897	      0.06342778	      1.03876463	      0.00000000
      0.08602633	      0.06434903	      1.03843403	      0.00000000
      0.08660369	      0.06526884	      1.03810901	      0.00000000
      0.08718105	      0.06618721	      1.03778975	      0.00000000
      0.08775841	      0.06710411	      1.03747641	      0.00000000
      0.08833576	      0.06801954	      1.03716916	      0.00000000
      0.08891312	      0.06893348	      1.03686812	      0.00000000
      0.08949048	      0.06984594	      1.03657342	      0.00000000
      0.09006784	      0.07075692	      1.03628519	      0.00000000
      0.09064520	      0.07166642	      1.03600352	      0.00000000
      0.09122255	      0.07257447	      1.03572851	      0.00000000
      0.09179991	      0.07348107	      1.03546023	      0.00000000
      0.09237727	      0.07438624	      1.03519876	      0.00000000
      0.09295463	      0.07529001	      1.03494415	      0.00000000
      0.09353199	      0.07619241	      1.03469645	      0.00000000
      0.09410934	      0.07709346	      1.03445570	      0.00000000
      0.09468670	      0.07799320	      1.03422193	      0.00000000
      0.09526406	      0.07889167	      1.03399516	      0.00000000
      0.09584142	      0.07978891	      1.03377540	      0.00000000
      0.09641878	      0.08068494	      1.03356264	      0.00000000
      0.09699613	      0.08157982	      1.03335688	      0.00000000
      0.09757349	      0.08247358	      1.03315810	      0.00000000
      0.09815085	      0.08336627	      1.03296627	      0.00000000
      0.09872821	      0.08425792	      1.03278138	      0.00000000
      0.09930557	      0.08514859	      1.03260336	      0.00000000
      0.09988292	      0.08603831	      1.03243219	      0.00000000
      0.10046028	      0.08692712	      1.03226780	      0.00000000
      0.10103764	      0.08781507	      1.03211014	      0.00000000
      0.10161500	      0.08870218	      1.03195913	      0.00000000
      0.10219235	      0.08958851	      1.03181470	      0.00000000
      0.10276971	      0.09047408	      1.03167676	      0.00000000
      0.10334707	      0.09135893	      1.03154522	      0.00000000
      0.10392443	      0.09224309	      1.03142000	      0.00000000
      0.10450179	      0.09312659	      1.03130099	      0.00000000
      0.10507914	      0.09400946	      1.03118809	      0.00000000
      0.10565650	      0.09489174	      1.03108120	      0.00000000
      0.10623386	      0.09577344	      1.03098021	      0.00000000
      0.10681122	      0.09665461	      1.03088502	      0.00000000
      0.10738858	      0.09753526	      1.03079552	      0.00000000
      0.10796593	      0.09841543	      1.03071160	      0.00000000
      0.10854329	      0.09929514	      1.03063315	      0.00000000
      0.10912065	      0.10017442	      1.03056007	      0.00000000
      0.10969801	      0.10105329	      1.03049225	      0.00000000
      0.11027537	      0.10193178	      1.03042959	      0.00000000
      0.11085272	      0.10280991	      1.03037197	      0.00000000
      0.11143008	      0.10368770	      1.03031930	      0.00000000
      0.11200744	      0.10456518	      1.03027147	      0.00000000
      0.11258480	      0.10544235	      1.03022837	      0.00000000
      0.11316216	      0.10631925	      1.03018992	      0.00000000
      0.11373951	      0.10719588	      1.03015600	      0.00000000
      0.11431687	      0.10807226	      1.03012653	      0.00000000
      0.11489423	      0.10894842	      1.03010139	      0.00000000
      0.11547159	      0.10982437	      1.03008050	      0.00000000
      0.11604895	      0.11070012	      1.03006377	      0.00000000
      0.11662630	      0.11157568	      1.03005110	      0.00000000
      0.11720366	      0.11245108	      1.03004239	      0.00000000
      0.11778102	      0.11332633	      1.03003758	      0.00000000
      0.11835838	      0.11420143	      1.03003656	      0.00000000
      0.11893573	      0.11507641	      1.03003925	      0.00000000
      0.11951309	      0.11595128	      1.03004557	      0.00000000
      0.12009045	      0.11682604	      1.03005545	      0.00000000
      0.12066781	      0.11770071	      1.03006879	      0.00000000
      0.12124517	      0.11857531	      1.03008554	      0.00000000
      0.12182252	      0.11944984	      1.03010560	      0.00000000
      0.12239988	      0.12032430	      1.03012892	      0.00000000
      0.12297724	      0.12119872	      1.03015542	      0.00000000
      0.12355460	      0.12207309	      1.03018502	      0.00000000
      0.12413196	      0.12294743	      1.03021767	      0.00000000
      0.12470931	      0.12382174	      1.03025330	      0.00000000
      0.12528667	      0.12469602	      1.03029185	      0.00000000
      0.12586403	      0.12557028	      1.03033325	      0.00000000
      0.12644139	      0.12644453	      1.03037744	      0.00000000
      0.12701875	      0.12731877	      1.03042437	      0.00000000
      0.12759610	      0.12819299	      1.03047397	      0.00000000
      0.12817346	      0.12906720	      1.03052620	      0.00000000
      0.12875082	      0.12994140	      1.03058099	      0.00000000
      0.12932818	      0.13081559	      1.03063829	      0.00000000
      0.12990554	      0.13168976	      1.03069805	      0.00000000
      0.13048289	      0.13256391	      1.03076022	      0.00000000
      0.13106025	      0.13343804	      1.03082475	      0.00000000
      0.13163761	      0.13431215	      1.03089159	      0.00000000
      0.13221497	      0.13518622	      1.03096068	      0.00000000
      0.13279233	      0.13606025	      1.03103200	      0.00000000
      0.13336968	      0.13693424	      1.03110548	      0.00000000
      0.13394704	      0.13780817	      1.03118109	      0.00000000
      0.13452440	      0.13868203	      1.03125877	      0.00000000
      0.13510176	      0.13955580	      1.03133849	      0.00000000
      0.13567912	      0.14042947	      1.03142020	      0.00000000
      0.13625647	      0.14130302	      1.03150385	      0.00000000
      0.13683383	      0.14217643	      1.03158940	      0.00000000
      0.13741119	      0.14304967	      1.03167681	      0.00000000
      0.13798855	      0.14392272	      1.03176604	      0.00000000
      0.13856590	      0.14479556	      1.03185703	      0.00000000
      0.13914326	      0.14566815	      1.03194975	      0.00000000
      0.13972062	      0.14654046	      1.03204415	      0.00000000
      0.14029798	      0.14741247	      1.03214020	      0.00000000
      0.14087534	      0.14828414	      1.03223785	      0.00000000
      0.14145269	      0.14915545	      1.03233705	      0.00000000
      0.14203005	      0.15002635	      1.03243777	      0.00000000
      0.14260741	      0.15089682	      1.03253996	      0.00000000
      0.14318477	      0.15176682	      1.03264359	      0.00000000
      0.14376213	      0.15263631	      1.03274861	      0.00000000
      0.14433948	      0.15350526	      1.03285498	      0.00000000
      0.14491684	      0.15437365	      1.03296266	      0.00000000
      0.14549420	      0.15524143	      1.03307162	      0.00000000
      0.14607156	      0.15610857	      1.03318181	      0.00000000
      0.14664892	      0.15697505	      1.03329320	      0.00000000
      0.14722627	      0.15784084	      1.03340575	      0.00000000
      0.14780363	      0.15870592	      1.03351943	      0.00000000
      0.14838099	      0.15957025	      1.03363419	      0.00000000
      0.14895835	      0.16043382	      1.03375003	      0.00000000
      0.14953571	      0.16129660	      1.03386690	      0.00000000
      0.15011306	      0.16215858	      1.03398479	      0.00000000
      0.15069042	      0.16301974	      1.03410370	      0.00000000
      0.15126778	      0.16388007	      1.03422361	      0.00000000
      0.15184514	      0.16473955	      1.03434454	      0.00000000
      0.15242250	      0.16559816	      1.03446649	      0.00000000
      0.15299985	      0.16645591	      1.03458948	      0.00000000
      0.15357721	      0.16731278	      1.03471352	      0.00000000
      0.15415457	      0.16816878	      1.03483862	      0.00000000
      0.15473193	      0.16902389	      1.03496480	      0.00000000
      0.15530929	      0.16987812	      1.03509208	      0.00000000
      0.15588664	      0.17073149	      1.03522048	      0.00000000
      0.15646400	      0.17158398	      1.03534999	      0.00000000
      0.15704136	      0.17243562	      1.03548065	      0.00000000
      0.15761872	      0.17328640	      1.03561246	      0.00000000
      0.15819607	      0.17413635	      1.03574544	      0.00000000
      0.15877343	      0.17498548	      1.03587960	      0.00000000
      0.15935079	      0.17583379	      1.03601495	      0.00000000
      0.15992815	      0.17668132	      1.03615151	      0.00000000
      0.16050551	      0.17752806	      1.03628928	      0.00000000
      0.16108286	      0.17837405	      1.03642829	      0.00000000
      0.16166022	      0.17921931	      1.03656854	      0.00000000
      0.16223758	      0.18006384	      1.03671005	      0.00000000
      0.16281494	      0.18090768	      1.03685283	      0.00000000
      0.16339230	      0.18175085	      1.03699689	      0.00000000
      0.16396965	      0.18259336	      1.03714224	      0.00000000
      0.16454701	      0.18343524	      1.03728889	      0.00000000
      0.16512437	      0.18427652	      1.03743687	      0.00000000
      0.16570173	      0.18511722	      1.03758617	      0.00000000
      0.16627909	      0.18595737	      1.03773680	      0.00000000
      0.16685644	      0.18679699	      1.03788879	      0.00000000
      0.16743380	      0.18763611	      1.03804214	      0.00000000
      0.16801116	      0.18847475	      1.03819687	      0.00000000
      0.16858852	      0.18931294	      1.03835297	      0.00000000
      0.16916588	      0.19015071	      1.03851047	      0.00000000
      0.16974323	      0.19098808	      1.03866937	      0.00000000
      0.17032059	      0.19182509	      1.03882968	      0.00000000
      0.17089795	      0.19266176	      1.03899141	      0.00000000
      0.17147531	      0.19349811	      1.03915458	      0.00000000
      0.17205267	      0.19433418	      1.03931918	      0.00000000
      0.17263002	      0.19516999	      1.03948524	      0.00000000
      0.17320738	      0.19600556	      1.03965275	      0.00000000
      0.17378474	      0.19684093	      1.03982172	      0.00000000
      0.17436210	      0.19767611	      1.03999217	      0.00000000
      0.17493945	      0.19851113	      1.04016409	      0.00000000
      0.17551681	      0.19934601	      1.04033750	      0.00000000
      0.17609417	      0.20018078	      1.04051240	      0.00000000
      0.17667153	      0.20101547	      1.04068879	      0.00000000
      0.17724889	      0.20185008	      1.04086669	      0.00000000
      0.17782624	      0.20268465	      1.04104609	      0.00000000
      0.17840360	      0.20351920	      1.04122701	      0.00000000
      0.17898096	      0.20435375	      1.04140944	      0.00000000
      0.17955832	      0.20518831	      1.04159339	      0.00000000
      0.18013568	      0.20602291	      1.04177886	      0.00000000
      0.18071303	      0.20685758	      1.04196586	      0.00000000
      0.18129039	      0.20769232	      1.04215439	      0.00000000
      0.18186775	      0.20852716	      1.04234445	      0.00000000
      0.18244511	      0.20936211	      1.04253605	      0.00000000
      0.18302247	      0.21019720	      1.04272918	      0.00000000
      0.18359982	      0.21103243	      1.04292386	      0.00000000
      0.18417718	      0.21186783	      1.04312007	      0.00000000
      0.18475454	      0.21270342	      1.04331782	      0.00000000
      0.18533190	      0.21353920	      1.04351711	      0.00000000
      0.18590926	      0.21437519	      1.04371795	      0.00000000
      0.18648661	      0.21521141	      1.04392033	      0.00000000
      0.18706397	      0.21604786	      1.04412424	      0.00000000
      0.18764133	      0.21688457	      1.04432970	      0.00000000
      0.18821869	      0.21772154	      1.04453670	      0.00000000
      0.18879605	      0.21855879	      1.04474523	      0.00000000
      0.18937340	      0.21939632	      1.04495530	      0.00000000
      0.18995076	      0.22023414	      1.04516691	      0.00000000
      0.19052812	      0.22107228	      1.04538005	      0.00000000
      0.19110548	      0.22191072	      1.04559471	      0.00000000
      0.19168284	      0.22274949	      1.04581090	      0.00000000
      0.19226019	      0.22358858	      1.04602862	      0.00000000
      0.19283755	      0.22442802	      1.04624785	      0.00000000
      0.19341491	      0.22526779	      1.04646859	      0.00000000
      0.19399227	      0.22610791	      1.04669085	      0.00000000
      0.19456962	      0.22694838	      1.04691461	      0.00000000
      0.19514698	      0.22778920	      1.04713986	      0.00000000
      0.19572434	      0.22863038	      1.04736662	      0.00000000
      0.19630170	      0.22947192	      1.04759485	      0.00000000
      0.19687906	      0.23031381	      1.04782457	      0.00000000
      0.19745641	      0.23115607	      1.04805577	      0.00000000
      0.19803377	      0.23199868	      1.04828843	      0.00000000
      0.19861113	      0.23284166	      1.04852254	      0.00000000
      0.19918849	      0.23368499	      1.04875811	      0.00000000
      0.19976585	      0.23452867	      1.04899512	      0.00000000
      0.20034320	      0.23537270	      1.04923357	      0.00000000
      0.20092056	      0.23621708	      1.04947344	      0.00000000
      0.20149792	      0.23706180	      1.04971472	      0.00000000
      0.20207528	      0.23790686	      1.04995740	      0.00000000
      0.20265264	      0.23875225	      1.05020148	      0.00000000
      0.20322999	      0.23959796	      1.05044695	      0.00000000
      0.20380735	      0.24044398	      1.05069378	      0.00000000
      0.20438471	      0.24129032	      1.05094198	      0.00000000
      0.20496207	      0.24213695	      1.05119152	      0.00000000
      0.20553943	      0.24298388	      1.05144240	      0.00000000
      0.20611678	      0.24383108	      1.05169460	      0.00000000
      0.20669414	      0.24467856	      1.05194811	      0.00000000
      0.20727150	      0.24552630	      1.05220291	      0.00000000
      0.20784886	      0.24637429	      1.05245900	      0.00000000
      0.20842622	      0.24722251	      1.05271635	      0.00000000
      0.20900357	      0.24807097	      1.05297496	      0.00000000
      0.20958093	      0.24891963	      1.05323480	      0.00000000
      0.21015829	      0.24976850	      1.05349587	      0.00000000
      0.21073565	      0.25061756	      1.05375814	      0.00000000
      0.21131300	      0.25146679	      1.05402159	      0.00000000
      0.21189036	      0.25231618	      1.05428622	      0.00000000
      0.21246772	      0.25316572	      1.05455201	      0.00000000
      0.21304508	      0.25401539	      1.05481893	      0.00000000
      0.21362244	      0.25486518	      1.05508698	      0.00000000
      0.21419979	      0.25571507	      1.05535612	      0.00000000
      0.21477715	      0.25656504	      1.05562634	      0.00000000
      0.21535451	      0.25741509	      1.05589763	      0.00000000
      0.21593187	      0.25826518	      1.05616996	      0.00000000
      0.21650923	      0.25911532	      1.05644332	      0.00000000
      0.21708658	      0.25996547	      1.05671767	      0.00000000
      0.21766394	      0.26081562	      1.05699301	      0.00000000
      0.21824130	      0.26166576	      1.05726931	      0.00000000
      0.21881866	      0.26251586	      1.05754654	      0.00000000
      0.21939602	      0.26336592	      1.05782469	      0.00000000
      0.21997337	      0.26421590	      1.05810374	      0.00000000
      0.22055073	      0.26506579	      1.05838366	      0.00000000
      0.22112809	      0.26591558	      1.05866442	      0.00000000
      0.22170545	      0.26676524	      1.05894601	      0.00000000
      0.22228281	      0.26761476	      1.05922839	      0.00000000
      0.22286016	      0.26846412	      1.05951155	      0.00000000
      0.22343752	      0.26931329	      1.05979546	      0.00000000
      0.22401488	      0.27016226	      1.06008010	      0.00000000
      0.22459224	      0.27101100	      1.06036543	      0.00000000
      0.22516960	      0.27185951	      1.06065143	      0.00000000
      0.22574695	      0.27270775	      1.06093808	      0.00000000
      0.22632431	      0.27355572	      1.06122535	      0.00000000
      0.22690167	      0.27440338	      1.06151321	      0.00000000
      0.22747903	      0.27525071	      1.06180163	      0.00000000
      0.22805639	      0.27609771	      1.06209058	      0.00000000
      0.22863374	      0.27694433	      1.06238004	      0.00000000
      0.22921110	      0.27779057	      1.06266997	      0.00000000
      0.22978846	      0.27863638	      1.06296034	      0.00000000
      0.23036582	      0.27948176	      1.06325112	      0.00000000
      0.23094317	      0.28032666	      1.06354227	      0.00000000
      0.23152053	      0.28117106	      1.06383376	      0.00000000
      0.23209789	      0.28201493	      1.06412555	      0.00000000
      0.23267525	      0.28285823	      1.06441762	      0.00000000
      0.23325261	      0.28370093	      1.06470991	      0.00000000
      0.23382996	      0.28454300	      1.06500239	      0.00000000
      0.23440732	      0.28538441	      1.06529502	      0.00000000
      0.23498468	      0.28622510	      1.06558776	      0.00000000
      0.23556204	      0.28706505	      1.06588057	      0.00000000
      0.23613940	      0.28790422	      1.06617340	      0.00000000
      0.23671675	      0.28874256	      1.06646620	      0.00000000
      0.23729411	      0.28958004	      1.06675895	      0.00000000
      0.23787147	      0.29041662	      1.06705158	      0.00000000
      0.23844883	      0.29125225	      1.06734405	      0.00000000
      0.23902619	      0.29208689	      1.06763631	      0.00000000
      0.23960354	      0.29292051	      1.06792832	      0.00000000
      0.24018090	      0.29375306	      1.06822002	      0.00000000
      0.24075826	      0.29458450	      1.06851137	      0.00000000
      0.24133562	      0.29541478	      1.06880231	      0.00000000
      0.24191298	      0.29624388	      1.06909279	      0.00000000
      0.24249033	      0.29707173	      1.06938276	      0.00000000
      0.24306769	      0.29789832	      1.06967216	      0.00000000
      0.24364505	      0.29872359	      1.06996095	      0.00000000
      0.24422241	      0.29954750	      1.07024906	      0.00000000
      0.24479977	      0.30037003	      1.07053645	      0.00000000
      0.24537712	      0.30119112	      1.07082304	      0.00000000
      0.24595448	      0.30201074	      1.07110880	      0.00000000
      0.24653184	      0.30282886	      1.07139366	      0.00000000
      0.24710920	      0.30364545	      1.07167756	      0.00000000
      0.24768655	      0.30446045	      1.07196045	      0.00000000
      0.24826391	      0.30527386	      1.07224226	      0.00000000
      0.24884127	      0.30608562	      1.07252294	      0.00000000
      0.24941863	      0.30689572	      1.07280243	      0.00000000
      0.24999599	      0.30770411	      1.07308067	      0.00000000
      0.25057334	      0.30851079	      1.07335761	      0.00000000
      0.25115070	      0.30931571	      1.07363317	      0.00000000
      0.25172806	      0.31011886	      1.07390731	      0.00000000
      0.25230542	      0.31092022	      1.07417997	      0.00000000
      0.25288278	      0.31171975	      1.07445108	      0.00000000
      0.25346013	      0.31251745	      1.07472059	      0.00000000
      0.25403749	      0.31331329	      1.07498843	      0.00000000
      0.25461485	      0.31410727	      1.07525456	      0.00000000
      0.25519221	      0.31489936	      1.07551890	      0.00000000
      0.25576957	      0.31568956	      1.07578141	      0.00000000
      0.25634692	      0.31647785	      1.07604203	      0.00000000
      0.25692428	      0.31726423	      1.07630069	      0.00000000
      0.25750164	      0.31804870	      1.07655734	      0.00000000
      0.25807900	      0.31883124	      1.07681193	      0.00000000
      0.25865636	      0.31961186	      1.07706440	      0.00000000
      0.25923371	      0.32039057	      1.07731469	      0.00000000
      0.25981107	      0.32116735	      1.07756275	      0.00000000
      0.26038843	      0.32194222	      1.07780852	      0.00000000
      0.26096579	      0.32271519	      1.07805195	      0.00000000
      0.26154315	      0.32348625	      1.07829298	      0.00000000
      0.26212050	      0.32425543	      1.07853155	      0.00000000
      0.26269786	      0.32502273	      1.07876762	      0.00000000
      0.26327522	      0.32578816	      1.07900112	      0.00000000
      0.26385258	      0.32655175	      1.07923201	      0.00000000
      0.26442994	      0.32731350	      1.07946024	      0.00000000
      0.26500729	      0.32807344	      1.07968574	      0.00000000
      0.26558465	      0.32883158	      1.07990847	      0.00000000
      0.26616201	      0.32958795	      1.08012837	      0.00000000
      0.26673937	      0.33034256	      1.08034539	      0.00000000
      0.26731672	      0.33109545	      1.08055948	      0.00000000
      0.26789408	      0.33184663	      1.08077059	      0.00000000
      0.26847144	      0.33259614	      1.08097866	      0.00000000
      0.26904880	      0.33334399	      1.08118365	      0.00000000
      0.26962616	      0.33409022	      1.08138549	      0.00000000
      0.27020351	      0.33483484	      1.08158413	      0.00000000
      0.27078087	      0.33557789	      1.08177953	      0.00000000
      0.27135823	      0.33631940	      1.08197163	      0.00000000
      0.27193559	      0.33705939	      1.08216038	      0.00000000
      0.27251295	      0.33779790	      1.08234573	      0.00000000
      0.27309030	      0.33853494	      1.08252764	      0.00000000
      0.27366766	      0.33927056	      1.08270605	      0.00000000
      0.27424502	      0.34000479	      1.08288091	      0.00000000
      0.27482238	      0.34073768	      1.08305220	      0.00000000
      0.27539974	      0.34146928	      1.08321987	      0.00000000
      0.27597709	      0.34219965	      1.08338390	      0.00000000
      0.27655445	      0.34292888	      1.08354426	      0.00000000
      0.27713181	      0.34365703	      1.08370094	      0.00000000
      0.27770917	      0.34438418	      1.08385393	      0.00000000
      0.27828653	      0.34511043	      1.08400322	      0.00000000
      0.27886388	      0.34583583	      1.08414879	      0.00000000
      0.27944124	      0.34656048	      1.08429065	      0.00000000
      0.28001860	      0.34728443	      1.08442879	      0.00000000
      0.28059596	      0.34800776	      1.08456320	      0.00000000
      0.28117332	      0.34873053	      1.08469389	      0.00000000
      0.28175067	      0.34945280	      1.08482086	      0.00000000
      0.28232803	      0.35017462	      1.08494410	      0.00000000
      0.28290539	      0.35089603	      1.08506361	      0.00000000
      0.28348275	      0.35161708	      1.08517938	      0.00000000
      0.28406010	      0.35233780	      1.08529141	      0.00000000
      0.28463746	      0.35305821	      1.08539970	      0.00000000
      0.28521482	      0.35377833	      1.08550424	      0.00000000
      0.28579218	      0.35449818	      1.08560501	      0.00000000
      0.28636954	      0.35521777	      1.08570200	      0.00000000
      0.28694689	      0.35593709	      1.08579519	      0.00000000
      0.28752425	      0.35665614	      1.08588457	      0.00000000
      0.28810161	      0.35737492	      1.08597011	      0.00000000
      0.28867897	      0.35809343	      1.08605178	      0.00000000
      0.28925633	      0.35881165	      1.08612951	      0.00000000
      0.28983368	      0.35952962	      1.08620324	      0.00000000
      0.29041104	      0.36024733	      1.08627289	      0.00000000
      0.29098840	      0.36096480	      1.08633843	      0.00000000
      0.29156576	      0.36168201	      1.08639982	      0.00000000
      0.29214312	      0.36239897	      1.08645701	      0.00000000
      0.29272047	      0.36311565	      1.08650998	      0.00000000
      0.29329783	      0.36383206	      1.08655872	      0.00000000
      0.29387519	      0.36454819	      1.08660319	      0.00000000
      0.29445255	      0.36526403	      1.08664340	      0.00000000
      0.29502991	      0.36597959	      1.08667935	      0.00000000
      0.29560726	      0.36669488	      1.08671103	      0.00000000
      0.29618462	      0.36740988	      1.08673847	      0.00000000
      0.29676198	      0.36812462	      1.08676169	      0.00000000
      0.29733934	      0.36883909	      1.08678072	      0.00000000
      0.29791670	      0.36955331	      1.08679562	      0.00000000
      0.29849405	      0.37026731	      1.08680644	      0.00000000
      0.29907141	      0.37098110	      1.08681331	      0.00000000
      0.29964877	      0.37169475	      1.08681639	      0.00000000
      0.30022613	      0.37240832	      1.08681592	      0.00000000
      0.30080349	      0.37312189	      1.08681218	      0.00000000
      0.30138084	      0.37383557	      1.08680551	      0.00000000
      0.30195820	      0.37454945	      1.08679627	      0.00000000
      0.30253556	      0.37526365	      1.08678481	      0.00000000
      0.30311292	      0.37597829	      1.08677154	      0.00000000
      0.30369027	      0.37669339	      1.08675657	      0.00000000
      0.30426763	      0.37740885	      1.08673974	      0.00000000
      0.30484499	      0.37812469	      1.08672107	      0.00000000
      0.30542235	      0.37884096	      1.08670066	      0.00000000
      0.30599971	      0.37955766	      1.08667852	      0.00000000
      0.30657706	      0.38027482	      1.08665464	      0.00000000
      0.30715442	      0.38099242	      1.08662897	      0.00000000
      0.30773178	      0.38171047	      1.08660141	      0.00000000
      0.30830914	      0.38242895	      1.08657187	      0.00000000
      0.30888650	      0.38314785	      1.08654025	      0.00000000
      0.30946385	      0.38386717	      1.08650648	      0.00000000
      0.31004121	      0.38458692	      1.08647046	      0.00000000
      0.31061857	      0.38530709	      1.08643213	      0.00000000
      0.31119593	      0.38602772	      1.08639144	      0.00000000
      0.31177329	      0.38674880	      1.08634835	      0.00000000
      0.31235064	      0.38747038	      1.08630282	      0.00000000
      0.31292800	      0.38819246	      1.08625484	      0.00000000
      0.31350536	      0.38891508	      1.08620439	      0.00000000
      0.31408272	      0.38963824	      1.08615147	      0.00000000
      0.31466008	      0.39036199	      1.08609608	      0.00000000
      0.31523743	      0.39108633	      1.08603821	      0.00000000
      0.31581479	      0.39181129	      1.08597789	      0.00000000
      0.31639215	      0.39253689	      1.08591511	      0.00000000
      0.31696951	      0.39326316	      1.08584990	      0.00000000
      0.31754687	      0.39399012	      1.08578227	      0.00000000
      0.31812422	      0.39471779	      1.08571225	      0.00000000
      0.31870158	      0.39544620	      1.08563985	      0.00000000
      0.31927894	      0.39617537	      1.08556509	      0.00000000
      0.31985630	      0.39690531	      1.08548802	      0.00000000
      0.32043365	      0.39763605	      1.08540864	      0.00000000
      0.32101101	      0.39836762	      1.08532698	      0.00000000
      0.32158837	      0.39910004	      1.08524309	      0.00000000
      0.32216573	      0.39983331	      1.08515697	      0.00000000
      0.32274309	      0.40056748	      1.08506867	      0.00000000
      0.32332044	      0.40130255	      1.08497821	      0.00000000
      0.32389780	      0.40203855	      1.08488562	      0.00000000
      0.32447516	      0.40277549	      1.08479093	      0.00000000
      0.32505252	      0.40351340	      1.08469417	      0.00000000
      0.32562988	      0.40425230	      1.08459537	      0.00000000
      0.32620723	      0.40499219	      1.08449456	      0.00000000
      0.32678459	      0.40573311	      1.08439177	      0.00000000
      0.32736195	      0.40647507	      1.08428702	      0.00000000
      0.32793931	      0.40721808	      1.08418035	      0.00000000
      0.32851667	      0.40796216	      1.08407178	      0.00000000
      0.32909402	      0.40870733	      1.08396134	      0.00000000
      0.32967138	      0.40945361	      1.08384906	      0.00000000
      0.33024874	      0.41020101	      1.08373496	      0.00000000
      0.33082610	      0.41094955	      1.08361908	      0.00000000
      0.33140346	      0.41169924	      1.08350143	      0.00000000
      0.33198081	      0.41245009	      1.08338204	      0.00000000
      0.33255817	      0.41320213	      1.08326093	      0.00000000
      0.33313553	      0.41395537	      1.08313814	      0.00000000
      0.33371289	      0.41470981	      1.08301367	      0.00000000
      0.33429025	      0.41546548	      1.08288756	      0.00000000
      0.33486760	      0.41622239	      1.08275982	      0.00000000
      0.33544496	      0.41698054	      1.08263048	      0.00000000
      0.33602232	      0.41773996	      1.08249955	      0.00000000
      0.33659968	      0.41850066	      1.08236706	      0.00000000
      0.33717704	      0.41926264	      1.08223303	      0.00000000
      0.33775439	      0.42002592	      1.08209747	      0.00000000
      0.33833175	      0.42079052	      1.08196040	      0.00000000
      0.33890911	      0.42155643	      1.08182184	      0.00000000
      0.33948647	      0.42232368	      1.08168181	      0.00000000
      0.34006382	      0.42309228	      1.08154032	      0.00000000
      0.34064118	      0.42386222	      1.08139739	      0.00000000
      0.34121854	      0.42463353	      1.08125303	      0.00000000
      0.34179590	      0.42540621	      1.08110726	      0.00000000
      0.34237326	      0.42618027	      1.08096009	      0.00000000
      0.34295061	      0.42695572	      1.08081153	      0.00000000
      0.34352797	      0.42773257	      1.08066159	      0.00000000
      0.34410533	      0.42851082	      1.08051030	      0.00000000
      0.34468269	      0.42929048	      1.08035764	      0.00000000
      0.34526005	      0.43007156	      1.08020365	      0.00000000
      0.34583740	      0.43085406	      1.08004831	      0.00000000
      0.34641476	      0.43163798	      1.07989165	      0.00000000
