PointAcceleration
version=1
nRows=601
nColumns=4
inDegrees=no
No description.
endheader
time	state_0	state_1	state_2
      0.00000000	    325.56317880	    172.26250081	      0.00000000
      0.00127712	    316.90329941	    164.62801986	      0.00000000
      0.00255425	    307.75909006	    156.91594922	      0.00000000
      0.00383137	    298.20109624	    149.17794048	      0.00000000
      0.00510850	    288.19701137	    141.41596153	      0.00000000
      0.00638562	    277.76100998	    133.65376217	      0.00000000
      0.00766274	    266.89099149	    125.90700687	      0.00000000
      0.00893987	    255.63765036	    118.20896264	      0.00000000
      0.01021699	    244.06360128	    110.59948582	      0.00000000
      0.01149412	    232.23874098	    103.06521552	      0.00000000
      0.01277124	    220.17166001	     95.73437717	      0.00000000
      0.01404836	    207.93057823	     88.65077502	      0.00000000
      0.01532549	    195.62508856	     81.83377297	      0.00000000
      0.01660261	    183.29415337	     75.33070006	      0.00000000
      0.01787974	    171.02375159	     69.17535104	      0.00000000
      0.01915686	    158.82482730	     63.38820140	      0.00000000
      0.02043399	    146.82389150	     58.00728938	      0.00000000
      0.02171111	    134.97529676	     53.02103472	      0.00000000
      0.02298823	    123.56195021	     48.48836876	      0.00000000
      0.02426536	    112.25036035	     44.30727332	      0.00000000
      0.02554248	    102.00895230	     40.65455366	      0.00000000
      0.02681961	     90.02164740	     36.88887614	      0.00000000
      0.02809673	     73.96635576	     32.37750238	      0.00000000
      0.02937385	     54.20823310	     26.85666510	      0.00000000
      0.03065098	     35.40886977	     20.31013871	      0.00000000
      0.03192810	     29.73482664	     14.13110627	      0.00000000
      0.03320523	     32.52595595	     11.39927047	      0.00000000
      0.03448235	     29.17644474	     10.12811710	      0.00000000
      0.03575947	     26.44903514	      8.77647357	      0.00000000
      0.03703660	     24.37051520	      7.48887175	      0.00000000
      0.03831372	     22.55930271	      6.38030511	      0.00000000
      0.03959085	     20.94884972	      5.44807064	      0.00000000
      0.04086797	     19.57517866	      4.68064434	      0.00000000
      0.04214509	     18.40344534	      4.03468327	      0.00000000
      0.04342222	     17.41259382	      3.48262465	      0.00000000
      0.04469934	     16.56556137	      2.99821030	      0.00000000
      0.04597647	     15.82577600	      2.56205571	      0.00000000
      0.04725359	     15.17085579	      2.16235558	      0.00000000
      0.04853071	     14.57457306	      1.78896109	      0.00000000
      0.04980784	     14.02601127	      1.43713953	      0.00000000
      0.05108496	     13.50960121	      1.10195596	      0.00000000
      0.05236209	     13.01965445	      0.78134397	      0.00000000
      0.05363921	     12.54740384	      0.47284147	      0.00000000
      0.05491633	     12.09012041	      0.17547621	      0.00000000
      0.05619346	     11.64351251	     -0.11200128	      0.00000000
      0.05747058	     11.20676597	     -0.39009586	      0.00000000
      0.05874771	     10.77832753	     -0.65950337	      0.00000000
      0.06002483	     10.35794002	     -0.92066959	      0.00000000
      0.06130196	      9.94499838	     -1.17416073	      0.00000000
      0.06257908	      9.53868376	     -1.42056115	      0.00000000
      0.06385620	      9.13803093	     -1.66051060	      0.00000000
      0.06513333	      8.74139975	     -1.89471115	      0.00000000
      0.06641045	      8.34707023	     -2.12388386	      0.00000000
      0.06768758	      7.95300222	     -2.34872755	      0.00000000
      0.06896470	      7.55703600	     -2.56995603	      0.00000000
      0.07024182	      7.15731260	     -2.78829969	      0.00000000
      0.07151895	      6.75181412	     -3.00470055	      0.00000000
      0.07279607	      6.33920331	     -3.21964254	      0.00000000
      0.07407320	      5.91790526	     -3.43362986	      0.00000000
      0.07535032	      5.48716685	     -3.64700209	      0.00000000
      0.07662744	      5.04603591	     -3.86012488	      0.00000000
      0.07790457	      4.59427852	     -4.07323370	      0.00000000
      0.07918169	      4.13151963	     -4.28658039	      0.00000000
      0.08045882	      3.65786717	     -4.50032120	      0.00000000
      0.08173594	      3.17336794	     -4.71461570	      0.00000000
      0.08301306	      2.67828678	     -4.92954723	      0.00000000
      0.08429019	      2.17288790	     -5.14519254	      0.00000000
      0.08556731	      1.65743269	     -5.36156530	      0.00000000
      0.08684444	      1.13223217	     -5.57866970	      0.00000000
      0.08812156	      0.59744444	     -5.79646228	      0.00000000
      0.08939868	      0.05329592	     -6.01489733	      0.00000000
      0.09067581	     -0.50022964	     -6.23387733	      0.00000000
      0.09195293	     -1.06312837	     -6.45330318	      0.00000000
      0.09323006	     -1.63557022	     -6.67305324	      0.00000000
      0.09450718	     -2.21778475	     -6.89301384	      0.00000000
      0.09578431	     -2.80988140	     -7.11305381	      0.00000000
      0.09706143	     -3.41207592	     -7.33305893	      0.00000000
      0.09833855	     -4.02427055	     -7.55282690	      0.00000000
      0.09961568	     -4.64646185	     -7.77215281	      0.00000000
      0.10089280	     -5.27819515	     -7.99083937	      0.00000000
      0.10216993	     -5.91809149	     -8.20876190	      0.00000000
      0.10344705	     -6.56473705	     -8.42594418	      0.00000000
      0.10472417	     -7.21697358	     -8.64239530	      0.00000000
      0.10600130	     -7.87540936	     -8.85821351	      0.00000000
      0.10727842	     -8.54104598	     -9.07351561	      0.00000000
      0.10855555	     -9.21550605	     -9.28850583	      0.00000000
      0.10983267	     -9.90050928	     -9.50344061	      0.00000000
      0.11110979	    -10.59698851	     -9.71853791	      0.00000000
      0.11238692	    -11.30586183	     -9.93403306	      0.00000000
      0.11366404	    -12.02669018	    -10.15004681	      0.00000000
      0.11494117	    -12.75922349	    -10.36665818	      0.00000000
      0.11621829	    -13.50210645	    -10.58377753	      0.00000000
      0.11749541	    -14.25346568	    -10.80122377	      0.00000000
      0.11877254	    -15.01222302	    -11.01885880	      0.00000000
      0.12004966	    -15.77820476	    -11.23669135	      0.00000000
      0.12132679	    -16.55186505	    -11.45498786	      0.00000000
      0.12260391	    -17.33335962	    -11.67436644	      0.00000000
      0.12388103	    -18.12146570	    -11.89556651	      0.00000000
      0.12515816	    -18.91444336	    -12.11936726	      0.00000000
      0.12643528	    -19.70990450	    -12.34634574	      0.00000000
      0.12771241	    -20.50580080	    -12.57686574	      0.00000000
      0.12898953	    -21.30074127	    -12.81118856	      0.00000000
      0.13026665	    -22.09361076	    -13.04947588	      0.00000000
      0.13154378	    -22.88345186	    -13.29187996	      0.00000000
      0.13282090	    -23.66835413	    -13.53845494	      0.00000000
      0.13409803	    -24.44769882	    -13.78935242	      0.00000000
      0.13537515	    -25.22130924	    -14.04477304	      0.00000000
      0.13665228	    -25.99121287	    -14.30510476	      0.00000000
      0.13792940	    -26.76030793	    -14.57086679	      0.00000000
      0.13920652	    -27.53010432	    -14.84250628	      0.00000000
      0.14048365	    -28.29855344	    -15.12020806	      0.00000000
      0.14176077	    -29.06353636	    -15.40411234	      0.00000000
      0.14303790	    -29.60687295	    -15.63517119	      0.00000000
      0.14431502	    -30.37239126	    -15.92987924	      0.00000000
      0.14559214	    -31.12837122	    -16.23134007	      0.00000000
      0.14686927	    -31.87546255	    -16.53982749	      0.00000000
      0.14814639	    -32.61515161	    -16.85571862	      0.00000000
      0.14942352	    -33.34847491	    -17.17936900	      0.00000000
      0.15070064	    -34.07650038	    -17.51116499	      0.00000000
      0.15197776	    -34.79955218	    -17.85143830	      0.00000000
      0.15325489	    -35.51806098	    -18.20054043	      0.00000000
      0.15453201	    -36.23204995	    -18.55878769	      0.00000000
      0.15580914	    -36.94167034	    -18.92650810	      0.00000000
      0.15708626	    -37.64697287	    -19.30401874	      0.00000000
      0.15836338	    -38.34802641	    -19.69163443	      0.00000000
      0.15964051	    -39.04489853	    -20.08966589	      0.00000000
      0.16091763	    -39.73763848	    -20.49841546	      0.00000000
      0.16219476	    -40.42631073	    -20.91818076	      0.00000000
      0.16347188	    -41.11094264	    -21.34924662	      0.00000000
      0.16474900	    -41.79155239	    -21.79188775	      0.00000000
      0.16602613	    -42.46810840	    -22.24636125	      0.00000000
      0.16730325	    -43.14055139	    -22.71290840	      0.00000000
      0.16858038	    -43.80876960	    -23.19174851	      0.00000000
      0.16985750	    -44.47262830	    -23.68308201	      0.00000000
      0.17113463	    -45.13193591	    -24.18708305	      0.00000000
      0.17241175	    -45.78649880	    -24.70390662	      0.00000000
      0.17368887	    -46.43605988	    -25.23367772	      0.00000000
      0.17496600	    -47.08039718	    -25.77650560	      0.00000000
      0.17624312	    -47.71922112	    -26.33246784	      0.00000000
      0.17752025	    -48.35232968	    -26.90163456	      0.00000000
      0.17879737	    -48.97945353	    -27.48404600	      0.00000000
      0.18007449	    -49.60046625	    -28.07974727	      0.00000000
      0.18135162	    -50.21517940	    -28.68875972	      0.00000000
      0.18262874	    -50.82358865	    -29.31112354	      0.00000000
      0.18390587	    -51.42563914	    -29.94686576	      0.00000000
      0.18518299	    -52.02147482	    -30.59604473	      0.00000000
      0.18646011	    -52.61120766	    -31.25872019	      0.00000000
      0.18773724	    -53.19512993	    -31.93499119	      0.00000000
      0.18901436	    -53.77352685	    -32.62497512	      0.00000000
      0.19029149	    -54.34680874	    -33.32882891	      0.00000000
      0.19156861	    -54.91540753	    -34.04674488	      0.00000000
      0.19284573	    -55.47978908	    -34.77894422	      0.00000000
      0.19412286	    -56.04046871	    -35.52569737	      0.00000000
      0.19539998	    -56.59787781	    -36.28728098	      0.00000000
      0.19667711	    -57.15251897	    -37.06402812	      0.00000000
      0.19795423	    -57.70468710	    -37.85624585	      0.00000000
      0.19923135	    -58.25476016	    -38.66429558	      0.00000000
      0.20050848	    -58.80280624	    -39.48847744	      0.00000000
      0.20178560	    -59.34897692	    -40.32913418	      0.00000000
      0.20306273	    -59.89305505	    -41.18651644	      0.00000000
      0.20433985	    -60.43489624	    -42.06089729	      0.00000000
      0.20561698	    -60.97397800	    -42.95243657	      0.00000000
      0.20689410	    -61.50983010	    -43.86129005	      0.00000000
      0.20817122	    -62.04163794	    -44.78749049	      0.00000000
      0.20944835	    -62.56861181	    -45.73103627	      0.00000000
      0.21072547	    -63.08968362	    -46.69180404	      0.00000000
      0.21200260	    -63.60378024	    -47.66960466	      0.00000000
      0.21327972	    -64.10963749	    -48.66413824	      0.00000000
      0.21455684	    -64.60595736	    -49.67500914	      0.00000000
      0.21583397	    -65.09134955	    -50.70173002	      0.00000000
      0.21711109	    -65.56436523	    -51.74369147	      0.00000000
      0.21838822	    -66.02356476	    -52.80021766	      0.00000000
      0.21966534	    -66.46743241	    -53.87049059	      0.00000000
      0.22094246	    -66.89455562	    -54.95365445	      0.00000000
      0.22221959	    -67.30343748	    -56.04869947	      0.00000000
      0.22349671	    -67.69275619	    -57.15460446	      0.00000000
      0.22477384	    -68.06110436	    -58.27019038	      0.00000000
      0.22605096	    -68.40729123	    -59.39428606	      0.00000000
      0.22732808	    -68.73004291	    -60.52556443	      0.00000000
      0.22860521	    -69.02832291	    -61.66272067	      0.00000000
      0.22988233	    -69.30102097	    -62.80430322	      0.00000000
      0.23115946	    -69.54727453	    -63.94889629	      0.00000000
      0.23243658	    -69.76615958	    -65.09495278	      0.00000000
      0.23371370	    -69.95699667	    -66.24097193	      0.00000000
      0.23499083	    -70.11902639	    -67.38532424	      0.00000000
      0.23626795	    -70.25178162	    -68.52646672	      0.00000000
      0.23754508	    -70.35469661	    -69.66273655	      0.00000000
      0.23882220	    -70.42767238	    -70.79268489	      0.00000000
      0.24009932	    -70.47073980	    -71.91493474	      0.00000000
      0.24137645	    -70.48402362	    -73.02816695	      0.00000000
      0.24265357	    -70.46721740	    -74.13080418	      0.00000000
      0.24393070	    -70.42043085	    -75.22150653	      0.00000000
      0.24520782	    -70.34236533	    -76.29800076	      0.00000000
      0.24648495	    -70.52174060	    -77.66652585	      0.00000000
      0.24776207	    -70.37469017	    -78.70646784	      0.00000000
      0.24903919	    -70.19708495	    -79.72680891	      0.00000000
      0.25031632	    -69.98781810	    -80.72516305	      0.00000000
      0.25159344	    -69.74435260	    -81.69772309	      0.00000000
      0.25287057	    -69.46731524	    -82.64297396	      0.00000000
      0.25414769	    -69.15729547	    -83.55942957	      0.00000000
      0.25542481	    -68.81482354	    -84.44565043	      0.00000000
      0.25670194	    -68.43997133	    -85.29980569	      0.00000000
      0.25797906	    -68.03288653	    -86.12014701	      0.00000000
      0.25925619	    -67.59350026	    -86.90467886	      0.00000000
      0.26053331	    -67.12189105	    -87.65151933	      0.00000000
      0.26181043	    -66.61819788	    -88.35879005	      0.00000000
      0.26308756	    -66.08260393	    -89.02463562	      0.00000000
      0.26436468	    -65.51554093	    -89.64741319	      0.00000000
      0.26564181	    -64.91749072	    -90.22555419	      0.00000000
      0.26691893	    -64.28932610	    -90.75792880	      0.00000000
      0.26819605	    -63.63198763	    -91.24359785	      0.00000000
      0.26947318	    -62.94669501	    -91.68203370	      0.00000000
      0.27075030	    -62.23465889	    -92.07289891	      0.00000000
      0.27202743	    -61.49720517	    -92.41614234	      0.00000000
      0.27330455	    -60.73573230	    -92.71198597	      0.00000000
      0.27458167	    -59.95171907	    -92.96088894	      0.00000000
      0.27585880	    -59.14671796	    -93.16365028	      0.00000000
      0.27713592	    -58.32230748	    -93.32124399	      0.00000000
      0.27841305	    -57.48012090	    -93.43495787	      0.00000000
      0.27969017	    -56.62181386	    -93.50623487	      0.00000000
      0.28096730	    -55.74910371	    -93.53683038	      0.00000000
      0.28224442	    -54.86376637	    -93.52870109	      0.00000000
      0.28352154	    -53.96763454	    -93.48410746	      0.00000000
      0.28479867	    -53.06257719	    -93.40547181	      0.00000000
      0.28607579	    -52.15049579	    -93.29546941	      0.00000000
      0.28735292	    -51.23325281	    -93.15678686	      0.00000000
      0.28863004	    -50.31273495	    -92.99230948	      0.00000000
      0.28990716	    -49.39072702	    -92.80477798	      0.00000000
      0.29118429	    -48.46904157	    -92.59707921	      0.00000000
      0.29246141	    -47.54937234	    -92.37187544	      0.00000000
      0.29373854	    -46.63345401	    -92.13194757	      0.00000000
      0.29501566	    -45.72290204	    -91.87982010	      0.00000000
      0.29629278	    -44.81936322	    -91.61808244	      0.00000000
      0.29756991	    -43.92437134	    -91.34907053	      0.00000000
      0.29884703	    -43.03948404	    -91.07516006	      0.00000000
      0.30012416	    -42.16614664	    -90.79849307	      0.00000000
      0.30140128	    -41.30580773	    -90.52122128	      0.00000000
      0.30267840	    -40.45978243	    -90.24525141	      0.00000000
      0.30395553	    -39.62936015	    -89.97245762	      0.00000000
      0.30523265	    -38.81568038	    -89.70446718	      0.00000000
      0.30650978	    -38.01983937	    -89.44285198	      0.00000000
      0.30778690	    -37.24281690	    -89.18898630	      0.00000000
      0.30906402	    -36.48563188	    -88.94417446	      0.00000000
      0.31034115	    -35.74910208	    -88.70964387	      0.00000000
      0.31161827	    -35.03401148	    -88.48660551	      0.00000000
      0.31289540	    -34.34110323	    -88.27625203	      0.00000000
      0.31417252	    -33.67115823	    -88.07981381	      0.00000000
      0.31544964	    -33.02499798	    -87.89860392	      0.00000000
      0.31672677	    -32.40357081	    -87.73406779	      0.00000000
      0.31800389	    -31.80797451	    -87.58786459	      0.00000000
      0.31928102	    -31.23954433	    -87.46190590	      0.00000000
      0.32055814	    -30.69988696	    -87.35846707	      0.00000000
      0.32183527	    -30.19095588	    -87.28019941	      0.00000000
      0.32311239	    -29.71509100	    -87.23026679	      0.00000000
      0.32438951	    -29.27505958	    -87.21231256	      0.00000000
      0.32566664	    -28.87410784	    -87.23062643	      0.00000000
      0.32694376	    -28.51593365	    -87.29003882	      0.00000000
      0.32822089	    -28.20477505	    -87.39613015	      0.00000000
      0.32949801	    -27.94526813	    -87.55501985	      0.00000000
      0.33077513	    -27.74261951	    -87.77363211	      0.00000000
      0.33205226	    -27.60229067	    -88.05933745	      0.00000000
      0.33332938	    -27.53034423	    -88.42035601	      0.00000000
      0.33460651	    -27.53287381	    -88.86515161	      0.00000000
      0.33588363	    -27.61668446	    -89.40325478	      0.00000000
      0.33716075	    -27.78829828	    -90.04400012	      0.00000000
      0.33843788	    -28.05539214	    -90.79892889	      0.00000000
      0.33971500	    -28.42537182	    -91.67972133	      0.00000000
      0.34099213	    -28.90720211	    -92.70164688	      0.00000000
      0.34226925	    -29.51007242	    -93.88144050	      0.00000000
      0.34354637	    -30.24370283	    -95.23787324	      0.00000000
      0.34482350	    -31.11842681	    -96.79239913	      0.00000000
      0.34610062	    -32.14192396	    -98.56180228	      0.00000000
      0.34737775	    -33.32234521	   -100.56529375	      0.00000000
      0.34865487	    -34.66053183	   -102.80699555	      0.00000000
      0.34993199	    -36.15477581	   -105.28575440	      0.00000000
      0.35120912	    -37.79573781	   -107.98671737	      0.00000000
      0.35248624	    -39.56958789	   -110.88479193	      0.00000000
      0.35376337	    -41.46195236	   -113.96433834	      0.00000000
      0.35504049	    -43.45632669	   -117.20485585	      0.00000000
      0.35631762	    -45.54611403	   -120.62074575	      0.00000000
      0.35759474	    -47.73397505	   -124.24377260	      0.00000000
      0.35887186	    -50.03992834	   -128.13737586	      0.00000000
      0.36014899	    -52.51303976	   -132.40869634	      0.00000000
      0.36142611	    -55.22841379	   -137.18001168	      0.00000000
      0.36270324	    -58.31426269	   -142.64469437	      0.00000000
      0.36398036	    -61.93707776	   -149.02942705	      0.00000000
      0.36525748	    -66.32263507	   -156.65235421	      0.00000000
      0.36653461	    -71.71084944	   -165.85377809	      0.00000000
      0.36781173	    -78.34547879	   -176.99456336	      0.00000000
      0.36908886	    -86.40578283	   -190.34219816	      0.00000000
      0.37036598	    -95.98523759	   -206.03222668	      0.00000000
      0.37164310	   -107.06989892	   -224.03181448	      0.00000000
      0.37292023	   -119.53241764	   -244.11126851	      0.00000000
      0.37419735	   -133.18457171	   -265.93262970	      0.00000000
      0.37547448	   -147.74781431	   -288.97697236	      0.00000000
      0.37675160	   -162.93896776	   -312.68985628	      0.00000000
      0.37802872	   -178.37503474	   -336.32673913	      0.00000000
      0.37930585	   -193.67629732	   -359.12918103	      0.00000000
      0.38058297	   -208.30721412	   -380.08333836	      0.00000000
      0.38186010	   -221.77636284	   -398.33148817	      0.00000000
      0.38313722	   -233.45492154	   -412.85620751	      0.00000000
      0.38441434	   -242.92217426	   -423.24017014	      0.00000000
      0.38569147	   -249.96365777	   -429.64404070	      0.00000000
      0.38696859	   -254.34005576	   -432.09812337	      0.00000000
      0.38824572	   -256.45551463	   -431.78565316	      0.00000000
      0.38952284	   -173.52414578	   -324.77864735	      0.00000000
      0.39079996	   -117.13507520	   -258.81738955	      0.00000000
      0.39207709	   -112.57111994	   -259.61015067	      0.00000000
      0.39335421	   -102.84570904	   -251.51550646	      0.00000000
      0.39463134	    -99.57533474	   -249.36487115	      0.00000000
      0.39590846	    -95.94195066	   -244.46177134	      0.00000000
      0.39718559	    -94.19649303	   -239.58397459	      0.00000000
      0.39846271	    -92.29766453	   -232.79152419	      0.00000000
      0.39973983	    -90.92475598	   -225.33151695	      0.00000000
      0.40101696	    -89.54193591	   -215.26191530	      0.00000000
      0.40229408	    -88.57205433	   -199.36090894	      0.00000000
      0.40357121	    -88.48291521	   -176.40437585	      0.00000000
      0.40484833	    -88.37889631	   -148.84889611	      0.00000000
      0.40612545	    -87.31802358	   -122.07703806	      0.00000000
      0.40740258	    -85.44971951	    -99.96871649	      0.00000000
      0.40867970	    -82.91086696	    -83.61812908	      0.00000000
      0.40995683	    -79.33277472	    -70.87338899	      0.00000000
      0.41123395	    -73.52824235	    -55.29905741	      0.00000000
      0.41251107	    -67.42762450	    -36.48352094	      0.00000000
      0.41378820	    -63.04892454	    -16.50117369	      0.00000000
      0.41506532	    -59.92929342	      2.81533944	      0.00000000
      0.41634245	    -57.81362452	     19.44642326	      0.00000000
      0.41761957	    -55.99028241	     33.84866892	      0.00000000
      0.41889669	    -53.78917179	     46.87493116	      0.00000000
      0.42017382	    -51.42249018	     59.20179540	      0.00000000
      0.42145094	    -49.01305871	     71.01420302	      0.00000000
      0.42272807	    -46.59179931	     82.28829453	      0.00000000
      0.42400519	    -44.19001958	     93.02206453	      0.00000000
      0.42528231	    -41.78996166	    103.19359372	      0.00000000
      0.42655944	    -39.38944543	    112.78283268	      0.00000000
      0.42783656	    -36.96759960	    121.84952708	      0.00000000
      0.42911369	    -34.51232673	    130.43710784	      0.00000000
      0.43039081	    -32.00324800	    138.65235753	      0.00000000
      0.43166794	    -29.42051353	    146.59901793	      0.00000000
      0.43294506	    -26.75811586	    154.36335367	      0.00000000
      0.43422218	    -24.00907274	    162.02483672	      0.00000000
      0.43549931	    -21.17549233	    169.62327791	      0.00000000
      0.43677643	    -18.26049313	    177.19146933	      0.00000000
      0.43805356	    -15.26705176	    184.74332990	      0.00000000
      0.43933068	    -12.20034325	    192.28614076	      0.00000000
      0.44060780	     -9.06267912	    199.82797987	      0.00000000
      0.44188493	     -5.85855275	    207.36936307	      0.00000000
      0.44316205	     -2.58961839	    214.91963168	      0.00000000
      0.44443918	      0.74097833	    222.48087699	      0.00000000
      0.44571630	      4.13179375	    230.06407497	      0.00000000
      0.44699342	      7.58079742	    237.67472981	      0.00000000
      0.44827055	     11.08560680	    245.32365589	      0.00000000
      0.44954767	     14.64387123	    253.01836504	      0.00000000
      0.45082480	     18.25159898	    260.76746154	      0.00000000
      0.45210192	     21.90495759	    268.57718954	      0.00000000
      0.45337904	     25.60004796	    276.45416062	      0.00000000
      0.45465617	     29.33312659	    284.40251337	      0.00000000
      0.45593329	     33.10306644	    292.43071808	      0.00000000
      0.45721042	     36.90915286	    300.54570777	      0.00000000
      0.45848754	     40.75299763	    308.76065078	      0.00000000
      0.45976466	     44.63741291	    317.08963479	      0.00000000
      0.46104179	     48.56326376	    325.54536753	      0.00000000
      0.46231891	     52.53475278	    334.14301606	      0.00000000
      0.46359604	     56.54317565	    342.88291507	      0.00000000
      0.46487316	     60.57655895	    351.76613594	      0.00000000
      0.46615028	     64.63218902	    360.78984537	      0.00000000
      0.46742741	     68.71126423	    369.95079703	      0.00000000
      0.46870453	     72.81545293	    379.23555861	      0.00000000
      0.46998166	     76.94403541	    388.62726750	      0.00000000
      0.47125878	     81.09749546	    398.11131358	      0.00000000
      0.47253591	     85.27399302	    407.66845140	      0.00000000
      0.47381303	     89.47497061	    417.29049284	      0.00000000
      0.47509015	     93.70074021	    426.96588296	      0.00000000
      0.47636728	     97.95319123	    436.69122917	      0.00000000
      0.47764440	    102.23342664	    446.46065761	      0.00000000
      0.47892153	    106.54285875	    456.27081490	      0.00000000
      0.48019865	    110.88239525	    466.11636709	      0.00000000
      0.48147577	    115.25285416	    475.99134708	      0.00000000
      0.48275290	    119.65449664	    485.88815504	      0.00000000
      0.48403002	    124.08748072	    495.79819916	      0.00000000
      0.48530715	    128.55119547	    505.71121545	      0.00000000
      0.48658427	    133.04512640	    515.61684842	      0.00000000
      0.48786139	    137.56765545	    525.50285376	      0.00000000
      0.48913852	    142.11800802	    535.35945099	      0.00000000
      0.49041564	    146.69473322	    545.17534242	      0.00000000
      0.49169277	    151.29641627	    554.93780552	      0.00000000
      0.49296989	    155.92024664	    564.63284408	      0.00000000
      0.49424701	    160.56521172	    574.25157485	      0.00000000
      0.49552414	    165.22933506	    583.78285744	      0.00000000
      0.49680126	    169.91099090	    593.21802336	      0.00000000
      0.49807839	    174.60838696	    602.54800626	      0.00000000
      0.49935551	    179.31900828	    611.76345552	      0.00000000
      0.50063263	    184.04030175	    620.85492290	      0.00000000
      0.50190976	    188.76799142	    629.80994434	      0.00000000
      0.50318688	    193.49760781	    638.61565314	      0.00000000
      0.50446401	    198.22335803	    647.25690682	      0.00000000
      0.50574113	    202.93880961	    655.71719419	      0.00000000
      0.50701826	    207.63823215	    663.98273650	      0.00000000
      0.50829538	    212.31501228	    672.03796198	      0.00000000
      0.50957250	    216.96523576	    679.87526591	      0.00000000
      0.51084963	    221.58445067	    687.48601309	      0.00000000
      0.51212675	    226.17061405	    694.86917913	      0.00000000
      0.51340388	    230.72179772	    702.02377405	      0.00000000
      0.51468100	    235.23678130	    708.95224681	      0.00000000
      0.51595812	    239.71482184	    715.65753701	      0.00000000
      0.51723525	    244.15529279	    722.14415353	      0.00000000
      0.51851237	    248.55810586	    728.41729425	      0.00000000
      0.51978950	    252.92402212	    734.48491136	      0.00000000
      0.52106662	    257.25464973	    740.35671536	      0.00000000
      0.52234374	    261.55160408	    746.04253155	      0.00000000
      0.52362087	    265.81788445	    751.55526544	      0.00000000
      0.52489799	    270.05402073	    756.90079988	      0.00000000
      0.52617512	    274.26199236	    762.08821918	      0.00000000
      0.52745224	    278.44022869	    767.11536407	      0.00000000
      0.52872936	    282.58795828	    771.98212060	      0.00000000
      0.53000649	    286.70216812	    776.67950403	      0.00000000
      0.53128361	    290.77978547	    781.19907796	      0.00000000
      0.53256074	    294.81752401	    785.52931973	      0.00000000
      0.53383786	    298.81152011	    789.65819393	      0.00000000
      0.53511498	    302.75877451	    793.57524570	      0.00000000
      0.53639211	    306.65565120	    797.26909809	      0.00000000
      0.53766923	    310.49917927	    800.73155039	      0.00000000
      0.53894636	    314.28592435	    803.95342103	      0.00000000
      0.54022348	    318.01248851	    806.92847764	      0.00000000
      0.54150061	    321.67512759	    809.64937987	      0.00000000
      0.54277773	    325.27017520	    812.11230741	      0.00000000
      0.54405485	    328.79359496	    814.31211130	      0.00000000
      0.54533198	    332.24241470	    816.24947007	      0.00000000
      0.54660910	    335.61336491	    817.92384947	      0.00000000
      0.54788623	    338.90520748	    819.34247173	      0.00000000
      0.54916335	    342.11687260	    820.51214655	      0.00000000
      0.55044047	    345.24904634	    821.44621352	      0.00000000
      0.55171760	    348.30340910	    822.15888458	      0.00000000
      0.55299472	    351.28183222	    822.66643647	      0.00000000
      0.55427185	    354.18803126	    822.98723723	      0.00000000
      0.55554897	    357.02416315	    823.13661023	      0.00000000
      0.55682609	    359.79473083	    823.13266723	      0.00000000
      0.55810322	    362.50172406	    822.98722468	      0.00000000
      0.55938034	    365.14931075	    822.71482694	      0.00000000
      0.56065747	    367.73920045	    822.32311004	      0.00000000
      0.56193459	    370.27434349	    821.82165284	      0.00000000
      0.56321171	    372.75596259	    821.21447625	      0.00000000
      0.56448884	    375.18527210	    820.50645817	      0.00000000
      0.56576596	    377.56274511	    819.69900860	      0.00000000
      0.56704309	    379.88803043	    818.79355785	      0.00000000
      0.56832021	    382.16101611	    817.78998641	      0.00000000
      0.56959733	    384.38063109	    816.68779460	      0.00000000
      0.57087446	    386.54685924	    815.48643555	      0.00000000
      0.57215158	    388.65895285	    814.18484301	      0.00000000
      0.57342871	    390.71763575	    812.78298411	      0.00000000
      0.57470583	    392.72311874	    811.28023563	      0.00000000
      0.57598295	    394.67696490	    809.67760849	      0.00000000
      0.57726008	    396.58033163	    807.97547569	      0.00000000
      0.57853720	    398.43529387	    806.17599772	      0.00000000
      0.57981433	    400.24361272	    804.28071197	      0.00000000
      0.58109145	    402.00750019	    802.29276913	      0.00000000
      0.58236858	    403.72897316	    800.21478566	      0.00000000
      0.58364570	    405.41013391	    798.05062255	      0.00000000
      0.58492282	    407.05301191	    795.80373991	      0.00000000
      0.58619995	    408.65948851	    793.47841319	      0.00000000
      0.58747707	    410.23147424	    791.07866069	      0.00000000
      0.58875420	    411.77060597	    788.60891076	      0.00000000
      0.59003132	    413.27862268	    786.07346421	      0.00000000
      0.59130844	    414.75693680	    783.47669153	      0.00000000
      0.59258557	    416.20710713	    780.82293879	      0.00000000
      0.59386269	    417.63035351	    778.11635523	      0.00000000
      0.59513982	    419.02806170	    775.36113789	      0.00000000
      0.59641694	    420.40128858	    772.56109526	      0.00000000
      0.59769406	    421.75125625	    769.72012577	      0.00000000
      0.59897119	    423.07888130	    766.84161672	      0.00000000
      0.60024831	    424.38522862	    763.92906134	      0.00000000
      0.60152544	    425.67109274	    760.98538104	      0.00000000
      0.60280256	    426.93739077	    758.01360275	      0.00000000
      0.60407968	    428.18482415	    755.01618342	      0.00000000
      0.60535681	    429.41420450	    751.99570122	      0.00000000
      0.60663393	    430.62615937	    748.95416231	      0.00000000
      0.60791106	    431.82142194	    745.89371567	      0.00000000
      0.60918818	    433.00047923	    742.81582163	      0.00000000
      0.61046530	    434.16388579	    739.72204565	      0.00000000
      0.61174243	    435.31185468	    736.61311364	      0.00000000
      0.61301955	    436.44463116	    733.48980765	      0.00000000
      0.61429668	    437.56213087	    730.35212438	      0.00000000
      0.61557380	    438.66428067	    727.20008017	      0.00000000
      0.61685093	    439.75081975	    724.03320802	      0.00000000
      0.61812805	    440.82148113	    720.85102569	      0.00000000
      0.61940517	    441.87595223	    717.65289464	      0.00000000
      0.62068230	    442.91388969	    714.43811207	      0.00000000
      0.62195942	    443.93494927	    711.20598403	      0.00000000
      0.62323655	    444.93874734	    707.95572361	      0.00000000
      0.62451367	    445.92485424	    704.68655557	      0.00000000
      0.62579079	    446.89281521	    701.39761657	      0.00000000
      0.62706792	    447.84205594	    698.08799786	      0.00000000
      0.62834504	    448.77200036	    694.75672611	      0.00000000
      0.62962217	    449.68191180	    691.40276713	      0.00000000
      0.63089929	    450.57105313	    688.02502945	      0.00000000
      0.63217641	    451.43852246	    684.62239079	      0.00000000
      0.63345354	    452.28339474	    681.19365571	      0.00000000
      0.63473066	    453.10461685	    677.73766296	      0.00000000
      0.63600779	    453.90109103	    674.25316339	      0.00000000
      0.63728491	    454.67166814	    670.73903662	      0.00000000
      0.63856203	    455.41513932	    667.19406555	      0.00000000
      0.63983916	    456.13035749	    663.61727762	      0.00000000
      0.64111628	    456.81610052	    660.00759504	      0.00000000
      0.64239341	    457.47133991	    656.36429596	      0.00000000
      0.64367053	    458.09495638	    652.68654501	      0.00000000
      0.64494765	    458.68616039	    648.97395701	      0.00000000
      0.64622478	    459.24405714	    645.22603018	      0.00000000
      0.64750190	    459.76818866	    641.44275963	      0.00000000
      0.64877903	    460.25798550	    637.62403003	      0.00000000
      0.65005615	    460.71336002	    633.77020034	      0.00000000
      0.65133327	    461.13411781	    629.88153341	      0.00000000
      0.65261040	    461.52052606	    625.95869511	      0.00000000
      0.65388752	    461.87275633	    622.00227487	      0.00000000
      0.65516465	    462.19135607	    618.01316189	      0.00000000
      0.65644177	    462.47679008	    613.99218845	      0.00000000
      0.65771890	    462.72977744	    609.94038244	      0.00000000
      0.65899602	    462.95096149	    605.85872768	      0.00000000
      0.66027314	    463.14112913	    601.74833160	      0.00000000
      0.66155027	    463.30099013	    597.61026433	      0.00000000
      0.66282739	    463.43133149	    593.44568889	      0.00000000
      0.66410452	    463.53285016	    589.25572632	      0.00000000
      0.66538164	    463.60632328	    585.04160655	      0.00000000
      0.66665876	    463.65242786	    580.80451596	      0.00000000
      0.66793589	    463.67196742	    576.54578398	      0.00000000
      0.66921301	    463.66564384	    572.26670070	      0.00000000
      0.67049014	    463.63434210	    567.96872458	      0.00000000
      0.67176726	    463.57885444	    563.65329105	      0.00000000
      0.67304438	    463.50019612	    559.32199070	      0.00000000
      0.67432151	    463.39932851	    554.97643453	      0.00000000
      0.67559863	    463.27740385	    550.61829277	      0.00000000
      0.67687576	    463.13558890	    546.24933068	      0.00000000
      0.67815288	    462.97509056	    541.87114969	      0.00000000
      0.67943000	    462.79721421	    537.48553311	      0.00000000
      0.68070713	    462.60305254	    533.09376198	      0.00000000
      0.68198425	    462.39393564	    528.69739396	      0.00000000
      0.68326138	    462.17054307	    524.29710223	      0.00000000
      0.68453850	    461.93392039	    519.89389416	      0.00000000
      0.68581562	    461.68403309	    515.48777641	      0.00000000
      0.68709275	    461.42113068	    511.07904930	      0.00000000
      0.68836987	    461.14468226	    506.66746162	      0.00000000
      0.68964700	    460.85419842	    502.25295065	      0.00000000
      0.69092412	    460.54930518	    497.83536045	      0.00000000
      0.69220125	    460.22964761	    493.41466114	      0.00000000
      0.69347837	    459.89512825	    488.99048054	      0.00000000
      0.69475549	    459.54593218	    484.56259438	      0.00000000
      0.69603262	    459.18174979	    480.13020856	      0.00000000
      0.69730974	    458.80256089	    475.69267820	      0.00000000
      0.69858687	    458.40845479	    471.24980879	      0.00000000
      0.69986399	    457.99869156	    466.80156627	      0.00000000
      0.70114111	    457.57325378	    462.34733458	      0.00000000
      0.70241824	    457.13195047	    457.88627190	      0.00000000
      0.70369536	    456.67543602	    453.41774436	      0.00000000
      0.70497249	    456.20399465	    448.94210165	      0.00000000
      0.70624961	    455.71924443	    444.45836157	      0.00000000
      0.70752673	    455.21614878	    439.96785895	      0.00000000
      0.70880386	    454.70442642	    435.45890764	      0.00000000
      0.71008098	    454.17910217	    430.93883149	      0.00000000
      0.71135811	    453.64224856	    426.40560382	      0.00000000
      0.71263523	    453.09298580	    421.85621063	      0.00000000
      0.71391235	    452.53016666	    417.28788976	      0.00000000
      0.71518948	    451.95298091	    412.69767517	      0.00000000
      0.71646660	    451.36006693	    408.08229247	      0.00000000
      0.71774373	    450.75027395	    403.43842710	      0.00000000
      0.71902085	    450.12107169	    398.76224934	      0.00000000
      0.72029797	    449.47016393	    394.04997871	      0.00000000
      0.72157510	    448.79290292	    389.29706940	      0.00000000
      0.72285222	    448.08502212	    384.49903770	      0.00000000
      0.72412935	    447.33908625	    379.65049375	      0.00000000
      0.72540647	    446.54725192	    374.74596374	      0.00000000
      0.72668359	    445.69891231	    369.77936107	      0.00000000
      0.72796072	    444.78387958	    364.74493314	      0.00000000
      0.72923784	    443.78873420	    359.63671782	      0.00000000
      0.73051497	    442.69924978	    354.44826898	      0.00000000
      0.73179209	    441.50047074	    349.17396742	      0.00000000
      0.73306922	    440.17643885	    343.80756769	      0.00000000
      0.73434634	    438.71220939	    338.34483988	      0.00000000
      0.73562346	    437.09173844	    332.78055971	      0.00000000
      0.73690059	    435.30036309	    327.11311160	      0.00000000
      0.73817771	    433.32098163	    321.33996163	      0.00000000
      0.73945484	    431.14033685	    315.46278263	      0.00000000
      0.74073196	    428.74274345	    309.48252120	      0.00000000
      0.74200908	    426.12093673	    303.40310202	      0.00000000
      0.74328621	    423.26679831	    297.22759941	      0.00000000
      0.74456333	    420.17946594	    290.96045893	      0.00000000
      0.74584046	    416.85681401	    284.60564867	      0.00000000
      0.74711758	    413.29772655	    278.16685930	      0.00000000
      0.74839470	    409.50012649	    271.64791651	      0.00000000
      0.74967183	    405.45841186	    265.05082715	      0.00000000
      0.75094895	    401.16718304	    258.37816634	      0.00000000
      0.75222608	    396.61639278	    251.62995059	      0.00000000
      0.75350320	    391.79652381	    244.80706177	      0.00000000
      0.75478032	    386.69490722	    237.90836960	      0.00000000
      0.75605745	    381.29967700	    230.93399960	      0.00000000
      0.75733457	    375.59448518	    223.88179238	      0.00000000
      0.75861170	    369.56250846	    216.75010093	      0.00000000
      0.75988882	    363.19338857	    209.54040775	      0.00000000
      0.76116594	    356.47735301	    202.25617106	      0.00000000
      0.76244307	    349.38455432	    194.89263609	      0.00000000
      0.76372019	    341.86085815	    187.43228356	      0.00000000
      0.76499732	    333.94492827	    179.89785339	      0.00000000
      0.76627444	    325.56692795	    172.26604383	      0.00000000
