PointVelocity
version=1
nRows=601
nColumns=4
inDegrees=no
No description.
endheader
time	state_0	state_1	state_2
      0.00000000	     -0.06623043	      0.12124044	      0.00000000
      0.00127712	     -0.06665664	      0.12597364	      0.00000000
      0.00255425	     -0.06704268	      0.13100230	      0.00000000
      0.00383137	     -0.06737832	      0.13628942	      0.00000000
      0.00510850	     -0.06764834	      0.14185296	      0.00000000
      0.00638562	     -0.06784000	      0.14768864	      0.00000000
      0.00766274	     -0.06793964	      0.15380479	      0.00000000
      0.00893987	     -0.06794844	      0.16019492	      0.00000000
      0.01021699	     -0.06786622	      0.16684321	      0.00000000
      0.01149412	     -0.06766710	      0.17371574	      0.00000000
      0.01277124	     -0.06734574	      0.18081004	      0.00000000
      0.01404836	     -0.06692367	      0.18813255	      0.00000000
      0.01532549	     -0.06641787	      0.19566020	      0.00000000
      0.01660261	     -0.06574981	      0.20332816	      0.00000000
      0.01787974	     -0.06486401	      0.21107566	      0.00000000
      0.01915686	     -0.06361872	      0.21883946	      0.00000000
      0.02043399	     -0.06191791	      0.22652762	      0.00000000
      0.02171111	     -0.05954790	      0.23411671	      0.00000000
      0.02298823	     -0.05648350	      0.24147061	      0.00000000
      0.02426536	     -0.05229809	      0.24873067	      0.00000000
      0.02554248	     -0.04764790	      0.25556587	      0.00000000
      0.02681961	     -0.03954796	      0.26317767	      0.00000000
      0.02809673	     -0.02419132	      0.27333052	      0.00000000
      0.02937385	      0.00314102	      0.28737291	      0.00000000
      0.03065098	      0.05017653	      0.30603612	      0.00000000
      0.03192810	      0.12252478	      0.32724941	      0.00000000
      0.03320523	      0.22117145	      0.34906049	      0.00000000
      0.03448235	      0.33000854	      0.37001448	      0.00000000
      0.03575947	      0.43714651	      0.38929160	      0.00000000
      0.03703660	      0.54006280	      0.40613116	      0.00000000
      0.03831372	      0.63465812	      0.41997222	      0.00000000
      0.03959085	      0.72027149	      0.43100212	      0.00000000
      0.04086797	      0.79631496	      0.43944113	      0.00000000
      0.04214509	      0.86455876	      0.44592289	      0.00000000
      0.04342222	      0.92614989	      0.45085971	      0.00000000
      0.04469934	      0.98246205	      0.45463387	      0.00000000
      0.04597647	      1.03467581	      0.45753945	      0.00000000
      0.04725359	      1.08353848	      0.45975524	      0.00000000
      0.04853071	      1.12982691	      0.46144435	      0.00000000
      0.04980784	      1.17390212	      0.46268894	      0.00000000
      0.05108496	      1.21621686	      0.46357606	      0.00000000
      0.05236209	      1.25696281	      0.46414857	      0.00000000
      0.05363921	      1.29639853	      0.46445372	      0.00000000
      0.05491633	      1.33462670	      0.46451350	      0.00000000
      0.05619346	      1.37178467	      0.46435139	      0.00000000
      0.05747058	      1.40792228	      0.46397672	      0.00000000
      0.05874771	      1.44310637	      0.46339892	      0.00000000
      0.06002483	      1.47737282	      0.46262241	      0.00000000
      0.06130196	      1.51076578	      0.46165090	      0.00000000
      0.06257908	      1.54333636	      0.46048916	      0.00000000
      0.06385620	      1.57513836	      0.45914056	      0.00000000
      0.06513333	      1.60624278	      0.45761122	      0.00000000
      0.06641045	      1.63672035	      0.45590562	      0.00000000
      0.06768758	      1.66664838	      0.45402946	      0.00000000
      0.06896470	      1.69610378	      0.45198736	      0.00000000
      0.07024182	      1.72515424	      0.44978229	      0.00000000
      0.07151895	      1.75386904	      0.44741616	      0.00000000
      0.07279607	      1.78229817	      0.44488699	      0.00000000
      0.07407320	      1.81049481	      0.44219296	      0.00000000
      0.07535032	      1.83849037	      0.43932816	      0.00000000
      0.07662744	      1.86631992	      0.43628664	      0.00000000
      0.07790457	      1.89400034	      0.43305840	      0.00000000
      0.07918169	      1.92155189	      0.42963318	      0.00000000
      0.08045882	      1.94898242	      0.42599851	      0.00000000
      0.08173594	      1.97630179	      0.42214148	      0.00000000
      0.08301306	      2.00351350	      0.41804987	      0.00000000
      0.08429019	      2.03062194	      0.41371081	      0.00000000
      0.08556731	      2.05763054	      0.40911451	      0.00000000
      0.08684444	      2.08454267	      0.40425023	      0.00000000
      0.08812156	      2.11136456	      0.39911150	      0.00000000
      0.08939868	      2.13810193	      0.39369085	      0.00000000
      0.09067581	      2.16476514	      0.38798510	      0.00000000
      0.09195293	      2.19136451	      0.38199001	      0.00000000
      0.09323006	      2.21791315	      0.37570517	      0.00000000
      0.09450718	      2.24442544	      0.36912929	      0.00000000
      0.09578431	      2.27091171	      0.36226453	      0.00000000
      0.09706143	      2.29738369	      0.35511246	      0.00000000
      0.09833855	      2.32384105	      0.34767727	      0.00000000
      0.09961568	      2.35028201	      0.33996204	      0.00000000
      0.10089280	      2.37669634	      0.33197259	      0.00000000
      0.10216993	      2.40307063	      0.32371356	      0.00000000
      0.10344705	      2.42940458	      0.31519424	      0.00000000
      0.10472417	      2.45569771	      0.30642319	      0.00000000
      0.10600130	      2.48197697	      0.29741492	      0.00000000
      0.10727842	      2.50827154	      0.28818407	      0.00000000
      0.10855555	      2.53462264	      0.27874881	      0.00000000
      0.10983267	      2.56107299	      0.26912741	      0.00000000
      0.11110979	      2.58764531	      0.25933729	      0.00000000
      0.11238692	      2.61436179	      0.24939560	      0.00000000
      0.11366404	      2.64121177	      0.23931726	      0.00000000
      0.11494117	      2.66818974	      0.22911770	      0.00000000
      0.11621829	      2.69526421	      0.21881085	      0.00000000
      0.11749541	      2.72239368	      0.20840789	      0.00000000
      0.11877254	      2.74955685	      0.19792522	      0.00000000
      0.12004966	      2.77675478	      0.18738283	      0.00000000
      0.12132679	      2.80400391	      0.17680457	      0.00000000
      0.12260391	      2.83131629	      0.16621334	      0.00000000
      0.12388103	      2.85867126	      0.15562618	      0.00000000
      0.12515816	      2.88603831	      0.14505742	      0.00000000
      0.12643528	      2.91336805	      0.13451835	      0.00000000
      0.12771241	      2.94061888	      0.12402106	      0.00000000
      0.12898953	      2.96776162	      0.11358127	      0.00000000
      0.13026665	      2.99477272	      0.10321565	      0.00000000
      0.13154378	      3.02163238	      0.09294127	      0.00000000
      0.13282090	      3.04829851	      0.08277032	      0.00000000
      0.13409803	      3.07476086	      0.07271888	      0.00000000
      0.13537515	      3.10101742	      0.06280572	      0.00000000
      0.13665228	      3.12711739	      0.05305748	      0.00000000
      0.13792940	      3.15312532	      0.04350697	      0.00000000
      0.13920652	      3.17907300	      0.03417577	      0.00000000
      0.14048365	      3.20490919	      0.02506605	      0.00000000
      0.14176077	      3.23058324	      0.01617539	      0.00000000
      0.14303790	      3.25622131	      0.00754965	      0.00000000
      0.14431502	      3.28174437	     -0.00082029	      0.00000000
      0.14559214	      3.30694529	     -0.00898268	      0.00000000
      0.14686927	      3.33183897	     -0.01693249	      0.00000000
      0.14814639	      3.35645673	     -0.02465861	      0.00000000
      0.14942352	      3.38081790	     -0.03215462	      0.00000000
      0.15070064	      3.40494075	     -0.03941344	      0.00000000
      0.15197776	      3.42882526	     -0.04643403	      0.00000000
      0.15325489	      3.45247328	     -0.05321471	      0.00000000
      0.15453201	      3.47587666	     -0.05975743	      0.00000000
      0.15580914	      3.49903031	     -0.06606357	      0.00000000
      0.15708626	      3.52192659	     -0.07213576	      0.00000000
      0.15836338	      3.54455872	     -0.07797683	      0.00000000
      0.15964051	      3.56692000	     -0.08358993	      0.00000000
      0.16091763	      3.58900398	     -0.08897859	      0.00000000
      0.16219476	      3.61080502	     -0.09414637	      0.00000000
      0.16347188	      3.63231748	     -0.09909725	      0.00000000
      0.16474900	      3.65353622	     -0.10383528	      0.00000000
      0.16602613	      3.67445599	     -0.10836502	      0.00000000
      0.16730325	      3.69507182	     -0.11269108	      0.00000000
      0.16858038	      3.71537869	     -0.11681858	      0.00000000
      0.16985750	      3.73537213	     -0.12075261	      0.00000000
      0.17113463	      3.75504755	     -0.12449876	      0.00000000
      0.17241175	      3.77440143	     -0.12806234	      0.00000000
      0.17368887	      3.79343001	     -0.13144922	      0.00000000
      0.17496600	      3.81213138	     -0.13466463	      0.00000000
      0.17624312	      3.83050319	     -0.13771434	      0.00000000
      0.17752025	      3.84854604	     -0.14060297	      0.00000000
      0.17879737	      3.86625985	     -0.14333566	      0.00000000
      0.18007449	      3.88364860	     -0.14591582	      0.00000000
      0.18135162	      3.90071537	     -0.14834727	      0.00000000
      0.18262874	      3.91746796	     -0.15063164	      0.00000000
      0.18390587	      3.93391316	     -0.15277078	      0.00000000
      0.18518299	      3.95006254	     -0.15476416	      0.00000000
      0.18646011	      3.96592662	     -0.15661124	      0.00000000
      0.18773724	      3.98152001	     -0.15830921	      0.00000000
      0.18901436	      3.99685644	     -0.15985494	      0.00000000
      0.19029149	      4.01195224	     -0.16124358	      0.00000000
      0.19156861	      4.02682319	     -0.16246965	      0.00000000
      0.19284573	      4.04148546	     -0.16352694	      0.00000000
      0.19412286	      4.05595516	     -0.16440829	      0.00000000
      0.19539998	      4.07024607	     -0.16510721	      0.00000000
      0.19667711	      4.08437247	     -0.16561602	      0.00000000
      0.19795423	      4.09834363	     -0.16592929	      0.00000000
      0.19923135	      4.11216985	     -0.16604029	      0.00000000
      0.20050848	      4.12585433	     -0.16594596	      0.00000000
      0.20178560	      4.13940174	     -0.16564200	      0.00000000
      0.20306273	      4.15280860	     -0.16512868	      0.00000000
      0.20433985	      4.16607325	     -0.16440528	      0.00000000
      0.20561698	      4.17918589	     -0.16347595	      0.00000000
      0.20689410	      4.19213867	     -0.16234419	      0.00000000
      0.20817122	      4.20491656	     -0.16101807	      0.00000000
      0.20944835	      4.21750644	     -0.15950547	      0.00000000
      0.21072547	      4.22988956	     -0.15781800	      0.00000000
      0.21200260	      4.24204891	     -0.15596760	      0.00000000
      0.21327972	      4.25396376	     -0.15396867	      0.00000000
      0.21455684	      4.26561483	     -0.15183648	      0.00000000
      0.21583397	      4.27698120	     -0.14958724	      0.00000000
      0.21711109	      4.28804302	     -0.14723845	      0.00000000
      0.21838822	      4.29878087	     -0.14480692	      0.00000000
      0.21966534	      4.30917596	     -0.14231109	      0.00000000
      0.22094246	      4.31921177	     -0.13976704	      0.00000000
      0.22221959	      4.32887203	     -0.13719271	      0.00000000
      0.22349671	      4.33814403	     -0.13460233	      0.00000000
      0.22477384	      4.34701495	     -0.13201201	      0.00000000
      0.22605096	      4.35547620	     -0.12943328	      0.00000000
      0.22732808	      4.36351868	     -0.12687956	      0.00000000
      0.22860521	      4.37113776	     -0.12435914	      0.00000000
      0.22988233	      4.37832803	     -0.12188209	      0.00000000
      0.23115946	      4.38508858	     -0.11945297	      0.00000000
      0.23243658	      4.39141751	     -0.11707797	      0.00000000
      0.23371370	      4.39731723	     -0.11475767	      0.00000000
      0.23499083	      4.40278834	     -0.11249466	      0.00000000
      0.23626795	      4.40783669	     -0.11028494	      0.00000000
      0.23754508	      4.41246549	     -0.10812685	      0.00000000
      0.23882220	      4.41668676	     -0.10600846	      0.00000000
      0.24009932	      4.42051388	     -0.10391521	      0.00000000
      0.24137645	      4.42396148	     -0.10182939	      0.00000000
      0.24265357	      4.42703402	     -0.09974234	      0.00000000
      0.24393070	      4.42974429	     -0.09763588	      0.00000000
      0.24520782	      4.43207517	     -0.09552288	      0.00000000
      0.24648495	      4.43387720	     -0.09355498	      0.00000000
      0.24776207	      4.43515965	     -0.09172149	      0.00000000
      0.24903919	      4.43609054	     -0.08984053	      0.00000000
      0.25031632	      4.43665325	     -0.08792648	      0.00000000
      0.25159344	      4.43680190	     -0.08602941	      0.00000000
      0.25287057	      4.43655219	     -0.08412705	      0.00000000
      0.25414769	      4.43591849	     -0.08219835	      0.00000000
      0.25542481	      4.43491211	     -0.08022421	      0.00000000
      0.25670194	      4.43353600	     -0.07819905	      0.00000000
      0.25797906	      4.43179249	     -0.07611653	      0.00000000
      0.25925619	      4.42967995	     -0.07397875	      0.00000000
      0.26053331	      4.42719744	     -0.07178566	      0.00000000
      0.26181043	      4.42434477	     -0.06953876	      0.00000000
      0.26308756	      4.42112055	     -0.06724050	      0.00000000
      0.26436468	      4.41752717	     -0.06488987	      0.00000000
      0.26564181	      4.41356572	     -0.06248650	      0.00000000
      0.26691893	      4.40924329	     -0.06002210	      0.00000000
      0.26819605	      4.40456588	     -0.05748803	      0.00000000
      0.26947318	      4.39954327	     -0.05487052	      0.00000000
      0.27075030	      4.39418275	     -0.05215715	      0.00000000
      0.27202743	      4.38849302	     -0.04933491	      0.00000000
      0.27330455	      4.38248125	     -0.04639062	      0.00000000
      0.27458167	      4.37615561	     -0.04331224	      0.00000000
      0.27585880	      4.36952314	     -0.04008686	      0.00000000
      0.27713592	      4.36259152	     -0.03670448	      0.00000000
      0.27841305	      4.35536706	     -0.03315482	      0.00000000
      0.27969017	      4.34785703	     -0.02943062	      0.00000000
      0.28096730	      4.34006774	     -0.02552381	      0.00000000
      0.28224442	      4.33200743	     -0.02142773	      0.00000000
      0.28352154	      4.32368372	     -0.01713439	      0.00000000
      0.28479867	      4.31510602	     -0.01263713	      0.00000000
      0.28607579	      4.30628317	     -0.00792810	      0.00000000
      0.28735292	      4.29722447	     -0.00300265	      0.00000000
      0.28863004	      4.28793896	      0.00214518	      0.00000000
      0.28990716	      4.27843473	      0.00751623	      0.00000000
      0.29118429	      4.26872001	      0.01311282	      0.00000000
      0.29246141	      4.25880129	      0.01893163	      0.00000000
      0.29373854	      4.24868571	      0.02497116	      0.00000000
      0.29501566	      4.23837809	      0.03122435	      0.00000000
      0.29629278	      4.22788416	      0.03768567	      0.00000000
      0.29756991	      4.21720678	      0.04434457	      0.00000000
      0.29884703	      4.20635015	      0.05119213	      0.00000000
      0.30012416	      4.19531510	      0.05821518	      0.00000000
      0.30140128	      4.18410408	      0.06540205	      0.00000000
      0.30267840	      4.17271542	      0.07273689	      0.00000000
      0.30395553	      4.16114918	      0.08020493	      0.00000000
      0.30523265	      4.14940076	      0.08778735	      0.00000000
      0.30650978	      4.13746744	      0.09546616	      0.00000000
      0.30778690	      4.12534172	      0.10322028	      0.00000000
      0.30906402	      4.11301801	      0.11102937	      0.00000000
      0.31034115	      4.10048597	      0.11887101	      0.00000000
      0.31161827	      4.08773733	      0.12672330	      0.00000000
      0.31289540	      4.07475927	      0.13456263	      0.00000000
      0.31417252	      4.06154104	      0.14236563	      0.00000000
      0.31544964	      4.04806706	      0.15010720	      0.00000000
      0.31672677	      4.03432391	      0.15776239	      0.00000000
      0.31800389	      4.02029281	      0.16530432	      0.00000000
      0.31928102	      4.00595722	      0.17270621	      0.00000000
      0.32055814	      3.99129455	      0.17993912	      0.00000000
      0.32183527	      3.97628440	      0.18697401	      0.00000000
      0.32311239	      3.96089998	      0.19377959	      0.00000000
      0.32438951	      3.94511623	      0.20032407	      0.00000000
      0.32566664	      3.92890304	      0.20657425	      0.00000000
      0.32694376	      3.91223085	      0.21249585	      0.00000000
      0.32822089	      3.89506966	      0.21805576	      0.00000000
      0.32949801	      3.87738794	      0.22321907	      0.00000000
      0.33077513	      3.85916320	      0.22795693	      0.00000000
      0.33205226	      3.84036817	      0.23223774	      0.00000000
      0.33332938	      3.82099963	      0.23604352	      0.00000000
      0.33460651	      3.80104545	      0.23935231	      0.00000000
      0.33588363	      3.78053668	      0.24216708	      0.00000000
      0.33716075	      3.75949030	      0.24448295	      0.00000000
      0.33843788	      3.73798795	      0.24634273	      0.00000000
      0.33971500	      3.71610064	      0.24778850	      0.00000000
      0.34099213	      3.69396652	      0.24892592	      0.00000000
      0.34226925	      3.67172857	      0.24987835	      0.00000000
      0.34354637	      3.64953403	      0.25078843	      0.00000000
      0.34482350	      3.62753986	      0.25183080	      0.00000000
      0.34610062	      3.60579765	      0.25308124	      0.00000000
      0.34737775	      3.58437966	      0.25465838	      0.00000000
      0.34865487	      3.56317221	      0.25644066	      0.00000000
      0.34993199	      3.54207833	      0.25828000	      0.00000000
      0.35120912	      3.52084825	      0.25986496	      0.00000000
      0.35248624	      3.49925678	      0.26083014	      0.00000000
      0.35376337	      3.47704388	      0.26101581	      0.00000000
      0.35504049	      3.45397818	      0.26024581	      0.00000000
      0.35631762	      3.42985858	      0.25881189	      0.00000000
      0.35759474	      3.40452258	      0.25709031	      0.00000000
      0.35887186	      3.37773783	      0.25555123	      0.00000000
      0.36014899	      3.34933071	      0.25471084	      0.00000000
      0.36142611	      3.31882120	      0.25443737	      0.00000000
      0.36270324	      3.28583398	      0.25455485	      0.00000000
      0.36398036	      3.24943470	      0.25409311	      0.00000000
      0.36525748	      3.20883742	      0.25222666	      0.00000000
      0.36653461	      3.16253254	      0.24755968	      0.00000000
      0.36781173	      3.10912912	      0.23883879	      0.00000000
      0.36908886	      3.04665397	      0.22421390	      0.00000000
      0.37036598	      2.97316908	      0.20163787	      0.00000000
      0.37164310	      2.88676633	      0.16901126	      0.00000000
      0.37292023	      2.78546574	      0.12410457	      0.00000000
      0.37419735	      2.66810936	      0.06564209	      0.00000000
      0.37547448	      2.53327292	     -0.00774357	      0.00000000
      0.37675160	      2.38098043	     -0.09602482	      0.00000000
      0.37802872	      2.21078705	     -0.19940425	      0.00000000
      0.37930585	      2.02411154	     -0.31667006	      0.00000000
      0.38058297	      1.82185428	     -0.44720222	      0.00000000
      0.38186010	      1.60689531	     -0.58807796	      0.00000000
      0.38313722	      1.38178062	     -0.73708927	      0.00000000
      0.38441434	      1.15045115	     -0.88765637	      0.00000000
      0.38569147	      0.91675609	     -1.03021237	      0.00000000
      0.38696859	      0.68451222	     -1.15806864	      0.00000000
      0.38824572	      0.45941709	     -1.26060776	      0.00000000
      0.38952284	      0.29053755	     -1.28838644	      0.00000000
      0.39079996	      0.21579453	     -1.22227960	      0.00000000
      0.39207709	      0.18208699	     -1.14429853	      0.00000000
      0.39335421	      0.15541444	     -1.09369019	      0.00000000
      0.39463134	      0.13719607	     -1.05179362	      0.00000000
      0.39590846	      0.12237306	     -1.01640391	      0.00000000
      0.39718559	      0.11072621	     -0.98356098	      0.00000000
      0.39846271	      0.10069226	     -0.95188725	      0.00000000
      0.39973983	      0.09218625	     -0.92080030	      0.00000000
      0.40101696	      0.08481323	     -0.88973118	      0.00000000
      0.40229408	      0.07814592	     -0.85428653	      0.00000000
      0.40357121	      0.07118719	     -0.80645968	      0.00000000
      0.40484833	      0.06320506	     -0.74413384	      0.00000000
      0.40612545	      0.05380952	     -0.66853009	      0.00000000
      0.40740258	      0.04407163	     -0.58824296	      0.00000000
      0.40867970	      0.03472352	     -0.50949115	      0.00000000
      0.40995683	      0.02657262	     -0.43938309	      0.00000000
      0.41123395	      0.02087902	     -0.38867454	      0.00000000
      0.41251107	      0.01798542	     -0.35653448	      0.00000000
      0.41378820	      0.01749587	     -0.33721635	      0.00000000
      0.41506532	      0.01794194	     -0.32211018	      0.00000000
      0.41634245	      0.01838148	     -0.30575671	      0.00000000
      0.41761957	      0.01861557	     -0.28816002	      0.00000000
      0.41889669	      0.01857714	     -0.27012010	      0.00000000
      0.42017382	      0.01858197	     -0.25337935	      0.00000000
      0.42145094	      0.01870290	     -0.23824170	      0.00000000
      0.42272807	      0.01890870	     -0.22444561	      0.00000000
      0.42400519	      0.01918102	     -0.21182485	      0.00000000
      0.42528231	      0.01948046	     -0.20013460	      0.00000000
      0.42655944	      0.01978123	     -0.18920763	      0.00000000
      0.42783656	      0.02007230	     -0.17898651	      0.00000000
      0.42911369	      0.02034361	     -0.16941450	      0.00000000
      0.43039081	      0.02059736	     -0.16051453	      0.00000000
      0.43166794	      0.02083434	     -0.15230315	      0.00000000
      0.43294506	      0.02105915	     -0.14478809	      0.00000000
      0.43422218	      0.02127438	     -0.13796779	      0.00000000
      0.43549931	      0.02147954	     -0.13180308	      0.00000000
      0.43677643	      0.02167423	     -0.12625485	      0.00000000
      0.43805356	      0.02185479	     -0.12126704	      0.00000000
      0.43933068	      0.02201865	     -0.11678716	      0.00000000
      0.44060780	      0.02216244	     -0.11276752	      0.00000000
      0.44188493	      0.02228349	     -0.10916112	      0.00000000
      0.44316205	      0.02237972	     -0.10593387	      0.00000000
      0.44443918	      0.02244926	     -0.10304993	      0.00000000
      0.44571630	      0.02249130	     -0.10048586	      0.00000000
      0.44699342	      0.02250495	     -0.09821606	      0.00000000
      0.44827055	      0.02249075	     -0.09622404	      0.00000000
      0.44954767	      0.02244918	     -0.09449201	      0.00000000
      0.45082480	      0.02238203	     -0.09300695	      0.00000000
      0.45210192	      0.02229111	     -0.09175502	      0.00000000
      0.45337904	      0.02217853	     -0.09072428	      0.00000000
      0.45465617	      0.02204636	     -0.08990166	      0.00000000
      0.45593329	      0.02189626	     -0.08927733	      0.00000000
      0.45721042	      0.02172979	     -0.08884078	      0.00000000
      0.45848754	      0.02154862	     -0.08858666	      0.00000000
      0.45976466	      0.02135425	     -0.08851017	      0.00000000
      0.46104179	      0.02114924	     -0.08860745	      0.00000000
      0.46231891	      0.02093509	     -0.08887459	      0.00000000
      0.46359604	      0.02071812	     -0.08930512	      0.00000000
      0.46487316	      0.02050729	     -0.08989680	      0.00000000
      0.46615028	      0.02030485	     -0.09063580	      0.00000000
      0.46742741	      0.02011098	     -0.09150583	      0.00000000
      0.46870453	      0.01992363	     -0.09248175	      0.00000000
      0.46998166	      0.01974182	     -0.09353949	      0.00000000
      0.47125878	      0.01956434	     -0.09465776	      0.00000000
      0.47253591	      0.01939067	     -0.09581490	      0.00000000
      0.47381303	      0.01922041	     -0.09699819	      0.00000000
      0.47509015	      0.01905325	     -0.09819406	      0.00000000
      0.47636728	      0.01888949	     -0.09939597	      0.00000000
      0.47764440	      0.01872940	     -0.10059654	      0.00000000
      0.47892153	      0.01857353	     -0.10179092	      0.00000000
      0.48019865	      0.01842229	     -0.10297348	      0.00000000
      0.48147577	      0.01827598	     -0.10413856	      0.00000000
      0.48275290	      0.01813484	     -0.10528014	      0.00000000
      0.48403002	      0.01799888	     -0.10639190	      0.00000000
      0.48530715	      0.01786821	     -0.10746734	      0.00000000
      0.48658427	      0.01774268	     -0.10850033	      0.00000000
      0.48786139	      0.01762224	     -0.10948465	      0.00000000
      0.48913852	      0.01750618	     -0.11041638	      0.00000000
      0.49041564	      0.01739389	     -0.11129070	      0.00000000
      0.49169277	      0.01728537	     -0.11210199	      0.00000000
      0.49296989	      0.01718043	     -0.11284526	      0.00000000
      0.49424701	      0.01707834	     -0.11351888	      0.00000000
      0.49552414	      0.01697861	     -0.11412014	      0.00000000
      0.49680126	      0.01688069	     -0.11464837	      0.00000000
      0.49807839	      0.01678398	     -0.11510272	      0.00000000
      0.49935551	      0.01668809	     -0.11548269	      0.00000000
      0.50063263	      0.01659256	     -0.11578775	      0.00000000
      0.50190976	      0.01649719	     -0.11601619	      0.00000000
      0.50318688	      0.01640172	     -0.11616618	      0.00000000
      0.50446401	      0.01630600	     -0.11623509	      0.00000000
      0.50574113	      0.01620986	     -0.11621979	      0.00000000
      0.50701826	      0.01611302	     -0.11611882	      0.00000000
      0.50829538	      0.01601526	     -0.11592995	      0.00000000
      0.50957250	      0.01591613	     -0.11565514	      0.00000000
      0.51084963	      0.01581526	     -0.11529567	      0.00000000
      0.51212675	      0.01571236	     -0.11485667	      0.00000000
      0.51340388	      0.01560700	     -0.11434272	      0.00000000
      0.51468100	      0.01549916	     -0.11376009	      0.00000000
      0.51595812	      0.01538856	     -0.11311456	      0.00000000
      0.51723525	      0.01527533	     -0.11241251	      0.00000000
      0.51851237	      0.01515938	     -0.11165999	      0.00000000
      0.51978950	      0.01504085	     -0.11086407	      0.00000000
      0.52106662	      0.01491978	     -0.11003201	      0.00000000
      0.52234374	      0.01479639	     -0.10917076	      0.00000000
      0.52362087	      0.01467079	     -0.10828808	      0.00000000
      0.52489799	      0.01454315	     -0.10738792	      0.00000000
      0.52617512	      0.01441346	     -0.10647534	      0.00000000
      0.52745224	      0.01428136	     -0.10554943	      0.00000000
      0.52872936	      0.01414641	     -0.10461027	      0.00000000
      0.53000649	      0.01400741	     -0.10365312	      0.00000000
      0.53128361	      0.01386325	     -0.10267386	      0.00000000
      0.53256074	      0.01371214	     -0.10166655	      0.00000000
      0.53383786	      0.01355246	     -0.10062548	      0.00000000
      0.53511498	      0.01338234	     -0.09954569	      0.00000000
      0.53639211	      0.01320005	     -0.09842214	      0.00000000
      0.53766923	      0.01300415	     -0.09725168	      0.00000000
      0.53894636	      0.01279321	     -0.09603082	      0.00000000
      0.54022348	      0.01256645	     -0.09475804	      0.00000000
      0.54150061	      0.01232294	     -0.09343126	      0.00000000
      0.54277773	      0.01206257	     -0.09205064	      0.00000000
      0.54405485	      0.01178502	     -0.09061554	      0.00000000
      0.54533198	      0.01149076	     -0.08912852	      0.00000000
      0.54660910	      0.01118005	     -0.08759124	      0.00000000
      0.54788623	      0.01085389	     -0.08600926	      0.00000000
      0.54916335	      0.01051303	     -0.08438742	      0.00000000
      0.55044047	      0.01015893	     -0.08273371	      0.00000000
      0.55171760	      0.00979272	     -0.08105579	      0.00000000
      0.55299472	      0.00941618	     -0.07936233	      0.00000000
      0.55427185	      0.00903074	     -0.07766207	      0.00000000
      0.55554897	      0.00863832	     -0.07596240	      0.00000000
      0.55682609	      0.00824057	     -0.07427111	      0.00000000
      0.55810322	      0.00783947	     -0.07259315	      0.00000000
      0.55938034	      0.00743682	     -0.07093405	      0.00000000
      0.56065747	      0.00703444	     -0.06929612	      0.00000000
      0.56193459	      0.00663416	     -0.06768235	      0.00000000
      0.56321171	      0.00623730	     -0.06609299	      0.00000000
      0.56448884	      0.00584533	     -0.06452888	      0.00000000
      0.56576596	      0.00545882	     -0.06298895	      0.00000000
      0.56704309	      0.00507859	     -0.06147256	      0.00000000
      0.56832021	      0.00470451	     -0.05997792	      0.00000000
      0.56959733	      0.00433672	     -0.05850351	      0.00000000
      0.57087446	      0.00397455	     -0.05704723	      0.00000000
      0.57215158	      0.00361755	     -0.05560713	      0.00000000
      0.57342871	      0.00326467	     -0.05418119	      0.00000000
      0.57470583	      0.00291502	     -0.05276737	      0.00000000
      0.57598295	      0.00256739	     -0.05136410	      0.00000000
      0.57726008	      0.00222067	     -0.04996962	      0.00000000
      0.57853720	      0.00187378	     -0.04858300	      0.00000000
      0.57981433	      0.00152567	     -0.04720308	      0.00000000
      0.58109145	      0.00117552	     -0.04582960	      0.00000000
      0.58236858	      0.00082250	     -0.04446206	      0.00000000
      0.58364570	      0.00046615	     -0.04310083	      0.00000000
      0.58492282	      0.00010591	     -0.04174601	      0.00000000
      0.58619995	     -0.00025837	     -0.04039841	      0.00000000
      0.58747707	     -0.00062696	     -0.03905862	      0.00000000
      0.58875420	     -0.00099977	     -0.03772770	      0.00000000
      0.59003132	     -0.00137682	     -0.03640657	      0.00000000
      0.59130844	     -0.00175786	     -0.03509639	      0.00000000
      0.59258557	     -0.00214274	     -0.03379825	      0.00000000
      0.59386269	     -0.00253110	     -0.03251329	      0.00000000
      0.59513982	     -0.00292268	     -0.03124264	      0.00000000
      0.59641694	     -0.00331707	     -0.02998732	      0.00000000
      0.59769406	     -0.00371396	     -0.02874838	      0.00000000
      0.59897119	     -0.00411293	     -0.02752670	      0.00000000
      0.60024831	     -0.00451365	     -0.02632317	      0.00000000
      0.60152544	     -0.00491574	     -0.02513846	      0.00000000
      0.60280256	     -0.00531886	     -0.02397327	      0.00000000
      0.60407968	     -0.00572272	     -0.02282805	      0.00000000
      0.60535681	     -0.00612700	     -0.02170333	      0.00000000
      0.60663393	     -0.00653147	     -0.02059932	      0.00000000
      0.60791106	     -0.00693590	     -0.01951635	      0.00000000
      0.60918818	     -0.00734011	     -0.01845441	      0.00000000
      0.61046530	     -0.00774392	     -0.01741355	      0.00000000
      0.61174243	     -0.00814725	     -0.01639341	      0.00000000
      0.61301955	     -0.00854997	     -0.01539370	      0.00000000
      0.61429668	     -0.00895205	     -0.01441376	      0.00000000
      0.61557380	     -0.00935344	     -0.01345295	      0.00000000
      0.61685093	     -0.00975418	     -0.01251040	      0.00000000
      0.61812805	     -0.01015426	     -0.01158527	      0.00000000
      0.61940517	     -0.01055376	     -0.01067665	      0.00000000
      0.62068230	     -0.01095274	     -0.00978363	      0.00000000
      0.62195942	     -0.01135124	     -0.00890533	      0.00000000
      0.62323655	     -0.01174936	     -0.00804082	      0.00000000
      0.62451367	     -0.01214715	     -0.00718925	      0.00000000
      0.62579079	     -0.01254467	     -0.00634974	      0.00000000
      0.62706792	     -0.01294195	     -0.00552143	      0.00000000
      0.62834504	     -0.01333907	     -0.00470344	      0.00000000
      0.62962217	     -0.01373601	     -0.00389494	      0.00000000
      0.63089929	     -0.01413281	     -0.00309507	      0.00000000
      0.63217641	     -0.01452942	     -0.00230305	      0.00000000
      0.63345354	     -0.01492584	     -0.00151803	      0.00000000
      0.63473066	     -0.01532196	     -0.00073929	      0.00000000
      0.63600779	     -0.01571771	      0.00003394	      0.00000000
      0.63728491	     -0.01611297	      0.00080233	      0.00000000
      0.63856203	     -0.01650762	      0.00156656	      0.00000000
      0.63983916	     -0.01690148	      0.00232717	      0.00000000
      0.64111628	     -0.01729440	      0.00308475	      0.00000000
      0.64239341	     -0.01768622	      0.00383971	      0.00000000
      0.64367053	     -0.01807676	      0.00459250	      0.00000000
      0.64494765	     -0.01846588	      0.00534338	      0.00000000
      0.64622478	     -0.01885343	      0.00609268	      0.00000000
      0.64750190	     -0.01923931	      0.00684051	      0.00000000
      0.64877903	     -0.01962343	      0.00758705	      0.00000000
      0.65005615	     -0.02000576	      0.00833231	      0.00000000
      0.65133327	     -0.02038628	      0.00907634	      0.00000000
      0.65261040	     -0.02076504	      0.00981909	      0.00000000
      0.65388752	     -0.02114210	      0.01056052	      0.00000000
      0.65516465	     -0.02151760	      0.01130050	      0.00000000
      0.65644177	     -0.02189163	      0.01203895	      0.00000000
      0.65771890	     -0.02226439	      0.01277568	      0.00000000
      0.65899602	     -0.02263601	      0.01351056	      0.00000000
      0.66027314	     -0.02300668	      0.01424337	      0.00000000
      0.66155027	     -0.02337653	      0.01497389	      0.00000000
      0.66282739	     -0.02374571	      0.01570185	      0.00000000
      0.66410452	     -0.02411434	      0.01642698	      0.00000000
      0.66538164	     -0.02448251	      0.01714892	      0.00000000
      0.66665876	     -0.02485029	      0.01786732	      0.00000000
      0.66793589	     -0.02521775	      0.01858174	      0.00000000
      0.66921301	     -0.02558490	      0.01929174	      0.00000000
      0.67049014	     -0.02595179	      0.01999679	      0.00000000
      0.67176726	     -0.02631841	      0.02069635	      0.00000000
      0.67304438	     -0.02668480	      0.02138983	      0.00000000
      0.67432151	     -0.02705094	      0.02207661	      0.00000000
      0.67559863	     -0.02741689	      0.02275608	      0.00000000
      0.67687576	     -0.02778266	      0.02342754	      0.00000000
      0.67815288	     -0.02814835	      0.02409047	      0.00000000
      0.67943000	     -0.02851400	      0.02474418	      0.00000000
      0.68070713	     -0.02887975	      0.02538837	      0.00000000
      0.68198425	     -0.02924575	      0.02602256	      0.00000000
      0.68326138	     -0.02961217	      0.02664677	      0.00000000
      0.68453850	     -0.02997923	      0.02726088	      0.00000000
      0.68581562	     -0.03034702	      0.02786518	      0.00000000
      0.68709275	     -0.03071564	      0.02845982	      0.00000000
      0.68836987	     -0.03108503	      0.02904508	      0.00000000
      0.68964700	     -0.03145508	      0.02962109	      0.00000000
      0.69092412	     -0.03182576	      0.03018814	      0.00000000
      0.69220125	     -0.03219702	      0.03074640	      0.00000000
      0.69347837	     -0.03256911	      0.03129653	      0.00000000
      0.69475549	     -0.03294237	      0.03183918	      0.00000000
      0.69603262	     -0.03331717	      0.03237532	      0.00000000
      0.69730974	     -0.03369398	      0.03290592	      0.00000000
      0.69858687	     -0.03407316	      0.03343157	      0.00000000
      0.69986399	     -0.03445463	      0.03395238	      0.00000000
      0.70114111	     -0.03483883	      0.03446927	      0.00000000
      0.70241824	     -0.03522645	      0.03498359	      0.00000000
      0.70369536	     -0.03561848	      0.03549686	      0.00000000
      0.70497249	     -0.03601531	      0.03600943	      0.00000000
      0.70624961	     -0.03641874	      0.03652385	      0.00000000
      0.70752673	     -0.03683146	      0.03704533	      0.00000000
      0.70880386	     -0.03725312	      0.03757427	      0.00000000
      0.71008098	     -0.03768370	      0.03810954	      0.00000000
      0.71135811	     -0.03812594	      0.03865526	      0.00000000
      0.71263523	     -0.03858143	      0.03921505	      0.00000000
      0.71391235	     -0.03905157	      0.03979222	      0.00000000
      0.71518948	     -0.03953811	      0.04039057	      0.00000000
      0.71646660	     -0.04004278	      0.04101408	      0.00000000
      0.71774373	     -0.04056751	      0.04166698	      0.00000000
      0.71902085	     -0.04111385	      0.04235351	      0.00000000
      0.72029797	     -0.04168357	      0.04307811	      0.00000000
      0.72157510	     -0.04227769	      0.04384505	      0.00000000
      0.72285222	     -0.04289754	      0.04465894	      0.00000000
      0.72412935	     -0.04354332	      0.04552397	      0.00000000
      0.72540647	     -0.04421541	      0.04644483	      0.00000000
      0.72668359	     -0.04491301	      0.04742552	      0.00000000
      0.72796072	     -0.04563568	      0.04847029	      0.00000000
      0.72923784	     -0.04638144	      0.04958234	      0.00000000
      0.73051497	     -0.04714846	      0.05076563	      0.00000000
      0.73179209	     -0.04793420	      0.05202309	      0.00000000
      0.73306922	     -0.04873628	      0.05335865	      0.00000000
      0.73434634	     -0.04955177	      0.05477447	      0.00000000
      0.73562346	     -0.05037813	      0.05627427	      0.00000000
      0.73690059	     -0.05121110	      0.05785777	      0.00000000
      0.73817771	     -0.05204585	      0.05952540	      0.00000000
      0.73945484	     -0.05287663	      0.06127386	      0.00000000
      0.74073196	     -0.05369683	      0.06310024	      0.00000000
      0.74200908	     -0.05450271	      0.06500217	      0.00000000
      0.74328621	     -0.05529072	      0.06697861	      0.00000000
      0.74456333	     -0.05606087	      0.06903079	      0.00000000
      0.74584046	     -0.05681282	      0.07116038	      0.00000000
      0.74711758	     -0.05754728	      0.07337048	      0.00000000
      0.74839470	     -0.05826431	      0.07566388	      0.00000000
      0.74967183	     -0.05896362	      0.07804510	      0.00000000
      0.75094895	     -0.05964471	      0.08051848	      0.00000000
      0.75222608	     -0.06030696	      0.08309122	      0.00000000
      0.75350320	     -0.06094957	      0.08577032	      0.00000000
      0.75478032	     -0.06157233	      0.08856610	      0.00000000
      0.75605745	     -0.06217473	      0.09148831	      0.00000000
      0.75733457	     -0.06275644	      0.09455048	      0.00000000
      0.75861170	     -0.06331698	      0.09776660	      0.00000000
      0.75988882	     -0.06385761	      0.10115051	      0.00000000
      0.76116594	     -0.06437815	      0.10471381	      0.00000000
      0.76244307	     -0.06487462	      0.10847648	      0.00000000
      0.76372019	     -0.06534300	      0.11247427	      0.00000000
      0.76499732	     -0.06579597	      0.11671300	      0.00000000
      0.76627444	     -0.06622782	      0.12123504	      0.00000000
