PointAcceleration
version=1
nRows=601
nColumns=4
inDegrees=no
No description.
endheader
time	state_0	state_1	state_2
      0.00000000	   -568.00116741	   -278.06403596	      0.00000000
      0.00131183	   -514.74562993	   -191.62670210	      0.00000000
      0.00262366	   -428.76425287	    -99.24673236	      0.00000000
      0.00393549	   -289.71753920	     -2.57855148	      0.00000000
      0.00524731	    -95.13024774	    104.44745052	      0.00000000
      0.00655914	    -91.72387175	     79.78273255	      0.00000000
      0.00787097	    -36.60717427	    111.10952656	      0.00000000
      0.00918280	    -17.30615971	    121.78442763	      0.00000000
      0.01049463	      4.13455203	    137.94523204	      0.00000000
      0.01180646	     28.47943048	    160.58639800	      0.00000000
      0.01311828	     51.22956459	    184.95217582	      0.00000000
      0.01443011	     76.44838014	    213.90057175	      0.00000000
      0.01574194	    100.04948010	    243.30096444	      0.00000000
      0.01705377	    122.76086713	    272.98923752	      0.00000000
      0.01836560	    140.83168905	    298.61369967	      0.00000000
      0.01967743	    156.80573047	    321.63748629	      0.00000000
      0.02098926	    171.70929053	    342.51460921	      0.00000000
      0.02230108	    185.73480180	    361.72410793	      0.00000000
      0.02361291	    198.76238360	    379.27478873	      0.00000000
      0.02492474	    210.87945850	    395.27192719	      0.00000000
      0.02623657	    222.14159905	    409.92229780	      0.00000000
      0.02754840	    232.51459551	    423.27220611	      0.00000000
      0.02886023	    241.95978740	    435.38061065	      0.00000000
      0.03017205	    250.34713183	    446.11768612	      0.00000000
      0.03148388	    257.51932636	    455.32929021	      0.00000000
      0.03279571	    263.57335762	    463.05797392	      0.00000000
      0.03410754	    268.58951097	    469.37123453	      0.00000000
      0.03541937	    272.65313356	    474.36693557	      0.00000000
      0.03673120	    275.88117129	    478.17806922	      0.00000000
      0.03804303	    278.30501391	    480.86127369	      0.00000000
      0.03935485	    279.98692325	    482.49852861	      0.00000000
      0.04066668	    280.93868537	    483.11356924	      0.00000000
      0.04197851	    281.18635578	    482.74507258	      0.00000000
      0.04329034	    280.73820359	    481.41102408	      0.00000000
      0.04460217	    279.60614255	    479.13540150	      0.00000000
      0.04591400	    277.81654884	    475.95705108	      0.00000000
      0.04722582	    275.39780837	    471.91975929	      0.00000000
      0.04853765	    272.38701216	    467.07324832	      0.00000000
      0.04984948	    268.82600627	    461.47017719	      0.00000000
      0.05116131	    264.75267371	    455.15719954	      0.00000000
      0.05247314	    260.20686767	    448.18089473	      0.00000000
      0.05378497	    255.23315037	    440.59593973	      0.00000000
      0.05509680	    249.87653413	    432.45973803	      0.00000000
      0.05640862	    244.17706672	    423.82761088	      0.00000000
      0.05772045	    238.17858431	    414.75784257	      0.00000000
      0.05903228	    231.91510102	    405.29817295	      0.00000000
      0.06034411	    225.42254918	    395.49737885	      0.00000000
      0.06165594	    218.73192157	    385.40116761	      0.00000000
      0.06296777	    211.87517395	    375.05686019	      0.00000000
      0.06427959	    204.88276259	    364.51047706	      0.00000000
      0.06559142	    197.78593230	    353.80951370	      0.00000000
      0.06690325	    190.61483418	    342.99719888	      0.00000000
      0.06821508	    183.40106238	    332.11765029	      0.00000000
      0.06952691	    176.17148134	    321.20760303	      0.00000000
      0.07083874	    168.95372003	    310.30452966	      0.00000000
      0.07215057	    161.76883234	    299.43835888	      0.00000000
      0.07346239	    154.63833782	    288.63965966	      0.00000000
      0.07477422	    147.57774368	    277.93217049	      0.00000000
      0.07608605	    140.60316289	    267.34003606	      0.00000000
      0.07739788	    133.72546125	    256.88100640	      0.00000000
      0.07870971	    126.95587433	    246.57297998	      0.00000000
      0.08002154	    120.30156777	    236.42820375	      0.00000000
      0.08133336	    113.76973075	    226.45865819	      0.00000000
      0.08264519	    107.36481023	    216.67198227	      0.00000000
      0.08395702	    101.09084169	    207.07506635	      0.00000000
      0.08526885	     94.95040284	    197.67225730	      0.00000000
      0.08658068	     88.94524162	    188.46672064	      0.00000000
      0.08789251	     83.07683577	    179.46090961	      0.00000000
      0.08920434	     77.34556497	    170.65577500	      0.00000000
      0.09051616	     71.75245962	    162.05294219	      0.00000000
      0.09182799	     66.29733486	    153.65236139	      0.00000000
      0.09313982	     60.98119806	    145.45542066	      0.00000000
      0.09445165	     55.80384489	    137.46179789	      0.00000000
      0.09576348	     50.76640363	    129.67283961	      0.00000000
      0.09707531	     45.86888072	    122.08828531	      0.00000000
      0.09838713	     41.11238627	    114.70933876	      0.00000000
      0.09969896	     36.49706624	    107.53581304	      0.00000000
      0.10101079	     32.02371792	    100.56844009	      0.00000000
      0.10232262	     27.69240582	     93.80682327	      0.00000000
      0.10363445	     23.50324068	     87.25080266	      0.00000000
      0.10494628	     19.45581806	     80.89937861	      0.00000000
      0.10625811	     15.54917429	     74.75112139	      0.00000000
      0.10756993	     11.78199802	     68.80403054	      0.00000000
      0.10888176	      8.15200244	     63.05507343	      0.00000000
      0.11019359	      4.65666751	     57.50081668	      0.00000000
      0.11150542	      1.29231527	     52.13639067	      0.00000000
      0.11281725	     -1.94495952	     46.95656904	      0.00000000
      0.11412908	     -5.06012608	     41.95469469	      0.00000000
      0.11544090	     -8.05847766	     37.12369230	      0.00000000
      0.11675273	    -10.94601497	     32.45552303	      0.00000000
      0.11806456	    -13.72918053	     27.94159145	      0.00000000
      0.11937639	    -16.41468518	     23.57310341	      0.00000000
      0.12068822	    -19.00970135	     19.34043358	      0.00000000
      0.12200005	    -21.52139417	     15.23498481	      0.00000000
      0.12331188	    -23.95820929	     11.24744952	      0.00000000
      0.12462370	    -26.32673027	      7.37038794	      0.00000000
      0.12593553	    -28.63407462	      3.59513963	      0.00000000
      0.12724736	    -30.88554529	     -0.08541748	      0.00000000
      0.12855919	    -33.08752478	     -3.67934642	      0.00000000
      0.12987102	    -35.24472873	     -7.19291461	      0.00000000
      0.13118285	    -37.36282473	    -10.63332638	      0.00000000
      0.13249467	    -39.44586413	    -14.00589989	      0.00000000
      0.13380650	    -41.49871506	    -17.31678552	      0.00000000
      0.13511833	    -43.52472265	    -20.57028632	      0.00000000
      0.13643016	    -45.52790773	    -23.77138922	      0.00000000
      0.13774199	    -47.51091975	    -26.92338099	      0.00000000
      0.13905382	    -49.47693367	    -30.03007193	      0.00000000
      0.14036565	    -51.42795091	    -33.09381669	      0.00000000
      0.14167747	    -53.36635058	    -36.11734021	      0.00000000
      0.14298930	    -55.29354380	    -39.10219336	      0.00000000
      0.14430113	    -57.21118250	    -42.05015662	      0.00000000
      0.14561296	    -59.12015622	    -44.96211132	      0.00000000
      0.14692479	    -61.02147145	    -47.83904315	      0.00000000
      0.14823662	    -62.91558048	    -50.68128982	      0.00000000
      0.14954844	    -64.80294380	    -53.48918716	      0.00000000
      0.15086027	    -66.68366131	    -56.26263898	      0.00000000
      0.15217210	    -68.55774935	    -59.00146226	      0.00000000
      0.15348393	    -70.42502207	    -61.70521784	      0.00000000
      0.15479576	    -72.28513566	    -64.37331551	      0.00000000
      0.15610759	    -74.13766493	    -67.00505170	      0.00000000
      0.15741942	    -75.98197104	    -69.59952926	      0.00000000
      0.15873124	    -77.81741567	    -72.15584254	      0.00000000
      0.16004307	    -79.64311080	    -74.67287145	      0.00000000
      0.16135490	    -81.45822680	    -77.14955655	      0.00000000
      0.16266673	    -83.26167629	    -79.58463488	      0.00000000
      0.16397856	    -85.05243437	    -81.97690077	      0.00000000
      0.16529039	    -86.82925995	    -84.32501199	      0.00000000
      0.16660221	    -88.59079616	    -86.62748273	      0.00000000
      0.16791404	    -90.33555685	    -88.88280890	      0.00000000
      0.16922587	    -92.06145061	    -91.08882612	      0.00000000
      0.17053770	    -93.76621676	    -93.24333097	      0.00000000
      0.17184953	    -95.44687966	    -95.34330641	      0.00000000
      0.17316136	    -97.09969374	    -97.38510514	      0.00000000
      0.17447319	    -98.72236041	    -99.36635021	      0.00000000
      0.17578501	   -100.30981409	   -101.28208317	      0.00000000
      0.17709684	   -101.86941741	   -103.13885684	      0.00000000
      0.17840867	   -103.40458272	   -104.94060412	      0.00000000
      0.17972050	   -104.95154306	   -106.71931850	      0.00000000
      0.18103233	   -106.55438085	   -108.52784871	      0.00000000
      0.18234416	   -108.14545389	   -110.33240104	      0.00000000
      0.18365598	   -109.67145663	   -112.08485827	      0.00000000
      0.18496781	   -111.12028252	   -113.72374190	      0.00000000
      0.18627964	   -112.42382957	   -115.18413357	      0.00000000
      0.18759147	   -113.67538473	   -116.55075128	      0.00000000
      0.18890330	   -115.00194448	   -117.93586801	      0.00000000
      0.19021513	   -116.36965101	   -119.33232653	      0.00000000
      0.19152696	   -117.73489620	   -120.71159515	      0.00000000
      0.19283878	   -119.10536331	   -122.07668847	      0.00000000
      0.19415061	   -120.49913689	   -123.44457419	      0.00000000
      0.19546244	   -121.89296870	   -124.79713783	      0.00000000
      0.19677427	   -123.26155321	   -126.11390064	      0.00000000
      0.19808610	   -124.58072135	   -127.37114049	      0.00000000
      0.19939793	   -125.81797185	   -128.53803967	      0.00000000
      0.20070975	   -126.99521243	   -129.62854217	      0.00000000
      0.20202158	   -128.13821744	   -130.66211187	      0.00000000
      0.20333341	   -129.25711353	   -131.65127912	      0.00000000
      0.20464524	   -130.36414363	   -132.60905937	      0.00000000
      0.20595707	   -131.45224315	   -133.53295898	      0.00000000
      0.20726890	   -132.51385445	   -134.41931534	      0.00000000
      0.20858073	   -133.54385515	   -135.26412987	      0.00000000
      0.20989255	   -134.53684595	   -136.06365209	      0.00000000
      0.21120438	   -135.49311009	   -136.81806827	      0.00000000
      0.21251621	   -136.41317873	   -137.52815395	      0.00000000
      0.21382804	   -137.29775805	   -138.19526839	      0.00000000
      0.21513987	   -138.14768047	   -138.82086891	      0.00000000
      0.21645170	   -138.96216876	   -139.40532419	      0.00000000
      0.21776352	   -139.73992323	   -139.94845123	      0.00000000
      0.21907535	   -140.48249072	   -140.45213442	      0.00000000
      0.22038718	   -141.19177626	   -140.91866071	      0.00000000
      0.22169901	   -141.86785805	   -141.34904091	      0.00000000
      0.22301084	   -142.51071117	   -141.74413402	      0.00000000
      0.22432267	   -143.11930159	   -142.10381635	      0.00000000
      0.22563450	   -143.69177789	   -142.42721835	      0.00000000
      0.22694632	   -144.23087865	   -142.71671565	      0.00000000
      0.22825815	   -144.74008605	   -142.97546105	      0.00000000
      0.22956998	   -145.21882163	   -143.20378109	      0.00000000
      0.23088181	   -145.66677545	   -143.40213910	      0.00000000
      0.23219364	   -146.07955088	   -143.56748995	      0.00000000
      0.23350547	   -146.45179969	   -143.69585212	      0.00000000
      0.23481729	   -146.78287312	   -143.78611964	      0.00000000
      0.23612912	   -147.07223945	   -143.83748279	      0.00000000
      0.23744095	   -147.31873495	   -143.84888795	      0.00000000
      0.23875278	   -147.52123430	   -143.81925121	      0.00000000
      0.24006461	   -147.67672385	   -143.74615689	      0.00000000
      0.24137644	   -147.78174226	   -143.62669913	      0.00000000
      0.24268827	   -147.83505207	   -143.45942488	      0.00000000
      0.24400009	   -147.83617858	   -143.24353954	      0.00000000
      0.24531192	   -147.78044275	   -142.97533012	      0.00000000
      0.24662375	   -147.66365523	   -142.65139436	      0.00000000
      0.24793558	   -147.47520088	   -142.26334410	      0.00000000
      0.24924741	   -147.20211401	   -141.80071519	      0.00000000
      0.25055924	   -146.84174967	   -141.25969790	      0.00000000
      0.25187106	   -146.39032098	   -140.63572546	      0.00000000
      0.25318289	   -145.85140585	   -139.93034407	      0.00000000
      0.25449472	   -145.23024154	   -139.14640501	      0.00000000
      0.25580655	   -144.52136531	   -138.28043621	      0.00000000
      0.25711838	   -143.71998984	   -137.32912605	      0.00000000
      0.25843021	   -142.81189094	   -136.28195186	      0.00000000
      0.25974204	   -141.77994868	   -135.12590977	      0.00000000
      0.26105386	   -140.61902701	   -133.85512416	      0.00000000
      0.26236569	   -139.32127654	   -132.46182089	      0.00000000
      0.26367752	   -137.89501801	   -130.95029309	      0.00000000
      0.26498935	   -136.35011933	   -129.32617131	      0.00000000
      0.26630118	   -134.68761467	   -127.59132430	      0.00000000
      0.26761301	   -132.90906240	   -125.74743924	      0.00000000
      0.26892483	   -131.01218342	   -123.79379659	      0.00000000
      0.27023666	   -128.99490849	   -121.72963548	      0.00000000
      0.27154849	   -126.85640748	   -119.55480677	      0.00000000
      0.27286032	   -124.59577788	   -117.26911801	      0.00000000
      0.27417215	   -122.21590779	   -114.87519835	      0.00000000
      0.27548398	   -119.71985013	   -112.37579248	      0.00000000
      0.27679581	   -117.11491669	   -109.77732085	      0.00000000
      0.27810763	   -114.41008852	   -107.08742556	      0.00000000
      0.27941946	   -111.61243282	   -104.31350660	      0.00000000
      0.28073129	   -108.73191184	   -101.46500451	      0.00000000
      0.28204312	   -105.77070059	    -98.54655825	      0.00000000
      0.28335495	   -102.73393200	    -95.56498948	      0.00000000
      0.28466678	    -99.61792731	    -92.52043167	      0.00000000
      0.28597860	    -96.42107933	    -89.41476107	      0.00000000
      0.28729043	    -93.13462794	    -86.24358871	      0.00000000
      0.28860226	    -89.75016541	    -83.00314378	      0.00000000
      0.28991409	    -86.25721352	    -79.68668756	      0.00000000
      0.29122592	    -82.64380116	    -76.28679920	      0.00000000
      0.29253775	    -78.90287937	    -72.79831656	      0.00000000
      0.29384958	    -75.02509866	    -69.21476253	      0.00000000
      0.29516140	    -71.01018915	    -65.53576401	      0.00000000
      0.29647323	    -66.85670951	    -61.76032972	      0.00000000
      0.29778506	    -62.56801953	    -57.89178603	      0.00000000
      0.29909689	    -58.14842070	    -53.93418640	      0.00000000
      0.30040872	    -53.59673256	    -49.88921666	      0.00000000
      0.30172055	    -48.91331417	    -45.75958299	      0.00000000
      0.30303238	    -44.08978481	    -41.54229917	      0.00000000
      0.30434420	    -39.11812609	    -37.23474704	      0.00000000
      0.30565603	    -33.98680491	    -32.83100342	      0.00000000
      0.30696786	    -28.68288653	    -28.32458072	      0.00000000
      0.30827969	    -23.19644908	    -23.71007181	      0.00000000
      0.30959152	    -17.51436522	    -18.98023185	      0.00000000
      0.31090335	    -11.63953495	    -14.13773859	      0.00000000
      0.31221517	     -5.57501324	     -9.18613138	      0.00000000
      0.31352700	      0.67796000	     -4.12939228	      0.00000000
      0.31483883	      7.11460394	      1.02538208	      0.00000000
      0.31615066	     13.78179761	      6.30125036	      0.00000000
      0.31746249	     20.74348694	     11.73589938	      0.00000000
      0.31877432	     27.91984337	     17.28608380	      0.00000000
      0.32008615	     35.22106565	     22.89569871	      0.00000000
      0.32139797	     42.65184086	     28.55187918	      0.00000000
      0.32270980	     50.21131132	     34.24309931	      0.00000000
      0.32402163	     57.90542947	     39.96625910	      0.00000000
      0.32533346	     65.74067432	     45.71864841	      0.00000000
      0.32664529	     73.68828179	     51.48007912	      0.00000000
      0.32795712	     81.71696574	     57.22666169	      0.00000000
      0.32926894	     89.82183283	     62.94701904	      0.00000000
      0.33058077	     97.99696888	     68.63174916	      0.00000000
      0.33189260	    106.19907594	     74.25099118	      0.00000000
      0.33320443	    114.37668492	     79.77125786	      0.00000000
      0.33451626	    122.51878234	     85.15514874	      0.00000000
      0.33582809	    130.58437505	     90.42744933	      0.00000000
      0.33713992	    138.57568436	     95.54003385	      0.00000000
      0.33845174	    146.45435185	    100.47000746	      0.00000000
      0.33976357	    154.19121131	    105.20073421	      0.00000000
      0.34107540	    161.75672114	    109.71178627	      0.00000000
      0.34238723	    169.14460206	    113.99669821	      0.00000000
      0.34369906	    176.34310207	    118.04707759	      0.00000000
      0.34501089	    183.33797614	    121.85540495	      0.00000000
      0.34632271	    190.11212612	    125.41249258	      0.00000000
      0.34763454	    196.65583508	    128.71344455	      0.00000000
      0.34894637	    202.95510337	    131.75182119	      0.00000000
      0.35025820	    209.00371698	    134.52568249	      0.00000000
      0.35157003	    214.79174366	    137.03185124	      0.00000000
      0.35288186	    220.31458306	    139.27032852	      0.00000000
      0.35419369	    225.56585745	    141.24067142	      0.00000000
      0.35550551	    230.53983210	    142.94321075	      0.00000000
      0.35681734	    235.23039828	    144.37855438	      0.00000000
      0.35812917	    239.62476498	    145.54443882	      0.00000000
      0.35944100	    243.71022516	    146.43898089	      0.00000000
      0.36075283	    247.47188855	    147.05910139	      0.00000000
      0.36206466	    250.89410652	    147.40204156	      0.00000000
      0.36337648	    253.96056707	    147.46488045	      0.00000000
      0.36468831	    256.65360900	    147.24469675	      0.00000000
      0.36600014	    258.96103951	    146.74146211	      0.00000000
      0.36731197	    260.86918588	    145.95518354	      0.00000000
      0.36862380	    262.36954996	    144.88910798	      0.00000000
      0.36993563	    263.45392198	    143.54718316	      0.00000000
      0.37124746	    264.11034133	    141.93303546	      0.00000000
      0.37255928	    264.32939770	    140.05169647	      0.00000000
      0.37387111	    264.09461801	    137.90612807	      0.00000000
      0.37518294	    263.39249403	    135.50092039	      0.00000000
      0.37649477	    262.20857767	    132.84067295	      0.00000000
      0.37780660	    260.53087489	    129.93161573	      0.00000000
      0.37911843	    258.35231621	    126.78239515	      0.00000000
      0.38043025	    255.66914039	    123.40359296	      0.00000000
      0.38174208	    252.47817633	    119.80709132	      0.00000000
      0.38305391	    248.78110989	    116.00692854	      0.00000000
      0.38436574	    244.58081708	    112.01850155	      0.00000000
      0.38567757	    239.88575302	    107.86032925	      0.00000000
      0.38698940	    234.70884477	    103.55266114	      0.00000000
      0.38830123	    229.07120966	     99.11810007	      0.00000000
      0.38961305	    222.98548590	     94.57812088	      0.00000000
      0.39092488	    216.47534706	     89.95750506	      0.00000000
      0.39223671	    209.55187687	     85.27862189	      0.00000000
      0.39354854	    202.23837455	     80.56771644	      0.00000000
      0.39486037	    194.55096949	     75.84973456	      0.00000000
      0.39617220	    186.51813866	     71.15397351	      0.00000000
      0.39748402	    178.16187452	     66.50764191	      0.00000000
      0.39879585	    169.51635164	     61.94222812	      0.00000000
      0.40010768	    160.60261889	     57.48421130	      0.00000000
      0.40141951	    151.44824622	     53.16255503	      0.00000000
      0.40273134	    142.06617014	     49.00008596	      0.00000000
      0.40404317	    132.46648422	     45.01857209	      0.00000000
      0.40535500	    122.66494661	     41.23980477	      0.00000000
      0.40666682	    112.66457412	     37.68188461	      0.00000000
      0.40797865	    102.51027502	     34.37373619	      0.00000000
      0.40929048	     92.25736085	     31.36281668	      0.00000000
      0.41060231	     81.88179964	     28.63759463	      0.00000000
      0.41191414	     71.28581337	     26.15876809	      0.00000000
      0.41322597	     60.21031957	     23.86039451	      0.00000000
      0.41453779	     49.18542006	     21.85203528	      0.00000000
      0.41584962	     36.84852098	     18.70903489	      0.00000000
      0.41716145	     21.83060134	     16.84288118	      0.00000000
      0.41847328	      3.28743205	     15.66332550	      0.00000000
      0.41978511	     -1.17363941	     16.22536054	      0.00000000
      0.42109694	      6.53213481	     17.56440635	      0.00000000
      0.42240877	      9.88775324	     17.80097493	      0.00000000
      0.42372059	     11.39739860	     17.60830705	      0.00000000
      0.42503242	     12.06489720	     17.20687094	      0.00000000
      0.42634425	     12.09494936	     16.72444149	      0.00000000
      0.42765608	     11.72393155	     16.24322708	      0.00000000
      0.42896791	     11.08285509	     15.80588602	      0.00000000
      0.43027974	     10.35189531	     15.44473654	      0.00000000
      0.43159156	      9.60642685	     15.15559543	      0.00000000
      0.43290339	      8.95700331	     14.93219829	      0.00000000
      0.43421522	      8.41980188	     14.73748768	      0.00000000
      0.43552705	      8.02116989	     14.54903428	      0.00000000
      0.43683888	      7.73153365	     14.37841541	      0.00000000
      0.43815071	      7.51778062	     14.24286394	      0.00000000
      0.43946254	      7.35389679	     14.07244776	      0.00000000
      0.44077436	      7.20062177	     13.78910896	      0.00000000
      0.44208619	      7.03612363	     13.37868403	      0.00000000
      0.44339802	      6.82855031	     12.84808333	      0.00000000
      0.44470985	      6.57514982	     12.21529197	      0.00000000
      0.44602168	      6.26486416	     11.49027708	      0.00000000
      0.44733351	      5.90310713	     10.69461845	      0.00000000
      0.44864533	      5.49250475	      9.84743507	      0.00000000
      0.44995716	      5.03954400	      8.97153367	      0.00000000
      0.45126899	      4.54806578	      8.09056838	      0.00000000
      0.45258082	      4.02076195	      7.21656418	      0.00000000
      0.45389265	      3.46116858	      6.36041643	      0.00000000
      0.45520448	      2.87012492	      5.52723221	      0.00000000
      0.45651631	      2.24856083	      4.72252311	      0.00000000
      0.45782813	      1.59584859	      3.94924249	      0.00000000
      0.45913996	      0.91128422	      3.21035573	      0.00000000
      0.46045179	      0.19560333	      2.50774659	      0.00000000
      0.46176362	     -0.55031226	      1.84303760	      0.00000000
      0.46307545	     -1.32267884	      1.21666789	      0.00000000
      0.46438728	     -2.11769438	      0.62866557	      0.00000000
      0.46569910	     -2.92974354	      0.07818328	      0.00000000
      0.46701093	     -3.75318021	     -0.43594990	      0.00000000
      0.46832276	     -4.58248010	     -0.91537528	      0.00000000
      0.46963459	     -5.41197820	     -1.36196273	      0.00000000
      0.47094642	     -6.23759755	     -1.77766545	      0.00000000
      0.47225825	     -7.05509842	     -2.16443178	      0.00000000
      0.47357008	     -7.86243740	     -2.52408973	      0.00000000
      0.47488190	     -8.65758928	     -2.85861851	      0.00000000
      0.47619373	     -9.44037836	     -3.16973518	      0.00000000
      0.47750556	    -10.21074699	     -3.45915985	      0.00000000
      0.47881739	    -10.96964348	     -3.72835996	      0.00000000
      0.48012922	    -11.71838955	     -3.97876106	      0.00000000
      0.48144105	    -12.45808426	     -4.21163398	      0.00000000
      0.48275287	    -13.18916576	     -4.42830542	      0.00000000
      0.48406470	    -13.91201464	     -4.62994846	      0.00000000
      0.48537653	    -14.61478176	     -4.81902500	      0.00000000
      0.48668836	    -15.29951342	     -4.99635364	      0.00000000
      0.48800019	    -14.90168019	     -5.32487062	      0.00000000
      0.48931202	    -15.58692794	     -5.47078988	      0.00000000
      0.49062385	    -16.26176455	     -5.60691668	      0.00000000
      0.49193567	    -16.92571581	     -5.73405509	      0.00000000
      0.49324750	    -17.58321920	     -5.85245681	      0.00000000
      0.49455933	    -18.23426391	     -5.96278114	      0.00000000
      0.49587116	    -18.88329039	     -6.06514059	      0.00000000
      0.49718299	    -19.52700369	     -6.16050796	      0.00000000
      0.49849482	    -20.15624127	     -6.25054345	      0.00000000
      0.49980664	    -20.76352978	     -6.33662390	      0.00000000
      0.50111847	    -21.34627394	     -6.41948674	      0.00000000
      0.50243030	    -21.90891892	     -6.49895420	      0.00000000
      0.50374213	    -22.45427375	     -6.57504021	      0.00000000
      0.50505396	    -22.98634191	     -6.64756795	      0.00000000
      0.50636579	    -23.50838937	     -6.71645086	      0.00000000
      0.50767762	    -24.02395431	     -6.78153077	      0.00000000
      0.50898944	    -24.53765780	     -6.84251951	      0.00000000
      0.51030127	    -25.05353095	     -6.89918266	      0.00000000
      0.51161310	    -25.57645572	     -6.95119034	      0.00000000
      0.51292493	    -26.10806480	     -6.99861417	      0.00000000
      0.51423676	    -26.65024960	     -7.04149297	      0.00000000
      0.51554859	    -27.20081759	     -7.08039167	      0.00000000
      0.51686041	    -27.75728611	     -7.11589397	      0.00000000
      0.51817224	    -28.31595934	     -7.14870767	      0.00000000
      0.51948407	    -28.87338571	     -7.17948402	      0.00000000
      0.52079590	    -29.42766774	     -7.20865195	      0.00000000
      0.52210773	    -29.97628930	     -7.23670131	      0.00000000
      0.52341956	    -30.51950073	     -7.26375028	      0.00000000
      0.52473139	    -31.05680567	     -7.29000964	      0.00000000
      0.52604321	    -31.59146711	     -7.31517847	      0.00000000
      0.52735504	    -32.12698390	     -7.33895468	      0.00000000
      0.52866687	    -32.66944549	     -7.36071310	      0.00000000
      0.52997870	    -33.22567614	     -7.37979077	      0.00000000
      0.53129053	    -33.80101957	     -7.39575468	      0.00000000
      0.53260236	    -34.40121761	     -7.40816936	      0.00000000
      0.53391418	    -35.02739798	     -7.41721713	      0.00000000
      0.53522601	    -35.68080656	     -7.42307818	      0.00000000
      0.53653784	    -36.35906162	     -7.42639822	      0.00000000
      0.53784967	    -37.06023351	     -7.42775111	      0.00000000
      0.53916150	    -37.78146347	     -7.42782262	      0.00000000
      0.54047333	    -38.52007622	     -7.42725351	      0.00000000
      0.54178516	    -39.27384413	     -7.42662314	      0.00000000
      0.54309698	    -40.04024296	     -7.42652630	      0.00000000
      0.54440881	    -40.81757016	     -7.42745145	      0.00000000
      0.54572064	    -41.60387032	     -7.42989880	      0.00000000
      0.54703247	    -42.39794862	     -7.43427113	      0.00000000
      0.54834430	    -43.19846308	     -7.44097271	      0.00000000
      0.54965613	    -44.00426513	     -7.45037647	      0.00000000
      0.55096795	    -44.81402003	     -7.46286438	      0.00000000
      0.55227978	    -45.62604180	     -7.47885576	      0.00000000
      0.55359161	    -46.43839141	     -7.49875146	      0.00000000
      0.55490344	    -47.24888601	     -7.52294619	      0.00000000
      0.55621527	    -48.05506692	     -7.55182815	      0.00000000
      0.55752710	    -48.85489039	     -7.58569778	      0.00000000
      0.55883893	    -49.64605605	     -7.62484523	      0.00000000
      0.56015075	    -50.42723651	     -7.66941545	      0.00000000
      0.56146258	    -51.19686238	     -7.71955082	      0.00000000
      0.56277441	    -51.95439297	     -7.77525704	      0.00000000
      0.56408624	    -52.69909618	     -7.83654561	      0.00000000
      0.56539807	    -53.43095071	     -7.90334040	      0.00000000
      0.56670990	    -54.14984552	     -7.97557224	      0.00000000
      0.56802172	    -54.85597354	     -8.05313702	      0.00000000
      0.56933355	    -55.54953353	     -8.13593490	      0.00000000
      0.57064538	    -56.23072372	     -8.22386674	      0.00000000
      0.57195721	    -56.89981144	     -8.31683412	      0.00000000
      0.57326904	    -57.55692929	     -8.41475379	      0.00000000
      0.57458087	    -58.20231957	     -8.51753994	      0.00000000
      0.57589270	    -58.83606721	     -8.62512407	      0.00000000
      0.57720452	    -59.45839135	     -8.73743319	      0.00000000
      0.57851635	    -60.06932571	     -8.85441285	      0.00000000
      0.57982818	    -60.66905226	     -8.97600269	      0.00000000
      0.58114001	    -61.25746029	     -9.10216575	      0.00000000
      0.58245184	    -61.83458682	     -9.23285614	      0.00000000
      0.58376367	    -62.40000625	     -9.36805639	      0.00000000
      0.58507549	    -62.95339871	     -9.50773507	      0.00000000
      0.58638732	    -63.49387707	     -9.65188542	      0.00000000
      0.58769915	    -64.02058057	     -9.80048076	      0.00000000
      0.58901098	    -64.53219469	     -9.95350030	      0.00000000
      0.59032281	    -65.02732367	    -10.11089827	      0.00000000
      0.59163464	    -65.50451037	    -10.27260327	      0.00000000
      0.59294647	    -65.96207016	    -10.43851980	      0.00000000
      0.59425829	    -66.39895562	    -10.60849278	      0.00000000
      0.59557012	    -66.81383335	    -10.78235471	      0.00000000
      0.59688195	    -67.20684496	    -10.95986358	      0.00000000
      0.59819378	    -67.57796523	    -11.14079035	      0.00000000
      0.59950561	    -67.92910140	    -11.32485713	      0.00000000
      0.60081744	    -68.26222467	    -11.51183676	      0.00000000
      0.60212926	    -68.58088183	    -11.70151348	      0.00000000
      0.60344109	    -68.88900375	    -11.89375768	      0.00000000
      0.60475292	    -69.19087731	    -12.08851298	      0.00000000
      0.60606475	    -69.49140626	    -12.28582465	      0.00000000
      0.60737658	    -69.79419128	    -12.48583588	      0.00000000
      0.60868841	    -70.10336770	    -12.68877415	      0.00000000
      0.61000024	    -70.42072120	    -12.89493442	      0.00000000
      0.61131206	    -70.74832999	    -13.10465047	      0.00000000
      0.61262389	    -71.08633570	    -13.31827000	      0.00000000
      0.61393572	    -71.43500455	    -13.53613766	      0.00000000
      0.61524755	    -71.79406233	    -13.75858807	      0.00000000
      0.61655938	    -72.16320227	    -13.98594023	      0.00000000
      0.61787121	    -72.54283818	    -14.21852104	      0.00000000
      0.61918303	    -72.93324323	    -14.45665636	      0.00000000
      0.62049486	    -73.33594764	    -14.70071813	      0.00000000
      0.62180669	    -73.75236748	    -14.95110799	      0.00000000
      0.62311852	    -74.18498764	    -15.20830400	      0.00000000
      0.62443035	    -74.63639158	    -15.47285110	      0.00000000
      0.62574218	    -75.10935911	    -15.74536225	      0.00000000
      0.62705401	    -75.60695072	    -16.02653628	      0.00000000
      0.62836583	    -76.13109195	    -16.31707791	      0.00000000
      0.62967766	    -76.68391769	    -16.61775469	      0.00000000
      0.63098949	    -77.26554926	    -16.92925786	      0.00000000
      0.63230132	    -77.87605284	    -17.25228035	      0.00000000
      0.63361315	    -78.51409046	    -17.58742061	      0.00000000
      0.63492498	    -79.17815817	    -17.93523142	      0.00000000
      0.63623680	    -79.86711501	    -18.29626603	      0.00000000
      0.63754863	    -80.58005885	    -18.67107199	      0.00000000
      0.63886046	    -81.31689799	    -19.06025803	      0.00000000
      0.64017229	    -82.07752448	    -19.46443584	      0.00000000
      0.64148412	    -82.86147843	    -19.88419361	      0.00000000
      0.64279595	    -83.66721276	    -20.32000304	      0.00000000
      0.64410778	    -84.49428842	    -20.77242084	      0.00000000
      0.64541960	    -85.34337627	    -21.24212360	      0.00000000
      0.64673143	    -86.21572217	    -21.72988581	      0.00000000
      0.64804326	    -87.11332181	    -22.23661847	      0.00000000
      0.64935509	    -88.03406823	    -22.76280716	      0.00000000
      0.65066692	    -88.97314606	    -23.30852843	      0.00000000
      0.65197875	    -89.92562145	    -23.87371550	      0.00000000
      0.65329057	    -90.88858345	    -24.45842338	      0.00000000
      0.65460240	    -91.86155879	    -25.06298202	      0.00000000
      0.65591423	    -92.84357213	    -25.68763262	      0.00000000
      0.65722606	    -93.83331637	    -26.33254954	      0.00000000
      0.65853789	    -94.82762715	    -26.99757153	      0.00000000
      0.65984972	    -95.82529119	    -27.68275115	      0.00000000
      0.66116155	    -96.82600161	    -28.38825748	      0.00000000
      0.66247337	    -97.83253552	    -29.11478310	      0.00000000
      0.66378520	    -98.84934977	    -29.86343958	      0.00000000
      0.66509703	    -99.87741102	    -30.63487029	      0.00000000
      0.66640886	   -100.91610185	    -31.42946241	      0.00000000
      0.66772069	   -101.95959090	    -32.24657648	      0.00000000
      0.66903252	   -103.00184884	    -33.08529599	      0.00000000
      0.67034434	   -104.03689582	    -33.94449520	      0.00000000
      0.67165617	   -105.06038435	    -34.82313611	      0.00000000
      0.67296800	   -106.06741654	    -35.71991339	      0.00000000
      0.67427983	   -107.04915002	    -36.63239462	      0.00000000
      0.67559166	   -107.99955615	    -37.55845639	      0.00000000
      0.67690349	   -108.90618628	    -38.49416434	      0.00000000
      0.67821532	   -109.77922945	    -39.44059385	      0.00000000
      0.67952714	   -110.63813406	    -40.40176438	      0.00000000
      0.68083897	   -111.51892947	    -41.38685120	      0.00000000
      0.68215080	   -112.46674511	    -42.39673006	      0.00000000
      0.68346263	   -113.49208550	    -43.46185118	      0.00000000
      0.68477446	   -114.61027619	    -44.57789514	      0.00000000
      0.68608629	   -115.81331420	    -45.74641874	      0.00000000
      0.68739811	   -117.11013647	    -46.97362421	      0.00000000
      0.68870994	   -118.50886309	    -48.26597250	      0.00000000
      0.69002177	   -120.02053830	    -49.63122263	      0.00000000
      0.69133360	   -121.62957925	    -51.06948825	      0.00000000
      0.69264543	   -123.30753805	    -52.57598325	      0.00000000
      0.69395726	   -125.02176848	    -54.14340627	      0.00000000
      0.69526909	   -126.74570297	    -55.76479202	      0.00000000
      0.69658091	   -128.47039893	    -57.43801019	      0.00000000
      0.69789274	   -130.18501048	    -59.15972493	      0.00000000
      0.69920457	   -131.88888800	    -60.92970970	      0.00000000
      0.70051640	   -133.57700880	    -62.74606124	      0.00000000
      0.70182823	   -135.24863337	    -64.60817086	      0.00000000
      0.70314006	   -136.90080148	    -66.51454165	      0.00000000
      0.70445188	   -138.53653400	    -68.46578739	      0.00000000
      0.70576371	   -140.16150219	    -70.46383871	      0.00000000
      0.70707554	   -141.78245830	    -72.51142566	      0.00000000
      0.70838737	   -143.40853876	    -74.61280254	      0.00000000
      0.70969920	   -145.03754455	    -76.76808032	      0.00000000
      0.71101103	   -146.66213126	    -78.97498397	      0.00000000
      0.71232286	   -148.26995966	    -81.22858878	      0.00000000
      0.71363468	   -149.84152619	    -83.51981906	      0.00000000
      0.71494651	   -151.38581124	    -85.85131595	      0.00000000
      0.71625834	   -152.93752323	    -88.23883420	      0.00000000
      0.71757017	   -154.52525442	    -90.69787967	      0.00000000
      0.71888200	   -156.19028442	    -93.25243588	      0.00000000
      0.72019383	   -157.87273076	    -95.87911253	      0.00000000
      0.72150565	   -159.41518924	    -98.49870872	      0.00000000
      0.72281748	   -160.74764715	   -101.06419724	      0.00000000
      0.72412931	   -161.89403493	   -103.57309645	      0.00000000
      0.72544114	   -162.98382304	   -106.08322468	      0.00000000
      0.72675297	   -164.13935722	   -108.66131921	      0.00000000
      0.72806480	   -165.41854821	   -111.34674535	      0.00000000
      0.72937663	   -166.88963813	   -114.18945695	      0.00000000
      0.73068845	   -168.48334070	   -117.16167846	      0.00000000
      0.73200028	   -170.06439032	   -120.18666654	      0.00000000
      0.73331211	   -171.54237527	   -123.20239219	      0.00000000
      0.73462394	   -172.87216268	   -126.16489154	      0.00000000
      0.73593577	   -174.14636844	   -129.11379917	      0.00000000
      0.73724760	   -175.46109783	   -132.09884484	      0.00000000
      0.73855942	   -176.96536118	   -135.21239104	      0.00000000
      0.73987125	   -178.76210638	   -138.52901481	      0.00000000
      0.74118308	   -185.70471542	   -145.84262762	      0.00000000
      0.74249491	   -187.90955014	   -149.45402295	      0.00000000
      0.74380674	   -190.55775125	   -153.35923931	      0.00000000
      0.74511857	   -193.62748639	   -157.55029061	      0.00000000
      0.74643040	   -197.06230237	   -161.98497977	      0.00000000
      0.74774222	   -200.90498480	   -166.69413141	      0.00000000
      0.74905405	   -205.17982775	   -171.70292657	      0.00000000
      0.75036588	   -209.84692743	   -177.05279137	      0.00000000
      0.75167771	   -214.93985631	   -182.67674794	      0.00000000
      0.75298954	   -220.35371377	   -188.58519013	      0.00000000
      0.75430137	   -226.00027667	   -194.75274990	      0.00000000
      0.75561319	   -231.76613518	   -201.14404884	      0.00000000
      0.75692502	   -237.52618172	   -207.71560463	      0.00000000
      0.75823685	   -243.16460116	   -214.43034413	      0.00000000
      0.75954868	   -248.59025680	   -221.25251997	      0.00000000
      0.76086051	   -253.76969693	   -228.17446773	      0.00000000
      0.76217234	   -258.72147674	   -235.19738980	      0.00000000
      0.76348417	   -263.52919568	   -242.34934311	      0.00000000
      0.76479599	   -268.30822090	   -249.66019905	      0.00000000
      0.76610782	   -273.20043272	   -257.16162533	      0.00000000
      0.76741965	   -278.34331255	   -264.87854809	      0.00000000
      0.76873148	   -283.87937877	   -272.82557349	      0.00000000
      0.77004331	   -289.94087070	   -281.00517861	      0.00000000
      0.77135514	   -296.68436719	   -289.41850389	      0.00000000
      0.77266696	   -304.29032709	   -298.03536207	      0.00000000
      0.77397879	   -313.03782704	   -306.83709363	      0.00000000
      0.77529062	   -323.33698927	   -315.76707496	      0.00000000
      0.77660245	   -335.95811094	   -324.86830557	      0.00000000
      0.77791428	   -352.08247561	   -334.35674264	      0.00000000
      0.77922611	   -373.65617004	   -344.65191482	      0.00000000
      0.78053794	   -402.58067194	   -355.80764683	      0.00000000
      0.78184976	   -441.09518704	   -366.89634534	      0.00000000
      0.78316159	   -488.00139921	   -374.51340054	      0.00000000
      0.78447342	   -537.92093037	   -371.02145117	      0.00000000
      0.78578525	   -572.07718498	   -343.60417088	      0.00000000
      0.78709708	   -571.26758425	   -281.59845308	      0.00000000
