PointVelocity
version=1
nRows=601
nColumns=4
inDegrees=no
No description.
endheader
time	state_0	state_1	state_2
      0.00000000	      3.08599707	     -1.17709291	      0.00000000
      0.00124071	      3.11774286	     -1.20167138	      0.00000000
      0.00248142	      3.15012079	     -1.22573949	      0.00000000
      0.00372212	      3.18309320	     -1.24952053	      0.00000000
      0.00496283	      3.21670619	     -1.27288501	      0.00000000
      0.00620354	      3.25084182	     -1.29584364	      0.00000000
      0.00744425	      3.28562999	     -1.31833054	      0.00000000
      0.00868496	      3.32055065	     -1.34037018	      0.00000000
      0.00992567	      3.35593756	     -1.36190219	      0.00000000
      0.01116637	      3.38969136	     -1.38313517	      0.00000000
      0.01240708	      3.42193110	     -1.40413667	      0.00000000
      0.01364779	      3.44521570	     -1.42580313	      0.00000000
      0.01488850	      3.45429751	     -1.44938689	      0.00000000
      0.01612921	      3.42801230	     -1.47754813	      0.00000000
      0.01736991	      3.34485734	     -1.51525999	      0.00000000
      0.01861062	      3.18098711	     -1.56338704	      0.00000000
      0.01985133	      2.86565573	     -1.63693405	      0.00000000
      0.02109204	      2.32165685	     -1.73138637	      0.00000000
      0.02233275	      1.33058911	     -1.85027119	      0.00000000
      0.02357346	      0.35106387	     -1.84530875	      0.00000000
      0.02481416	      0.14120581	     -1.57073496	      0.00000000
      0.02605487	      0.20641662	     -1.22783311	      0.00000000
      0.02729558	      0.14870101	     -0.93410975	      0.00000000
      0.02853629	      0.14045789	     -0.67529020	      0.00000000
      0.02977700	      0.12223993	     -0.47433752	      0.00000000
      0.03101770	      0.11321263	     -0.31875273	      0.00000000
      0.03225841	      0.10715907	     -0.20536978	      0.00000000
      0.03349912	      0.10084572	     -0.12352743	      0.00000000
      0.03473983	      0.09989395	     -0.06549835	      0.00000000
      0.03598054	      0.09556330	     -0.02587973	      0.00000000
      0.03722125	      0.09527154	      0.00143978	      0.00000000
      0.03846195	      0.09240306	      0.01888486	      0.00000000
      0.03970266	      0.09122006	      0.03006556	      0.00000000
      0.04094337	      0.08891418	      0.03619435	      0.00000000
      0.04218408	      0.08703106	      0.03914743	      0.00000000
      0.04342479	      0.08475857	      0.03957369	      0.00000000
      0.04466549	      0.08253551	      0.03842015	      0.00000000
      0.04590620	      0.08018190	      0.03603627	      0.00000000
      0.04714691	      0.07781559	      0.03290626	      0.00000000
      0.04838762	      0.07540609	      0.02921922	      0.00000000
      0.04962833	      0.07298878	      0.02522804	      0.00000000
      0.05086904	      0.07056152	      0.02103677	      0.00000000
      0.05210974	      0.06813733	      0.01678004	      0.00000000
      0.05335045	      0.06571815	      0.01251900	      0.00000000
      0.05459116	      0.06331017	      0.00833306	      0.00000000
      0.05583187	      0.06091644	      0.00426012	      0.00000000
      0.05707258	      0.05854145	      0.00034500	      0.00000000
      0.05831328	      0.05618736	     -0.00339519	      0.00000000
      0.05955399	      0.05385734	     -0.00693842	      0.00000000
      0.06079470	      0.05155255	     -0.01027921	      0.00000000
      0.06203541	      0.04927562	     -0.01340618	      0.00000000
      0.06327612	      0.04702743	     -0.01632027	      0.00000000
      0.06451683	      0.04481105	     -0.01901305	      0.00000000
      0.06575753	      0.04262702	     -0.02150347	      0.00000000
      0.06699824	      0.04047771	     -0.02381671	      0.00000000
      0.06823895	      0.03836114	     -0.02596898	      0.00000000
      0.06947966	      0.03627969	     -0.02794255	      0.00000000
      0.07072037	      0.03423560	     -0.02974669	      0.00000000
      0.07196107	      0.03222740	     -0.03143842	      0.00000000
      0.07320178	      0.03024416	     -0.03305166	      0.00000000
      0.07444249	      0.02827734	     -0.03459585	      0.00000000
      0.07568320	      0.02633460	     -0.03598286	      0.00000000
      0.07692391	      0.02442735	     -0.03708020	      0.00000000
      0.07816462	      0.02257605	     -0.03782826	      0.00000000
      0.07940532	      0.02079364	     -0.03824243	      0.00000000
      0.08064603	      0.01907220	     -0.03838361	      0.00000000
      0.08188674	      0.01741001	     -0.03826896	      0.00000000
      0.08312745	      0.01580871	     -0.03790577	      0.00000000
      0.08436816	      0.01426978	     -0.03731423	      0.00000000
      0.08560886	      0.01279212	     -0.03649235	      0.00000000
      0.08684957	      0.01137552	     -0.03543163	      0.00000000
      0.08809028	      0.01001974	     -0.03410497	      0.00000000
      0.08933099	      0.00872527	     -0.03248459	      0.00000000
      0.09057170	      0.00749213	     -0.03055871	      0.00000000
      0.09181241	      0.00632038	     -0.02831969	      0.00000000
      0.09305311	      0.00520939	     -0.02577842	      0.00000000
      0.09429382	      0.00415852	     -0.02293911	      0.00000000
      0.09553453	      0.00316754	     -0.01981387	      0.00000000
      0.09677524	      0.00223570	     -0.01641131	      0.00000000
      0.09801595	      0.00136298	     -0.01274336	      0.00000000
      0.09925665	      0.00054850	     -0.00881970	      0.00000000
      0.10049736	     -0.00020763	     -0.00465155	      0.00000000
      0.10173807	     -0.00090638	     -0.00024954	      0.00000000
      0.10297878	     -0.00154770	      0.00437477	      0.00000000
      0.10421949	     -0.00213273	      0.00920929	      0.00000000
      0.10546020	     -0.00266150	      0.01424208	      0.00000000
      0.10670090	     -0.00313533	      0.01945991	      0.00000000
      0.10794161	     -0.00355436	      0.02485110	      0.00000000
      0.10918232	     -0.00391998	      0.03040199	      0.00000000
      0.11042303	     -0.00423247	      0.03610081	      0.00000000
      0.11166374	     -0.00449325	      0.04193283	      0.00000000
      0.11290444	     -0.00470285	      0.04788498	      0.00000000
      0.11414515	     -0.00486275	      0.05394032	      0.00000000
      0.11538586	     -0.00497387	      0.06008456	      0.00000000
      0.11662657	     -0.00503784	      0.06629900	      0.00000000
      0.11786728	     -0.00505607	      0.07256970	      0.00000000
      0.11910799	     -0.00503039	      0.07887799	      0.00000000
      0.12034869	     -0.00496270	      0.08521147	      0.00000000
      0.12158940	     -0.00485506	      0.09155262	      0.00000000
      0.12283011	     -0.00470996	      0.09789054	      0.00000000
      0.12407082	     -0.00452977	      0.10420929	      0.00000000
      0.12531153	     -0.00431774	      0.11049907	      0.00000000
      0.12655223	     -0.00407671	      0.11674506	      0.00000000
      0.12779294	     -0.00381084	      0.12293778	      0.00000000
      0.12903365	     -0.00352365	      0.12906292	      0.00000000
      0.13027436	     -0.00322041	      0.13511145	      0.00000000
      0.13151507	     -0.00290558	      0.14107000	      0.00000000
      0.13275578	     -0.00258561	      0.14693087	      0.00000000
      0.13399648	     -0.00226601	      0.15268249	      0.00000000
      0.13523719	     -0.00195414	      0.15831905	      0.00000000
      0.13647790	     -0.00165645	      0.16383152	      0.00000000
      0.13771861	     -0.00138071	      0.16921602	      0.00000000
      0.13895932	     -0.00113383	      0.17446593	      0.00000000
      0.14020002	     -0.00092342	      0.17957892	      0.00000000
      0.14144073	     -0.00075632	      0.18455038	      0.00000000
      0.14268144	     -0.00063960	      0.18937987	      0.00000000
      0.14392215	     -0.00057992	      0.19406609	      0.00000000
      0.14516286	     -0.00058353	      0.19861116	      0.00000000
      0.14640357	     -0.00065670	      0.20301753	      0.00000000
      0.14764427	     -0.00080427	      0.20728779	      0.00000000
      0.14888498	     -0.00103157	      0.21142671	      0.00000000
      0.15012569	     -0.00134089	      0.21543319	      0.00000000
      0.15136640	     -0.00173532	      0.21930970	      0.00000000
      0.15260711	     -0.00221306	      0.22304498	      0.00000000
      0.15384781	     -0.00277211	      0.22662772	      0.00000000
      0.15508852	     -0.00340839	      0.23003917	      0.00000000
      0.15632923	     -0.00411977	      0.23326657	      0.00000000
      0.15756994	     -0.00490262	      0.23629929	      0.00000000
      0.15881065	     -0.00575415	      0.23913011	      0.00000000
      0.16005136	     -0.00666918	      0.24175459	      0.00000000
      0.16129206	     -0.00764307	      0.24417094	      0.00000000
      0.16253277	     -0.00866904	      0.24637909	      0.00000000
      0.16377348	     -0.00973985	      0.24838021	      0.00000000
      0.16501419	     -0.01084943	      0.25018003	      0.00000000
      0.16625490	     -0.01198970	      0.25178442	      0.00000000
      0.16749560	     -0.01316148	      0.25321199	      0.00000000
      0.16873631	     -0.01436482	      0.25448402	      0.00000000
      0.16997702	     -0.01561515	      0.25563726	      0.00000000
      0.17121773	     -0.01693098	      0.25671842	      0.00000000
      0.17245844	     -0.01833609	      0.25776401	      0.00000000
      0.17369915	     -0.01984924	      0.25880906	      0.00000000
      0.17493985	     -0.02148796	      0.25986013	      0.00000000
      0.17618056	     -0.02326983	      0.26093001	      0.00000000
      0.17742127	     -0.02521507	      0.26200959	      0.00000000
      0.17866198	     -0.02735124	      0.26309532	      0.00000000
      0.17990269	     -0.02969091	      0.26416837	      0.00000000
      0.18114340	     -0.03225429	      0.26519815	      0.00000000
      0.18238410	     -0.03501145	      0.26618284	      0.00000000
      0.18362481	     -0.03794249	      0.26712265	      0.00000000
      0.18486552	     -0.04095073	      0.26809819	      0.00000000
      0.18610623	     -0.04392039	      0.26921099	      0.00000000
      0.18734694	     -0.04672551	      0.27059481	      0.00000000
      0.18858764	     -0.04925448	      0.27236702	      0.00000000
      0.18982835	     -0.05145472	      0.27460870	      0.00000000
      0.19106906	     -0.05324932	      0.27739309	      0.00000000
      0.19230977	     -0.05464789	      0.28076485	      0.00000000
      0.19355048	     -0.05564328	      0.28475402	      0.00000000
      0.19479119	     -0.05633854	      0.28940404	      0.00000000
      0.19603189	     -0.05683278	      0.29472900	      0.00000000
      0.19727260	     -0.05725418	      0.30074473	      0.00000000
      0.19851331	     -0.05772269	      0.30742187	      0.00000000
      0.19975402	     -0.05830160	      0.31471476	      0.00000000
      0.20099473	     -0.05907924	      0.32257248	      0.00000000
      0.20223543	     -0.06003622	      0.33091337	      0.00000000
      0.20347614	     -0.06126664	      0.33977344	      0.00000000
      0.20471685	     -0.06268812	      0.34904101	      0.00000000
      0.20595756	     -0.06379006	      0.35834989	      0.00000000
      0.20719827	     -0.06466009	      0.36768447	      0.00000000
      0.20843898	     -0.06584232	      0.37723107	      0.00000000
      0.20967968	     -0.06745487	      0.38705278	      0.00000000
      0.21092039	     -0.06946470	      0.39710123	      0.00000000
      0.21216110	     -0.07180746	      0.40736056	      0.00000000
      0.21340181	     -0.07443688	      0.41781752	      0.00000000
      0.21464252	     -0.07727737	      0.42845737	      0.00000000
      0.21588322	     -0.08025947	      0.43927608	      0.00000000
      0.21712393	     -0.08332720	      0.45027250	      0.00000000
      0.21836464	     -0.08646433	      0.46147644	      0.00000000
      0.21960535	     -0.08965848	      0.47290301	      0.00000000
      0.22084606	     -0.09288405	      0.48458699	      0.00000000
      0.22208677	     -0.09602585	      0.49648651	      0.00000000
      0.22332747	     -0.09896496	      0.50860802	      0.00000000
      0.22456818	     -0.10158145	      0.52088595	      0.00000000
      0.22580889	     -0.10376740	      0.53330914	      0.00000000
      0.22704960	     -0.10547091	      0.54580959	      0.00000000
      0.22829031	     -0.10663550	      0.55835436	      0.00000000
      0.22953101	     -0.10725744	      0.57087303	      0.00000000
      0.23077172	     -0.10732339	      0.58331240	      0.00000000
      0.23201243	     -0.10685676	      0.59560594	      0.00000000
      0.23325314	     -0.10587258	      0.60769087	      0.00000000
      0.23449385	     -0.10440465	      0.61951486	      0.00000000
      0.23573456	     -0.10248053	      0.63102042	      0.00000000
      0.23697526	     -0.10013269	      0.64217926	      0.00000000
      0.23821597	     -0.09739024	      0.65295386	      0.00000000
      0.23945668	     -0.09427965	      0.66334299	      0.00000000
      0.24069739	     -0.09082491	      0.67333480	      0.00000000
      0.24193810	     -0.08704650	      0.68294686	      0.00000000
      0.24317880	     -0.08296291	      0.69218704	      0.00000000
      0.24441951	     -0.07859398	      0.70107685	      0.00000000
      0.24566022	     -0.07395756	      0.70963017	      0.00000000
      0.24690093	     -0.06907853	      0.71785881	      0.00000000
      0.24814164	     -0.06397943	      0.72576918	      0.00000000
      0.24938235	     -0.05869167	      0.73335756	      0.00000000
      0.25062305	     -0.05324407	      0.74061660	      0.00000000
      0.25186376	     -0.04767173	      0.74752966	      0.00000000
      0.25310447	     -0.04200746	      0.75407731	      0.00000000
      0.25434518	     -0.03628569	      0.76023659	      0.00000000
      0.25558589	     -0.03053947	      0.76598142	      0.00000000
      0.25682659	     -0.02479920	      0.77128859	      0.00000000
      0.25806730	     -0.01909512	      0.77613075	      0.00000000
      0.25930801	     -0.01345136	      0.78048910	      0.00000000
      0.26054872	     -0.00789307	      0.78433985	      0.00000000
      0.26178943	     -0.00243631	      0.78767310	      0.00000000
      0.26303014	      0.00290110	      0.79047365	      0.00000000
      0.26427084	      0.00811246	      0.79274430	      0.00000000
      0.26551155	      0.01318886	      0.79448270	      0.00000000
      0.26675226	      0.01813271	      0.79570551	      0.00000000
      0.26799297	      0.02294411	      0.79642487	      0.00000000
      0.26923368	      0.02763258	      0.79666906	      0.00000000
      0.27047438	      0.03220473	      0.79646352	      0.00000000
      0.27171509	      0.03666048	      0.79584874	      0.00000000
      0.27295580	      0.04100479	      0.79486010	      0.00000000
      0.27419651	      0.04525956	      0.79352854	      0.00000000
      0.27543722	      0.04943805	      0.79188826	      0.00000000
      0.27667793	      0.05354924	      0.78996970	      0.00000000
      0.27791863	      0.05760400	      0.78780330	      0.00000000
      0.27915934	      0.06160816	      0.78541094	      0.00000000
      0.28040005	      0.06556838	      0.78281581	      0.00000000
      0.28164076	      0.06948617	      0.78003132	      0.00000000
      0.28288147	      0.07336363	      0.77707256	      0.00000000
      0.28412217	      0.07719847	      0.77394648	      0.00000000
      0.28536288	      0.08098928	      0.77066159	      0.00000000
      0.28660359	      0.08473199	      0.76722050	      0.00000000
      0.28784430	      0.08842307	      0.76362694	      0.00000000
      0.28908501	      0.09205759	      0.75988080	      0.00000000
      0.29032572	      0.09563072	      0.75598224	      0.00000000
      0.29156642	      0.09913757	      0.75192991	      0.00000000
      0.29280713	      0.10257317	      0.74772235	      0.00000000
      0.29404784	      0.10593405	      0.74335959	      0.00000000
      0.29528855	      0.10921646	      0.73884107	      0.00000000
      0.29652926	      0.11241952	      0.73417051	      0.00000000
      0.29776996	      0.11554200	      0.72935107	      0.00000000
      0.29901067	      0.11858587	      0.72439137	      0.00000000
      0.30025138	      0.12155283	      0.71929975	      0.00000000
      0.30149209	      0.12444672	      0.71408832	      0.00000000
      0.30273280	      0.12727120	      0.70876938	      0.00000000
      0.30397351	      0.13003006	      0.70335466	      0.00000000
      0.30521421	      0.13272729	      0.69785671	      0.00000000
      0.30645492	      0.13536549	      0.69228231	      0.00000000
      0.30769563	      0.13794804	      0.68663957	      0.00000000
      0.30893634	      0.14047445	      0.68092776	      0.00000000
      0.31017705	      0.14294490	      0.67514786	      0.00000000
      0.31141775	      0.14535531	      0.66929150	      0.00000000
      0.31265846	      0.14770237	      0.66335172	      0.00000000
      0.31389917	      0.14997972	      0.65731469	      0.00000000
      0.31513988	      0.15218155	      0.65116738	      0.00000000
      0.31638059	      0.15430111	      0.64489424	      0.00000000
      0.31762130	      0.15633181	      0.63847980	      0.00000000
      0.31886200	      0.15826838	      0.63191076	      0.00000000
      0.32010271	      0.16010533	      0.62517320	      0.00000000
      0.32134342	      0.16184005	      0.61825867	      0.00000000
      0.32258413	      0.16346943	      0.61115771	      0.00000000
      0.32382484	      0.16499371	      0.60386727	      0.00000000
      0.32506554	      0.16641255	      0.59638321	      0.00000000
      0.32630625	      0.16772833	      0.58870655	      0.00000000
      0.32754696	      0.16894291	      0.58083737	      0.00000000
      0.32878767	      0.17005982	      0.57277870	      0.00000000
      0.33002838	      0.17108215	      0.56453290	      0.00000000
      0.33126909	      0.17201378	      0.55610354	      0.00000000
      0.33250979	      0.17285830	      0.54749379	      0.00000000
      0.33375050	      0.17361976	      0.53870747	      0.00000000
      0.33499121	      0.17430210	      0.52974823	      0.00000000
      0.33623192	      0.17490975	      0.52062060	      0.00000000
      0.33747263	      0.17544715	      0.51132917	      0.00000000
      0.33871333	      0.17591914	      0.50187959	      0.00000000
      0.33995404	      0.17633064	      0.49227773	      0.00000000
      0.34119475	      0.17668645	      0.48252981	      0.00000000
      0.34243546	      0.17699161	      0.47264246	      0.00000000
      0.34367617	      0.17725018	      0.46262082	      0.00000000
      0.34491688	      0.17746651	      0.45247052	      0.00000000
      0.34615758	      0.17764303	      0.44219395	      0.00000000
      0.34739829	      0.17778235	      0.43179377	      0.00000000
      0.34863900	      0.17788504	      0.42126932	      0.00000000
      0.34987971	      0.17795164	      0.41061973	      0.00000000
      0.35112042	      0.17798205	      0.39984361	      0.00000000
      0.35236112	      0.17797594	      0.38893877	      0.00000000
      0.35360183	      0.17793461	      0.37790759	      0.00000000
      0.35484254	      0.17785881	      0.36675091	      0.00000000
      0.35608325	      0.17775271	      0.35547930	      0.00000000
      0.35732396	      0.17761967	      0.34410119	      0.00000000
      0.35856467	      0.17746719	      0.33263766	      0.00000000
      0.35980537	      0.17730196	      0.32110781	      0.00000000
      0.36104608	      0.17713426	      0.30954231	      0.00000000
      0.36228679	      0.17697418	      0.29797141	      0.00000000
      0.36352750	      0.17683298	      0.28642946	      0.00000000
      0.36476821	      0.17672299	      0.27495255	      0.00000000
      0.36600891	      0.17665242	      0.26356711	      0.00000000
      0.36724962	      0.17663030	      0.25230290	      0.00000000
      0.36849033	      0.17665677	      0.24116556	      0.00000000
      0.36973104	      0.17673340	      0.23016227	      0.00000000
      0.37097175	      0.17685252	      0.21927531	      0.00000000
      0.37221246	      0.17700719	      0.20848977	      0.00000000
      0.37345316	      0.17718576	      0.19777983	      0.00000000
      0.37469387	      0.17737775	      0.18712152	      0.00000000
      0.37593458	      0.17757325	      0.17649458	      0.00000000
      0.37717529	      0.17776131	      0.16587366	      0.00000000
      0.37841600	      0.17793611	      0.15525489	      0.00000000
      0.37965670	      0.17809019	      0.14463153	      0.00000000
      0.38089741	      0.17822621	      0.13403129	      0.00000000
      0.38213812	      0.17834770	      0.12348387	      0.00000000
      0.38337883	      0.17846538	      0.11303507	      0.00000000
      0.38461954	      0.17859028	      0.10272864	      0.00000000
      0.38586025	      0.17872964	      0.09259209	      0.00000000
      0.38710095	      0.17889230	      0.08265727	      0.00000000
      0.38834166	      0.17907321	      0.07291849	      0.00000000
      0.38958237	      0.17926910	      0.06337536	      0.00000000
      0.39082308	      0.17946005	      0.05398570	      0.00000000
      0.39206379	      0.17962794	      0.04471269	      0.00000000
      0.39330449	      0.17974381	      0.03549240	      0.00000000
      0.39454520	      0.17977680	      0.02625835	      0.00000000
      0.39578591	      0.17970079	      0.01695303	      0.00000000
      0.39702662	      0.17949016	      0.00752111	      0.00000000
      0.39826733	      0.17913619	     -0.00205537	      0.00000000
      0.39950804	      0.17862864	     -0.01179683	      0.00000000
      0.40074874	      0.17797118	     -0.02169188	      0.00000000
      0.40198945	      0.17716421	     -0.03173564	      0.00000000
      0.40323016	      0.17621478	     -0.04190822	      0.00000000
      0.40447087	      0.17512797	     -0.05219354	      0.00000000
      0.40571158	      0.17391197	     -0.06257108	      0.00000000
      0.40695228	      0.17257485	     -0.07302183	      0.00000000
      0.40819299	      0.17112537	     -0.08352688	      0.00000000
      0.40943370	      0.16957182	     -0.09406728	      0.00000000
      0.41067441	      0.16792169	     -0.10462585	      0.00000000
      0.41191512	      0.16618269	     -0.11518499	      0.00000000
      0.41315583	      0.16436212	     -0.12572974	      0.00000000
      0.41439653	      0.16246753	     -0.13624450	      0.00000000
      0.41563724	      0.16050645	     -0.14671652	      0.00000000
      0.41687795	      0.15848662	     -0.15713242	      0.00000000
      0.41811866	      0.15641578	     -0.16748141	      0.00000000
      0.41935937	      0.15430184	     -0.17775216	      0.00000000
      0.42060007	      0.15215245	     -0.18793550	      0.00000000
      0.42184078	      0.14997541	     -0.19802183	      0.00000000
      0.42308149	      0.14777810	     -0.20800324	      0.00000000
      0.42432220	      0.14556801	     -0.21787154	      0.00000000
      0.42556291	      0.14335213	     -0.22761981	      0.00000000
      0.42680362	      0.14113757	     -0.23724098	      0.00000000
      0.42804432	      0.13893089	     -0.24672894	      0.00000000
      0.42928503	      0.13673878	     -0.25607748	      0.00000000
      0.43052574	      0.13456740	     -0.26528120	      0.00000000
      0.43176645	      0.13242301	     -0.27433460	      0.00000000
      0.43300716	      0.13031140	     -0.28323293	      0.00000000
      0.43424786	      0.12823848	     -0.29197134	      0.00000000
      0.43548857	      0.12620973	     -0.30054570	      0.00000000
      0.43672928	      0.12423074	     -0.30895182	      0.00000000
      0.43796999	      0.12230676	     -0.31718624	      0.00000000
      0.43921070	      0.12044315	     -0.32524542	      0.00000000
      0.44045141	      0.11864500	     -0.33312663	      0.00000000
      0.44169211	      0.11691750	     -0.34082704	      0.00000000
      0.44293282	      0.11526563	     -0.34834462	      0.00000000
      0.44417353	      0.11369450	     -0.35567731	      0.00000000
      0.44541424	      0.11220902	     -0.36282377	      0.00000000
      0.44665495	      0.11081436	     -0.36978273	      0.00000000
      0.44789565	      0.10951526	     -0.37655341	      0.00000000
      0.44913636	      0.10831663	     -0.38313511	      0.00000000
      0.45037707	      0.10722138	     -0.38952685	      0.00000000
      0.45161778	      0.10623253	     -0.39572770	      0.00000000
      0.45285849	      0.10535202	     -0.40173676	      0.00000000
      0.45409920	      0.10458226	     -0.40755332	      0.00000000
      0.45533990	      0.10392452	     -0.41317654	      0.00000000
      0.45658061	      0.10338039	     -0.41860579	      0.00000000
      0.45782132	      0.10294996	     -0.42383994	      0.00000000
      0.45906203	      0.10263359	     -0.42887807	      0.00000000
      0.46030274	      0.10242979	     -0.43371848	      0.00000000
      0.46154344	      0.10233730	     -0.43835966	      0.00000000
      0.46278415	      0.10235326	     -0.44279931	      0.00000000
      0.46402486	      0.10247502	     -0.44703525	      0.00000000
      0.46526557	      0.10269900	     -0.45106487	      0.00000000
      0.46650628	      0.10302169	     -0.45488557	      0.00000000
      0.46774699	      0.10343948	     -0.45849477	      0.00000000
      0.46898769	      0.10394909	     -0.46189011	      0.00000000
      0.47022840	      0.10454748	     -0.46506941	      0.00000000
      0.47146911	      0.10523229	     -0.46803080	      0.00000000
      0.47270982	      0.10599944	     -0.47077161	      0.00000000
      0.47395053	      0.10685083	     -0.47329221	      0.00000000
      0.47519123	      0.10779590	     -0.47559712	      0.00000000
      0.47643194	      0.10882167	     -0.47767867	      0.00000000
      0.47767265	      0.10989861	     -0.47952083	      0.00000000
      0.47891336	      0.11102112	     -0.48111995	      0.00000000
      0.48015407	      0.11219352	     -0.48247838	      0.00000000
      0.48139478	      0.11341284	     -0.48359406	      0.00000000
      0.48263548	      0.11467964	     -0.48446711	      0.00000000
      0.48387619	      0.11599315	     -0.48509680	      0.00000000
      0.48511690	      0.11735383	     -0.48548316	      0.00000000
      0.48635761	      0.11876177	     -0.48562600	      0.00000000
      0.48759832	      0.12021777	     -0.48552557	      0.00000000
      0.48883902	      0.12172240	     -0.48518200	      0.00000000
      0.49007973	      0.12327678	     -0.48459576	      0.00000000
      0.49132044	      0.12488186	     -0.48376724	      0.00000000
      0.49256115	      0.12653912	     -0.48269712	      0.00000000
      0.49380186	      0.12824987	     -0.48138602	      0.00000000
      0.49504257	      0.13001591	     -0.47983479	      0.00000000
      0.49628327	      0.13183884	     -0.47804428	      0.00000000
      0.49752398	      0.13372082	     -0.47601545	      0.00000000
      0.49876469	      0.13566373	     -0.47374937	      0.00000000
      0.50000540	      0.13767014	     -0.47124716	      0.00000000
      0.50124611	      0.13974226	     -0.46851008	      0.00000000
      0.50248681	      0.14188314	     -0.46553947	      0.00000000
      0.50372752	      0.14409542	     -0.46233685	      0.00000000
      0.50496823	      0.14638275	     -0.45890380	      0.00000000
      0.50620894	      0.14874833	     -0.45524222	      0.00000000
      0.50744965	      0.15119652	     -0.45135405	      0.00000000
      0.50869036	      0.15373123	     -0.44724167	      0.00000000
      0.50993106	      0.15635754	     -0.44290746	      0.00000000
      0.51117177	      0.15908022	     -0.43835441	      0.00000000
      0.51241248	      0.16190488	     -0.43358527	      0.00000000
      0.51365319	      0.16483701	     -0.42860357	      0.00000000
      0.51489390	      0.16788123	     -0.42341140	      0.00000000
      0.51613461	      0.17104151	     -0.41801119	      0.00000000
      0.51737531	      0.17432188	     -0.41240469	      0.00000000
      0.51861602	      0.17772637	     -0.40659446	      0.00000000
      0.51985673	      0.18125952	     -0.40058275	      0.00000000
      0.52109744	      0.18492571	     -0.39437253	      0.00000000
      0.52233815	      0.18872981	     -0.38796653	      0.00000000
      0.52357885	      0.19267652	     -0.38136812	      0.00000000
      0.52481956	      0.19677073	     -0.37458032	      0.00000000
      0.52606027	      0.20101716	     -0.36760676	      0.00000000
      0.52730098	      0.20542049	     -0.36045056	      0.00000000
      0.52854169	      0.20998529	     -0.35311545	      0.00000000
      0.52978240	      0.21471598	     -0.34560469	      0.00000000
      0.53102310	      0.21961703	     -0.33792212	      0.00000000
      0.53226381	      0.22469277	     -0.33007130	      0.00000000
      0.53350452	      0.22994765	     -0.32205632	      0.00000000
      0.53474523	      0.23538594	     -0.31388105	      0.00000000
      0.53598594	      0.24101205	     -0.30554984	      0.00000000
      0.53722664	      0.24682999	     -0.29706680	      0.00000000
      0.53846735	      0.25284397	     -0.28843641	      0.00000000
      0.53970806	      0.25905755	     -0.27966286	      0.00000000
      0.54094877	      0.26547444	     -0.27075061	      0.00000000
      0.54218948	      0.27209780	     -0.26170399	      0.00000000
      0.54343019	      0.27893055	     -0.25252720	      0.00000000
      0.54467089	      0.28597605	     -0.24322531	      0.00000000
      0.54591160	      0.29323829	     -0.23380424	      0.00000000
      0.54715231	      0.30072224	     -0.22427132	      0.00000000
      0.54839302	      0.30843250	     -0.21463387	      0.00000000
      0.54963373	      0.31637322	     -0.20489912	      0.00000000
      0.55087443	      0.32454854	     -0.19507470	      0.00000000
      0.55211514	      0.33296195	     -0.18516789	      0.00000000
      0.55335585	      0.34161708	     -0.17518653	      0.00000000
      0.55459656	      0.35051688	     -0.16513815	      0.00000000
      0.55583727	      0.35966439	     -0.15503079	      0.00000000
      0.55707798	      0.36906200	     -0.14487228	      0.00000000
      0.55831868	      0.37871207	     -0.13467092	      0.00000000
      0.55955939	      0.38861656	     -0.12443485	      0.00000000
      0.56080010	      0.39877746	     -0.11417271	      0.00000000
      0.56204081	      0.40919645	     -0.10389297	      0.00000000
      0.56328152	      0.41987525	     -0.09360453	      0.00000000
      0.56452222	      0.43081498	     -0.08331608	      0.00000000
      0.56576293	      0.44201684	     -0.07303668	      0.00000000
      0.56700364	      0.45348119	     -0.06277522	      0.00000000
      0.56824435	      0.46520849	     -0.05254076	      0.00000000
      0.56948506	      0.47719829	     -0.04234229	      0.00000000
      0.57072577	      0.48945019	     -0.03218874	      0.00000000
      0.57196647	      0.50196315	     -0.02208923	      0.00000000
      0.57320718	      0.51473602	     -0.01205241	      0.00000000
      0.57444789	      0.52776783	     -0.00208819	      0.00000000
      0.57568860	      0.54105794	      0.00779355	      0.00000000
      0.57692931	      0.55460549	      0.01758203	      0.00000000
      0.57817001	      0.56840965	      0.02726708	      0.00000000
      0.57941072	      0.58246894	      0.03683801	      0.00000000
      0.58065143	      0.59678209	      0.04628459	      0.00000000
      0.58189214	      0.61134707	      0.05559609	      0.00000000
      0.58313285	      0.62616209	      0.06476221	      0.00000000
      0.58437356	      0.64122448	      0.07377214	      0.00000000
      0.58561426	      0.65653192	      0.08261553	      0.00000000
      0.58685497	      0.67208103	      0.09128156	      0.00000000
      0.58809568	      0.68786881	      0.09975988	      0.00000000
      0.58933639	      0.70389107	      0.10803986	      0.00000000
      0.59057710	      0.72014398	      0.11611133	      0.00000000
      0.59181780	      0.73662244	      0.12396404	      0.00000000
      0.59305851	      0.75332164	      0.13158831	      0.00000000
      0.59429922	      0.77023561	      0.13897423	      0.00000000
      0.59553993	      0.78735874	      0.14611238	      0.00000000
      0.59678064	      0.80468446	      0.15299289	      0.00000000
      0.59802135	      0.82220652	      0.15960646	      0.00000000
      0.59926205	      0.83991770	      0.16594346	      0.00000000
      0.60050276	      0.85781111	      0.17199484	      0.00000000
      0.60174347	      0.87587878	      0.17775143	      0.00000000
      0.60298418	      0.89411306	      0.18320468	      0.00000000
      0.60422489	      0.91250521	      0.18834602	      0.00000000
      0.60546559	      0.93104675	      0.19316760	      0.00000000
      0.60670630	      0.94972836	      0.19766131	      0.00000000
      0.60794701	      0.96854096	      0.20181975	      0.00000000
      0.60918772	      0.98747494	      0.20563535	      0.00000000
      0.61042843	      1.00652086	      0.20910126	      0.00000000
      0.61166914	      1.02566896	      0.21221068	      0.00000000
      0.61290984	      1.04490957	      0.21495756	      0.00000000
      0.61415055	      1.06423297	      0.21733582	      0.00000000
      0.61539126	      1.08362970	      0.21934016	      0.00000000
      0.61663197	      1.10309022	      0.22096494	      0.00000000
      0.61787268	      1.12260622	      0.22220530	      0.00000000
      0.61911338	      1.14217588	      0.22305794	      0.00000000
      0.62035409	      1.16179197	      0.22351895	      0.00000000
      0.62159480	      1.18143870	      0.22358253	      0.00000000
      0.62283551	      1.20110661	      0.22324468	      0.00000000
      0.62407622	      1.22078860	      0.22250236	      0.00000000
      0.62531693	      1.24047592	      0.22135258	      0.00000000
      0.62655763	      1.26016107	      0.21979322	      0.00000000
      0.62779834	      1.27983674	      0.21782134	      0.00000000
      0.62903905	      1.29949573	      0.21543701	      0.00000000
      0.63027976	      1.31913096	      0.21264023	      0.00000000
      0.63152047	      1.33873418	      0.20943696	      0.00000000
      0.63276117	      1.35829724	      0.20583305	      0.00000000
      0.63400188	      1.37781107	      0.20183932	      0.00000000
      0.63524259	      1.39726694	      0.19746586	      0.00000000
      0.63648330	      1.41665629	      0.19272464	      0.00000000
      0.63772401	      1.43597082	      0.18762718	      0.00000000
      0.63896472	      1.45520312	      0.18218507	      0.00000000
      0.64020542	      1.47434581	      0.17640985	      0.00000000
      0.64144613	      1.49339259	      0.17031261	      0.00000000
      0.64268684	      1.51233715	      0.16390453	      0.00000000
      0.64392755	      1.53117419	      0.15719616	      0.00000000
      0.64516826	      1.54989839	      0.15019820	      0.00000000
      0.64640896	      1.56850538	      0.14292067	      0.00000000
      0.64764967	      1.58699075	      0.13537378	      0.00000000
      0.64889038	      1.60535104	      0.12756707	      0.00000000
      0.65013109	      1.62358269	      0.11951025	      0.00000000
      0.65137180	      1.64168313	      0.11121242	      0.00000000
      0.65261251	      1.65964969	      0.10268290	      0.00000000
      0.65385321	      1.67748070	      0.09393038	      0.00000000
      0.65509392	      1.69517437	      0.08496384	      0.00000000
      0.65633463	      1.71272995	      0.07579165	      0.00000000
      0.65757534	      1.73014653	      0.06642249	      0.00000000
      0.65881605	      1.74742427	      0.05686445	      0.00000000
      0.66005675	      1.76456312	      0.04712598	      0.00000000
      0.66129746	      1.78156408	      0.03721493	      0.00000000
      0.66253817	      1.79842794	      0.02713950	      0.00000000
      0.66377888	      1.81515658	      0.01690730	      0.00000000
      0.66501959	      1.83175166	      0.00652622	      0.00000000
      0.66626030	      1.84821595	     -0.00399633	      0.00000000
      0.66750100	      1.86455203	     -0.01465268	      0.00000000
      0.66874171	      1.88076350	     -0.02543556	      0.00000000
      0.66998242	      1.89685382	     -0.03633763	      0.00000000
      0.67122313	      1.91282723	     -0.04735159	      0.00000000
      0.67246384	      1.92868771	     -0.05846982	      0.00000000
      0.67370454	      1.94443982	     -0.06968494	      0.00000000
      0.67494525	      1.96008802	     -0.08098966	      0.00000000
      0.67618596	      1.97563726	     -0.09237741	      0.00000000
      0.67742667	      1.99109224	     -0.10384107	      0.00000000
      0.67866738	      2.00645828	     -0.11537537	      0.00000000
      0.67990809	      2.02173991	     -0.12697275	      0.00000000
      0.68114879	      2.03694388	     -0.13863290	      0.00000000
      0.68238950	      2.05207434	     -0.15034782	      0.00000000
      0.68363021	      2.06714408	     -0.16213646	      0.00000000
      0.68487092	      2.08216621	     -0.17401837	      0.00000000
      0.68611163	      2.09716591	     -0.18604921	      0.00000000
      0.68735233	      2.11216976	     -0.19828722	      0.00000000
      0.68859304	      2.12720703	     -0.21079704	      0.00000000
      0.68983375	      2.14230538	     -0.22363607	      0.00000000
      0.69107446	      2.15748723	     -0.23684527	      0.00000000
      0.69231517	      2.17277714	     -0.25046962	      0.00000000
      0.69355588	      2.18819373	     -0.26453699	      0.00000000
      0.69479658	      2.20375749	     -0.27907812	      0.00000000
      0.69603729	      2.21948337	     -0.29410853	      0.00000000
      0.69727800	      2.23538824	     -0.30964668	      0.00000000
      0.69851871	      2.25148484	     -0.32569960	      0.00000000
      0.69975942	      2.26778749	     -0.34227619	      0.00000000
      0.70100012	      2.28430767	     -0.35937694	      0.00000000
      0.70224083	      2.30105811	     -0.37700338	      0.00000000
      0.70348154	      2.31804970	     -0.39515083	      0.00000000
      0.70472225	      2.33529429	     -0.41381497	      0.00000000
      0.70596296	      2.35280255	     -0.43298695	      0.00000000
      0.70720367	      2.37058590	     -0.45265775	      0.00000000
      0.70844437	      2.38865495	     -0.47281514	      0.00000000
      0.70968508	      2.40702088	     -0.49344637	      0.00000000
      0.71092579	      2.42569420	     -0.51453644	      0.00000000
      0.71216650	      2.44468592	     -0.53606968	      0.00000000
      0.71340721	      2.46400632	     -0.55802857	      0.00000000
      0.71464791	      2.48366599	     -0.58039460	      0.00000000
      0.71588862	      2.50367493	     -0.60314763	      0.00000000
      0.71712933	      2.52404341	     -0.62626639	      0.00000000
      0.71837004	      2.54478154	     -0.64972855	      0.00000000
      0.71961075	      2.56589944	     -0.67351032	      0.00000000
      0.72085146	      2.58740769	     -0.69758775	      0.00000000
      0.72209216	      2.60931671	     -0.72193522	      0.00000000
      0.72333287	      2.63163791	     -0.74652824	      0.00000000
      0.72457358	      2.65438245	     -0.77134027	      0.00000000
      0.72581429	      2.67756286	     -0.79634736	      0.00000000
      0.72705500	      2.70119169	     -0.82152380	      0.00000000
      0.72829570	      2.72528233	     -0.84684673	      0.00000000
      0.72953641	      2.74984823	     -0.87229127	      0.00000000
      0.73077712	      2.77490234	     -0.89783381	      0.00000000
      0.73201783	      2.80045763	     -0.92344828	      0.00000000
      0.73325854	      2.82652587	     -0.94910891	      0.00000000
      0.73449925	      2.85311909	     -0.97478744	      0.00000000
      0.73573995	      2.88024807	     -1.00045639	      0.00000000
      0.73698066	      2.90792395	     -1.02608426	      0.00000000
      0.73822137	      2.93615638	     -1.05164359	      0.00000000
      0.73946208	      2.96495529	     -1.07709527	      0.00000000
      0.74070279	      2.99432898	     -1.10242176	      0.00000000
      0.74194349	      3.02428739	     -1.12755392	      0.00000000
      0.74318420	      3.05483695	     -1.15253904	      0.00000000
      0.74442491	      3.08599039	     -1.17710101	      0.00000000
