PointVelocity
version=1
nRows=601
nColumns=4
inDegrees=no
No description.
endheader
time	state_0	state_1	state_2
      0.00000000	      0.52358993	      0.29856285	      0.00000000
      0.00124071	      0.52573757	      0.30235446	      0.00000000
      0.00248142	      0.52788591	      0.30608564	      0.00000000
      0.00372212	      0.53001628	      0.30971813	      0.00000000
      0.00496283	      0.53213164	      0.31325328	      0.00000000
      0.00620354	      0.53422704	      0.31667713	      0.00000000
      0.00744425	      0.53630145	      0.31998204	      0.00000000
      0.00868496	      0.53835073	      0.32315681	      0.00000000
      0.00992567	      0.54037405	      0.32619147	      0.00000000
      0.01116637	      0.54236226	      0.32907501	      0.00000000
      0.01240708	      0.54431470	      0.33179618	      0.00000000
      0.01364779	      0.54620267	      0.33434481	      0.00000000
      0.01488850	      0.54801083	      0.33670901	      0.00000000
      0.01612921	      0.54965374	      0.33888341	      0.00000000
      0.01736991	      0.55107358	      0.34085846	      0.00000000
      0.01861062	      0.55213089	      0.34263985	      0.00000000
      0.01985133	      0.55263519	      0.34423733	      0.00000000
      0.02109204	      0.55205016	      0.34570212	      0.00000000
      0.02233275	      0.54920534	      0.34716500	      0.00000000
      0.02357346	      0.54475044	      0.34857701	      0.00000000
      0.02481416	      0.54030207	      0.34976997	      0.00000000
      0.02605487	      0.53571714	      0.35107907	      0.00000000
      0.02729558	      0.53099269	      0.35275431	      0.00000000
      0.02853629	      0.52708110	      0.35461478	      0.00000000
      0.02977700	      0.52429249	      0.35660670	      0.00000000
      0.03101770	      0.52254446	      0.35860109	      0.00000000
      0.03225841	      0.52178463	      0.36050522	      0.00000000
      0.03349912	      0.52175616	      0.36225424	      0.00000000
      0.03473983	      0.52229641	      0.36378039	      0.00000000
      0.03598054	      0.52322582	      0.36505475	      0.00000000
      0.03722125	      0.52441129	      0.36603419	      0.00000000
      0.03846195	      0.52575854	      0.36670259	      0.00000000
      0.03970266	      0.52718131	      0.36703174	      0.00000000
      0.04094337	      0.52863831	      0.36701132	      0.00000000
      0.04218408	      0.53008421	      0.36662644	      0.00000000
      0.04342479	      0.53150824	      0.36587476	      0.00000000
      0.04466549	      0.53289287	      0.36475081	      0.00000000
      0.04590620	      0.53424005	      0.36325592	      0.00000000
      0.04714691	      0.53554732	      0.36138944	      0.00000000
      0.04838762	      0.53682150	      0.35915431	      0.00000000
      0.04962833	      0.53806780	      0.35655272	      0.00000000
      0.05086904	      0.53929480	      0.35358852	      0.00000000
      0.05210974	      0.54051164	      0.35026648	      0.00000000
      0.05335045	      0.54172501	      0.34658833	      0.00000000
      0.05459116	      0.54293969	      0.34255343	      0.00000000
      0.05583187	      0.54415796	      0.33815929	      0.00000000
      0.05707258	      0.54538272	      0.33340386	      0.00000000
      0.05831328	      0.54661871	      0.32828921	      0.00000000
      0.05955399	      0.54787039	      0.32281419	      0.00000000
      0.06079470	      0.54914499	      0.31698911	      0.00000000
      0.06203541	      0.55044316	      0.31082025	      0.00000000
      0.06327612	      0.55177813	      0.30433345	      0.00000000
      0.06451683	      0.55312896	      0.29752933	      0.00000000
      0.06575753	      0.55457705	      0.29047998	      0.00000000
      0.06699824	      0.55626961	      0.28330480	      0.00000000
      0.06823895	      0.55836632	      0.27612986	      0.00000000
      0.06947966	      0.56095930	      0.26909293	      0.00000000
      0.07072037	      0.56408551	      0.26214041	      0.00000000
      0.07196107	      0.56784032	      0.25509109	      0.00000000
      0.07320178	      0.57228183	      0.24783023	      0.00000000
      0.07444249	      0.57750724	      0.24037447	      0.00000000
      0.07568320	      0.58340541	      0.23292853	      0.00000000
      0.07692391	      0.58976488	      0.22573682	      0.00000000
      0.07816462	      0.59635034	      0.21885080	      0.00000000
      0.07940532	      0.60304332	      0.21216436	      0.00000000
      0.08064603	      0.60980925	      0.20549662	      0.00000000
      0.08188674	      0.61656789	      0.19879620	      0.00000000
      0.08312745	      0.62328016	      0.19207404	      0.00000000
      0.08436816	      0.62990430	      0.18530410	      0.00000000
      0.08560886	      0.63642420	      0.17847277	      0.00000000
      0.08684957	      0.64281438	      0.17156689	      0.00000000
      0.08809028	      0.64906190	      0.16458824	      0.00000000
      0.08933099	      0.65514839	      0.15753496	      0.00000000
      0.09057170	      0.66107543	      0.15040776	      0.00000000
      0.09181241	      0.66684421	      0.14320503	      0.00000000
      0.09305311	      0.67247166	      0.13593221	      0.00000000
      0.09429382	      0.67797089	      0.12859506	      0.00000000
      0.09553453	      0.68336200	      0.12120384	      0.00000000
      0.09677524	      0.68866381	      0.11376773	      0.00000000
      0.09801595	      0.69389667	      0.10629600	      0.00000000
      0.09925665	      0.69908077	      0.09879871	      0.00000000
      0.10049736	      0.70423265	      0.09128205	      0.00000000
      0.10173807	      0.70936891	      0.08375229	      0.00000000
      0.10297878	      0.71449987	      0.07621006	      0.00000000
      0.10421949	      0.71963633	      0.06865686	      0.00000000
      0.10546020	      0.72478383	      0.06109021	      0.00000000
      0.10670090	      0.72994895	      0.05350886	      0.00000000
      0.10794161	      0.73513458	      0.04590894	      0.00000000
      0.10918232	      0.74034452	      0.03828740	      0.00000000
      0.11042303	      0.74557888	      0.03063855	      0.00000000
      0.11166374	      0.75083825	      0.02295720	      0.00000000
      0.11290444	      0.75611911	      0.01523557	      0.00000000
      0.11414515	      0.76141822	      0.00746619	      0.00000000
      0.11538586	      0.76672915	     -0.00036000	      0.00000000
      0.11662657	      0.77204576	     -0.00825189	      0.00000000
      0.11786728	      0.77736071	     -0.01621820	      0.00000000
      0.11910799	      0.78266680	     -0.02426763	      0.00000000
      0.12034869	      0.78795726	     -0.03240747	      0.00000000
      0.12158940	      0.79322526	     -0.04064515	      0.00000000
      0.12283011	      0.79846494	     -0.04898642	      0.00000000
      0.12407082	      0.80367012	     -0.05743739	      0.00000000
      0.12531153	      0.80883535	     -0.06600274	      0.00000000
      0.12655223	      0.81395463	     -0.07468767	      0.00000000
      0.12779294	      0.81902294	     -0.08349575	      0.00000000
      0.12903365	      0.82403492	     -0.09243078	      0.00000000
      0.13027436	      0.82898661	     -0.10149469	      0.00000000
      0.13151507	      0.83387359	     -0.11068971	      0.00000000
      0.13275578	      0.83869276	     -0.12001649	      0.00000000
      0.13399648	      0.84344051	     -0.12947598	      0.00000000
      0.13523719	      0.84811434	     -0.13906801	      0.00000000
      0.13647790	      0.85271125	     -0.14879264	      0.00000000
      0.13771861	      0.85722920	     -0.15864920	      0.00000000
      0.13895932	      0.86166568	     -0.16863716	      0.00000000
      0.14020002	      0.86601914	     -0.17875547	      0.00000000
      0.14144073	      0.87028758	     -0.18900312	      0.00000000
      0.14268144	      0.87447010	     -0.19937869	      0.00000000
      0.14392215	      0.87856522	     -0.20988079	      0.00000000
      0.14516286	      0.88257270	     -0.22050770	      0.00000000
      0.14640357	      0.88649173	     -0.23125771	      0.00000000
      0.14764427	      0.89032291	     -0.24212892	      0.00000000
      0.14888498	      0.89406592	     -0.25311952	      0.00000000
      0.15012569	      0.89772292	     -0.26422724	      0.00000000
      0.15136640	      0.90129507	     -0.27544982	      0.00000000
      0.15260711	      0.90478730	     -0.28678415	      0.00000000
      0.15384781	      0.90820409	     -0.29822679	      0.00000000
      0.15508852	      0.91155303	     -0.30977404	      0.00000000
      0.15632923	      0.91484074	     -0.32142203	      0.00000000
      0.15756994	      0.91807503	     -0.33316776	      0.00000000
      0.15881065	      0.92126367	     -0.34500761	      0.00000000
      0.16005136	      0.92441337	     -0.35694000	      0.00000000
      0.16129206	      0.92753046	     -0.36896319	      0.00000000
      0.16253277	      0.93061919	     -0.38107755	      0.00000000
      0.16377348	      0.93368452	     -0.39328291	      0.00000000
      0.16501419	      0.93672933	     -0.40558031	      0.00000000
      0.16625490	      0.93975484	     -0.41797174	      0.00000000
      0.16749560	      0.94276450	     -0.43045717	      0.00000000
      0.16873631	      0.94576276	     -0.44303591	      0.00000000
      0.16997702	      0.94875964	     -0.45570354	      0.00000000
      0.17121773	      0.95176586	     -0.46845522	      0.00000000
      0.17245844	      0.95479185	     -0.48128593	      0.00000000
      0.17369915	      0.95784678	     -0.49419188	      0.00000000
      0.17493985	      0.96093418	     -0.50717050	      0.00000000
      0.17618056	      0.96405819	     -0.52022043	      0.00000000
      0.17742127	      0.96721815	     -0.53333740	      0.00000000
      0.17866198	      0.97040754	     -0.54652316	      0.00000000
      0.17990269	      0.97363385	     -0.55976047	      0.00000000
      0.18114340	      0.97692170	     -0.57302691	      0.00000000
      0.18238410	      0.98029036	     -0.58628356	      0.00000000
      0.18362481	      0.98375401	     -0.59949927	      0.00000000
      0.18486552	      0.98728545	     -0.61263676	      0.00000000
      0.18610623	      0.99086210	     -0.62565906	      0.00000000
      0.18734694	      0.99442847	     -0.63852512	      0.00000000
      0.18858764	      0.99794140	     -0.65119841	      0.00000000
      0.18982835	      1.00134865	     -0.66364613	      0.00000000
      0.19106906	      1.00463300	     -0.67586669	      0.00000000
      0.19230977	      1.00772100	     -0.68780474	      0.00000000
      0.19355048	      1.01053787	     -0.69941120	      0.00000000
      0.19479119	      1.01286491	     -0.71046934	      0.00000000
      0.19603189	      1.01444732	     -0.72073507	      0.00000000
      0.19727260	      1.01507282	     -0.72994063	      0.00000000
      0.19851331	      1.01452826	     -0.73782785	      0.00000000
      0.19975402	      1.01282688	     -0.74429060	      0.00000000
      0.20099473	      1.00990054	     -0.74916035	      0.00000000
      0.20223543	      1.00598439	     -0.75251648	      0.00000000
      0.20347614	      1.00093520	     -0.75408806	      0.00000000
      0.20471685	      0.99513009	     -0.75408102	      0.00000000
      0.20595756	      0.99037548	     -0.75407125	      0.00000000
      0.20719827	      0.98665599	     -0.75379461	      0.00000000
      0.20843898	      0.98246014	     -0.75154202	      0.00000000
      0.20967968	      0.97732264	     -0.74678006	      0.00000000
      0.21092039	      0.97130330	     -0.73947094	      0.00000000
      0.21216110	      0.96442969	     -0.72964379	      0.00000000
      0.21340181	      0.95672052	     -0.71730343	      0.00000000
      0.21464252	      0.94822498	     -0.70254344	      0.00000000
      0.21588322	      0.93900548	     -0.68547187	      0.00000000
      0.21712393	      0.92907563	     -0.66615059	      0.00000000
      0.21836464	      0.91834897	     -0.64452031	      0.00000000
      0.21960535	      0.90678971	     -0.62047785	      0.00000000
      0.22084606	      0.89444761	     -0.59393404	      0.00000000
      0.22208677	      0.88159490	     -0.56521666	      0.00000000
      0.22332747	      0.86847491	     -0.53468052	      0.00000000
      0.22456818	      0.85527762	     -0.50288064	      0.00000000
      0.22580889	      0.84217579	     -0.47031351	      0.00000000
      0.22704960	      0.82926159	     -0.43738772	      0.00000000
      0.22829031	      0.81664183	     -0.40450854	      0.00000000
      0.22953101	      0.80437530	     -0.37194338	      0.00000000
      0.23077172	      0.79253322	     -0.33998650	      0.00000000
      0.23201243	      0.78115079	     -0.30881065	      0.00000000
      0.23325314	      0.77027045	     -0.27861568	      0.00000000
      0.23449385	      0.75990624	     -0.24950265	      0.00000000
      0.23573456	      0.75007732	     -0.22159473	      0.00000000
      0.23697526	      0.74078064	     -0.19493717	      0.00000000
      0.23821597	      0.73201733	     -0.16959237	      0.00000000
      0.23945668	      0.72377206	     -0.14556395	      0.00000000
      0.24069739	      0.71603271	     -0.12286841	      0.00000000
      0.24193810	      0.70877591	     -0.10148065	      0.00000000
      0.24317880	      0.70198071	     -0.08138475	      0.00000000
      0.24441951	      0.69561954	     -0.06253768	      0.00000000
      0.24566022	      0.68966654	     -0.04490251	      0.00000000
      0.24690093	      0.68409311	     -0.02842668	      0.00000000
      0.24814164	      0.67887167	     -0.01306125	      0.00000000
      0.24938235	      0.67397480	      0.00124972	      0.00000000
      0.25062305	      0.66937552	      0.01456048	      0.00000000
      0.25186376	      0.66504894	      0.02692627	      0.00000000
      0.25310447	      0.66097013	      0.03840197	      0.00000000
      0.25434518	      0.65711737	      0.04903956	      0.00000000
      0.25558589	      0.65346855	      0.05889162	      0.00000000
      0.25682659	      0.65000529	      0.06800557	      0.00000000
      0.25806730	      0.64670861	      0.07642996	      0.00000000
      0.25930801	      0.64356328	      0.08420716	      0.00000000
      0.26054872	      0.64055341	      0.09138093	      0.00000000
      0.26178943	      0.63766653	      0.09798855	      0.00000000
      0.26303014	      0.63488950	      0.10406878	      0.00000000
      0.26427084	      0.63221220	      0.10965408	      0.00000000
      0.26551155	      0.62962384	      0.11477833	      0.00000000
      0.26675226	      0.62711618	      0.11946956	      0.00000000
      0.26799297	      0.62468038	      0.12375715	      0.00000000
      0.26923368	      0.62230971	      0.12766516	      0.00000000
      0.27047438	      0.61999682	      0.13121890	      0.00000000
      0.27171509	      0.61773461	      0.13443927	      0.00000000
      0.27295580	      0.61551633	      0.13734811	      0.00000000
      0.27419651	      0.61333870	      0.13996291	      0.00000000
      0.27543722	      0.61119711	      0.14230234	      0.00000000
      0.27667793	      0.60908789	      0.14438169	      0.00000000
      0.27791863	      0.60700725	      0.14621707	      0.00000000
      0.27915934	      0.60495227	      0.14782172	      0.00000000
      0.28040005	      0.60291978	      0.14920958	      0.00000000
      0.28164076	      0.60090742	      0.15039223	      0.00000000
      0.28288147	      0.59891262	      0.15138184	      0.00000000
      0.28412217	      0.59693335	      0.15218853	      0.00000000
      0.28536288	      0.59496733	      0.15282294	      0.00000000
      0.28660359	      0.59301275	      0.15329386	      0.00000000
      0.28784430	      0.59106744	      0.15361051	      0.00000000
      0.28908501	      0.58913018	      0.15378057	      0.00000000
      0.29032572	      0.58719967	      0.15381209	      0.00000000
      0.29156642	      0.58527583	      0.15371192	      0.00000000
      0.29280713	      0.58335835	      0.15348719	      0.00000000
      0.29404784	      0.58144782	      0.15314402	      0.00000000
      0.29528855	      0.57954461	      0.15268877	      0.00000000
      0.29652926	      0.57764971	      0.15212700	      0.00000000
      0.29776996	      0.57576400	      0.15146444	      0.00000000
      0.29901067	      0.57388889	      0.15070632	      0.00000000
      0.30025138	      0.57202575	      0.14985801	      0.00000000
      0.30149209	      0.57017617	      0.14892453	      0.00000000
      0.30273280	      0.56834172	      0.14791103	      0.00000000
      0.30397351	      0.56652391	      0.14682236	      0.00000000
      0.30521421	      0.56472427	      0.14566346	      0.00000000
      0.30645492	      0.56294413	      0.14443891	      0.00000000
      0.30769563	      0.56118491	      0.14315338	      0.00000000
      0.30893634	      0.55944748	      0.14181102	      0.00000000
      0.31017705	      0.55773284	      0.14041616	      0.00000000
      0.31141775	      0.55604119	      0.13897246	      0.00000000
      0.31265846	      0.55437291	      0.13748375	      0.00000000
      0.31389917	      0.55272750	      0.13595313	      0.00000000
      0.31513988	      0.55110463	      0.13438384	      0.00000000
      0.31638059	      0.54950317	      0.13277842	      0.00000000
      0.31762130	      0.54792211	      0.13113954	      0.00000000
      0.31886200	      0.54635992	      0.12946922	      0.00000000
      0.32010271	      0.54481513	      0.12776961	      0.00000000
      0.32134342	      0.54328614	      0.12604232	      0.00000000
      0.32258413	      0.54177134	      0.12428908	      0.00000000
      0.32382484	      0.54026943	      0.12251124	      0.00000000
      0.32506554	      0.53877903	      0.12071024	      0.00000000
      0.32630625	      0.53729946	      0.11888729	      0.00000000
      0.32754696	      0.53582991	      0.11704365	      0.00000000
      0.32878767	      0.53437048	      0.11518049	      0.00000000
      0.33002838	      0.53292111	      0.11329903	      0.00000000
      0.33126909	      0.53148272	      0.11140047	      0.00000000
      0.33250979	      0.53005608	      0.10948605	      0.00000000
      0.33375050	      0.52864271	      0.10755703	      0.00000000
      0.33499121	      0.52724405	      0.10561470	      0.00000000
      0.33623192	      0.52586190	      0.10366036	      0.00000000
      0.33747263	      0.52449801	      0.10169535	      0.00000000
      0.33871333	      0.52315407	      0.09972098	      0.00000000
      0.33995404	      0.52183175	      0.09773859	      0.00000000
      0.34119475	      0.52053229	      0.09574946	      0.00000000
      0.34243546	      0.51925707	      0.09375491	      0.00000000
      0.34367617	      0.51800681	      0.09175616	      0.00000000
      0.34491688	      0.51678243	      0.08975449	      0.00000000
      0.34615758	      0.51558411	      0.08775104	      0.00000000
      0.34739829	      0.51441218	      0.08574702	      0.00000000
      0.34863900	      0.51326619	      0.08374350	      0.00000000
      0.34987971	      0.51214588	      0.08174158	      0.00000000
      0.35112042	      0.51105029	      0.07974224	      0.00000000
      0.35236112	      0.50997855	      0.07774649	      0.00000000
      0.35360183	      0.50892935	      0.07575518	      0.00000000
      0.35484254	      0.50790152	      0.07376918	      0.00000000
      0.35608325	      0.50689381	      0.07178924	      0.00000000
      0.35732396	      0.50590502	      0.06981612	      0.00000000
      0.35856467	      0.50493396	      0.06785046	      0.00000000
      0.35980537	      0.50397949	      0.06589296	      0.00000000
      0.36104608	      0.50304044	      0.06394423	      0.00000000
      0.36228679	      0.50211551	      0.06200492	      0.00000000
      0.36352750	      0.50120349	      0.06007556	      0.00000000
      0.36476821	      0.50030327	      0.05815663	      0.00000000
      0.36600891	      0.49941375	      0.05624862	      0.00000000
      0.36724962	      0.49853326	      0.05435205	      0.00000000
      0.36849033	      0.49766115	      0.05246755	      0.00000000
      0.36973104	      0.49679759	      0.05059578	      0.00000000
      0.37097175	      0.49594321	      0.04873752	      0.00000000
      0.37221246	      0.49509793	      0.04689359	      0.00000000
      0.37345316	      0.49426104	      0.04506470	      0.00000000
      0.37469387	      0.49343180	      0.04325150	      0.00000000
      0.37593458	      0.49260963	      0.04145449	      0.00000000
      0.37717529	      0.49179447	      0.03967423	      0.00000000
      0.37841600	      0.49098591	      0.03791126	      0.00000000
      0.37965670	      0.49018350	      0.03616612	      0.00000000
      0.38089741	      0.48938538	      0.03443927	      0.00000000
      0.38213812	      0.48858929	      0.03273115	      0.00000000
      0.38337883	      0.48779270	      0.03104201	      0.00000000
      0.38461954	      0.48699328	      0.02937208	      0.00000000
      0.38586025	      0.48619006	      0.02772152	      0.00000000
      0.38710095	      0.48538205	      0.02609055	      0.00000000
      0.38834166	      0.48456954	      0.02447945	      0.00000000
      0.38958237	      0.48375239	      0.02288850	      0.00000000
      0.39082308	      0.48293131	      0.02131811	      0.00000000
      0.39206379	      0.48210686	      0.01976865	      0.00000000
      0.39330449	      0.48128024	      0.01824057	      0.00000000
      0.39454520	      0.48045270	      0.01673438	      0.00000000
      0.39578591	      0.47962550	      0.01525042	      0.00000000
      0.39702662	      0.47879983	      0.01378907	      0.00000000
      0.39826733	      0.47797623	      0.01235041	      0.00000000
      0.39950804	      0.47715529	      0.01093457	      0.00000000
      0.40074874	      0.47633677	      0.00954144	      0.00000000
      0.40198945	      0.47552059	      0.00817094	      0.00000000
      0.40323016	      0.47470597	      0.00682287	      0.00000000
      0.40447087	      0.47389227	      0.00549703	      0.00000000
      0.40571158	      0.47307839	      0.00419307	      0.00000000
      0.40695228	      0.47226327	      0.00291067	      0.00000000
      0.40819299	      0.47144575	      0.00164937	      0.00000000
      0.40943370	      0.47062471	      0.00040875	      0.00000000
      0.41067441	      0.46979928	     -0.00081165	      0.00000000
      0.41191512	      0.46896853	     -0.00201228	      0.00000000
      0.41315583	      0.46813205	     -0.00319359	      0.00000000
      0.41439653	      0.46728929	     -0.00435602	      0.00000000
      0.41563724	      0.46644041	     -0.00549998	      0.00000000
      0.41687795	      0.46558539	     -0.00662588	      0.00000000
      0.41811866	      0.46472493	     -0.00773403	      0.00000000
      0.41935937	      0.46385959	     -0.00882474	      0.00000000
      0.42060007	      0.46299053	     -0.00989821	      0.00000000
      0.42184078	      0.46211882	     -0.01095466	      0.00000000
      0.42308149	      0.46124591	     -0.01199415	      0.00000000
      0.42432220	      0.46037319	     -0.01301679	      0.00000000
      0.42556291	      0.45950215	     -0.01402259	      0.00000000
      0.42680362	      0.45863426	     -0.01501156	      0.00000000
      0.42804432	      0.45777073	     -0.01598371	      0.00000000
      0.42928503	      0.45691285	     -0.01693904	      0.00000000
      0.43052574	      0.45606131	     -0.01787763	      0.00000000
      0.43176645	      0.45521693	     -0.01879954	      0.00000000
      0.43300716	      0.45437982	     -0.01970496	      0.00000000
      0.43424786	      0.45355022	     -0.02059408	      0.00000000
      0.43548857	      0.45272769	     -0.02146721	      0.00000000
      0.43672928	      0.45191191	     -0.02232466	      0.00000000
      0.43796999	      0.45110210	     -0.02316682	      0.00000000
      0.43921070	      0.45029753	     -0.02399411	      0.00000000
      0.44045141	      0.44949732	     -0.02480693	      0.00000000
      0.44169211	      0.44870057	     -0.02560571	      0.00000000
      0.44293282	      0.44790650	     -0.02639080	      0.00000000
      0.44417353	      0.44711431	     -0.02716256	      0.00000000
      0.44541424	      0.44632348	     -0.02792122	      0.00000000
      0.44665495	      0.44553345	     -0.02866704	      0.00000000
      0.44789565	      0.44474399	     -0.02940010	      0.00000000
      0.44913636	      0.44395481	     -0.03012052	      0.00000000
      0.45037707	      0.44316579	     -0.03082821	      0.00000000
      0.45161778	      0.44237673	     -0.03152312	      0.00000000
      0.45285849	      0.44158771	     -0.03220509	      0.00000000
      0.45409920	      0.44079874	     -0.03287400	      0.00000000
      0.45533990	      0.44001012	     -0.03352971	      0.00000000
      0.45658061	      0.43922213	     -0.03417206	      0.00000000
      0.45782132	      0.43843526	     -0.03480097	      0.00000000
      0.45906203	      0.43764998	     -0.03541631	      0.00000000
      0.46030274	      0.43686681	     -0.03601809	      0.00000000
      0.46154344	      0.43608630	     -0.03660626	      0.00000000
      0.46278415	      0.43530878	     -0.03718092	      0.00000000
      0.46402486	      0.43453453	     -0.03774216	      0.00000000
      0.46526557	      0.43376357	     -0.03829020	      0.00000000
      0.46650628	      0.43299585	     -0.03882526	      0.00000000
      0.46774699	      0.43223137	     -0.03934764	      0.00000000
      0.46898769	      0.43147035	     -0.03985761	      0.00000000
      0.47022840	      0.43071298	     -0.04035543	      0.00000000
      0.47146911	      0.42995945	     -0.04084139	      0.00000000
      0.47270982	      0.42920945	     -0.04131565	      0.00000000
      0.47395053	      0.42846340	     -0.04177857	      0.00000000
      0.47519123	      0.42772261	     -0.04223057	      0.00000000
      0.47643194	      0.42698575	     -0.04267139	      0.00000000
      0.47767265	      0.42624930	     -0.04310026	      0.00000000
      0.47891336	      0.42551266	     -0.04351719	      0.00000000
      0.48015407	      0.42477615	     -0.04392253	      0.00000000
      0.48139478	      0.42403926	     -0.04431639	      0.00000000
      0.48263548	      0.42330148	     -0.04469914	      0.00000000
      0.48387619	      0.42256218	     -0.04507109	      0.00000000
      0.48511690	      0.42182051	     -0.04543281	      0.00000000
      0.48635761	      0.42107560	     -0.04578484	      0.00000000
      0.48759832	      0.42032653	     -0.04612790	      0.00000000
      0.48883902	      0.41957241	     -0.04646269	      0.00000000
      0.49007973	      0.41881250	     -0.04678989	      0.00000000
      0.49132044	      0.41804599	     -0.04711024	      0.00000000
      0.49256115	      0.41727238	     -0.04742422	      0.00000000
      0.49380186	      0.41649105	     -0.04773237	      0.00000000
      0.49504257	      0.41570180	     -0.04803489	      0.00000000
      0.49628327	      0.41490433	     -0.04833203	      0.00000000
      0.49752398	      0.41409878	     -0.04862367	      0.00000000
      0.49876469	      0.41328519	     -0.04890975	      0.00000000
      0.50000540	      0.41246400	     -0.04918995	      0.00000000
      0.50124611	      0.41163555	     -0.04946401	      0.00000000
      0.50248681	      0.41080052	     -0.04973153	      0.00000000
      0.50372752	      0.40995948	     -0.04999217	      0.00000000
      0.50496823	      0.40911326	     -0.05024562	      0.00000000
      0.50620894	      0.40826259	     -0.05049157	      0.00000000
      0.50744965	      0.40740838	     -0.05072991	      0.00000000
      0.50869036	      0.40655148	     -0.05096044	      0.00000000
      0.50993106	      0.40569284	     -0.05118331	      0.00000000
      0.51117177	      0.40483341	     -0.05139854	      0.00000000
      0.51241248	      0.40397413	     -0.05160661	      0.00000000
      0.51365319	      0.40311596	     -0.05180794	      0.00000000
      0.51489390	      0.40225966	     -0.05200325	      0.00000000
      0.51613461	      0.40140592	     -0.05219321	      0.00000000
      0.51737531	      0.40055548	     -0.05237865	      0.00000000
      0.51861602	      0.39970904	     -0.05256044	      0.00000000
      0.51985673	      0.39886746	     -0.05273941	      0.00000000
      0.52109744	      0.39803157	     -0.05291643	      0.00000000
      0.52233815	      0.39720238	     -0.05309202	      0.00000000
      0.52357885	      0.39638093	     -0.05326677	      0.00000000
      0.52481956	      0.39556839	     -0.05344082	      0.00000000
      0.52606027	      0.39476596	     -0.05361436	      0.00000000
      0.52730098	      0.39397484	     -0.05378713	      0.00000000
      0.52854169	      0.39319627	     -0.05395893	      0.00000000
      0.52978240	      0.39243127	     -0.05412920	      0.00000000
      0.53102310	      0.39168092	     -0.05429745	      0.00000000
      0.53226381	      0.39094587	     -0.05446299	      0.00000000
      0.53350452	      0.39022685	     -0.05462517	      0.00000000
      0.53474523	      0.38952410	     -0.05478332	      0.00000000
      0.53598594	      0.38883796	     -0.05493675	      0.00000000
      0.53722664	      0.38816830	     -0.05508492	      0.00000000
      0.53846735	      0.38751506	     -0.05522728	      0.00000000
      0.53970806	      0.38687788	     -0.05536351	      0.00000000
      0.54094877	      0.38625643	     -0.05549320	      0.00000000
      0.54218948	      0.38565030	     -0.05561621	      0.00000000
      0.54343019	      0.38505900	     -0.05573236	      0.00000000
      0.54467089	      0.38448238	     -0.05584164	      0.00000000
      0.54591160	      0.38392033	     -0.05594402	      0.00000000
      0.54715231	      0.38337334	     -0.05603938	      0.00000000
      0.54839302	      0.38284183	     -0.05612758	      0.00000000
      0.54963373	      0.38232651	     -0.05620819	      0.00000000
      0.55087443	      0.38182802	     -0.05628078	      0.00000000
      0.55211514	      0.38134696	     -0.05634474	      0.00000000
      0.55335585	      0.38088376	     -0.05639978	      0.00000000
      0.55459656	      0.38043885	     -0.05644502	      0.00000000
      0.55583727	      0.38001228	     -0.05648004	      0.00000000
      0.55707798	      0.37960518	     -0.05650259	      0.00000000
      0.55831868	      0.37921891	     -0.05650997	      0.00000000
      0.55955939	      0.37885616	     -0.05649843	      0.00000000
      0.56080010	      0.37851959	     -0.05646448	      0.00000000
      0.56204081	      0.37821156	     -0.05640535	      0.00000000
      0.56328152	      0.37793407	     -0.05631870	      0.00000000
      0.56452222	      0.37768840	     -0.05620261	      0.00000000
      0.56576293	      0.37747605	     -0.05605515	      0.00000000
      0.56700364	      0.37729838	     -0.05587352	      0.00000000
      0.56824435	      0.37715683	     -0.05565512	      0.00000000
      0.56948506	      0.37705285	     -0.05539567	      0.00000000
      0.57072577	      0.37698812	     -0.05509068	      0.00000000
      0.57196647	      0.37696376	     -0.05473481	      0.00000000
      0.57320718	      0.37698093	     -0.05432281	      0.00000000
      0.57444789	      0.37703972	     -0.05385021	      0.00000000
      0.57568860	      0.37714046	     -0.05331240	      0.00000000
      0.57692931	      0.37728235	     -0.05270660	      0.00000000
      0.57817001	      0.37746473	     -0.05202969	      0.00000000
      0.57941072	      0.37768625	     -0.05128060	      0.00000000
      0.58065143	      0.37794567	     -0.05045789	      0.00000000
      0.58189214	      0.37824151	     -0.04956191	      0.00000000
      0.58313285	      0.37857233	     -0.04859263	      0.00000000
      0.58437356	      0.37893679	     -0.04755144	      0.00000000
      0.58561426	      0.37933351	     -0.04643942	      0.00000000
      0.58685497	      0.37976142	     -0.04525865	      0.00000000
      0.58809568	      0.38021942	     -0.04401102	      0.00000000
      0.58933639	      0.38070671	     -0.04269908	      0.00000000
      0.59057710	      0.38122237	     -0.04132524	      0.00000000
      0.59181780	      0.38176571	     -0.03989230	      0.00000000
      0.59305851	      0.38233599	     -0.03840297	      0.00000000
      0.59429922	      0.38293263	     -0.03686008	      0.00000000
      0.59553993	      0.38355500	     -0.03526642	      0.00000000
      0.59678064	      0.38420253	     -0.03362468	      0.00000000
      0.59802135	      0.38487472	     -0.03193756	      0.00000000
      0.59926205	      0.38557101	     -0.03020755	      0.00000000
      0.60050276	      0.38629085	     -0.02843717	      0.00000000
      0.60174347	      0.38703350	     -0.02662873	      0.00000000
      0.60298418	      0.38779828	     -0.02478458	      0.00000000
      0.60422489	      0.38858422	     -0.02290687	      0.00000000
      0.60546559	      0.38939041	     -0.02099778	      0.00000000
      0.60670630	      0.39021565	     -0.01905933	      0.00000000
      0.60794701	      0.39105875	     -0.01709358	      0.00000000
      0.60918772	      0.39191843	     -0.01510238	      0.00000000
      0.61042843	      0.39279342	     -0.01308765	      0.00000000
      0.61166914	      0.39368258	     -0.01105104	      0.00000000
      0.61290984	      0.39458482	     -0.00899423	      0.00000000
      0.61415055	      0.39549899	     -0.00691870	      0.00000000
      0.61539126	      0.39642392	     -0.00482603	      0.00000000
      0.61663197	      0.39735815	     -0.00271764	      0.00000000
      0.61787268	      0.39830014	     -0.00059508	      0.00000000
      0.61911338	      0.39924864	      0.00154037	      0.00000000
      0.62035409	      0.40020247	      0.00368741	      0.00000000
      0.62159480	      0.40116076	      0.00584513	      0.00000000
      0.62283551	      0.40212291	      0.00801263	      0.00000000
      0.62407622	      0.40308800	      0.01018902	      0.00000000
      0.62531693	      0.40405473	      0.01237327	      0.00000000
      0.62655763	      0.40502145	      0.01456434	      0.00000000
      0.62779834	      0.40598647	      0.01676117	      0.00000000
      0.62903905	      0.40694868	      0.01896294	      0.00000000
      0.63027976	      0.40790703	      0.02116885	      0.00000000
      0.63152047	      0.40886133	      0.02337846	      0.00000000
      0.63276117	      0.40981123	      0.02559126	      0.00000000
      0.63400188	      0.41075700	      0.02780706	      0.00000000
      0.63524259	      0.41169873	      0.03002559	      0.00000000
      0.63648330	      0.41263691	      0.03224691	      0.00000000
      0.63772401	      0.41357195	      0.03447101	      0.00000000
      0.63896472	      0.41450452	      0.03669820	      0.00000000
      0.64020542	      0.41543528	      0.03892873	      0.00000000
      0.64144613	      0.41636499	      0.04116311	      0.00000000
      0.64268684	      0.41729441	      0.04340180	      0.00000000
      0.64392755	      0.41822425	      0.04564543	      0.00000000
      0.64516826	      0.41915522	      0.04789460	      0.00000000
      0.64640896	      0.42008780	      0.05014997	      0.00000000
      0.64764967	      0.42102252	      0.05241219	      0.00000000
      0.64889038	      0.42195949	      0.05468186	      0.00000000
      0.65013109	      0.42289891	      0.05695960	      0.00000000
      0.65137180	      0.42384038	      0.05924585	      0.00000000
      0.65261251	      0.42478365	      0.06154111	      0.00000000
      0.65385321	      0.42572775	      0.06384561	      0.00000000
      0.65509392	      0.42667186	      0.06615963	      0.00000000
      0.65633463	      0.42761447	      0.06848313	      0.00000000
      0.65757534	      0.42855420	      0.07081616	      0.00000000
      0.65881605	      0.42948907	      0.07315841	      0.00000000
      0.66005675	      0.43041722	      0.07550965	      0.00000000
      0.66129746	      0.43133637	      0.07786938	      0.00000000
      0.66253817	      0.43224432	      0.08023713	      0.00000000
      0.66377888	      0.43313876	      0.08261226	      0.00000000
      0.66501959	      0.43401736	      0.08499416	      0.00000000
      0.66626030	      0.43487812	      0.08738218	      0.00000000
      0.66750100	      0.43571888	      0.08977567	      0.00000000
      0.66874171	      0.43653816	      0.09217411	      0.00000000
      0.66998242	      0.43733428	      0.09457695	      0.00000000
      0.67122313	      0.43810655	      0.09698393	      0.00000000
      0.67246384	      0.43885397	      0.09939468	      0.00000000
      0.67370454	      0.43957674	      0.10180934	      0.00000000
      0.67494525	      0.44027480	      0.10422791	      0.00000000
      0.67618596	      0.44094942	      0.10665099	      0.00000000
      0.67742667	      0.44160152	      0.10907905	      0.00000000
      0.67866738	      0.44223339	      0.11151325	      0.00000000
      0.67990809	      0.44284682	      0.11395448	      0.00000000
      0.68114879	      0.44344530	      0.11640463	      0.00000000
      0.68238950	      0.44403135	      0.11886501	      0.00000000
      0.68363021	      0.44461078	      0.12133898	      0.00000000
      0.68487092	      0.44518938	      0.12382982	      0.00000000
      0.68611163	      0.44577657	      0.12634324	      0.00000000
      0.68735233	      0.44638205	      0.12888502	      0.00000000
      0.68859304	      0.44701557	      0.13146143	      0.00000000
      0.68983375	      0.44768630	      0.13407823	      0.00000000
      0.69107446	      0.44840081	      0.13674020	      0.00000000
      0.69231517	      0.44916637	      0.13945231	      0.00000000
      0.69355588	      0.44998735	      0.14221833	      0.00000000
      0.69479658	      0.45086876	      0.14504223	      0.00000000
      0.69603729	      0.45181284	      0.14792673	      0.00000000
      0.69727800	      0.45282248	      0.15087482	      0.00000000
      0.69851871	      0.45389825	      0.15388839	      0.00000000
      0.69975942	      0.45504129	      0.15696957	      0.00000000
      0.70100012	      0.45625094	      0.16011954	      0.00000000
      0.70224083	      0.45752698	      0.16333969	      0.00000000
      0.70348154	      0.45886788	      0.16663050	      0.00000000
      0.70472225	      0.46027243	      0.16999267	      0.00000000
      0.70596296	      0.46173856	      0.17342587	      0.00000000
      0.70720367	      0.46326441	      0.17693005	      0.00000000
      0.70844437	      0.46484767	      0.18050398	      0.00000000
      0.70968508	      0.46648620	      0.18414669	      0.00000000
      0.71092579	      0.46817756	      0.18785610	      0.00000000
      0.71216650	      0.46991959	      0.19163041	      0.00000000
      0.71340721	      0.47170952	      0.19546686	      0.00000000
      0.71464791	      0.47354468	      0.19936305	      0.00000000
      0.71588862	      0.47542150	      0.20331544	      0.00000000
      0.71712933	      0.47733655	      0.20732079	      0.00000000
      0.71837004	      0.47928568	      0.21137417	      0.00000000
      0.71961075	      0.48126468	      0.21547080	      0.00000000
      0.72085146	      0.48326923	      0.21960473	      0.00000000
      0.72209216	      0.48529483	      0.22377016	      0.00000000
      0.72333287	      0.48733794	      0.22796132	      0.00000000
      0.72457358	      0.48939460	      0.23217235	      0.00000000
      0.72581429	      0.49146307	      0.23639837	      0.00000000
      0.72705500	      0.49354154	      0.24063453	      0.00000000
      0.72829570	      0.49563033	      0.24487699	      0.00000000
      0.72953641	      0.49772966	      0.24912187	      0.00000000
      0.73077712	      0.49984012	      0.25336541	      0.00000000
      0.73201783	      0.50196208	      0.25760369	      0.00000000
      0.73325854	      0.50409509	      0.26183213	      0.00000000
      0.73449925	      0.50623891	      0.26604635	      0.00000000
      0.73573995	      0.50839225	      0.27024093	      0.00000000
      0.73698066	      0.51055414	      0.27441086	      0.00000000
      0.73822137	      0.51272242	      0.27854971	      0.00000000
      0.73946208	      0.51489555	      0.28265205	      0.00000000
      0.74070279	      0.51707024	      0.28670959	      0.00000000
      0.74194349	      0.51924577	      0.29071843	      0.00000000
      0.74318420	      0.52141530	      0.29466395	      0.00000000
      0.74442491	      0.52358841	      0.29855941	      0.00000000
