PointVelocity
version=1
nRows=601
nColumns=4
inDegrees=no
No description.
endheader
time	state_0	state_1	state_2
      0.00000000	      0.03849309	     -0.24323332	      0.00000000
      0.00184935	      0.03811929	     -0.23630068	      0.00000000
      0.00369871	      0.03770475	     -0.22864108	      0.00000000
      0.00554806	      0.03715176	     -0.22071761	      0.00000000
      0.00739742	      0.03649236	     -0.21354873	      0.00000000
      0.00924677	      0.03588872	     -0.20702007	      0.00000000
      0.01109613	      0.03542381	     -0.20091713	      0.00000000
      0.01294548	      0.03500933	     -0.19507898	      0.00000000
      0.01479484	      0.03460255	     -0.18951654	      0.00000000
      0.01664419	      0.03418745	     -0.18437890	      0.00000000
      0.01849355	      0.03373420	     -0.17974233	      0.00000000
      0.02034290	      0.03325859	     -0.17554446	      0.00000000
      0.02219226	      0.03277120	     -0.17179620	      0.00000000
      0.02404161	      0.03228991	     -0.16844165	      0.00000000
      0.02589097	      0.03181879	     -0.16538129	      0.00000000
      0.02774032	      0.03135912	     -0.16252775	      0.00000000
      0.02958968	      0.03091681	     -0.15980681	      0.00000000
      0.03143903	      0.03049528	     -0.15715602	      0.00000000
      0.03328839	      0.03009622	     -0.15451153	      0.00000000
      0.03513774	      0.02971922	     -0.15183056	      0.00000000
      0.03698710	      0.02936216	     -0.14906527	      0.00000000
      0.03883645	      0.02902255	     -0.14618681	      0.00000000
      0.04068581	      0.02869592	     -0.14315779	      0.00000000
      0.04253516	      0.02837847	     -0.13996422	      0.00000000
      0.04438452	      0.02806466	     -0.13658235	      0.00000000
      0.04623387	      0.02775069	     -0.13301557	      0.00000000
      0.04808323	      0.02743173	     -0.12925834	      0.00000000
      0.04993258	      0.02710532	     -0.12533119	      0.00000000
      0.05178194	      0.02676852	     -0.12124771	      0.00000000
      0.05363129	      0.02642083	     -0.11703789	      0.00000000
      0.05548065	      0.02606158	     -0.11272695	      0.00000000
      0.05733000	      0.02569208	     -0.10834194	      0.00000000
      0.05917936	      0.02531389	     -0.10390721	      0.00000000
      0.06102871	      0.02492878	     -0.09943848	      0.00000000
      0.06287807	      0.02453909	     -0.09495057	      0.00000000
      0.06472742	      0.02414583	     -0.09044891	      0.00000000
      0.06657678	      0.02375094	     -0.08593917	      0.00000000
      0.06842613	      0.02335479	     -0.08142232	      0.00000000
      0.07027549	      0.02295900	     -0.07690009	      0.00000000
      0.07212484	      0.02256372	     -0.07237330	      0.00000000
      0.07397420	      0.02217040	     -0.06784350	      0.00000000
      0.07582355	      0.02177900	     -0.06331260	      0.00000000
      0.07767291	      0.02139050	     -0.05878302	      0.00000000
      0.07952226	      0.02100514	     -0.05425838	      0.00000000
      0.08137162	      0.02062430	     -0.04974332	      0.00000000
      0.08322097	      0.02024774	     -0.04524184	      0.00000000
      0.08507033	      0.01987598	     -0.04075888	      0.00000000
      0.08691968	      0.01950865	     -0.03629882	      0.00000000
      0.08876904	      0.01914604	     -0.03186728	      0.00000000
      0.09061839	      0.01878788	     -0.02746908	      0.00000000
      0.09246775	      0.01843433	     -0.02311030	      0.00000000
      0.09431710	      0.01808540	     -0.01879602	      0.00000000
      0.09616646	      0.01774136	     -0.01453252	      0.00000000
      0.09801581	      0.01740247	     -0.01032481	      0.00000000
      0.09986517	      0.01706919	     -0.00617902	      0.00000000
      0.10171452	      0.01674187	     -0.00209984	      0.00000000
      0.10356388	      0.01642104	      0.00190706	      0.00000000
      0.10541323	      0.01610706	      0.00583744	      0.00000000
      0.10726259	      0.01580039	      0.00968618	      0.00000000
      0.10911194	      0.01550136	      0.01344953	      0.00000000
      0.11096130	      0.01521034	      0.01712298	      0.00000000
      0.11281065	      0.01492757	      0.02070333	      0.00000000
      0.11466001	      0.01465335	      0.02418672	      0.00000000
      0.11650936	      0.01438783	      0.02757058	      0.00000000
      0.11835872	      0.01413116	      0.03085177	      0.00000000
      0.12020807	      0.01388339	      0.03402832	      0.00000000
      0.12205743	      0.01364449	      0.03709783	      0.00000000
      0.12390678	      0.01341442	      0.04005888	      0.00000000
      0.12575614	      0.01319300	      0.04290967	      0.00000000
      0.12760549	      0.01298010	      0.04564926	      0.00000000
      0.12945485	      0.01277545	      0.04827636	      0.00000000
      0.13130420	      0.01257883	      0.05079036	      0.00000000
      0.13315356	      0.01238989	      0.05319039	      0.00000000
      0.13500291	      0.01220837	      0.05547606	      0.00000000
      0.13685226	      0.01203386	      0.05764681	      0.00000000
      0.13870162	      0.01186608	      0.05970235	      0.00000000
      0.14055097	      0.01170456	      0.06164231	      0.00000000
      0.14240033	      0.01154905	      0.06346645	      0.00000000
      0.14424968	      0.01139903	      0.06517453	      0.00000000
      0.14609904	      0.01125428	      0.06676634	      0.00000000
      0.14794839	      0.01111429	      0.06824172	      0.00000000
      0.14979775	      0.01097885	      0.06960052	      0.00000000
      0.15164710	      0.01084750	      0.07084267	      0.00000000
      0.15349646	      0.01072004	      0.07196814	      0.00000000
      0.15534581	      0.01059603	      0.07297700	      0.00000000
      0.15719517	      0.01047530	      0.07386940	      0.00000000
      0.15904452	      0.01035744	      0.07464557	      0.00000000
      0.16089388	      0.01024227	      0.07530597	      0.00000000
      0.16274323	      0.01012939	      0.07585110	      0.00000000
      0.16459259	      0.01001866	      0.07628183	      0.00000000
      0.16644194	      0.00990969	      0.07659906	      0.00000000
      0.16829130	      0.00980234	      0.07680423	      0.00000000
      0.17014065	      0.00969624	      0.07689875	      0.00000000
      0.17199001	      0.00959122	      0.07688473	      0.00000000
      0.17383936	      0.00948692	      0.07676419	      0.00000000
      0.17568872	      0.00938314	      0.07653995	      0.00000000
      0.17753807	      0.00927953	      0.07621472	      0.00000000
      0.17938743	      0.00917583	      0.07579196	      0.00000000
      0.18123678	      0.00907170	      0.07527505	      0.00000000
      0.18308614	      0.00896684	      0.07466805	      0.00000000
      0.18493549	      0.00886089	      0.07397492	      0.00000000
      0.18678485	      0.00875354	      0.07320015	      0.00000000
      0.18863420	      0.00864443	      0.07234819	      0.00000000
      0.19048356	      0.00853323	      0.07142386	      0.00000000
      0.19233291	      0.00841960	      0.07043192	      0.00000000
      0.19418227	      0.00830319	      0.06937732	      0.00000000
      0.19603162	      0.00818371	      0.06826495	      0.00000000
      0.19788098	      0.00806083	      0.06709974	      0.00000000
      0.19973033	      0.00793427	      0.06588659	      0.00000000
      0.20157969	      0.00780374	      0.06463026	      0.00000000
      0.20342904	      0.00766899	      0.06333555	      0.00000000
      0.20527840	      0.00752979	      0.06200698	      0.00000000
      0.20712775	      0.00738592	      0.06064914	      0.00000000
      0.20897711	      0.00723726	      0.05926618	      0.00000000
      0.21082646	      0.00708367	      0.05786233	      0.00000000
      0.21267582	      0.00692506	      0.05644118	      0.00000000
      0.21452517	      0.00676138	      0.05500644	      0.00000000
      0.21637453	      0.00659260	      0.05356118	      0.00000000
      0.21822388	      0.00641868	      0.05210861	      0.00000000
      0.22007324	      0.00623962	      0.05065143	      0.00000000
      0.22192259	      0.00605541	      0.04919250	      0.00000000
      0.22377195	      0.00586606	      0.04773413	      0.00000000
      0.22562130	      0.00567157	      0.04627877	      0.00000000
      0.22747066	      0.00547205	      0.04482841	      0.00000000
      0.22932001	      0.00526762	      0.04338510	      0.00000000
      0.23116937	      0.00505844	      0.04195073	      0.00000000
      0.23301872	      0.00484466	      0.04052728	      0.00000000
      0.23486808	      0.00462639	      0.03911672	      0.00000000
      0.23671743	      0.00440372	      0.03772116	      0.00000000
      0.23856679	      0.00417670	      0.03634262	      0.00000000
      0.24041614	      0.00394539	      0.03498318	      0.00000000
      0.24226550	      0.00370989	      0.03364483	      0.00000000
      0.24411485	      0.00347035	      0.03232958	      0.00000000
      0.24596421	      0.00322684	      0.03103945	      0.00000000
      0.24781356	      0.00297949	      0.02977656	      0.00000000
      0.24966292	      0.00272830	      0.02854305	      0.00000000
      0.25151227	      0.00247333	      0.02734110	      0.00000000
      0.25336163	      0.00221455	      0.02617293	      0.00000000
      0.25521098	      0.00195199	      0.02504074	      0.00000000
      0.25706034	      0.00168557	      0.02394705	      0.00000000
      0.25890969	      0.00141523	      0.02289445	      0.00000000
      0.26075905	      0.00114085	      0.02188582	      0.00000000
      0.26260840	      0.00086232	      0.02092415	      0.00000000
      0.26445776	      0.00057946	      0.02001234	      0.00000000
      0.26630711	      0.00029215	      0.01915336	      0.00000000
      0.26815647	      0.00000009	      0.01834999	      0.00000000
      0.27000582	     -0.00029696	      0.01760518	      0.00000000
      0.27185517	     -0.00059938	      0.01692151	      0.00000000
      0.27370453	     -0.00090754	      0.01630181	      0.00000000
      0.27555388	     -0.00122190	      0.01574822	      0.00000000
      0.27740324	     -0.00154291	      0.01526325	      0.00000000
      0.27925259	     -0.00187116	      0.01484804	      0.00000000
      0.28110195	     -0.00220723	      0.01450423	      0.00000000
      0.28295130	     -0.00255181	      0.01423144	      0.00000000
      0.28480066	     -0.00290561	      0.01402992	      0.00000000
      0.28665001	     -0.00326937	      0.01389735	      0.00000000
      0.28849937	     -0.00364388	      0.01383217	      0.00000000
      0.29034872	     -0.00402983	      0.01382975	      0.00000000
      0.29219808	     -0.00442799	      0.01388614	      0.00000000
      0.29404743	     -0.00483884	      0.01399433	      0.00000000
      0.29589679	     -0.00526303	      0.01414794	      0.00000000
      0.29774614	     -0.00570082	      0.01433814	      0.00000000
      0.29959550	     -0.00615264	      0.01455654	      0.00000000
      0.30144485	     -0.00661854	      0.01479324	      0.00000000
      0.30329421	     -0.00709877	      0.01503863	      0.00000000
      0.30514356	     -0.00759328	      0.01528193	      0.00000000
      0.30699292	     -0.00810209	      0.01551200	      0.00000000
      0.30884227	     -0.00862489	      0.01571786	      0.00000000
      0.31069163	     -0.00916121	      0.01588706	      0.00000000
      0.31254098	     -0.00970831	      0.01601455	      0.00000000
      0.31439034	     -0.01026485	      0.01610150	      0.00000000
      0.31623969	     -0.01083989	      0.01612849	      0.00000000
      0.31808905	     -0.01143680	      0.01606197	      0.00000000
      0.31993840	     -0.01204823	      0.01589175	      0.00000000
      0.32178776	     -0.01266534	      0.01560436	      0.00000000
      0.32363711	     -0.01329596	      0.01522022	      0.00000000
      0.32548647	     -0.01397021	      0.01479221	      0.00000000
      0.32733582	     -0.01467209	      0.01427277	      0.00000000
      0.32918518	     -0.01536675	      0.01358470	      0.00000000
      0.33103453	     -0.01605241	      0.01274488	      0.00000000
      0.33288389	     -0.01672987	      0.01177304	      0.00000000
      0.33473324	     -0.01740327	      0.01067730	      0.00000000
      0.33658260	     -0.01807532	      0.00946333	      0.00000000
      0.33843195	     -0.01874512	      0.00812873	      0.00000000
      0.34028131	     -0.01941297	      0.00667362	      0.00000000
      0.34213066	     -0.02007684	      0.00509216	      0.00000000
      0.34398002	     -0.02073562	      0.00338205	      0.00000000
      0.34582937	     -0.02139202	      0.00152210	      0.00000000
      0.34767873	     -0.02204502	     -0.00052788	      0.00000000
      0.34952808	     -0.02267577	     -0.00276081	      0.00000000
      0.35137744	     -0.02326742	     -0.00518421	      0.00000000
      0.35322679	     -0.02378543	     -0.00767123	      0.00000000
      0.35507615	     -0.02421282	     -0.01002567	      0.00000000
      0.35692550	     -0.02462743	     -0.01221341	      0.00000000
      0.35877486	     -0.02508014	     -0.01422838	      0.00000000
      0.36062421	     -0.02559817	     -0.01625486	      0.00000000
      0.36247357	     -0.02619509	     -0.01854764	      0.00000000
      0.36432292	     -0.02676475	     -0.02112837	      0.00000000
      0.36617228	     -0.02724298	     -0.02395876	      0.00000000
      0.36802163	     -0.02762281	     -0.02682058	      0.00000000
      0.36987099	     -0.02789767	     -0.02946311	      0.00000000
      0.37172034	     -0.02815939	     -0.03182251	      0.00000000
      0.37356970	     -0.02846193	     -0.03389437	      0.00000000
      0.37541905	     -0.02879818	     -0.03576287	      0.00000000
      0.37726841	     -0.02917307	     -0.03749418	      0.00000000
      0.37911776	     -0.02956293	     -0.03911531	      0.00000000
      0.38096712	     -0.02995611	     -0.04063388	      0.00000000
      0.38281647	     -0.03035480	     -0.04203546	      0.00000000
      0.38466583	     -0.03075841	     -0.04331067	      0.00000000
      0.38651518	     -0.03117199	     -0.04445660	      0.00000000
      0.38836454	     -0.03159838	     -0.04547343	      0.00000000
      0.39021389	     -0.03203840	     -0.04637034	      0.00000000
      0.39206325	     -0.03249318	     -0.04715539	      0.00000000
      0.39391260	     -0.03296175	     -0.04784107	      0.00000000
      0.39576196	     -0.03344376	     -0.04843897	      0.00000000
      0.39761131	     -0.03393757	     -0.04896176	      0.00000000
      0.39946067	     -0.03444191	     -0.04942204	      0.00000000
      0.40131002	     -0.03495468	     -0.04983121	      0.00000000
      0.40315938	     -0.03547403	     -0.05020104	      0.00000000
      0.40500873	     -0.03599767	     -0.05054070	      0.00000000
      0.40685808	     -0.03652348	     -0.05085981	      0.00000000
      0.40870744	     -0.03704933	     -0.05116525	      0.00000000
      0.41055679	     -0.03757318	     -0.05146416	      0.00000000
      0.41240615	     -0.03809339	     -0.05176232	      0.00000000
      0.41425550	     -0.03860828	     -0.05206562	      0.00000000
      0.41610486	     -0.03911686	     -0.05238044	      0.00000000
      0.41795421	     -0.03961781	     -0.05271385	      0.00000000
      0.41980357	     -0.04011025	     -0.05307203	      0.00000000
      0.42165292	     -0.04059271	     -0.05346328	      0.00000000
      0.42350228	     -0.04106343	     -0.05388597	      0.00000000
      0.42535163	     -0.04152112	     -0.05433885	      0.00000000
      0.42720099	     -0.04196661	     -0.05481037	      0.00000000
      0.42905034	     -0.04239995	     -0.05529179	      0.00000000
      0.43089970	     -0.04282215	     -0.05576094	      0.00000000
      0.43274905	     -0.04323446	     -0.05619559	      0.00000000
      0.43459841	     -0.04364042	     -0.05656702	      0.00000000
      0.43644776	     -0.04404328	     -0.05684583	      0.00000000
      0.43829712	     -0.04444769	     -0.05700716	      0.00000000
      0.44014647	     -0.04485802	     -0.05702341	      0.00000000
      0.44199583	     -0.04527856	     -0.05688242	      0.00000000
      0.44384518	     -0.04571359	     -0.05656694	      0.00000000
      0.44569454	     -0.04616687	     -0.05608635	      0.00000000
      0.44754389	     -0.04664099	     -0.05544856	      0.00000000
      0.44939325	     -0.04713421	     -0.05467633	      0.00000000
      0.45124260	     -0.04764560	     -0.05379026	      0.00000000
      0.45309196	     -0.04817138	     -0.05281084	      0.00000000
      0.45494131	     -0.04870873	     -0.05175812	      0.00000000
      0.45679067	     -0.04925447	     -0.05064356	      0.00000000
      0.45864002	     -0.04980583	     -0.04947943	      0.00000000
      0.46048938	     -0.05036147	     -0.04826860	      0.00000000
      0.46233873	     -0.05091991	     -0.04701460	      0.00000000
      0.46418809	     -0.05148183	     -0.04571705	      0.00000000
      0.46603744	     -0.05204738	     -0.04437558	      0.00000000
      0.46788680	     -0.05261805	     -0.04299215	      0.00000000
      0.46973615	     -0.05319490	     -0.04156837	      0.00000000
      0.47158551	     -0.05377878	     -0.04011017	      0.00000000
      0.47343486	     -0.05437050	     -0.03862348	      0.00000000
      0.47528422	     -0.05496935	     -0.03711540	      0.00000000
      0.47713357	     -0.05557501	     -0.03559394	      0.00000000
      0.47898293	     -0.05618514	     -0.03406033	      0.00000000
      0.48083228	     -0.05679833	     -0.03251697	      0.00000000
      0.48268164	     -0.05741275	     -0.03095448	      0.00000000
      0.48453099	     -0.05802706	     -0.02936451	      0.00000000
      0.48638035	     -0.05864129	     -0.02773190	      0.00000000
      0.48822970	     -0.05925530	     -0.02604161	      0.00000000
      0.49007906	     -0.05987079	     -0.02427941	      0.00000000
      0.49192841	     -0.06048902	     -0.02242971	      0.00000000
      0.49377777	     -0.06111306	     -0.02048670	      0.00000000
      0.49562712	     -0.06174479	     -0.01844373	      0.00000000
      0.49747648	     -0.06238520	     -0.01630489	      0.00000000
      0.49932583	     -0.06303473	     -0.01407364	      0.00000000
      0.50117519	     -0.06369206	     -0.01175375	      0.00000000
      0.50302454	     -0.06435646	     -0.00934766	      0.00000000
      0.50487390	     -0.06502696	     -0.00685572	      0.00000000
      0.50672325	     -0.06570252	     -0.00427825	      0.00000000
      0.50857261	     -0.06638064	     -0.00161062	      0.00000000
      0.51042196	     -0.06706278	      0.00115820	      0.00000000
      0.51227132	     -0.06774935	      0.00402668	      0.00000000
      0.51412067	     -0.06842957	      0.00698241	      0.00000000
      0.51597003	     -0.06912221	      0.01005245	      0.00000000
      0.51781938	     -0.06984373	      0.01325645	      0.00000000
      0.51966874	     -0.07057449	      0.01657993	      0.00000000
      0.52151809	     -0.07130712	      0.02003037	      0.00000000
      0.52336745	     -0.07204764	      0.02362135	      0.00000000
      0.52521680	     -0.07279527	      0.02735909	      0.00000000
      0.52706616	     -0.07355026	      0.03125388	      0.00000000
      0.52891551	     -0.07431221	      0.03531704	      0.00000000
      0.53076487	     -0.07508178	      0.03955863	      0.00000000
      0.53261422	     -0.07585870	      0.04399013	      0.00000000
      0.53446358	     -0.07664405	      0.04861765	      0.00000000
      0.53631293	     -0.07743776	      0.05344916	      0.00000000
      0.53816229	     -0.07824104	      0.05848772	      0.00000000
      0.54001164	     -0.07905485	      0.06374041	      0.00000000
      0.54186100	     -0.07987961	      0.06920795	      0.00000000
      0.54371035	     -0.08071536	      0.07489158	      0.00000000
      0.54555970	     -0.08155689	      0.08078758	      0.00000000
      0.54740906	     -0.08239778	      0.08688844	      0.00000000
      0.54925841	     -0.08323500	      0.09320503	      0.00000000
      0.55110777	     -0.08406813	      0.09975138	      0.00000000
      0.55295712	     -0.08491256	      0.10657035	      0.00000000
      0.55480648	     -0.08579176	      0.11372903	      0.00000000
      0.55665583	     -0.08671394	      0.12126995	      0.00000000
      0.55850519	     -0.08770334	      0.12926043	      0.00000000
      0.56035454	     -0.08871438	      0.13769757	      0.00000000
      0.56220390	     -0.08978593	      0.14669304	      0.00000000
      0.56405325	     -0.09088872	      0.15623416	      0.00000000
      0.56590261	     -0.09171178	      0.16590331	      0.00000000
      0.56775196	     -0.09243159	      0.17603773	      0.00000000
      0.56960132	     -0.09364167	      0.18749829	      0.00000000
      0.57145067	     -0.09522853	      0.20014920	      0.00000000
      0.57330003	     -0.09697974	      0.21363966	      0.00000000
      0.57514938	     -0.09834147	      0.22747423	      0.00000000
      0.57699874	     -0.09909021	      0.24103540	      0.00000000
      0.57884809	     -0.09852546	      0.25449038	      0.00000000
      0.58069745	     -0.09738889	      0.26729580	      0.00000000
      0.58254680	     -0.09176958	      0.28126419	      0.00000000
      0.58439616	     -0.07994576	      0.29824929	      0.00000000
      0.58624551	     -0.05627242	      0.31931793	      0.00000000
      0.58809487	      0.00093663	      0.34555677	      0.00000000
      0.58994422	      0.10578128	      0.37609261	      0.00000000
      0.59179358	      0.25088933	      0.40773599	      0.00000000
      0.59364293	      0.40784482	      0.43533083	      0.00000000
      0.59549229	      0.56136807	      0.45737993	      0.00000000
      0.59734164	      0.70311805	      0.47393956	      0.00000000
      0.59919100	      0.82196866	      0.48518176	      0.00000000
      0.60104035	      0.91894072	      0.49230732	      0.00000000
      0.60288971	      0.99604038	      0.49627990	      0.00000000
      0.60473906	      1.06011804	      0.49815927	      0.00000000
      0.60658842	      1.11575716	      0.49857680	      0.00000000
      0.60843777	      1.16571243	      0.49793268	      0.00000000
      0.61028713	      1.21251962	      0.49652942	      0.00000000
      0.61213648	      1.25675592	      0.49451078	      0.00000000
      0.61398584	      1.29936822	      0.49201928	      0.00000000
      0.61583519	      1.34023513	      0.48911436	      0.00000000
      0.61768455	      1.37946165	      0.48587085	      0.00000000
      0.61953390	      1.41680884	      0.48233440	      0.00000000
      0.62138326	      1.45213143	      0.47855818	      0.00000000
      0.62323261	      1.48537933	      0.47458507	      0.00000000
      0.62508197	      1.51654102	      0.47045702	      0.00000000
      0.62693132	      1.54578388	      0.46620964	      0.00000000
      0.62878068	      1.57326554	      0.46187286	      0.00000000
      0.63063003	      1.59920189	      0.45747190	      0.00000000
      0.63247939	      1.62378406	      0.45302591	      0.00000000
      0.63432874	      1.64716508	      0.44855156	      0.00000000
      0.63617810	      1.66949101	      0.44406047	      0.00000000
      0.63802745	      1.69085877	      0.43956415	      0.00000000
      0.63987681	      1.71137245	      0.43506967	      0.00000000
      0.64172616	      1.73110624	      0.43058575	      0.00000000
      0.64357552	      1.75014221	      0.42611703	      0.00000000
      0.64542487	      1.76854305	      0.42167081	      0.00000000
      0.64727423	      1.78637572	      0.41725078	      0.00000000
      0.64912358	      1.80369003	      0.41286400	      0.00000000
      0.65097294	      1.82053818	      0.40851456	      0.00000000
      0.65282229	      1.83695826	      0.40420972	      0.00000000
      0.65467165	      1.85299076	      0.39995509	      0.00000000
      0.65652100	      1.86866623	      0.39575786	      0.00000000
      0.65837036	      1.88401818	      0.39162320	      0.00000000
      0.66021971	      1.89907126	      0.38755419	      0.00000000
      0.66206907	      1.91385118	      0.38355338	      0.00000000
      0.66391842	      1.92837641	      0.37962349	      0.00000000
      0.66576778	      1.94266663	      0.37576700	      0.00000000
      0.66761713	      1.95673694	      0.37198630	      0.00000000
      0.66946649	      1.97060340	      0.36828359	      0.00000000
      0.67131584	      1.98427937	      0.36466055	      0.00000000
      0.67316520	      1.99777889	      0.36111879	      0.00000000
      0.67501455	      2.01111385	      0.35765916	      0.00000000
      0.67686391	      2.02429673	      0.35428253	      0.00000000
      0.67871326	      2.03733756	      0.35098881	      0.00000000
      0.68056261	      2.05024666	      0.34777788	      0.00000000
      0.68241197	      2.06303206	      0.34464891	      0.00000000
      0.68426132	      2.07570202	      0.34160095	      0.00000000
      0.68611068	      2.08826333	      0.33863237	      0.00000000
      0.68796003	      2.10072316	      0.33574146	      0.00000000
      0.68980939	      2.11308766	      0.33292565	      0.00000000
      0.69165874	      2.12536349	      0.33018225	      0.00000000
      0.69350810	      2.13755541	      0.32750835	      0.00000000
      0.69535745	      2.14966754	      0.32490093	      0.00000000
      0.69720681	      2.16170416	      0.32235629	      0.00000000
      0.69905616	      2.17367136	      0.31987048	      0.00000000
      0.70090552	      2.18557190	      0.31743890	      0.00000000
      0.70275487	      2.19740348	      0.31505728	      0.00000000
      0.70460423	      2.20917312	      0.31272114	      0.00000000
      0.70645358	      2.22089717	      0.31042534	      0.00000000
      0.70830294	      2.23258074	      0.30816437	      0.00000000
      0.71015229	      2.24420853	      0.30593408	      0.00000000
      0.71200165	      2.25579950	      0.30372669	      0.00000000
      0.71385100	      2.26742152	      0.30153475	      0.00000000
      0.71570036	      2.27904434	      0.29934938	      0.00000000
      0.71754971	      2.29044217	      0.29719117	      0.00000000
      0.71939907	      2.30154457	      0.29504756	      0.00000000
      0.72124842	      2.31259922	      0.29281380	      0.00000000
      0.72309778	      2.32369967	      0.29050432	      0.00000000
      0.72494713	      2.33488794	      0.28820023	      0.00000000
      0.72679649	      2.34634538	      0.28589439	      0.00000000
      0.72864584	      2.35801382	      0.28358296	      0.00000000
      0.73049520	      2.36968882	      0.28127409	      0.00000000
      0.73234455	      2.38133722	      0.27896351	      0.00000000
      0.73419391	      2.39289976	      0.27664981	      0.00000000
      0.73604326	      2.40424915	      0.27433528	      0.00000000
      0.73789262	      2.41538362	      0.27201502	      0.00000000
      0.73974197	      2.42636384	      0.26967985	      0.00000000
      0.74159133	      2.43728841	      0.26731835	      0.00000000
      0.74344068	      2.44823832	      0.26491951	      0.00000000
      0.74529004	      2.45920220	      0.26247873	      0.00000000
      0.74713939	      2.47013309	      0.25999352	      0.00000000
      0.74898875	      2.48098180	      0.25746206	      0.00000000
      0.75083810	      2.49173267	      0.25488011	      0.00000000
      0.75268746	      2.50239329	      0.25224229	      0.00000000
      0.75453681	      2.51296567	      0.24954324	      0.00000000
      0.75638617	      2.52345817	      0.24677759	      0.00000000
      0.75823552	      2.53387542	      0.24394004	      0.00000000
      0.76008488	      2.54422441	      0.24102563	      0.00000000
      0.76193423	      2.55451512	      0.23802907	      0.00000000
      0.76378359	      2.56475062	      0.23494608	      0.00000000
      0.76563294	      2.57493144	      0.23177246	      0.00000000
      0.76748230	      2.58505474	      0.22850469	      0.00000000
      0.76933165	      2.59511858	      0.22513917	      0.00000000
      0.77118101	      2.60512523	      0.22167246	      0.00000000
      0.77303036	      2.61507900	      0.21810106	      0.00000000
      0.77487972	      2.62498609	      0.21442188	      0.00000000
      0.77672907	      2.63485345	      0.21063192	      0.00000000
      0.77857843	      2.64468301	      0.20672904	      0.00000000
      0.78042778	      2.65447633	      0.20271136	      0.00000000
      0.78227714	      2.66422969	      0.19857774	      0.00000000
      0.78412649	      2.67394002	      0.19432729	      0.00000000
      0.78597585	      2.68360305	      0.18995944	      0.00000000
      0.78782520	      2.69321548	      0.18547395	      0.00000000
      0.78967456	      2.70277485	      0.18087053	      0.00000000
      0.79152391	      2.71227893	      0.17614939	      0.00000000
      0.79337327	      2.72172620	      0.17131048	      0.00000000
      0.79522262	      2.73111503	      0.16635427	      0.00000000
      0.79707198	      2.74044423	      0.16128079	      0.00000000
      0.79892133	      2.74971251	      0.15609059	      0.00000000
      0.80077069	      2.75891916	      0.15078386	      0.00000000
      0.80262004	      2.76806339	      0.14536126	      0.00000000
      0.80446940	      2.77714514	      0.13982313	      0.00000000
      0.80631875	      2.78616429	      0.13417023	      0.00000000
      0.80816811	      2.79512136	      0.12840315	      0.00000000
      0.81001746	      2.80401674	      0.12252276	      0.00000000
      0.81186682	      2.81285136	      0.11653000	      0.00000000
      0.81371617	      2.82162595	      0.11042601	      0.00000000
      0.81556552	      2.83034185	      0.10421214	      0.00000000
      0.81741488	      2.83900020	      0.09788990	      0.00000000
      0.81926423	      2.84760293	      0.09146107	      0.00000000
      0.82111359	      2.85615174	      0.08492763	      0.00000000
      0.82296294	      2.86464921	      0.07829179	      0.00000000
      0.82481230	      2.87309774	      0.07155596	      0.00000000
      0.82666165	      2.88150044	      0.06472282	      0.00000000
      0.82851101	      2.88986026	      0.05779521	      0.00000000
      0.83036036	      2.89818057	      0.05077628	      0.00000000
      0.83220972	      2.90646457	      0.04366934	      0.00000000
      0.83405907	      2.91471544	      0.03647810	      0.00000000
      0.83590843	      2.92293630	      0.02920637	      0.00000000
      0.83775778	      2.93112973	      0.02185852	      0.00000000
      0.83960714	      2.93929833	      0.01443894	      0.00000000
      0.84145649	      2.94744380	      0.00695268	      0.00000000
      0.84330585	      2.95556778	     -0.00059520	      0.00000000
      0.84515520	      2.96367108	     -0.00819897	      0.00000000
      0.84700456	      2.97175433	     -0.01585293	      0.00000000
      0.84885391	      2.97981788	     -0.02355071	      0.00000000
      0.85070327	      2.98786195	     -0.03128600	      0.00000000
      0.85255262	      2.99588676	     -0.03905193	      0.00000000
      0.85440198	      3.00389245	     -0.04684165	      0.00000000
      0.85625133	      3.01187888	     -0.05464795	      0.00000000
      0.85810069	      3.01984566	     -0.06246363	      0.00000000
      0.85995004	      3.02779184	     -0.07028138	      0.00000000
      0.86179940	      3.03571602	     -0.07809389	      0.00000000
      0.86364875	      3.04361684	     -0.08589405	      0.00000000
      0.86549811	      3.05149245	     -0.09367470	      0.00000000
      0.86734746	      3.05934213	     -0.10142913	      0.00000000
      0.86919682	      3.06716475	     -0.10915055	      0.00000000
      0.87104617	      3.07496071	     -0.11683278	      0.00000000
      0.87289553	      3.08272994	     -0.12446951	      0.00000000
      0.87474488	      3.09047339	     -0.13205521	      0.00000000
      0.87659424	      3.09819138	     -0.13958421	      0.00000000
      0.87844359	      3.10588505	     -0.14705164	      0.00000000
      0.88029295	      3.11355506	     -0.15445248	      0.00000000
      0.88214230	      3.12120292	     -0.16178237	      0.00000000
      0.88399166	      3.12882998	     -0.16903679	      0.00000000
      0.88584101	      3.13643783	     -0.17621167	      0.00000000
      0.88769037	      3.14402791	     -0.18330281	      0.00000000
      0.88953972	      3.15160088	     -0.19030615	      0.00000000
      0.89138908	      3.15915723	     -0.19721756	      0.00000000
      0.89323843	      3.16669611	     -0.20403289	      0.00000000
      0.89508779	      3.17421645	     -0.21074799	      0.00000000
      0.89693714	      3.18171621	     -0.21735874	      0.00000000
      0.89878650	      3.18919315	     -0.22386105	      0.00000000
      0.90063585	      3.19664487	     -0.23025093	      0.00000000
      0.90248521	      3.20406876	     -0.23652438	      0.00000000
      0.90433456	      3.21146225	     -0.24267764	      0.00000000
      0.90618392	      3.21882221	     -0.24870696	      0.00000000
      0.90803327	      3.22614597	     -0.25460889	      0.00000000
      0.90988263	      3.23343056	     -0.26037993	      0.00000000
      0.91173198	      3.24067342	     -0.26601706	      0.00000000
      0.91358134	      3.24787118	     -0.27151722	      0.00000000
      0.91543069	      3.25502192	     -0.27687796	      0.00000000
      0.91728005	      3.26212392	     -0.28209651	      0.00000000
      0.91912940	      3.26917533	     -0.28717122	      0.00000000
      0.92097876	      3.27617193	     -0.29210054	      0.00000000
      0.92282811	      3.28311345	     -0.29688357	      0.00000000
      0.92467747	      3.29000229	     -0.30151830	      0.00000000
      0.92652682	      3.29683805	     -0.30600483	      0.00000000
      0.92837618	      3.30361359	     -0.31034471	      0.00000000
      0.93022553	      3.31033423	     -0.31453773	      0.00000000
      0.93207489	      3.31703025	     -0.31857874	      0.00000000
      0.93392424	      3.32368373	     -0.32246976	      0.00000000
      0.93577360	      3.33023120	     -0.32622352	      0.00000000
      0.93762295	      3.33664263	     -0.32984040	      0.00000000
      0.93947231	      3.34290742	     -0.33327728	      0.00000000
      0.94132166	      3.34901431	     -0.33637528	      0.00000000
      0.94317102	      3.35499319	     -0.33910964	      0.00000000
      0.94502037	      3.36085867	     -0.34166254	      0.00000000
      0.94686973	      3.36657488	     -0.34407894	      0.00000000
      0.94871908	      3.37216512	     -0.34632743	      0.00000000
      0.95056843	      3.37766309	     -0.34840173	      0.00000000
      0.95241779	      3.38305037	     -0.35029128	      0.00000000
      0.95426714	      3.38829511	     -0.35200425	      0.00000000
      0.95611650	      3.39340481	     -0.35354766	      0.00000000
      0.95796585	      3.39842150	     -0.35491661	      0.00000000
      0.95981521	      3.40336926	     -0.35611560	      0.00000000
      0.96166456	      3.40823923	     -0.35715724	      0.00000000
      0.96351392	      3.41301121	     -0.35805639	      0.00000000
      0.96536327	      3.41768199	     -0.35882110	      0.00000000
      0.96721263	      3.42225362	     -0.35945758	      0.00000000
      0.96906198	      3.42671871	     -0.35997599	      0.00000000
      0.97091134	      3.43109332	     -0.36037967	      0.00000000
      0.97276069	      3.43540498	     -0.36066513	      0.00000000
      0.97461005	      3.43967975	     -0.36083091	      0.00000000
      0.97645940	      3.44394284	     -0.36087338	      0.00000000
      0.97830876	      3.44818400	     -0.36080661	      0.00000000
      0.98015811	      3.45238261	     -0.36064937	      0.00000000
      0.98200747	      3.45651223	     -0.36042563	      0.00000000
      0.98385682	      3.46054558	     -0.36016027	      0.00000000
      0.98570618	      3.46449979	     -0.35985754	      0.00000000
      0.98755553	      3.46840904	     -0.35950989	      0.00000000
      0.98940489	      3.47231212	     -0.35910750	      0.00000000
      0.99125424	      3.47623973	     -0.35864136	      0.00000000
      0.99310360	      3.48018381	     -0.35812644	      0.00000000
      0.99495295	      3.48411248	     -0.35759152	      0.00000000
      0.99680231	      3.48802623	     -0.35705049	      0.00000000
      0.99865166	      3.49193625	     -0.35650936	      0.00000000
      1.00050102	      3.49592700	     -0.35592645	      0.00000000
      1.00235037	      3.50012096	     -0.35522888	      0.00000000
      1.00419973	      3.50455979	     -0.35438411	      0.00000000
      1.00604908	      3.50924129	     -0.35338671	      0.00000000
      1.00789844	      3.51408017	     -0.35227690	      0.00000000
      1.00974779	      3.51896070	     -0.35112500	      0.00000000
      1.01159715	      3.52391214	     -0.34988308	      0.00000000
      1.01344650	      3.52908942	     -0.34841337	      0.00000000
      1.01529586	      3.53453832	     -0.34660800	      0.00000000
      1.01714521	      3.54018087	     -0.34445966	      0.00000000
      1.01899457	      3.54589091	     -0.34193606	      0.00000000
      1.02084392	      3.55165078	     -0.33893825	      0.00000000
      1.02269328	      3.55731048	     -0.33537779	      0.00000000
      1.02454263	      3.56254600	     -0.33133853	      0.00000000
      1.02639199	      3.56722582	     -0.32664558	      0.00000000
      1.02824134	      3.57078185	     -0.32150696	      0.00000000
      1.03009070	      3.57134483	     -0.31699567	      0.00000000
      1.03194005	      3.56942518	     -0.31229393	      0.00000000
      1.03378941	      3.56677532	     -0.30560680	      0.00000000
      1.03563876	      3.56243584	     -0.29738426	      0.00000000
      1.03748812	      3.55543296	     -0.28824453	      0.00000000
      1.03933747	      3.54575052	     -0.27793407	      0.00000000
      1.04118683	      3.53328872	     -0.26653733	      0.00000000
      1.04303618	      3.51784547	     -0.25425764	      0.00000000
      1.04488554	      3.49930605	     -0.24146074	      0.00000000
      1.04673489	      3.47769402	     -0.22839222	      0.00000000
      1.04858425	      3.45294262	     -0.21539318	      0.00000000
      1.05043360	      3.42500098	     -0.20283944	      0.00000000
      1.05228296	      3.39353471	     -0.19115471	      0.00000000
      1.05413231	      3.35833417	     -0.18074653	      0.00000000
      1.05598167	      3.31879997	     -0.17205172	      0.00000000
      1.05783102	      3.27463000	     -0.16542055	      0.00000000
      1.05968038	      3.22468449	     -0.16158143	      0.00000000
      1.06152973	      3.16824825	     -0.16127674	      0.00000000
      1.06337909	      3.10299005	     -0.16596602	      0.00000000
      1.06522844	      3.02719195	     -0.17737726	      0.00000000
      1.06707780	      2.93664716	     -0.19748400	      0.00000000
      1.06892715	      2.82795659	     -0.22868420	      0.00000000
      1.07077651	      2.69400751	     -0.27265476	      0.00000000
      1.07262586	      2.52718231	     -0.33255645	      0.00000000
      1.07447522	      2.31701587	     -0.40839021	      0.00000000
      1.07632457	      2.04408516	     -0.50571561	      0.00000000
      1.07817393	      1.70596398	     -0.61398112	      0.00000000
      1.08002328	      1.29886552	     -0.71298822	      0.00000000
      1.08187264	      0.87373382	     -0.76663102	      0.00000000
      1.08372199	      0.47464968	     -0.74707343	      0.00000000
      1.08557134	      0.17900260	     -0.65737831	      0.00000000
      1.08742070	      0.08683705	     -0.51043983	      0.00000000
      1.08927005	      0.07917330	     -0.40089403	      0.00000000
      1.09111941	      0.06006748	     -0.36249294	      0.00000000
      1.09296876	      0.05429426	     -0.33583295	      0.00000000
      1.09481812	      0.05137829	     -0.31321986	      0.00000000
      1.09666747	      0.04920131	     -0.29365326	      0.00000000
      1.09851683	      0.04692019	     -0.27775641	      0.00000000
      1.10036618	      0.04423714	     -0.26854516	      0.00000000
      1.10221554	      0.04245115	     -0.26295094	      0.00000000
      1.10406489	      0.04085233	     -0.25932453	      0.00000000
      1.10591425	      0.04002939	     -0.25450848	      0.00000000
      1.10776360	      0.03923130	     -0.24902340	      0.00000000
      1.10961296	      0.03855509	     -0.24296349	      0.00000000
