PointPosition
version=1
nRows=601
nColumns=4
inDegrees=no
No description.
endheader
time	state_0	state_1	state_2
      0.00000000	     -0.32434402	     -0.01281122	     -0.09478690
      0.00315640	     -0.32450894	     -0.01274736	     -0.09478690
      0.00631279	     -0.32467581	     -0.01267319	     -0.09478690
      0.00946919	     -0.32484493	     -0.01258669	     -0.09478690
      0.01262559	     -0.32501646	     -0.01248669	     -0.09478690
      0.01578198	     -0.32519031	     -0.01237238	     -0.09478690
      0.01893838	     -0.32536632	     -0.01224266	     -0.09478690
      0.02209477	     -0.32554438	     -0.01209624	     -0.09478690
      0.02525117	     -0.32572425	     -0.01193178	     -0.09478690
      0.02840757	     -0.32590563	     -0.01174791	     -0.09478690
      0.03156396	     -0.32608818	     -0.01154319	     -0.09478690
      0.03472036	     -0.32627152	     -0.01131615	     -0.09478690
      0.03787676	     -0.32645533	     -0.01106534	     -0.09478690
      0.04103315	     -0.32663934	     -0.01078941	     -0.09478690
      0.04418955	     -0.32682333	     -0.01048719	     -0.09478690
      0.04734594	     -0.32700709	     -0.01015765	     -0.09478690
      0.05050234	     -0.32719028	     -0.00980017	     -0.09478690
      0.05365874	     -0.32737263	     -0.00941455	     -0.09478690
      0.05681513	     -0.32755386	     -0.00900136	     -0.09478690
      0.05997153	     -0.32773370	     -0.00856128	     -0.09478690
      0.06312793	     -0.32791173	     -0.00809502	     -0.09478690
      0.06628432	     -0.32808738	     -0.00760320	     -0.09478690
      0.06944072	     -0.32825995	     -0.00708564	     -0.09478690
      0.07259712	     -0.32842869	     -0.00654172	     -0.09478690
      0.07575351	     -0.32859261	     -0.00596965	     -0.09478690
      0.07890991	     -0.32875052	     -0.00536725	     -0.09478690
      0.08206630	     -0.32890056	     -0.00473068	     -0.09478690
      0.08522270	     -0.32903330	     -0.00405187	     -0.09478690
      0.08837910	     -0.32907824	     -0.00328832	     -0.09478690
      0.09153549	     -0.32892612	     -0.00239072	     -0.09478690
      0.09469189	     -0.32841584	     -0.00136263	     -0.09478690
      0.09784829	     -0.32743192	     -0.00024339	     -0.09478690
      0.10100468	     -0.32607828	      0.00092710	     -0.09478690
      0.10416108	     -0.32449406	      0.00212490	     -0.09478690
      0.10731748	     -0.32274338	      0.00334041	     -0.09478690
      0.11047387	     -0.32085830	      0.00457123	     -0.09478690
      0.11363027	     -0.31885360	      0.00581820	     -0.09478690
      0.11678666	     -0.31674866	      0.00708103	     -0.09478690
      0.11994306	     -0.31455761	      0.00835887	     -0.09478690
      0.12309946	     -0.31228895	      0.00965103	     -0.09478690
      0.12625585	     -0.30994471	      0.01095566	     -0.09478690
      0.12941225	     -0.30752515	      0.01226982	     -0.09478690
      0.13256865	     -0.30502570	      0.01358871	     -0.09478690
      0.13572504	     -0.30243935	      0.01490650	     -0.09478690
      0.13888144	     -0.29975555	      0.01621566	     -0.09478690
      0.14203783	     -0.29696296	      0.01750764	     -0.09478690
      0.14519423	     -0.29404914	      0.01877289	     -0.09478690
      0.14835063	     -0.29100191	      0.02000135	     -0.09478690
      0.15150702	     -0.28780997	      0.02118317	     -0.09478690
      0.15466342	     -0.28446309	      0.02230861	     -0.09478690
      0.15781982	     -0.28095365	      0.02336915	     -0.09478690
      0.16097621	     -0.27727599	      0.02435697	     -0.09478690
      0.16413261	     -0.27342725	      0.02526615	     -0.09478690
      0.16728901	     -0.26940554	      0.02609178	     -0.09478690
      0.17044540	     -0.26521098	      0.02683096	     -0.09478690
      0.17360180	     -0.26084474	      0.02748189	     -0.09478690
      0.17675819	     -0.25631010	      0.02804439	     -0.09478690
      0.17991459	     -0.25161136	      0.02851905	     -0.09478690
      0.18307099	     -0.24675441	      0.02890753	     -0.09478690
      0.18622738	     -0.24174568	      0.02921200	     -0.09478690
      0.18938378	     -0.23659240	      0.02943513	     -0.09478690
      0.19254018	     -0.23130186	      0.02957978	     -0.09478690
      0.19569657	     -0.22588032	      0.02964886	     -0.09478690
      0.19885297	     -0.22033277	      0.02964534	     -0.09478690
      0.20200936	     -0.21466037	      0.02957231	     -0.09478690
      0.20516576	     -0.20886181	      0.02943302	     -0.09478690
      0.20832216	     -0.20293362	      0.02923046	     -0.09478690
      0.21147855	     -0.19687248	      0.02896732	     -0.09478690
      0.21463495	     -0.19067972	      0.02864491	     -0.09478690
      0.21779135	     -0.18436063	      0.02826354	     -0.09478690
      0.22094774	     -0.17792715	      0.02782208	     -0.09478690
      0.22410414	     -0.17139375	      0.02731886	     -0.09478690
      0.22726054	     -0.16477339	      0.02675317	     -0.09478690
      0.23041693	     -0.15807558	      0.02612550	     -0.09478690
      0.23357333	     -0.15130244	      0.02543925	     -0.09478690
      0.23672972	     -0.14445234	      0.02469946	     -0.09478690
      0.23988612	     -0.13752258	      0.02391269	     -0.09478690
      0.24304252	     -0.13051254	      0.02308560	     -0.09478690
      0.24619891	     -0.12342733	      0.02222453	     -0.09478690
      0.24935531	     -0.11627578	      0.02133537	     -0.09478690
      0.25251171	     -0.10907232	      0.02042374	     -0.09478690
      0.25566810	     -0.10183376	      0.01949518	     -0.09478690
      0.25882450	     -0.09458025	      0.01855528	     -0.09478690
      0.26198090	     -0.08733253	      0.01760943	     -0.09478690
      0.26513729	     -0.08011086	      0.01666252	     -0.09478690
      0.26829369	     -0.07293345	      0.01571876	     -0.09478690
      0.27145008	     -0.06582681	      0.01478655	     -0.09478690
      0.27460648	     -0.05883498	      0.01387829	     -0.09478690
      0.27776288	     -0.05204085	      0.01301804	     -0.09478690
      0.28091927	     -0.04553867	      0.01223614	     -0.09478690
      0.28407567	     -0.03939715	      0.01156064	     -0.09478690
      0.28723207	     -0.03365081	      0.01100994	     -0.09478690
      0.29038846	     -0.02828266	      0.01058064	     -0.09478690
      0.29354486	     -0.02326382	      0.01025773	     -0.09478690
      0.29670125	     -0.01856114	      0.01001613	     -0.09478690
      0.29985765	     -0.01414600	      0.00983192	     -0.09478690
      0.30301405	     -0.01000405	      0.00968491	     -0.09478690
      0.30617044	     -0.00612935	      0.00955814	     -0.09478690
      0.30932684	     -0.00252992	      0.00943992	     -0.09478690
      0.31248324	      0.00078117	      0.00932143	     -0.09478690
      0.31563963	      0.00380051	      0.00920260	     -0.09478690
      0.31879603	      0.00653718	      0.00908834	     -0.09478690
      0.32195243	      0.00901031	      0.00898504	     -0.09478690
      0.32510882	      0.01123751	      0.00889676	     -0.09478690
      0.32826522	      0.01321794	      0.00882021	     -0.09478690
      0.33142161	      0.01493677	      0.00874884	     -0.09478690
      0.33457801	      0.01639227	      0.00868416	     -0.09478690
      0.33773441	      0.01760298	      0.00863500	     -0.09478690
      0.34089080	      0.01856727	      0.00860042	     -0.09478690
      0.34404720	      0.01926298	      0.00857019	     -0.09478690
      0.34720360	      0.01976018	      0.00854129	     -0.09478690
      0.35035999	      0.02016843	      0.00851272	     -0.09478690
      0.35351639	      0.02051544	      0.00847402	     -0.09478690
      0.35667278	      0.02080403	      0.00841796	     -0.09478690
      0.35982918	      0.02104099	      0.00834455	     -0.09478690
      0.36298558	      0.02122916	      0.00825424	     -0.09478690
      0.36614197	      0.02137456	      0.00815134	     -0.09478690
      0.36929837	      0.02148352	      0.00804180	     -0.09478690
      0.37245477	      0.02156000	      0.00793204	     -0.09478690
      0.37561116	      0.02160679	      0.00782745	     -0.09478690
      0.37876756	      0.02162635	      0.00773248	     -0.09478690
      0.38192396	      0.02162103	      0.00765090	     -0.09478690
      0.38508035	      0.02159297	      0.00758566	     -0.09478690
      0.38823675	      0.02154416	      0.00753916	     -0.09478690
      0.39139314	      0.02147643	      0.00751319	     -0.09478690
      0.39454954	      0.02139148	      0.00750915	     -0.09478690
      0.39770594	      0.02129078	      0.00752802	     -0.09478690
      0.40086233	      0.02117563	      0.00757047	     -0.09478690
      0.40401873	      0.02104710	      0.00763684	     -0.09478690
      0.40717513	      0.02090610	      0.00772724	     -0.09478690
      0.41033152	      0.02075331	      0.00784152	     -0.09478690
      0.41348792	      0.02058930	      0.00797940	     -0.09478690
      0.41664432	      0.02041451	      0.00814038	     -0.09478690
      0.41980071	      0.02022929	      0.00832390	     -0.09478690
      0.42295711	      0.02003400	      0.00852925	     -0.09478690
      0.42611350	      0.01982899	      0.00875568	     -0.09478690
      0.42926990	      0.01961478	      0.00900236	     -0.09478690
      0.43242630	      0.01939204	      0.00926847	     -0.09478690
      0.43558269	      0.01916176	      0.00955312	     -0.09478690
      0.43873909	      0.01892524	      0.00985551	     -0.09478690
      0.44189549	      0.01868441	      0.01017483	     -0.09478690
      0.44505188	      0.01844162	      0.01051040	     -0.09478690
      0.44820828	      0.01820029	      0.01086160	     -0.09478690
      0.45136467	      0.01796447	      0.01122796	     -0.09478690
      0.45452107	      0.01773963	      0.01160911	     -0.09478690
      0.45767747	      0.01753210	      0.01200478	     -0.09478690
      0.46083386	      0.01734985	      0.01241468	     -0.09478690
      0.46399026	      0.01720168	      0.01283848	     -0.09478690
      0.46714666	      0.01709772	      0.01327560	     -0.09478690
      0.47030305	      0.01704860	      0.01372521	     -0.09478690
      0.47345945	      0.01706523	      0.01418599	     -0.09478690
      0.47661585	      0.01715830	      0.01465626	     -0.09478690
      0.47977224	      0.01733733	      0.01513380	     -0.09478690
      0.48292864	      0.01761093	      0.01561612	     -0.09478690
      0.48608503	      0.01798652	      0.01610069	     -0.09478690
      0.48924143	      0.01847113	      0.01658506	     -0.09478690
      0.49239783	      0.01907121	      0.01706745	     -0.09478690
      0.49555422	      0.01979407	      0.01754653	     -0.09478690
      0.49871062	      0.02064569	      0.01802057	     -0.09478690
      0.50186702	      0.02162796	      0.01848705	     -0.09478690
      0.50502341	      0.02273856	      0.01894374	     -0.09478690
      0.50817981	      0.02397576	      0.01938935	     -0.09478690
      0.51133620	      0.02533804	      0.01982370	     -0.09478690
      0.51449260	      0.02682363	      0.02024701	     -0.09478690
      0.51764900	      0.02843082	      0.02066013	     -0.09478690
      0.52080539	      0.03015799	      0.02106428	     -0.09478690
      0.52396179	      0.03200270	      0.02146077	     -0.09478690
      0.52711819	      0.03396178	      0.02185091	     -0.09478690
      0.53027458	      0.03603142	      0.02223597	     -0.09478690
      0.53343098	      0.03820781	      0.02261725	     -0.09478690
      0.53658738	      0.04048740	      0.02299602	     -0.09478690
      0.53974377	      0.04286697	      0.02337360	     -0.09478690
      0.54290017	      0.04534391	      0.02375123	     -0.09478690
      0.54605656	      0.04791595	      0.02413017	     -0.09478690
      0.54921296	      0.05058151	      0.02451154	     -0.09478690
      0.55236936	      0.05333930	      0.02489648	     -0.09478690
      0.55552575	      0.05618867	      0.02528593	     -0.09478690
      0.55868215	      0.05912921	      0.02568078	     -0.09478690
      0.56183855	      0.06216086	      0.02608163	     -0.09478690
      0.56499494	      0.06528363	      0.02648896	     -0.09478690
      0.56815134	      0.06849738	      0.02690288	     -0.09478690
      0.57130774	      0.07180182	      0.02732331	     -0.09478690
      0.57446413	      0.07519725	      0.02775002	     -0.09478690
      0.57762053	      0.07868458	      0.02818280	     -0.09478690
      0.58077692	      0.08226604	      0.02862152	     -0.09478690
      0.58393332	      0.08594453	      0.02906610	     -0.09478690
      0.58708972	      0.08972295	      0.02951626	     -0.09478690
      0.59024611	      0.09360380	      0.02997146	     -0.09478690
      0.59340251	      0.09758938	      0.03043100	     -0.09478690
      0.59655891	      0.10168193	      0.03089401	     -0.09478690
      0.59971530	      0.10588261	      0.03135924	     -0.09478690
      0.60287170	      0.11019171	      0.03182514	     -0.09478690
      0.60602809	      0.11460950	      0.03229007	     -0.09478690
      0.60918449	      0.11913683	      0.03275244	     -0.09478690
      0.61234089	      0.12377552	      0.03321089	     -0.09478690
      0.61549728	      0.12852753	      0.03366401	     -0.09478690
      0.61865368	      0.13339076	      0.03410943	     -0.09478690
      0.62181008	      0.13836519	      0.03454517	     -0.09478690
      0.62496647	      0.14345686	      0.03497075	     -0.09478690
      0.62812287	      0.14866707	      0.03538470	     -0.09478690
      0.63127927	      0.15399465	      0.03578508	     -0.09478690
      0.63443566	      0.15944107	      0.03617050	     -0.09478690
      0.63759206	      0.16500722	      0.03653943	     -0.09478690
      0.64074845	      0.17069354	      0.03689026	     -0.09478690
      0.64390485	      0.17650052	      0.03722139	     -0.09478690
      0.64706125	      0.18242894	      0.03753131	     -0.09478690
      0.65021764	      0.18847947	      0.03781857	     -0.09478690
      0.65337404	      0.19465252	      0.03808170	     -0.09478690
      0.65653044	      0.20094839	      0.03831932	     -0.09478690
      0.65968683	      0.20736743	      0.03853011	     -0.09478690
      0.66284323	      0.21390992	      0.03871287	     -0.09478690
      0.66599963	      0.22057612	      0.03886641	     -0.09478690
      0.66915602	      0.22736622	      0.03898962	     -0.09478690
      0.67231242	      0.23428045	      0.03908139	     -0.09478690
      0.67546881	      0.24131900	      0.03914065	     -0.09478690
      0.67862521	      0.24848214	      0.03916632	     -0.09478690
      0.68178161	      0.25577019	      0.03915738	     -0.09478690
      0.68493800	      0.26318356	      0.03911284	     -0.09478690
      0.68809440	      0.27072276	      0.03903173	     -0.09478690
      0.69125080	      0.27838839	      0.03891317	     -0.09478690
      0.69440719	      0.28618114	      0.03875631	     -0.09478690
      0.69756359	      0.29410189	      0.03856037	     -0.09478690
      0.70071998	      0.30215162	      0.03832460	     -0.09478690
      0.70387638	      0.31033153	      0.03804836	     -0.09478690
      0.70703278	      0.31864299	      0.03773103	     -0.09478690
      0.71018917	      0.32708759	      0.03737213	     -0.09478690
      0.71334557	      0.33566714	      0.03697124	     -0.09478690
      0.71650197	      0.34438365	      0.03652813	     -0.09478690
      0.71965836	      0.35323933	      0.03604269	     -0.09478690
      0.72281476	      0.36223658	      0.03551509	     -0.09478690
      0.72597116	      0.37137793	      0.03494573	     -0.09478690
      0.72912755	      0.38066604	      0.03433536	     -0.09478690
      0.73228395	      0.39010356	      0.03368511	     -0.09478690
      0.73544034	      0.39969319	      0.03299656	     -0.09478690
      0.73859674	      0.40943748	      0.03227175	     -0.09478690
      0.74175314	      0.41933892	      0.03151324	     -0.09478690
      0.74490953	      0.42939969	      0.03072414	     -0.09478690
      0.74806593	      0.43962178	      0.02990812	     -0.09478690
      0.75122233	      0.45000669	      0.02906940	     -0.09478690
      0.75437872	      0.46055553	      0.02821278	     -0.09478690
      0.75753512	      0.47126847	      0.02734354	     -0.09478690
      0.76069151	      0.48214499	      0.02646751	     -0.09478690
      0.76384791	      0.49318271	      0.02559091	     -0.09478690
      0.76700431	      0.50437798	      0.02472039	     -0.09478690
      0.77016070	      0.51572388	      0.02386299	     -0.09478690
      0.77331710	      0.52721136	      0.02302597	     -0.09478690
      0.77647350	      0.53882626	      0.02221692	     -0.09478690
      0.77962989	      0.55055130	      0.02144327	     -0.09478690
      0.78278629	      0.56236371	      0.02071297	     -0.09478690
      0.78594269	      0.57423798	      0.02003362	     -0.09478690
      0.78909908	      0.58614427	      0.01941285	     -0.09478690
      0.79225548	      0.59805121	      0.01885699	     -0.09478690
      0.79541187	      0.60992783	      0.01837278	     -0.09478690
      0.79856827	      0.62174307	      0.01796446	     -0.09478690
      0.80172467	      0.63346439	      0.01763196	     -0.09478690
      0.80488106	      0.64506049	      0.01737289	     -0.09478690
      0.80803746	      0.65650292	      0.01718406	     -0.09478690
      0.81119386	      0.66776476	      0.01706003	     -0.09478690
      0.81435025	      0.67882233	      0.01699644	     -0.09478690
      0.81750665	      0.68965335	      0.01698836	     -0.09478690
      0.82066305	      0.70023612	      0.01703024	     -0.09478690
      0.82381944	      0.71054881	      0.01711422	     -0.09478690
      0.82697584	      0.72057014	      0.01723148	     -0.09478690
      0.83013223	      0.73027968	      0.01737192	     -0.09478690
      0.83328863	      0.73965969	      0.01752547	     -0.09478690
      0.83644503	      0.74869459	      0.01768164	     -0.09478690
      0.83960142	      0.75737355	      0.01783039	     -0.09478690
      0.84275782	      0.76568895	      0.01796253	     -0.09478690
      0.84591422	      0.77364318	      0.01807665	     -0.09478690
      0.84907061	      0.78124449	      0.01817737	     -0.09478690
      0.85222701	      0.78850977	      0.01827618	     -0.09478690
      0.85538340	      0.79545850	      0.01838685	     -0.09478690
      0.85853980	      0.80211089	      0.01851854	     -0.09478690
      0.86169620	      0.80848540	      0.01867631	     -0.09478690
      0.86485259	      0.81459608	      0.01885307	     -0.09478690
      0.86800899	      0.82045458	      0.01903637	     -0.09478690
      0.87116539	      0.82607083	      0.01920792	     -0.09478690
      0.87432178	      0.83145518	      0.01934972	     -0.09478690
      0.87747818	      0.83662102	      0.01944872	     -0.09478690
      0.88063458	      0.84158390	      0.01949664	     -0.09478690
      0.88379097	      0.84636112	      0.01948917	     -0.09478690
      0.88694737	      0.85097013	      0.01942317	     -0.09478690
      0.89010376	      0.85543258	      0.01929934	     -0.09478690
      0.89326016	      0.85977390	      0.01912124	     -0.09478690
      0.89641656	      0.86403082	      0.01890024	     -0.09478690
      0.89957295	      0.86824717	      0.01865223	     -0.09478690
      0.90272935	      0.87247488	      0.01839771	     -0.09478690
      0.90588575	      0.87676698	      0.01815744	     -0.09478690
      0.90904214	      0.88117022	      0.01794551	     -0.09478690
      0.91219854	      0.88572416	      0.01777020	     -0.09478690
      0.91535493	      0.89045320	      0.01762974	     -0.09478690
      0.91851133	      0.89537308	      0.01751852	     -0.09478690
      0.92166773	      0.90048427	      0.01742492	     -0.09478690
      0.92482412	      0.90578007	      0.01733600	     -0.09478690
      0.92798052	      0.91124110	      0.01723429	     -0.09478690
      0.93113692	      0.91684261	      0.01710038	     -0.09478690
      0.93429331	      0.92255173	      0.01691376	     -0.09478690
      0.93744971	      0.92833330	      0.01665467	     -0.09478690
      0.94060611	      0.93414880	      0.01630791	     -0.09478690
      0.94376250	      0.93995949	      0.01586125	     -0.09478690
      0.94691890	      0.94572583	      0.01531049	     -0.09478690
      0.95007529	      0.95140828	      0.01465485	     -0.09478690
      0.95323169	      0.95696066	      0.01390030	     -0.09478690
      0.95638809	      0.96232973	      0.01305380	     -0.09478690
      0.95954448	      0.96744131	      0.01212544	     -0.09478690
      0.96270088	      0.97220823	      0.01112495	     -0.09478690
      0.96585728	      0.97653197	      0.01006527	     -0.09478690
      0.96901367	      0.98031697	      0.00896459	     -0.09478690
      0.97217007	      0.98351024	      0.00787080	     -0.09478690
      0.97532647	      0.98609776	      0.00685283	     -0.09478690
      0.97848286	      0.98811494	      0.00596567	     -0.09478690
      0.98163926	      0.98960227	      0.00523582	     -0.09478690
      0.98479565	      0.99050993	      0.00460851	     -0.09478690
      0.98795205	      0.99085072	      0.00408672	     -0.09478690
      0.99110845	      0.99090163	      0.00370870	     -0.09478690
      0.99426484	      0.99088092	      0.00336693	     -0.09478690
      0.99742124	      0.99083182	      0.00298562	     -0.09478690
      1.00057764	      0.99078435	      0.00259064	     -0.09478690
      1.00373403	      0.99074528	      0.00223364	     -0.09478690
      1.00689043	      0.99071908	      0.00195487	     -0.09478690
      1.01004682	      0.99070652	      0.00176795	     -0.09478690
      1.01320322	      0.99070742	      0.00167549	     -0.09478690
      1.01635962	      0.99072166	      0.00166366	     -0.09478690
      1.01951601	      0.99074886	      0.00171649	     -0.09478690
      1.02267241	      0.99078856	      0.00181789	     -0.09478690
      1.02582881	      0.99084008	      0.00195439	     -0.09478690
      1.02898520	      0.99090249	      0.00211531	     -0.09478690
      1.03214160	      0.99097489	      0.00229198	     -0.09478690
      1.03529800	      0.99105611	      0.00247816	     -0.09478690
      1.03845439	      0.99114510	      0.00266878	     -0.09478690
      1.04161079	      0.99124072	      0.00285943	     -0.09478690
      1.04476718	      0.99134202	      0.00304616	     -0.09478690
      1.04792358	      0.99144803	      0.00322564	     -0.09478690
      1.05107998	      0.99155792	      0.00339510	     -0.09478690
      1.05423637	      0.99167088	      0.00355217	     -0.09478690
      1.05739277	      0.99178623	      0.00369483	     -0.09478690
      1.06054917	      0.99190338	      0.00382145	     -0.09478690
      1.06370556	      0.99202185	      0.00393064	     -0.09478690
      1.06686196	      0.99214122	      0.00402123	     -0.09478690
      1.07001835	      0.99226119	      0.00409219	     -0.09478690
      1.07317475	      0.99238152	      0.00414265	     -0.09478690
      1.07633115	      0.99250205	      0.00417184	     -0.09478690
      1.07948754	      0.99262268	      0.00417912	     -0.09478690
      1.08264394	      0.99274333	      0.00416397	     -0.09478690
      1.08580034	      0.99286399	      0.00412607	     -0.09478690
      1.08895673	      0.99298466	      0.00406520	     -0.09478690
      1.09211313	      0.99310534	      0.00398136	     -0.09478690
      1.09526953	      0.99322603	      0.00387469	     -0.09478690
      1.09842592	      0.99334675	      0.00374550	     -0.09478690
      1.10158232	      0.99346750	      0.00359423	     -0.09478690
      1.10473871	      0.99358827	      0.00342151	     -0.09478690
      1.10789511	      0.99370905	      0.00322806	     -0.09478690
      1.11105151	      0.99382980	      0.00301474	     -0.09478690
      1.11420790	      0.99395050	      0.00278248	     -0.09478690
      1.11736430	      0.99407111	      0.00253236	     -0.09478690
      1.12052070	      0.99419161	      0.00226546	     -0.09478690
      1.12367709	      0.99431197	      0.00198300	     -0.09478690
      1.12683349	      0.99443219	      0.00168621	     -0.09478690
      1.12998989	      0.99455225	      0.00137637	     -0.09478690
      1.13314628	      0.99467217	      0.00105480	     -0.09478690
      1.13630268	      0.99479196	      0.00072283	     -0.09478690
      1.13945907	      0.99491164	      0.00038179	     -0.09478690
      1.14261547	      0.99503123	      0.00003301	     -0.09478690
      1.14577187	      0.99515074	     -0.00032220	     -0.09478690
      1.14892826	      0.99527020	     -0.00068256	     -0.09478690
      1.15208466	      0.99538962	     -0.00104683	     -0.09478690
      1.15524106	      0.99550901	     -0.00141382	     -0.09478690
      1.15839745	      0.99562837	     -0.00178237	     -0.09478690
      1.16155385	      0.99574772	     -0.00215140	     -0.09478690
      1.16471024	      0.99586704	     -0.00251985	     -0.09478690
      1.16786664	      0.99598635	     -0.00288672	     -0.09478690
      1.17102304	      0.99610564	     -0.00325106	     -0.09478690
      1.17417943	      0.99622494	     -0.00361199	     -0.09478690
      1.17733583	      0.99634424	     -0.00396870	     -0.09478690
      1.18049223	      0.99646357	     -0.00432049	     -0.09478690
      1.18364862	      0.99658293	     -0.00466668	     -0.09478690
      1.18680502	      0.99670232	     -0.00500672	     -0.09478690
      1.18996142	      0.99682178	     -0.00534010	     -0.09478690
      1.19311781	      0.99694130	     -0.00566637	     -0.09478690
      1.19627421	      0.99706089	     -0.00598511	     -0.09478690
      1.19943060	      0.99718058	     -0.00629594	     -0.09478690
      1.20258700	      0.99730039	     -0.00659849	     -0.09478690
      1.20574340	      0.99742032	     -0.00689239	     -0.09478690
      1.20889979	      0.99754041	     -0.00717728	     -0.09478690
      1.21205619	      0.99766066	     -0.00745280	     -0.09478690
      1.21521259	      0.99778108	     -0.00771858	     -0.09478690
      1.21836898	      0.99790169	     -0.00797428	     -0.09478690
      1.22152538	      0.99802246	     -0.00821958	     -0.09478690
      1.22468177	      0.99814339	     -0.00845427	     -0.09478690
      1.22783817	      0.99826444	     -0.00867818	     -0.09478690
      1.23099457	      0.99838558	     -0.00889121	     -0.09478690
      1.23415096	      0.99850678	     -0.00909327	     -0.09478690
      1.23730736	      0.99862798	     -0.00928420	     -0.09478690
      1.24046376	      0.99874915	     -0.00946381	     -0.09478690
      1.24362015	      0.99887024	     -0.00963184	     -0.09478690
      1.24677655	      0.99899120	     -0.00978802	     -0.09478690
      1.24993295	      0.99911199	     -0.00993208	     -0.09478690
      1.25308934	      0.99923254	     -0.01006378	     -0.09478690
      1.25624574	      0.99935276	     -0.01018292	     -0.09478690
      1.25940213	      0.99947259	     -0.01028935	     -0.09478690
      1.26255853	      0.99959192	     -0.01038291	     -0.09478690
      1.26571493	      0.99971067	     -0.01046348	     -0.09478690
      1.26887132	      0.99982878	     -0.01053094	     -0.09478690
      1.27202772	      0.99994620	     -0.01058520	     -0.09478690
      1.27518412	      1.00006288	     -0.01062619	     -0.09478690
      1.27834051	      1.00017882	     -0.01065387	     -0.09478690
      1.28149691	      1.00029402	     -0.01066830	     -0.09478690
      1.28465331	      1.00040851	     -0.01066959	     -0.09478690
      1.28780970	      1.00052228	     -0.01065798	     -0.09478690
      1.29096610	      1.00063535	     -0.01063376	     -0.09478690
      1.29412249	      1.00074773	     -0.01059733	     -0.09478690
      1.29727889	      1.00085940	     -0.01054918	     -0.09478690
      1.30043529	      1.00097036	     -0.01048986	     -0.09478690
      1.30359168	      1.00108056	     -0.01042002	     -0.09478690
      1.30674808	      1.00118993	     -0.01034044	     -0.09478690
      1.30990448	      1.00129841	     -0.01025198	     -0.09478690
      1.31306087	      1.00140591	     -0.01015571	     -0.09478690
      1.31621727	      1.00151236	     -0.01005278	     -0.09478690
      1.31937366	      1.00161768	     -0.00994409	     -0.09478690
      1.32253006	      1.00172177	     -0.00983044	     -0.09478690
      1.32568646	      1.00182458	     -0.00971245	     -0.09478690
      1.32884285	      1.00192601	     -0.00959078	     -0.09478690
      1.33199925	      1.00202598	     -0.00946609	     -0.09478690
      1.33515565	      1.00212438	     -0.00933900	     -0.09478690
      1.33831204	      1.00222112	     -0.00921009	     -0.09478690
      1.34146844	      1.00231611	     -0.00907988	     -0.09478690
      1.34462484	      1.00240925	     -0.00894875	     -0.09478690
      1.34778123	      1.00250047	     -0.00881702	     -0.09478690
      1.35093763	      1.00258971	     -0.00868485	     -0.09478690
      1.35409402	      1.00267691	     -0.00855238	     -0.09478690
      1.35725042	      1.00276208	     -0.00841964	     -0.09478690
      1.36040682	      1.00284520	     -0.00828668	     -0.09478690
      1.36356321	      1.00292632	     -0.00815352	     -0.09478690
      1.36671961	      1.00300548	     -0.00802021	     -0.09478690
      1.36987601	      1.00308275	     -0.00788683	     -0.09478690
      1.37303240	      1.00315822	     -0.00775348	     -0.09478690
      1.37618880	      1.00323199	     -0.00762032	     -0.09478690
      1.37934519	      1.00330414	     -0.00748756	     -0.09478690
      1.38250159	      1.00337479	     -0.00735547	     -0.09478690
      1.38565799	      1.00344403	     -0.00722433	     -0.09478690
      1.38881438	      1.00351195	     -0.00709452	     -0.09478690
      1.39197078	      1.00357865	     -0.00696641	     -0.09478690
      1.39512718	      1.00364418	     -0.00684043	     -0.09478690
      1.39828357	      1.00370863	     -0.00671703	     -0.09478690
      1.40143997	      1.00377205	     -0.00659667	     -0.09478690
      1.40459637	      1.00383446	     -0.00647986	     -0.09478690
      1.40775276	      1.00389592	     -0.00636711	     -0.09478690
      1.41090916	      1.00395643	     -0.00625894	     -0.09478690
      1.41406555	      1.00401601	     -0.00615590	     -0.09478690
      1.41722195	      1.00407467	     -0.00605854	     -0.09478690
      1.42037835	      1.00413240	     -0.00596741	     -0.09478690
      1.42353474	      1.00418919	     -0.00588308	     -0.09478690
      1.42669114	      1.00424503	     -0.00580611	     -0.09478690
      1.42984754	      1.00429990	     -0.00573707	     -0.09478690
      1.43300393	      1.00435376	     -0.00567653	     -0.09478690
      1.43616033	      1.00440657	     -0.00562504	     -0.09478690
      1.43931673	      1.00445829	     -0.00558318	     -0.09478690
      1.44247312	      1.00450884	     -0.00555151	     -0.09478690
      1.44562952	      1.00455816	     -0.00553059	     -0.09478690
      1.44878591	      1.00460616	     -0.00552099	     -0.09478690
      1.45194231	      1.00465273	     -0.00552326	     -0.09478690
      1.45509871	      1.00469777	     -0.00553797	     -0.09478690
      1.45825510	      1.00474114	     -0.00556569	     -0.09478690
      1.46141150	      1.00478272	     -0.00560695	     -0.09478690
      1.46456790	      1.00482235	     -0.00566232	     -0.09478690
      1.46772429	      1.00485991	     -0.00573234	     -0.09478690
      1.47088069	      1.00489523	     -0.00581750	     -0.09478690
      1.47403708	      1.00492818	     -0.00591828	     -0.09478690
      1.47719348	      1.00495861	     -0.00603508	     -0.09478690
      1.48034988	      1.00498640	     -0.00616824	     -0.09478690
      1.48350627	      1.00501141	     -0.00631794	     -0.09478690
      1.48666267	      1.00503354	     -0.00648425	     -0.09478690
      1.48981907	      1.00505270	     -0.00666696	     -0.09478690
      1.49297546	      1.00506880	     -0.00686570	     -0.09478690
      1.49613186	      1.00508180	     -0.00707971	     -0.09478690
      1.49928826	      1.00509166	     -0.00730805	     -0.09478690
      1.50244465	      1.00509836	     -0.00754947	     -0.09478690
      1.50560105	      1.00510190	     -0.00780256	     -0.09478690
      1.50875744	      1.00510232	     -0.00806572	     -0.09478690
      1.51191384	      1.00509963	     -0.00833722	     -0.09478690
      1.51507024	      1.00509389	     -0.00861526	     -0.09478690
      1.51822663	      1.00508513	     -0.00889800	     -0.09478690
      1.52138303	      1.00507339	     -0.00918358	     -0.09478690
      1.52453943	      1.00505871	     -0.00947023	     -0.09478690
      1.52769582	      1.00504113	     -0.00975622	     -0.09478690
      1.53085222	      1.00502068	     -0.01003991	     -0.09478690
      1.53400861	      1.00499739	     -0.01031976	     -0.09478690
      1.53716501	      1.00497132	     -0.01059430	     -0.09478690
      1.54032141	      1.00494251	     -0.01086219	     -0.09478690
      1.54347780	      1.00491101	     -0.01112214	     -0.09478690
      1.54663420	      1.00487689	     -0.01137308	     -0.09478690
      1.54979060	      1.00484023	     -0.01161404	     -0.09478690
      1.55294699	      1.00480111	     -0.01184430	     -0.09478690
      1.55610339	      1.00475961	     -0.01206328	     -0.09478690
      1.55925979	      1.00471582	     -0.01227066	     -0.09478690
      1.56241618	      1.00466982	     -0.01246619	     -0.09478690
      1.56557258	      1.00462170	     -0.01264983	     -0.09478690
      1.56872897	      1.00457151	     -0.01282162	     -0.09478690
      1.57188537	      1.00451934	     -0.01298171	     -0.09478690
      1.57504177	      1.00446525	     -0.01313031	     -0.09478690
      1.57819816	      1.00440931	     -0.01326770	     -0.09478690
      1.58135456	      1.00435158	     -0.01339420	     -0.09478690
      1.58451096	      1.00429214	     -0.01351018	     -0.09478690
      1.58766735	      1.00423105	     -0.01361606	     -0.09478690
      1.59082375	      1.00416841	     -0.01371225	     -0.09478690
      1.59398015	      1.00410428	     -0.01379923	     -0.09478690
      1.59713654	      1.00403873	     -0.01387746	     -0.09478690
      1.60029294	      1.00397186	     -0.01394742	     -0.09478690
      1.60344933	      1.00390372	     -0.01400959	     -0.09478690
      1.60660573	      1.00383439	     -0.01406442	     -0.09478690
      1.60976213	      1.00376393	     -0.01411238	     -0.09478690
      1.61291852	      1.00369240	     -0.01415391	     -0.09478690
      1.61607492	      1.00361985	     -0.01418942	     -0.09478690
      1.61923132	      1.00354634	     -0.01421932	     -0.09478690
      1.62238771	      1.00347189	     -0.01424397	     -0.09478690
      1.62554411	      1.00339655	     -0.01426373	     -0.09478690
      1.62870050	      1.00332034	     -0.01427890	     -0.09478690
      1.63185690	      1.00324331	     -0.01428980	     -0.09478690
      1.63501330	      1.00316547	     -0.01429669	     -0.09478690
      1.63816969	      1.00308684	     -0.01429984	     -0.09478690
      1.64132609	      1.00300744	     -0.01429946	     -0.09478690
      1.64448249	      1.00292729	     -0.01429579	     -0.09478690
      1.64763888	      1.00284640	     -0.01428899	     -0.09478690
      1.65079528	      1.00276478	     -0.01427926	     -0.09478690
      1.65395168	      1.00268244	     -0.01426675	     -0.09478690
      1.65710807	      1.00259938	     -0.01425163	     -0.09478690
      1.66026447	      1.00251562	     -0.01423405	     -0.09478690
      1.66342086	      1.00243115	     -0.01421414	     -0.09478690
      1.66657726	      1.00234597	     -0.01419205	     -0.09478690
      1.66973366	      1.00226010	     -0.01416791	     -0.09478690
      1.67289005	      1.00217352	     -0.01414186	     -0.09478690
      1.67604645	      1.00208623	     -0.01411404	     -0.09478690
      1.67920285	      1.00199824	     -0.01408459	     -0.09478690
      1.68235924	      1.00190953	     -0.01405363	     -0.09478690
      1.68551564	      1.00182010	     -0.01402130	     -0.09478690
      1.68867203	      1.00172995	     -0.01398776	     -0.09478690
      1.69182843	      1.00163906	     -0.01395312	     -0.09478690
      1.69498483	      1.00154744	     -0.01391755	     -0.09478690
      1.69814122	      1.00145506	     -0.01388118	     -0.09478690
      1.70129762	      1.00136194	     -0.01384415	     -0.09478690
      1.70445402	      1.00126805	     -0.01380659	     -0.09478690
      1.70761041	      1.00117339	     -0.01376866	     -0.09478690
      1.71076681	      1.00107795	     -0.01373048	     -0.09478690
      1.71392321	      1.00098173	     -0.01369219	     -0.09478690
      1.71707960	      1.00088471	     -0.01365392	     -0.09478690
      1.72023600	      1.00078689	     -0.01361580	     -0.09478690
      1.72339239	      1.00068826	     -0.01357793	     -0.09478690
      1.72654879	      1.00058882	     -0.01354045	     -0.09478690
      1.72970519	      1.00048856	     -0.01350347	     -0.09478690
      1.73286158	      1.00038748	     -0.01346709	     -0.09478690
      1.73601798	      1.00028557	     -0.01343142	     -0.09478690
      1.73917438	      1.00018283	     -0.01339657	     -0.09478690
      1.74233077	      1.00007926	     -0.01336263	     -0.09478690
      1.74548717	      0.99997486	     -0.01332970	     -0.09478690
      1.74864357	      0.99986963	     -0.01329788	     -0.09478690
      1.75179996	      0.99976358	     -0.01326726	     -0.09478690
      1.75495636	      0.99965671	     -0.01323794	     -0.09478690
      1.75811275	      0.99954903	     -0.01320999	     -0.09478690
      1.76126915	      0.99944053	     -0.01318350	     -0.09478690
      1.76442555	      0.99933123	     -0.01315855	     -0.09478690
      1.76758194	      0.99922113	     -0.01313522	     -0.09478690
      1.77073834	      0.99911025	     -0.01311359	     -0.09478690
      1.77389474	      0.99899857	     -0.01309372	     -0.09478690
      1.77705113	      0.99888613	     -0.01307568	     -0.09478690
      1.78020753	      0.99877291	     -0.01305954	     -0.09478690
      1.78336392	      0.99865892	     -0.01304533	     -0.09478690
      1.78652032	      0.99854417	     -0.01303310	     -0.09478690
      1.78967672	      0.99842865	     -0.01302289	     -0.09478690
      1.79283311	      0.99831238	     -0.01301469	     -0.09478690
      1.79598951	      0.99819533	     -0.01300850	     -0.09478690
      1.79914591	      0.99807751	     -0.01300428	     -0.09478690
      1.80230230	      0.99795890	     -0.01300197	     -0.09478690
      1.80545870	      0.99783950	     -0.01300149	     -0.09478690
      1.80861510	      0.99771928	     -0.01300272	     -0.09478690
      1.81177149	      0.99759823	     -0.01300550	     -0.09478690
      1.81492789	      0.99747632	     -0.01300967	     -0.09478690
      1.81808428	      0.99735352	     -0.01301502	     -0.09478690
      1.82124068	      0.99722979	     -0.01302133	     -0.09478690
      1.82439708	      0.99710509	     -0.01302836	     -0.09478690
      1.82755347	      0.99697937	     -0.01303586	     -0.09478690
      1.83070987	      0.99685257	     -0.01304356	     -0.09478690
      1.83386627	      0.99672463	     -0.01305120	     -0.09478690
      1.83702266	      0.99659547	     -0.01305854	     -0.09478690
      1.84017906	      0.99646503	     -0.01306531	     -0.09478690
      1.84333546	      0.99633322	     -0.01307130	     -0.09478690
      1.84649185	      0.99619996	     -0.01307628	     -0.09478690
      1.84964825	      0.99606517	     -0.01308004	     -0.09478690
      1.85280464	      0.99592876	     -0.01308237	     -0.09478690
      1.85596104	      0.99579065	     -0.01308306	     -0.09478690
      1.85911744	      0.99565075	     -0.01308183	     -0.09478690
      1.86227383	      0.99550899	     -0.01307838	     -0.09478690
      1.86543023	      0.99536529	     -0.01307234	     -0.09478690
      1.86858663	      0.99521961	     -0.01306328	     -0.09478690
      1.87174302	      0.99507191	     -0.01305069	     -0.09478690
      1.87489942	      0.99492213	     -0.01303403	     -0.09478690
      1.87805581	      0.99477023	     -0.01301268	     -0.09478690
      1.88121221	      0.99461618	     -0.01298603	     -0.09478690
      1.88436861	      0.99445997	     -0.01295338	     -0.09478690
      1.88752500	      0.99430153	     -0.01291385	     -0.09478690
      1.89068140	      0.99414074	     -0.01286657	     -0.09478690
      1.89383780	      0.99397774	     -0.01281122	     -0.09478690
