PointVelocity
version=1
nRows=601
nColumns=4
inDegrees=no
No description.
endheader
time	state_0	state_1	state_2
      0.00000000	      0.66842139	     -0.19957905	      0.00000000
      0.00166437	      0.66966216	     -0.20405217	      0.00000000
      0.00332874	      0.67082593	     -0.20856932	      0.00000000
      0.00499312	      0.67185996	     -0.21314642	      0.00000000
      0.00665749	      0.67276703	     -0.21777741	      0.00000000
      0.00832186	      0.67352807	     -0.22245689	      0.00000000
      0.00998623	      0.67413660	     -0.22717525	      0.00000000
      0.01165061	      0.67457164	     -0.23190180	      0.00000000
      0.01331498	      0.67481154	     -0.23660805	      0.00000000
      0.01497935	      0.67482199	     -0.24123615	      0.00000000
      0.01664372	      0.67456407	     -0.24572536	      0.00000000
      0.01830810	      0.67401250	     -0.25001199	      0.00000000
      0.01997247	      0.67314020	     -0.25403445	      0.00000000
      0.02163684	      0.67196001	     -0.25775939	      0.00000000
      0.02330121	      0.67047091	     -0.26113734	      0.00000000
      0.02496559	      0.66871852	     -0.26416270	      0.00000000
      0.02662996	      0.66665415	     -0.26669174	      0.00000000
      0.02829433	      0.66432736	     -0.26872136	      0.00000000
      0.02995870	      0.66210901	     -0.27073179	      0.00000000
      0.03162308	      0.66020010	     -0.27292215	      0.00000000
      0.03328745	      0.65845690	     -0.27496782	      0.00000000
      0.03495182	      0.65668842	     -0.27655360	      0.00000000
      0.03661619	      0.65484727	     -0.27757839	      0.00000000
      0.03828057	      0.65289507	     -0.27798252	      0.00000000
      0.03994494	      0.65079189	     -0.27769552	      0.00000000
      0.04160931	      0.64852880	     -0.27670510	      0.00000000
      0.04327368	      0.64609075	     -0.27498606	      0.00000000
      0.04493806	      0.64348558	     -0.27255136	      0.00000000
      0.04660243	      0.64071613	     -0.26940485	      0.00000000
      0.04826680	      0.63779838	     -0.26557329	      0.00000000
      0.04993117	      0.63474523	     -0.26107730	      0.00000000
      0.05159555	      0.63157591	     -0.25595224	      0.00000000
      0.05325992	      0.62830790	     -0.25022959	      0.00000000
      0.05492429	      0.62496132	     -0.24395214	      0.00000000
      0.05658866	      0.62155607	     -0.23716143	      0.00000000
      0.05825303	      0.61811233	     -0.22990522	      0.00000000
      0.05991741	      0.61465021	     -0.22222843	      0.00000000
      0.06158178	      0.61118822	     -0.21417980	      0.00000000
      0.06324615	      0.60774569	     -0.20580609	      0.00000000
      0.06491052	      0.60433886	     -0.19715883	      0.00000000
      0.06657490	      0.60098551	     -0.18829436	      0.00000000
      0.06823927	      0.59769757	     -0.17926366	      0.00000000
      0.06990364	      0.59448560	     -0.17011287	      0.00000000
      0.07156801	      0.59135733	     -0.16088963	      0.00000000
      0.07323239	      0.58831917	     -0.15163607	      0.00000000
      0.07489676	      0.58538558	     -0.14240996	      0.00000000
      0.07656113	      0.58258402	     -0.13329157	      0.00000000
      0.07822550	      0.57993337	     -0.12433707	      0.00000000
      0.07988988	      0.57744358	     -0.11558117	      0.00000000
      0.08155425	      0.57508983	     -0.10703519	      0.00000000
      0.08321862	      0.57285078	     -0.09873596	      0.00000000
      0.08488299	      0.57070827	     -0.09069023	      0.00000000
      0.08654737	      0.56865192	     -0.08289902	      0.00000000
      0.08821174	      0.56666280	     -0.07533379	      0.00000000
      0.08987611	      0.56471026	     -0.06795832	      0.00000000
      0.09154048	      0.56277726	     -0.06075909	      0.00000000
      0.09320486	      0.56085369	     -0.05373648	      0.00000000
      0.09486923	      0.55895220	     -0.04692195	      0.00000000
      0.09653360	      0.55708349	     -0.04034303	      0.00000000
      0.09819797	      0.55526129	     -0.03402393	      0.00000000
      0.09986235	      0.55349631	     -0.02798499	      0.00000000
      0.10152672	      0.55179070	     -0.02222960	      0.00000000
      0.10319109	      0.55014601	     -0.01676191	      0.00000000
      0.10485546	      0.54855874	     -0.01157704	      0.00000000
      0.10651984	      0.54702691	     -0.00667330	      0.00000000
      0.10818421	      0.54554855	     -0.00204669	      0.00000000
      0.10984858	      0.54412234	      0.00230539	      0.00000000
      0.11151295	      0.54274804	      0.00638727	      0.00000000
      0.11317733	      0.54142520	      0.01020290	      0.00000000
      0.11484170	      0.54015399	      0.01375850	      0.00000000
      0.11650607	      0.53893431	      0.01706002	      0.00000000
      0.11817044	      0.53776657	      0.02011503	      0.00000000
      0.11983481	      0.53665109	      0.02293084	      0.00000000
      0.12149919	      0.53558879	      0.02551548	      0.00000000
      0.12316356	      0.53458049	      0.02787680	      0.00000000
      0.12482793	      0.53362740	      0.03002274	      0.00000000
      0.12649230	      0.53273066	      0.03196121	      0.00000000
      0.12815668	      0.53189139	      0.03369991	      0.00000000
      0.12982105	      0.53111073	      0.03524658	      0.00000000
      0.13148542	      0.53038944	      0.03660870	      0.00000000
      0.13314979	      0.52972839	      0.03779380	      0.00000000
      0.13481417	      0.52912780	      0.03880926	      0.00000000
      0.13647854	      0.52858800	      0.03966255	      0.00000000
      0.13814291	      0.52810870	      0.04036097	      0.00000000
      0.13980728	      0.52768974	      0.04091186	      0.00000000
      0.14147166	      0.52733059	      0.04132224	      0.00000000
      0.14313603	      0.52703083	      0.04159920	      0.00000000
      0.14480040	      0.52678974	      0.04174936	      0.00000000
      0.14646477	      0.52660666	      0.04177948	      0.00000000
      0.14812915	      0.52648063	      0.04169576	      0.00000000
      0.14979352	      0.52641076	      0.04150457	      0.00000000
      0.15145789	      0.52639593	      0.04121167	      0.00000000
      0.15312226	      0.52643506	      0.04082297	      0.00000000
      0.15478664	      0.52652703	      0.04034378	      0.00000000
      0.15645101	      0.52667073	      0.03977956	      0.00000000
      0.15811538	      0.52686516	      0.03913514	      0.00000000
      0.15977975	      0.52710931	      0.03841552	      0.00000000
      0.16144413	      0.52740231	      0.03762509	      0.00000000
      0.16310850	      0.52774329	      0.03676840	      0.00000000
      0.16477287	      0.52813149	      0.03584944	      0.00000000
      0.16643724	      0.52856614	      0.03487232	      0.00000000
      0.16810162	      0.52904650	      0.03384063	      0.00000000
      0.16976599	      0.52957181	      0.03275810	      0.00000000
      0.17143036	      0.53014133	      0.03162795	      0.00000000
      0.17309473	      0.53075432	      0.03045355	      0.00000000
      0.17475910	      0.53141004	      0.02923777	      0.00000000
      0.17642348	      0.53210776	      0.02798363	      0.00000000
      0.17808785	      0.53284678	      0.02669368	      0.00000000
      0.17975222	      0.53362641	      0.02537058	      0.00000000
      0.18141659	      0.53444598	      0.02401661	      0.00000000
      0.18308097	      0.53530484	      0.02263413	      0.00000000
      0.18474534	      0.53620237	      0.02122517	      0.00000000
      0.18640971	      0.53713795	      0.01979184	      0.00000000
      0.18807408	      0.53811105	      0.01833595	      0.00000000
      0.18973846	      0.53912109	      0.01685937	      0.00000000
      0.19140283	      0.54016766	      0.01536376	      0.00000000
      0.19306720	      0.54125030	      0.01385081	      0.00000000
      0.19473157	      0.54236870	      0.01232202	      0.00000000
      0.19639595	      0.54352253	      0.01077897	      0.00000000
      0.19806032	      0.54471160	      0.00922306	      0.00000000
      0.19972469	      0.54593567	      0.00765576	      0.00000000
      0.20138906	      0.54719465	      0.00607835	      0.00000000
      0.20305344	      0.54848842	      0.00449217	      0.00000000
      0.20471781	      0.54981695	      0.00289836	      0.00000000
      0.20638218	      0.55118021	      0.00129813	      0.00000000
      0.20804655	      0.55257819	     -0.00030752	      0.00000000
      0.20971093	      0.55401092	     -0.00191755	      0.00000000
      0.21137530	      0.55547842	     -0.00353113	      0.00000000
      0.21303967	      0.55698072	     -0.00514735	      0.00000000
      0.21470404	      0.55851786	     -0.00676558	      0.00000000
      0.21636842	      0.56008986	     -0.00838511	      0.00000000
      0.21803279	      0.56169674	     -0.01000545	      0.00000000
      0.21969716	      0.56333852	     -0.01162607	      0.00000000
      0.22136153	      0.56501523	     -0.01324661	      0.00000000
      0.22302591	      0.56672689	     -0.01486668	      0.00000000
      0.22469028	      0.56847354	     -0.01648603	      0.00000000
      0.22635465	      0.57025524	     -0.01810439	      0.00000000
      0.22801902	      0.57207210	     -0.01972159	      0.00000000
      0.22968340	      0.57392422	     -0.02133746	      0.00000000
      0.23134777	      0.57581184	     -0.02295189	      0.00000000
      0.23301214	      0.57773515	     -0.02456474	      0.00000000
      0.23467651	      0.57969451	     -0.02617590	      0.00000000
      0.23634088	      0.58169023	     -0.02778520	      0.00000000
      0.23800526	      0.58372281	     -0.02939249	      0.00000000
      0.23966963	      0.58579273	     -0.03099758	      0.00000000
      0.24133400	      0.58790061	     -0.03260030	      0.00000000
      0.24299837	      0.59004706	     -0.03420047	      0.00000000
      0.24466275	      0.59223279	     -0.03579794	      0.00000000
      0.24632712	      0.59445848	     -0.03739258	      0.00000000
      0.24799149	      0.59672484	     -0.03898434	      0.00000000
      0.24965586	      0.59903254	     -0.04057313	      0.00000000
      0.25132024	      0.60138230	     -0.04215901	      0.00000000
      0.25298461	      0.60377479	     -0.04374198	      0.00000000
      0.25464898	      0.60621074	     -0.04532217	      0.00000000
      0.25631335	      0.60869085	     -0.04689967	      0.00000000
      0.25797773	      0.61121590	     -0.04847465	      0.00000000
      0.25964210	      0.61378663	     -0.05004723	      0.00000000
      0.26130647	      0.61640388	     -0.05161759	      0.00000000
      0.26297084	      0.61906844	     -0.05318587	      0.00000000
      0.26463522	      0.62178115	     -0.05475224	      0.00000000
      0.26629959	      0.62454286	     -0.05631688	      0.00000000
      0.26796396	      0.62735447	     -0.05787999	      0.00000000
      0.26962833	      0.63021683	     -0.05944179	      0.00000000
      0.27129271	      0.63313089	     -0.06100252	      0.00000000
      0.27295708	      0.63609754	     -0.06256243	      0.00000000
      0.27462145	      0.63911771	     -0.06412180	      0.00000000
      0.27628582	      0.64219229	     -0.06568090	      0.00000000
      0.27795020	      0.64532224	     -0.06724006	      0.00000000
      0.27961457	      0.64850844	     -0.06879958	      0.00000000
      0.28127894	      0.65175185	     -0.07035986	      0.00000000
      0.28294331	      0.65505338	     -0.07192127	      0.00000000
      0.28460769	      0.65841398	     -0.07348422	      0.00000000
      0.28627206	      0.66183459	     -0.07504915	      0.00000000
      0.28793643	      0.66531619	     -0.07661648	      0.00000000
      0.28960080	      0.66885971	     -0.07818663	      0.00000000
      0.29126517	      0.67246619	     -0.07975998	      0.00000000
      0.29292955	      0.67613657	     -0.08133690	      0.00000000
      0.29459392	      0.67987203	     -0.08291770	      0.00000000
      0.29625829	      0.68367361	     -0.08450267	      0.00000000
      0.29792266	      0.68754270	     -0.08609208	      0.00000000
      0.29958704	      0.69148059	     -0.08768616	      0.00000000
      0.30125141	      0.69548895	     -0.08928516	      0.00000000
      0.30291578	      0.69956936	     -0.09088929	      0.00000000
      0.30458015	      0.70372361	     -0.09249882	      0.00000000
      0.30624453	      0.70795344	     -0.09411395	      0.00000000
      0.30790890	      0.71226045	     -0.09573493	      0.00000000
      0.30957327	      0.71664621	     -0.09736195	      0.00000000
      0.31123764	      0.72111191	     -0.09899529	      0.00000000
      0.31290202	      0.72565866	     -0.10063519	      0.00000000
      0.31456639	      0.73028723	     -0.10228219	      0.00000000
      0.31623076	      0.73499787	     -0.10393725	      0.00000000
      0.31789513	      0.73978806	     -0.10560386	      0.00000000
      0.31955951	      0.74465737	     -0.10728360	      0.00000000
      0.32122388	      0.74961008	     -0.10897471	      0.00000000
      0.32288825	      0.75464751	     -0.11067773	      0.00000000
      0.32455262	      0.75977214	     -0.11239327	      0.00000000
      0.32621700	      0.76498692	     -0.11412135	      0.00000000
      0.32788137	      0.77029650	     -0.11586155	      0.00000000
      0.32954574	      0.77570574	     -0.11761342	      0.00000000
      0.33121011	      0.78121959	     -0.11937624	      0.00000000
      0.33287449	      0.78684458	     -0.12114971	      0.00000000
      0.33453886	      0.79258318	     -0.12293301	      0.00000000
      0.33620323	      0.79843415	     -0.12472435	      0.00000000
      0.33786760	      0.80439671	     -0.12652368	      0.00000000
      0.33953198	      0.81047213	     -0.12833109	      0.00000000
      0.34119635	      0.81665932	     -0.13014640	      0.00000000
      0.34286072	      0.82295641	     -0.13196942	      0.00000000
      0.34452509	      0.82936931	     -0.13380249	      0.00000000
      0.34618947	      0.83590374	     -0.13564784	      0.00000000
      0.34785384	      0.84257273	     -0.13750896	      0.00000000
      0.34951821	      0.84938811	     -0.13938879	      0.00000000
      0.35118258	      0.85636471	     -0.14129049	      0.00000000
      0.35284695	      0.86351802	     -0.14321782	      0.00000000
      0.35451133	      0.87085968	     -0.14517314	      0.00000000
      0.35617570	      0.87840097	     -0.14715868	      0.00000000
      0.35784007	      0.88614571	     -0.14917425	      0.00000000
      0.35950444	      0.89409825	     -0.15121920	      0.00000000
      0.36116882	      0.90225933	     -0.15329328	      0.00000000
      0.36283319	      0.91063551	     -0.15539855	      0.00000000
      0.36449756	      0.91922378	     -0.15753654	      0.00000000
      0.36616193	      0.92803293	     -0.15970990	      0.00000000
      0.36782631	      0.93703134	     -0.16191513	      0.00000000
      0.36949068	      0.94619396	     -0.16415328	      0.00000000
      0.37115505	      0.95543241	     -0.16640221	      0.00000000
      0.37281942	      0.96466873	     -0.16864766	      0.00000000
      0.37448380	      0.97378180	     -0.17084724	      0.00000000
      0.37614817	      0.98275227	     -0.17299566	      0.00000000
      0.37781254	      0.99134849	     -0.17499171	      0.00000000
      0.37947691	      0.99910801	     -0.17667745	      0.00000000
      0.38114129	      1.00553071	     -0.17781742	      0.00000000
      0.38280566	      1.01023839	     -0.17820193	      0.00000000
      0.38447003	      1.01357042	     -0.17780249	      0.00000000
      0.38613440	      1.01586568	     -0.17661682	      0.00000000
      0.38779878	      1.01750856	     -0.17470135	      0.00000000
      0.38946315	      1.01926388	     -0.17215764	      0.00000000
      0.39112752	      1.02116764	     -0.16884361	      0.00000000
      0.39279189	      1.02218925	     -0.16434384	      0.00000000
      0.39445627	      1.02178682	     -0.15858038	      0.00000000
      0.39612064	      1.02028776	     -0.15173509	      0.00000000
      0.39778501	      1.01799142	     -0.14415490	      0.00000000
      0.39944938	      1.01499326	     -0.13606686	      0.00000000
      0.40111376	      1.01141291	     -0.12761218	      0.00000000
      0.40277813	      1.00735237	     -0.11892919	      0.00000000
      0.40444250	      1.00293199	     -0.11009567	      0.00000000
      0.40610687	      0.99826271	     -0.10120567	      0.00000000
      0.40777124	      0.99343644	     -0.09231665	      0.00000000
      0.40943562	      0.98854630	     -0.08349501	      0.00000000
      0.41109999	      0.98365054	     -0.07477766	      0.00000000
      0.41276436	      0.97881182	     -0.06620907	      0.00000000
      0.41442873	      0.97406073	     -0.05780919	      0.00000000
      0.41609311	      0.96943748	     -0.04960176	      0.00000000
      0.41775748	      0.96495336	     -0.04159101	      0.00000000
      0.41942185	      0.96062821	     -0.03378315	      0.00000000
      0.42108622	      0.95644789	     -0.02617855	      0.00000000
      0.42275060	      0.95239987	     -0.01878119	      0.00000000
      0.42441497	      0.94844765	     -0.01159715	      0.00000000
      0.42607934	      0.94455763	     -0.00463354	      0.00000000
      0.42774371	      0.94069597	      0.00210244	      0.00000000
      0.42940809	      0.93682471	      0.00860053	      0.00000000
      0.43107246	      0.93293440	      0.01485983	      0.00000000
      0.43273683	      0.92902241	      0.02088351	      0.00000000
      0.43440120	      0.92510744	      0.02668239	      0.00000000
      0.43606558	      0.92119701	      0.03226189	      0.00000000
      0.43772995	      0.91730540	      0.03762894	      0.00000000
      0.43939432	      0.91344320	      0.04278916	      0.00000000
      0.44105869	      0.90963473	      0.04775573	      0.00000000
      0.44272307	      0.90591208	      0.05254338	      0.00000000
      0.44438744	      0.90230396	      0.05717210	      0.00000000
      0.44605181	      0.89883447	      0.06166026	      0.00000000
      0.44771618	      0.89550834	      0.06602387	      0.00000000
      0.44938056	      0.89233309	      0.07027960	      0.00000000
      0.45104493	      0.88930230	      0.07443852	      0.00000000
      0.45270930	      0.88641341	      0.07851306	      0.00000000
      0.45437367	      0.88365582	      0.08250792	      0.00000000
      0.45603805	      0.88102078	      0.08642942	      0.00000000
      0.45770242	      0.87849479	      0.09027528	      0.00000000
      0.45936679	      0.87606494	      0.09404474	      0.00000000
      0.46103116	      0.87371709	      0.09772987	      0.00000000
      0.46269554	      0.87143671	      0.10132397	      0.00000000
      0.46435991	      0.86921218	      0.10481645	      0.00000000
      0.46602428	      0.86703129	      0.10819703	      0.00000000
      0.46768865	      0.86488714	      0.11145603	      0.00000000
      0.46935302	      0.86277162	      0.11458383	      0.00000000
      0.47101740	      0.86068162	      0.11757485	      0.00000000
      0.47268177	      0.85861257	      0.12042334	      0.00000000
      0.47434614	      0.85656392	      0.12312783	      0.00000000
      0.47601051	      0.85453432	      0.12568560	      0.00000000
      0.47767489	      0.85252493	      0.12809782	      0.00000000
      0.47933926	      0.85053585	      0.13036582	      0.00000000
      0.48100363	      0.84856894	      0.13249245	      0.00000000
      0.48266800	      0.84662684	      0.13447791	      0.00000000
      0.48433238	      0.84471152	      0.13632607	      0.00000000
      0.48599675	      0.84282357	      0.13804342	      0.00000000
      0.48766112	      0.84096283	      0.13963727	      0.00000000
      0.48932549	      0.83913028	      0.14111236	      0.00000000
      0.49098987	      0.83732703	      0.14247213	      0.00000000
      0.49265424	      0.83555401	      0.14372109	      0.00000000
      0.49431861	      0.83381158	      0.14486333	      0.00000000
      0.49598298	      0.83210056	      0.14590254	      0.00000000
      0.49764736	      0.83042077	      0.14684229	      0.00000000
      0.49931173	      0.82877239	      0.14768617	      0.00000000
      0.50097610	      0.82715384	      0.14843875	      0.00000000
      0.50264047	      0.82556384	      0.14910476	      0.00000000
      0.50430485	      0.82399943	      0.14968980	      0.00000000
      0.50596922	      0.82245779	      0.15019956	      0.00000000
      0.50763359	      0.82093553	      0.15063906	      0.00000000
      0.50929796	      0.81942944	      0.15101310	      0.00000000
      0.51096234	      0.81793692	      0.15132502	      0.00000000
      0.51262671	      0.81645546	      0.15157800	      0.00000000
      0.51429108	      0.81498331	      0.15177510	      0.00000000
      0.51595545	      0.81351850	      0.15192006	      0.00000000
      0.51761983	      0.81205965	      0.15201686	      0.00000000
      0.51928420	      0.81060510	      0.15207014	      0.00000000
      0.52094857	      0.80915409	      0.15208201	      0.00000000
      0.52261294	      0.80770599	      0.15205410	      0.00000000
      0.52427731	      0.80626075	      0.15198532	      0.00000000
      0.52594169	      0.80481844	      0.15187475	      0.00000000
      0.52760606	      0.80337866	      0.15172173	      0.00000000
      0.52927043	      0.80194142	      0.15152580	      0.00000000
      0.53093480	      0.80050471	      0.15128834	      0.00000000
      0.53259918	      0.79906644	      0.15101079	      0.00000000
      0.53426355	      0.79762232	      0.15069535	      0.00000000
      0.53592792	      0.79616857	      0.15034423	      0.00000000
      0.53759229	      0.79469979	      0.14995927	      0.00000000
      0.53925667	      0.79321070	      0.14954230	      0.00000000
      0.54092104	      0.79169471	      0.14909451	      0.00000000
      0.54258541	      0.79014539	      0.14861734	      0.00000000
      0.54424978	      0.78855585	      0.14811082	      0.00000000
      0.54591416	      0.78691954	      0.14757544	      0.00000000
      0.54757853	      0.78522805	      0.14700962	      0.00000000
      0.54924290	      0.78347282	      0.14641189	      0.00000000
      0.55090727	      0.78164441	      0.14577942	      0.00000000
      0.55257165	      0.77973284	      0.14510995	      0.00000000
      0.55423602	      0.77773046	      0.14440091	      0.00000000
      0.55590039	      0.77563294	      0.14365131	      0.00000000
      0.55756476	      0.77343232	      0.14285626	      0.00000000
      0.55922914	      0.77111377	      0.14200836	      0.00000000
      0.56089351	      0.76866441	      0.14109842	      0.00000000
      0.56255788	      0.76607374	      0.14011830	      0.00000000
      0.56422225	      0.76334309	      0.13906503	      0.00000000
      0.56588663	      0.76047266	      0.13793542	      0.00000000
      0.56755100	      0.75747067	      0.13673192	      0.00000000
      0.56921537	      0.75434367	      0.13545589	      0.00000000
      0.57087974	      0.75110026	      0.13411149	      0.00000000
      0.57254412	      0.74774786	      0.13270195	      0.00000000
      0.57420849	      0.74429377	      0.13123169	      0.00000000
      0.57587286	      0.74074472	      0.12970453	      0.00000000
      0.57753723	      0.73710866	      0.12812626	      0.00000000
      0.57920160	      0.73339460	      0.12650269	      0.00000000
      0.58086598	      0.72961195	      0.12484130	      0.00000000
      0.58253035	      0.72577067	      0.12314946	      0.00000000
      0.58419472	      0.72187761	      0.12143384	      0.00000000
      0.58585909	      0.71793987	      0.11970109	      0.00000000
      0.58752347	      0.71396002	      0.11795564	      0.00000000
      0.58918784	      0.70994088	      0.11620208	      0.00000000
      0.59085221	      0.70588258	      0.11444351	      0.00000000
      0.59251658	      0.70178543	      0.11268319	      0.00000000
      0.59418096	      0.69765007	      0.11092400	      0.00000000
      0.59584533	      0.69347715	      0.10916894	      0.00000000
      0.59750970	      0.68926969	      0.10742144	      0.00000000
      0.59917407	      0.68503054	      0.10568490	      0.00000000
      0.60083845	      0.68076512	      0.10396359	      0.00000000
      0.60250282	      0.67647881	      0.10226175	      0.00000000
      0.60416719	      0.67217828	      0.10058407	      0.00000000
      0.60583156	      0.66787042	      0.09893523	      0.00000000
      0.60749594	      0.66356169	      0.09731952	      0.00000000
      0.60916031	      0.65925894	      0.09574132	      0.00000000
      0.61082468	      0.65496735	      0.09420396	      0.00000000
      0.61248905	      0.65069267	      0.09271097	      0.00000000
      0.61415343	      0.64643861	      0.09126466	      0.00000000
      0.61581780	      0.64220937	      0.08986756	      0.00000000
      0.61748217	      0.63800745	      0.08852119	      0.00000000
      0.61914654	      0.63383573	      0.08722728	      0.00000000
      0.62081092	      0.62969606	      0.08598691	      0.00000000
      0.62247529	      0.62559049	      0.08480139	      0.00000000
      0.62413966	      0.62152070	      0.08367146	      0.00000000
      0.62580403	      0.61748847	      0.08259800	      0.00000000
      0.62746841	      0.61349558	      0.08158139	      0.00000000
      0.62913278	      0.60954395	      0.08062217	      0.00000000
      0.63079715	      0.60563534	      0.07972029	      0.00000000
      0.63246152	      0.60177163	      0.07887592	      0.00000000
      0.63412590	      0.59795398	      0.07808834	      0.00000000
      0.63579027	      0.59418325	      0.07735663	      0.00000000
      0.63745464	      0.59045999	      0.07667951	      0.00000000
      0.63911901	      0.58678493	      0.07605586	      0.00000000
      0.64078338	      0.58315932	      0.07548526	      0.00000000
      0.64244776	      0.57958474	      0.07496758	      0.00000000
      0.64411213	      0.57606248	      0.07450284	      0.00000000
      0.64577650	      0.57259360	      0.07409085	      0.00000000
      0.64744087	      0.56917809	      0.07373081	      0.00000000
      0.64910525	      0.56581610	      0.07342202	      0.00000000
      0.65076962	      0.56250693	      0.07316325	      0.00000000
      0.65243399	      0.55924992	      0.07295328	      0.00000000
      0.65409836	      0.55604406	      0.07279063	      0.00000000
      0.65576274	      0.55288837	      0.07267383	      0.00000000
      0.65742711	      0.54978205	      0.07260183	      0.00000000
      0.65909148	      0.54672424	      0.07257356	      0.00000000
      0.66075585	      0.54371452	      0.07258866	      0.00000000
      0.66242023	      0.54075235	      0.07264675	      0.00000000
      0.66408460	      0.53783762	      0.07274790	      0.00000000
      0.66574897	      0.53497013	      0.07289223	      0.00000000
      0.66741334	      0.53214993	      0.07307969	      0.00000000
      0.66907772	      0.52937702	      0.07331032	      0.00000000
      0.67074209	      0.52665146	      0.07358346	      0.00000000
      0.67240646	      0.52397324	      0.07389853	      0.00000000
      0.67407083	      0.52134247	      0.07425404	      0.00000000
      0.67573521	      0.51875920	      0.07464860	      0.00000000
      0.67739958	      0.51622378	      0.07508013	      0.00000000
      0.67906395	      0.51373657	      0.07554663	      0.00000000
      0.68072832	      0.51129835	      0.07604592	      0.00000000
      0.68239270	      0.50890987	      0.07657586	      0.00000000
      0.68405707	      0.50657212	      0.07713459	      0.00000000
      0.68572144	      0.50428608	      0.07772025	      0.00000000
      0.68738581	      0.50205260	      0.07833138	      0.00000000
      0.68905019	      0.49987253	      0.07896652	      0.00000000
      0.69071456	      0.49774630	      0.07962440	      0.00000000
      0.69237893	      0.49567441	      0.08030378	      0.00000000
      0.69404330	      0.49365678	      0.08100331	      0.00000000
      0.69570767	      0.49169345	      0.08172168	      0.00000000
      0.69737205	      0.48978378	      0.08245724	      0.00000000
      0.69903642	      0.48792729	      0.08320843	      0.00000000
      0.70070079	      0.48612287	      0.08397319	      0.00000000
      0.70236516	      0.48436952	      0.08474956	      0.00000000
      0.70402954	      0.48266579	      0.08553514	      0.00000000
      0.70569391	      0.48101028	      0.08632757	      0.00000000
      0.70735828	      0.47940142	      0.08712427	      0.00000000
      0.70902265	      0.47783762	      0.08792268	      0.00000000
      0.71068703	      0.47631747	      0.08872043	      0.00000000
      0.71235140	      0.47483949	      0.08951507	      0.00000000
      0.71401577	      0.47340266	      0.09030469	      0.00000000
      0.71568014	      0.47200588	      0.09108726	      0.00000000
      0.71734452	      0.47064866	      0.09186144	      0.00000000
      0.71900889	      0.46933040	      0.09262579	      0.00000000
      0.72067326	      0.46805102	      0.09337949	      0.00000000
      0.72233763	      0.46681036	      0.09412165	      0.00000000
      0.72400201	      0.46560860	      0.09485182	      0.00000000
      0.72566638	      0.46444584	      0.09556950	      0.00000000
      0.72733075	      0.46332233	      0.09627439	      0.00000000
      0.72899512	      0.46223832	      0.09696615	      0.00000000
      0.73065950	      0.46119399	      0.09764440	      0.00000000
      0.73232387	      0.46018955	      0.09830878	      0.00000000
      0.73398824	      0.45922511	      0.09895865	      0.00000000
      0.73565261	      0.45830078	      0.09959347	      0.00000000
      0.73731699	      0.45741652	      0.10021234	      0.00000000
      0.73898136	      0.45657233	      0.10081442	      0.00000000
      0.74064573	      0.45576810	      0.10139860	      0.00000000
      0.74231010	      0.45500373	      0.10196379	      0.00000000
      0.74397448	      0.45427911	      0.10250876	      0.00000000
      0.74563885	      0.45359410	      0.10303230	      0.00000000
      0.74730322	      0.45294864	      0.10353314	      0.00000000
      0.74896759	      0.45234266	      0.10401006	      0.00000000
      0.75063197	      0.45177616	      0.10446189	      0.00000000
      0.75229634	      0.45124913	      0.10488745	      0.00000000
      0.75396071	      0.45076163	      0.10528572	      0.00000000
      0.75562508	      0.45031372	      0.10565565	      0.00000000
      0.75728945	      0.44990543	      0.10599635	      0.00000000
      0.75895383	      0.44953684	      0.10630693	      0.00000000
      0.76061820	      0.44920791	      0.10658665	      0.00000000
      0.76228257	      0.44891866	      0.10683475	      0.00000000
      0.76394694	      0.44866896	      0.10705066	      0.00000000
      0.76561132	      0.44845872	      0.10723376	      0.00000000
      0.76727569	      0.44828769	      0.10738360	      0.00000000
      0.76894006	      0.44815568	      0.10749973	      0.00000000
      0.77060443	      0.44806234	      0.10758182	      0.00000000
      0.77226881	      0.44800738	      0.10762954	      0.00000000
      0.77393318	      0.44799036	      0.10764268	      0.00000000
      0.77559755	      0.44801088	      0.10762102	      0.00000000
      0.77726192	      0.44806846	      0.10756444	      0.00000000
      0.77892630	      0.44816262	      0.10747282	      0.00000000
      0.78059067	      0.44829286	      0.10734611	      0.00000000
      0.78225504	      0.44845868	      0.10718425	      0.00000000
      0.78391941	      0.44865958	      0.10698729	      0.00000000
      0.78558379	      0.44889504	      0.10675522	      0.00000000
      0.78724816	      0.44916459	      0.10648812	      0.00000000
      0.78891253	      0.44946774	      0.10618607	      0.00000000
      0.79057690	      0.44980404	      0.10584917	      0.00000000
      0.79224128	      0.45017305	      0.10547754	      0.00000000
      0.79390565	      0.45057438	      0.10507129	      0.00000000
      0.79557002	      0.45100766	      0.10463055	      0.00000000
      0.79723439	      0.45147257	      0.10415543	      0.00000000
      0.79889877	      0.45196878	      0.10364605	      0.00000000
      0.80056314	      0.45249607	      0.10310250	      0.00000000
      0.80222751	      0.45305415	      0.10252487	      0.00000000
      0.80389188	      0.45364286	      0.10191318	      0.00000000
      0.80555626	      0.45426201	      0.10126749	      0.00000000
      0.80722063	      0.45491149	      0.10058781	      0.00000000
      0.80888500	      0.45559117	      0.09987415	      0.00000000
      0.81054937	      0.45630101	      0.09912650	      0.00000000
      0.81221374	      0.45704094	      0.09834487	      0.00000000
      0.81387812	      0.45781096	      0.09752921	      0.00000000
      0.81554249	      0.45861104	      0.09667951	      0.00000000
      0.81720686	      0.45944120	      0.09579573	      0.00000000
      0.81887123	      0.46030144	      0.09487783	      0.00000000
      0.82053561	      0.46119179	      0.09392576	      0.00000000
      0.82219998	      0.46211226	      0.09293946	      0.00000000
      0.82386435	      0.46306291	      0.09191887	      0.00000000
      0.82552872	      0.46404376	      0.09086392	      0.00000000
      0.82719310	      0.46505483	      0.08977453	      0.00000000
      0.82885747	      0.46609618	      0.08865063	      0.00000000
      0.83052184	      0.46716782	      0.08749215	      0.00000000
      0.83218621	      0.46826978	      0.08629902	      0.00000000
      0.83385059	      0.46940208	      0.08507120	      0.00000000
      0.83551496	      0.47056476	      0.08380865	      0.00000000
      0.83717933	      0.47175781	      0.08251137	      0.00000000
      0.83884370	      0.47298127	      0.08117934	      0.00000000
      0.84050808	      0.47423514	      0.07981261	      0.00000000
      0.84217245	      0.47551944	      0.07841121	      0.00000000
      0.84383682	      0.47683416	      0.07697520	      0.00000000
      0.84550119	      0.47817930	      0.07550466	      0.00000000
      0.84716557	      0.47955484	      0.07399969	      0.00000000
      0.84882994	      0.48096078	      0.07246038	      0.00000000
      0.85049431	      0.48239707	      0.07088689	      0.00000000
      0.85215868	      0.48386369	      0.06927932	      0.00000000
      0.85382306	      0.48536056	      0.06763782	      0.00000000
      0.85548743	      0.48688760	      0.06596254	      0.00000000
      0.85715180	      0.48844469	      0.06425361	      0.00000000
      0.85881617	      0.49003168	      0.06251116	      0.00000000
      0.86048055	      0.49164835	      0.06073530	      0.00000000
      0.86214492	      0.49329448	      0.05892615	      0.00000000
      0.86380929	      0.49496976	      0.05708374	      0.00000000
      0.86547366	      0.49667386	      0.05520815	      0.00000000
      0.86713804	      0.49840639	      0.05329935	      0.00000000
      0.86880241	      0.50016694	      0.05135735	      0.00000000
      0.87046678	      0.50195501	      0.04938205	      0.00000000
      0.87213115	      0.50377014	      0.04737336	      0.00000000
      0.87379552	      0.50561174	      0.04533110	      0.00000000
      0.87545990	      0.50747926	      0.04325510	      0.00000000
      0.87712427	      0.50937207	      0.04114507	      0.00000000
      0.87878864	      0.51128956	      0.03900076	      0.00000000
      0.88045301	      0.51323106	      0.03682184	      0.00000000
      0.88211739	      0.51519591	      0.03460799	      0.00000000
      0.88378176	      0.51718340	      0.03235884	      0.00000000
      0.88544613	      0.51919285	      0.03007404	      0.00000000
      0.88711050	      0.52122352	      0.02775326	      0.00000000
      0.88877488	      0.52327468	      0.02539615	      0.00000000
      0.89043925	      0.52534557	      0.02300246	      0.00000000
      0.89210362	      0.52743541	      0.02057188	      0.00000000
      0.89376799	      0.52954342	      0.01810426	      0.00000000
      0.89543237	      0.53166880	      0.01559940	      0.00000000
      0.89709674	      0.53381079	      0.01305727	      0.00000000
      0.89876111	      0.53596858	      0.01047780	      0.00000000
      0.90042548	      0.53814146	      0.00786109	      0.00000000
      0.90208986	      0.54032869	      0.00520723	      0.00000000
      0.90375423	      0.54252965	      0.00251642	      0.00000000
      0.90541860	      0.54474367	     -0.00021114	      0.00000000
      0.90708297	      0.54697023	     -0.00297516	      0.00000000
      0.90874735	      0.54920878	     -0.00577536	      0.00000000
      0.91041172	      0.55145891	     -0.00861143	      0.00000000
      0.91207609	      0.55372018	     -0.01148305	      0.00000000
      0.91374046	      0.55599232	     -0.01438992	      0.00000000
      0.91540484	      0.55827502	     -0.01733171	      0.00000000
      0.91706921	      0.56056814	     -0.02030809	      0.00000000
      0.91873358	      0.56287148	     -0.02331870	      0.00000000
      0.92039795	      0.56518500	     -0.02636310	      0.00000000
      0.92206233	      0.56750862	     -0.02944087	      0.00000000
      0.92372670	      0.56984236	     -0.03255151	      0.00000000
      0.92539107	      0.57218619	     -0.03569450	      0.00000000
      0.92705544	      0.57454005	     -0.03886939	      0.00000000
      0.92871981	      0.57690385	     -0.04207573	      0.00000000
      0.93038419	      0.57927743	     -0.04531306	      0.00000000
      0.93204856	      0.58166056	     -0.04858091	      0.00000000
      0.93371293	      0.58405304	     -0.05187878	      0.00000000
      0.93537730	      0.58645462	     -0.05520616	      0.00000000
      0.93704168	      0.58886513	     -0.05856258	      0.00000000
      0.93870605	      0.59128443	     -0.06194748	      0.00000000
      0.94037042	      0.59371216	     -0.06536065	      0.00000000
      0.94203479	      0.59614807	     -0.06880181	      0.00000000
      0.94369917	      0.59859130	     -0.07227091	      0.00000000
      0.94536354	      0.60104110	     -0.07576788	      0.00000000
      0.94702791	      0.60349588	     -0.07929275	      0.00000000
      0.94869228	      0.60595426	     -0.08284557	      0.00000000
      0.95035666	      0.60841382	     -0.08642633	      0.00000000
      0.95202103	      0.61087242	     -0.09003506	      0.00000000
      0.95368540	      0.61332683	     -0.09367151	      0.00000000
      0.95534977	      0.61577398	     -0.09733558	      0.00000000
      0.95701415	      0.61820998	     -0.10102640	      0.00000000
      0.95867852	      0.62063089	     -0.10474334	      0.00000000
      0.96034289	      0.62303276	     -0.10848459	      0.00000000
      0.96200726	      0.62541150	     -0.11224855	      0.00000000
      0.96367164	      0.62776409	     -0.11603222	      0.00000000
      0.96533601	      0.63008738	     -0.11983260	      0.00000000
      0.96700038	      0.63237977	     -0.12364640	      0.00000000
      0.96866475	      0.63463937	     -0.12747013	      0.00000000
      0.97032913	      0.63686559	     -0.13130169	      0.00000000
      0.97199350	      0.63905758	     -0.13513857	      0.00000000
      0.97365787	      0.64121542	     -0.13898044	      0.00000000
      0.97532224	      0.64333928	     -0.14282639	      0.00000000
      0.97698662	      0.64542924	     -0.14667841	      0.00000000
      0.97865099	      0.64748559	     -0.15053785	      0.00000000
      0.98031536	      0.64950681	     -0.15441024	      0.00000000
      0.98197973	      0.65149163	     -0.15830072	      0.00000000
      0.98364411	      0.65343638	     -0.16221727	      0.00000000
      0.98530848	      0.65533792	     -0.16616757	      0.00000000
      0.98697285	      0.65719162	     -0.17015832	      0.00000000
      0.98863722	      0.65899408	     -0.17419620	      0.00000000
      0.99030159	      0.66073950	     -0.17828586	      0.00000000
      0.99196597	      0.66242294	     -0.18243222	      0.00000000
      0.99363034	      0.66403599	     -0.18663702	      0.00000000
      0.99529471	      0.66557865	     -0.19089161	      0.00000000
      0.99695908	      0.66703173	     -0.19521003	      0.00000000
      0.99862346	      0.66841740	     -0.19957749	      0.00000000
