PointAcceleration
version=1
nRows=601
nColumns=4
inDegrees=no
No description.
endheader
time	state_0	state_1	state_2
      0.00000000	     -1.79249424	     -6.99146652	      0.00000000
      0.00137928	     -1.84463671	     -6.98938483	      0.00000000
      0.00275857	     -1.89967502	     -6.99151665	      0.00000000
      0.00413785	     -1.95901201	     -6.99900739	      0.00000000
      0.00551713	     -2.02342393	     -7.01114284	      0.00000000
      0.00689641	     -2.09332253	     -7.02725592	      0.00000000
      0.00827570	     -2.16917625	     -7.04633861	      0.00000000
      0.00965498	     -2.25122636	     -7.06760864	      0.00000000
      0.01103426	     -2.34098589	     -7.09080500	      0.00000000
      0.01241355	     -2.44416748	     -7.11624941	      0.00000000
      0.01379283	     -2.57132667	     -7.14590728	      0.00000000
      0.01517211	     -2.84773396	     -7.14357498	      0.00000000
      0.01655139	     -3.09455656	     -7.19569667	      0.00000000
      0.01793068	     -3.44447886	     -7.25852862	      0.00000000
      0.01930996	     -3.93093557	     -7.32934009	      0.00000000
      0.02068924	     -4.59504169	     -7.39137930	      0.00000000
      0.02206853	     -5.42137647	     -7.44505430	      0.00000000
      0.02344781	     -6.31210133	     -7.48866058	      0.00000000
      0.02482709	     -7.05035433	     -7.50817992	      0.00000000
      0.02620638	     -7.43736476	     -7.49694496	      0.00000000
      0.02758566	     -7.44973884	     -7.44004332	      0.00000000
      0.02896494	     -7.28524841	     -7.32040489	      0.00000000
      0.03034422	     -6.09268284	     -7.26608362	      0.00000000
      0.03172351	     -5.79658467	     -7.14177062	      0.00000000
      0.03310279	     -5.65437226	     -7.04710973	      0.00000000
      0.03448207	     -5.68632928	     -6.94755820	      0.00000000
      0.03586136	     -5.83328530	     -6.83625783	      0.00000000
      0.03724064	     -6.05552283	     -6.71356737	      0.00000000
      0.03861992	     -6.34480456	     -6.57183148	      0.00000000
      0.03999920	     -6.68155679	     -6.41270286	      0.00000000
      0.04137849	     -7.06205983	     -6.23242354	      0.00000000
      0.04275777	     -7.47835750	     -6.03166717	      0.00000000
      0.04413705	     -7.92849134	     -5.80867587	      0.00000000
      0.04551634	     -8.40635613	     -5.56797635	      0.00000000
      0.04689562	     -8.91066227	     -5.32532596	      0.00000000
      0.04827490	     -9.44470875	     -5.09714495	      0.00000000
      0.04965418	    -10.01505857	     -4.90078440	      0.00000000
      0.05103347	    -10.58690399	     -4.63610353	      0.00000000
      0.05241275	    -11.10711675	     -4.20127941	      0.00000000
      0.05379203	    -11.63286302	     -3.75823940	      0.00000000
      0.05517132	    -12.16395246	     -3.31642277	      0.00000000
      0.05655060	    -12.69360104	     -2.87174902	      0.00000000
      0.05792988	    -13.21763236	     -2.42632690	      0.00000000
      0.05930917	    -13.73130162	     -1.98172208	      0.00000000
      0.06068845	    -14.22994943	     -1.53991769	      0.00000000
      0.06206773	    -14.70947396	     -1.10307771	      0.00000000
      0.06344701	    -15.16583527	     -0.67341148	      0.00000000
      0.06482630	    -15.59591126	     -0.25342920	      0.00000000
      0.06620558	    -15.99667017	      0.15455346	      0.00000000
      0.06758486	    -16.36602754	      0.54812279	      0.00000000
      0.06896415	    -16.70205487	      0.92514673	      0.00000000
      0.07034343	    -17.00363385	      1.28360039	      0.00000000
      0.07172271	    -17.26983173	      1.62174358	      0.00000000
      0.07310199	    -17.50034278	      1.93808204	      0.00000000
      0.07448128	    -17.69506663	      2.23135614	      0.00000000
      0.07586056	    -17.85425896	      2.50059360	      0.00000000
      0.07723984	    -17.97833548	      2.74500353	      0.00000000
      0.07861913	    -18.06772674	      2.96401981	      0.00000000
      0.07999841	    -18.12301782	      3.15724670	      0.00000000
      0.08137769	    -18.14516527	      3.32450643	      0.00000000
      0.08275697	    -18.13534959	      3.46583428	      0.00000000
      0.08413626	    -18.09489970	      3.58147968	      0.00000000
      0.08551554	    -18.02525301	      3.67185738	      0.00000000
      0.08689482	    -17.92789362	      3.73751422	      0.00000000
      0.08827411	    -17.80440360	      3.77911712	      0.00000000
      0.08965339	    -17.65647108	      3.79743888	      0.00000000
      0.09103267	    -17.48587757	      3.79337655	      0.00000000
      0.09241196	    -17.29440053	      3.76793734	      0.00000000
      0.09379124	    -17.08385238	      3.72229571	      0.00000000
      0.09517052	    -16.85593774	      3.65773701	      0.00000000
      0.09654980	    -16.61244876	      3.57549646	      0.00000000
      0.09792909	    -16.35513367	      3.47650742	      0.00000000
      0.09930837	    -16.08582018	      3.36146036	      0.00000000
      0.10068765	    -15.80612565	      3.23125689	      0.00000000
      0.10206694	    -15.51763265	      3.08701186	      0.00000000
      0.10344622	    -15.22173166	      2.93002610	      0.00000000
      0.10482550	    -14.91981285	      2.76159821	      0.00000000
      0.10620478	    -14.61310558	      2.58304840	      0.00000000
      0.10758407	    -14.30281339	      2.39566491	      0.00000000
      0.10896335	    -13.98999829	      2.20071610	      0.00000000
      0.11034263	    -13.67568660	      1.99944735	      0.00000000
      0.11172192	    -13.36080015	      1.79305300	      0.00000000
      0.11310120	    -13.04622178	      1.58270313	      0.00000000
      0.11448048	    -12.73275221	      1.36948905	      0.00000000
      0.11585976	    -12.42115096	      1.15446561	      0.00000000
      0.11723905	    -12.11209413	      0.93859587	      0.00000000
      0.11861833	    -11.80620516	      0.72279353	      0.00000000
      0.11999761	    -11.50402806	      0.50787593	      0.00000000
      0.12137690	    -11.20605047	      0.29460205	      0.00000000
      0.12275618	    -10.91270685	      0.08362861	      0.00000000
      0.12413546	    -10.62437992	     -0.12445039	      0.00000000
      0.12551475	    -10.34142498	     -0.32914446	      0.00000000
      0.12689403	    -10.06414953	     -0.53002416	      0.00000000
      0.12827331	     -9.79283921	     -0.72675044	      0.00000000
      0.12965259	     -9.52773416	     -0.91904311	      0.00000000
      0.13103188	     -9.26904125	     -1.10668811	      0.00000000
      0.13241116	     -9.01692462	     -1.28952990	      0.00000000
      0.13379044	     -8.77150262	     -1.46745152	      0.00000000
      0.13516973	     -8.53285530	     -1.64039276	      0.00000000
      0.13654901	     -8.30101459	     -1.80830640	      0.00000000
      0.13792829	     -8.07598070	     -1.97119543	      0.00000000
      0.13930757	     -7.85771350	     -2.12905679	      0.00000000
      0.14068686	     -7.64614812	     -2.28192731	      0.00000000
      0.14206614	     -7.44119170	     -2.42982857	      0.00000000
      0.14344542	     -7.24273249	     -2.57281152	      0.00000000
      0.14482471	     -7.05064145	     -2.71091187	      0.00000000
      0.14620399	     -6.86477416	     -2.84418622	      0.00000000
      0.14758327	     -6.68497650	     -2.97268085	      0.00000000
      0.14896255	     -6.51108030	     -3.09645695	      0.00000000
      0.15034184	     -6.34291450	     -3.21557135	      0.00000000
      0.15172112	     -6.18029489	     -3.33009185	      0.00000000
      0.15310040	     -6.02304152	     -3.44008668	      0.00000000
      0.15447969	     -5.87096225	     -3.54563280	      0.00000000
      0.15585897	     -5.72387002	     -3.64680749	      0.00000000
      0.15723825	     -5.58155892	     -3.74369282	      0.00000000
      0.15861754	     -5.44384991	     -3.83637278	      0.00000000
      0.15999682	     -5.31055610	     -3.92493773	      0.00000000
      0.16137610	     -5.18150491	     -4.00946762	      0.00000000
      0.16275538	     -5.05651794	     -4.09004663	      0.00000000
      0.16413467	     -4.93542844	     -4.16673919	      0.00000000
      0.16551395	     -4.81806638	     -4.23961115	      0.00000000
      0.16689323	     -4.70427094	     -4.30870497	      0.00000000
      0.16827252	     -4.59388034	     -4.37406102	      0.00000000
      0.16965180	     -4.48674207	     -4.43570384	      0.00000000
      0.17103108	     -4.38270453	     -4.49365211	      0.00000000
      0.17241036	     -4.28162752	     -4.54792813	      0.00000000
      0.17378965	     -4.18337231	     -4.59854662	      0.00000000
      0.17516893	     -4.08781379	     -4.64554964	      0.00000000
      0.17654821	     -3.99482819	     -4.68897273	      0.00000000
      0.17792750	     -3.90430482	     -4.72889250	      0.00000000
      0.17930678	     -3.81613306	     -4.76538099	      0.00000000
      0.18068606	     -3.73021131	     -4.79854648	      0.00000000
      0.18206534	     -3.64643699	     -4.82849489	      0.00000000
      0.18344463	     -3.56471066	     -4.85534988	      0.00000000
      0.18482391	     -3.48493218	     -4.87923499	      0.00000000
      0.18620319	     -3.40699854	     -4.90027173	      0.00000000
      0.18758248	     -3.33080655	     -4.91858347	      0.00000000
      0.18896176	     -3.25624715	     -4.93427956	      0.00000000
      0.19034104	     -3.18321211	     -4.94747319	      0.00000000
      0.19172033	     -3.11158925	     -4.95825969	      0.00000000
      0.19309961	     -3.04126898	     -4.96673945	      0.00000000
      0.19447889	     -2.97214162	     -4.97299272	      0.00000000
      0.19585817	     -2.90410044	     -4.97710426	      0.00000000
      0.19723746	     -2.83704244	     -4.97913571	      0.00000000
      0.19861674	     -2.77086821	     -4.97915158	      0.00000000
      0.19999602	     -2.70548581	     -4.97719349	      0.00000000
      0.20137531	     -2.64080836	     -4.97330434	      0.00000000
      0.20275459	     -2.57675627	     -4.96751107	      0.00000000
      0.20413387	     -2.51325571	     -4.95984096	      0.00000000
      0.20551315	     -2.45023619	     -4.95031580	      0.00000000
      0.20689244	     -2.38763280	     -4.93895683	      0.00000000
      0.20827172	     -2.32538122	     -4.92578808	      0.00000000
      0.20965100	     -2.26342393	     -4.91083156	      0.00000000
      0.21103029	     -2.20170225	     -4.89411602	      0.00000000
      0.21240957	     -2.14016464	     -4.87566740	      0.00000000
      0.21378885	     -2.07875739	     -4.85552002	      0.00000000
      0.21516813	     -2.01743999	     -4.83370970	      0.00000000
      0.21654742	     -1.95616976	     -4.81028312	      0.00000000
      0.21792670	     -1.89489857	     -4.78528018	      0.00000000
      0.21930598	     -1.83358739	     -4.75874233	      0.00000000
      0.22068527	     -1.77220215	     -4.73070915	      0.00000000
      0.22206455	     -1.71071118	     -4.70122596	      0.00000000
      0.22344383	     -1.64908634	     -4.67033658	      0.00000000
      0.22482312	     -1.58729759	     -4.63809474	      0.00000000
      0.22620240	     -1.52531728	     -4.60455617	      0.00000000
      0.22758168	     -1.46311549	     -4.56978168	      0.00000000
      0.22896096	     -1.40066472	     -4.53383408	      0.00000000
      0.23034025	     -1.33793951	     -4.49676743	      0.00000000
      0.23171953	     -1.27491929	     -4.45863473	      0.00000000
      0.23309881	     -1.21158457	     -4.41947665	      0.00000000
      0.23447810	     -1.14792081	     -4.37933361	      0.00000000
      0.23585738	     -1.08391112	     -4.33824628	      0.00000000
      0.23723666	     -1.01954276	     -4.29625806	      0.00000000
      0.23861594	     -0.95479701	     -4.25341706	      0.00000000
      0.23999523	     -0.88965796	     -4.20977369	      0.00000000
      0.24137451	     -0.82410785	     -4.16537584	      0.00000000
      0.24275379	     -0.75813357	     -4.12027056	      0.00000000
      0.24413308	     -0.69172624	     -4.07449690	      0.00000000
      0.24551236	     -0.62488032	     -4.02809445	      0.00000000
      0.24689164	     -0.55759655	     -3.98109772	      0.00000000
      0.24827092	     -0.48987814	     -3.93354122	      0.00000000
      0.24965021	     -0.42173762	     -3.88546027	      0.00000000
      0.25102949	     -0.35318944	     -3.83688903	      0.00000000
      0.25240877	     -0.28426174	     -3.78786772	      0.00000000
      0.25378806	     -0.21498418	     -3.73843416	      0.00000000
      0.25516734	     -0.14540356	     -3.68863659	      0.00000000
      0.25654662	     -0.07556673	     -3.63852088	      0.00000000
      0.25792591	     -0.00553834	     -3.58814598	      0.00000000
      0.25930519	      0.06461693	     -3.53756737	      0.00000000
      0.26068447	      0.13482066	     -3.48685855	      0.00000000
      0.26206375	      0.20500073	     -3.43609849	      0.00000000
      0.26344304	      0.27506831	     -3.38537573	      0.00000000
      0.26482232	      0.34493690	     -3.33478432	      0.00000000
      0.26620160	      0.41450031	     -3.28440917	      0.00000000
      0.26758089	      0.48365489	     -3.23434180	      0.00000000
      0.26896017	      0.55228745	     -3.18466004	      0.00000000
      0.27033945	      0.62028564	     -3.13545155	      0.00000000
      0.27171873	      0.68754614	     -3.08679806	      0.00000000
      0.27309802	      0.75396137	     -3.03879392	      0.00000000
      0.27447730	      0.81946141	     -2.99152897	      0.00000000
      0.27585658	      0.88398814	     -2.94509837	      0.00000000
      0.27723587	      0.94750837	     -2.89959425	      0.00000000
      0.27861515	      1.00998627	     -2.85511049	      0.00000000
      0.27999443	      1.07137489	     -2.81174090	      0.00000000
      0.28137371	      1.13162511	     -2.76958303	      0.00000000
      0.28275300	      1.19067708	     -2.72873114	      0.00000000
      0.28413228	      1.24847826	     -2.68927850	      0.00000000
      0.28551156	      1.30497934	     -2.65130954	      0.00000000
      0.28689085	      1.36012817	     -2.61490030	      0.00000000
      0.28827013	      1.41389713	     -2.58012653	      0.00000000
      0.28964941	      1.46625347	     -2.54704883	      0.00000000
      0.29102870	      1.51721686	     -2.51576453	      0.00000000
      0.29240798	      1.56680788	     -2.48634912	      0.00000000
      0.29378726	      1.61510165	     -2.45895103	      0.00000000
      0.29516654	      1.66218397	     -2.43369687	      0.00000000
      0.29654583	      1.70814990	     -2.41076840	      0.00000000
      0.29792511	      1.75310595	     -2.39032285	      0.00000000
      0.29930439	      1.79711285	     -2.37251531	      0.00000000
      0.30068368	      1.84023006	     -2.35748034	      0.00000000
      0.30206296	      1.88248248	     -2.34532082	      0.00000000
      0.30344224	      1.92391262	     -2.33614448	      0.00000000
      0.30482152	      1.96455019	     -2.33002750	      0.00000000
      0.30620081	      2.00443117	     -2.32704858	      0.00000000
      0.30758009	      2.04358987	     -2.32726190	      0.00000000
      0.30895937	      2.08206584	     -2.33072683	      0.00000000
      0.31033866	      2.11991239	     -2.33749109	      0.00000000
      0.31171794	      2.15719237	     -2.34761037	      0.00000000
      0.31309722	      2.19398375	     -2.36113322	      0.00000000
      0.31447650	      2.23037002	     -2.37811801	      0.00000000
      0.31585579	      2.26644443	     -2.39860850	      0.00000000
      0.31723507	      2.30230539	     -2.42265952	      0.00000000
      0.31861435	      2.33805486	     -2.45031186	      0.00000000
      0.31999364	      2.37379497	     -2.48161428	      0.00000000
      0.32137292	      2.40964295	     -2.51661881	      0.00000000
      0.32275220	      2.44572503	     -2.55539286	      0.00000000
      0.32413149	      2.48219201	     -2.59801528	      0.00000000
      0.32551077	      2.51919979	     -2.64458059	      0.00000000
      0.32689005	      2.55691208	     -2.69518141	      0.00000000
      0.32826933	      2.59549323	     -2.74992510	      0.00000000
      0.32964862	      2.63507356	     -2.80887778	      0.00000000
      0.33102790	      2.67575534	     -2.87209468	      0.00000000
      0.33240718	      2.71753777	     -2.93951366	      0.00000000
      0.33378647	      2.76032711	     -3.01100092	      0.00000000
      0.33516575	      2.80389551	     -3.08626000	      0.00000000
      0.33654503	      2.84794161	     -3.16493441	      0.00000000
      0.33792431	      2.89214513	     -3.24660764	      0.00000000
      0.33930360	      2.93623307	     -3.33091280	      0.00000000
      0.34068288	      2.97997955	     -3.41752515	      0.00000000
      0.34206216	      3.02322947	     -3.50617194	      0.00000000
      0.34344145	      3.06585051	     -3.59659577	      0.00000000
      0.34482073	      3.10772103	     -3.68855049	      0.00000000
      0.34620001	      3.14868794	     -3.78180608	      0.00000000
      0.34757929	      3.18857863	     -3.87610827	      0.00000000
      0.34895858	      3.22716964	     -3.97123302	      0.00000000
      0.35033786	      3.26419903	     -4.06691458	      0.00000000
      0.35171714	      3.29932555	     -4.16291838	      0.00000000
      0.35309643	      3.33214088	     -4.25895196	      0.00000000
      0.35447571	      3.36210619	     -4.35471890	      0.00000000
      0.35585499	      3.38857541	     -4.44983876	      0.00000000
      0.35723428	      3.41072659	     -4.54386129	      0.00000000
      0.35861356	      3.42760534	     -4.63623320	      0.00000000
      0.35999284	      3.43810186	     -4.72626780	      0.00000000
      0.36137212	      3.44103330	     -4.81318124	      0.00000000
      0.36275141	      3.43521163	     -4.89604984	      0.00000000
      0.36413069	      3.41955113	     -4.97394578	      0.00000000
      0.36550997	      3.39322805	     -5.04592497	      0.00000000
      0.36688926	      3.35579406	     -5.11120957	      0.00000000
      0.36826854	      3.30737047	     -5.16924551	      0.00000000
      0.36964782	      3.24863741	     -5.21981053	      0.00000000
      0.37102710	      3.18093079	     -5.26312751	      0.00000000
      0.37240639	      3.10600311	     -5.29975284	      0.00000000
      0.37378567	      3.02593333	     -5.33067882	      0.00000000
      0.37516495	      2.94275291	     -5.35697912	      0.00000000
      0.37654424	      2.85820769	     -5.37991183	      0.00000000
      0.37792352	      2.77356446	     -5.40047257	      0.00000000
      0.37930280	      2.68933101	     -5.41960300	      0.00000000
      0.38068208	      2.60546087	     -5.43787290	      0.00000000
      0.38206137	      2.52109821	     -5.45556299	      0.00000000
      0.38344065	      2.43508969	     -5.47265615	      0.00000000
      0.38481993	      2.34534659	     -5.48844614	      0.00000000
      0.38619922	      2.24894306	     -5.50190853	      0.00000000
      0.38757850	      2.14326681	     -5.51088408	      0.00000000
      0.38895778	      2.02607715	     -5.51235333	      0.00000000
      0.39033707	      1.89564199	     -5.50308624	      0.00000000
      0.39171635	      1.74948182	     -5.47986839	      0.00000000
      0.39309563	      1.58330370	     -5.43864532	      0.00000000
      0.39447491	      1.39136364	     -5.37404819	      0.00000000
      0.39585420	      1.16511838	     -5.27660353	      0.00000000
      0.39723348	      0.89368121	     -5.13260936	      0.00000000
      0.39861276	      0.56284558	     -4.92418869	      0.00000000
      0.39999205	      0.15482392	     -4.62963632	      0.00000000
      0.40137133	     -0.35109676	     -4.22329644	      0.00000000
      0.40275061	     -0.98247550	     -3.67237093	      0.00000000
      0.40412989	     -1.76367840	     -2.94437379	      0.00000000
      0.40550918	     -2.71517731	     -2.01449291	      0.00000000
      0.40688846	     -3.85726506	     -0.85501901	      0.00000000
      0.40826774	     -5.22169752	      0.56791614	      0.00000000
      0.40964703	     -6.89328723	      2.34881300	      0.00000000
      0.41102631	     -8.94934564	      4.59612865	      0.00000000
      0.41240559	    -11.29575350	      7.26686454	      0.00000000
      0.41378487	    -12.52219781	      9.16102030	      0.00000000
      0.41516416	    -11.03447958	      8.81393595	      0.00000000
      0.41654344	    -12.96355860	     11.38390870	      0.00000000
      0.41792272	    -14.16956049	     13.20883501	      0.00000000
      0.41930201	    -15.37677530	     14.87627812	      0.00000000
      0.42068129	    -16.58432614	     16.38517476	      0.00000000
      0.42206057	    -17.50791046	     17.52245037	      0.00000000
      0.42343986	    -18.33871442	     18.44654494	      0.00000000
      0.42481914	    -18.89740365	     19.03795204	      0.00000000
      0.42619842	    -19.30051217	     19.39638929	      0.00000000
      0.42757770	    -19.48882518	     19.48959028	      0.00000000
      0.42895699	    -19.52632725	     19.37910798	      0.00000000
      0.43033627	    -19.40073599	     19.09909206	      0.00000000
      0.43171555	    -19.14001543	     18.71994860	      0.00000000
      0.43309484	    -18.75507904	     18.24483866	      0.00000000
      0.43447412	    -18.28350642	     17.67220937	      0.00000000
      0.43585340	    -17.74550952	     17.01567232	      0.00000000
      0.43723268	    -17.16163398	     16.29967915	      0.00000000
      0.43861197	    -16.54747409	     15.54252497	      0.00000000
      0.43999125	    -15.91674462	     14.76021091	      0.00000000
      0.44137053	    -15.28060583	     13.96579536	      0.00000000
      0.44274982	    -14.64690830	     13.17071181	      0.00000000
      0.44412910	    -14.02283569	     12.38399158	      0.00000000
      0.44550838	    -13.41328158	     11.61289151	      0.00000000
      0.44688766	    -12.82218489	     10.86362924	      0.00000000
      0.44826695	    -12.25186183	     10.14043727	      0.00000000
      0.44964623	    -11.70399172	      9.44683958	      0.00000000
      0.45102551	    -11.17923056	      8.78381654	      0.00000000
      0.45240480	    -10.67755832	      8.15150929	      0.00000000
      0.45378408	    -10.19751239	      7.54814269	      0.00000000
      0.45516336	     -9.73660994	      6.97069414	      0.00000000
      0.45654265	     -9.29336815	      6.41727763	      0.00000000
      0.45792193	     -8.86659161	      5.88627613	      0.00000000
      0.45930121	     -8.45680356	      5.37803841	      0.00000000
      0.46068049	     -8.06393065	      4.89219027	      0.00000000
      0.46205978	     -7.68832303	      4.42876025	      0.00000000
      0.46343906	     -7.32978728	      3.98717979	      0.00000000
      0.46481834	     -6.98837604	      3.56717898	      0.00000000
      0.46619763	     -6.66404212	      3.16841389	      0.00000000
      0.46757691	     -6.35657962	      2.79051481	      0.00000000
      0.46895619	     -6.06557612	      2.43286208	      0.00000000
      0.47033547	     -5.79047227	      2.09479356	      0.00000000
      0.47171476	     -5.53063720	      1.77558181	      0.00000000
      0.47309404	     -5.28526750	      1.47441416	      0.00000000
      0.47447332	     -5.05361120	      1.19047890	      0.00000000
      0.47585261	     -4.83479187	      0.92274650	      0.00000000
      0.47723189	     -4.62789418	      0.67013050	      0.00000000
      0.47861117	     -4.43196796	      0.43138245	      0.00000000
      0.47999045	     -4.24603183	      0.20517358	      0.00000000
      0.48136974	     -4.06929799	     -0.00959472	      0.00000000
      0.48274902	     -3.90096006	     -0.21407560	      0.00000000
      0.48412830	     -3.74057212	     -0.40880119	      0.00000000
      0.48550759	     -3.58763811	     -0.59435933	      0.00000000
      0.48688687	     -3.44196843	     -0.77076192	      0.00000000
      0.48826615	     -3.30331994	     -0.93808469	      0.00000000
      0.48964544	     -3.17155230	     -1.09621735	      0.00000000
      0.49102472	     -3.04649174	     -1.24509769	      0.00000000
      0.49240400	     -2.92786704	     -1.38485468	      0.00000000
      0.49378328	     -2.81540258	     -1.51562364	      0.00000000
      0.49516257	     -2.70866681	     -1.63785918	      0.00000000
      0.49654185	     -2.60725434	     -1.75199713	      0.00000000
      0.49792113	     -2.51068675	     -1.85869133	      0.00000000
      0.49930042	     -2.41852161	     -1.95857672	      0.00000000
      0.50067970	     -2.33035558	     -2.05230400	      0.00000000
      0.50205898	     -2.24581671	     -2.14051195	      0.00000000
      0.50343826	     -2.16461999	     -2.22369883	      0.00000000
      0.50481755	     -2.08649283	     -2.30236982	      0.00000000
      0.50619683	     -2.01125197	     -2.37683778	      0.00000000
      0.50757611	     -1.93871653	     -2.44743167	      0.00000000
      0.50895540	     -1.86877401	     -2.51433797	      0.00000000
      0.51033468	     -1.80131285	     -2.57775704	      0.00000000
      0.51171396	     -1.73625467	     -2.63784966	      0.00000000
      0.51309324	     -1.67352498	     -2.69477902	      0.00000000
      0.51447253	     -1.61304958	     -2.74876595	      0.00000000
      0.51585181	     -1.55476422	     -2.80001290	      0.00000000
      0.51723109	     -1.49856138	     -2.84883459	      0.00000000
      0.51861038	     -1.44434808	     -2.89551430	      0.00000000
      0.51998966	     -1.39198973	     -2.94047317	      0.00000000
      0.52136894	     -1.34136677	     -2.98410494	      0.00000000
      0.52274823	     -1.29234142	     -3.02690386	      0.00000000
      0.52412751	     -1.24479320	     -3.06934050	      0.00000000
      0.52550679	     -1.19859881	     -3.11191435	      0.00000000
      0.52688607	     -1.15364839	     -3.15511549	      0.00000000
      0.52826536	     -1.10983318	     -3.19937516	      0.00000000
      0.52964464	     -1.06704018	     -3.24508380	      0.00000000
      0.53102392	     -1.02520277	     -3.29264159	      0.00000000
      0.53240321	     -0.98422157	     -3.34289317	      0.00000000
      0.53378249	     -0.94417450	     -3.39618077	      0.00000000
      0.53516177	     -0.90448381	     -3.46489663	      0.00000000
      0.53654105	     -0.86755278	     -3.52384107	      0.00000000
      0.53792034	     -0.83245263	     -3.58571409	      0.00000000
      0.53929962	     -0.79958033	     -3.64939822	      0.00000000
      0.54067890	     -0.76932071	     -3.71402604	      0.00000000
      0.54205819	     -0.74160310	     -3.77921968	      0.00000000
      0.54343747	     -0.71640233	     -3.84433234	      0.00000000
      0.54481675	     -0.69338074	     -3.90921880	      0.00000000
      0.54619603	     -0.67221969	     -3.97366349	      0.00000000
      0.54757532	     -0.65257227	     -4.03794386	      0.00000000
      0.54895460	     -0.63405441	     -4.10236041	      0.00000000
      0.55033388	     -0.61644681	     -4.16727931	      0.00000000
      0.55171317	     -0.59950490	     -4.23301437	      0.00000000
      0.55309245	     -0.58326830	     -4.29949269	      0.00000000
      0.55447173	     -0.56786480	     -4.36629376	      0.00000000
      0.55585101	     -0.55343005	     -4.43346681	      0.00000000
      0.55723030	     -0.54000035	     -4.50143208	      0.00000000
      0.55860958	     -0.52739369	     -4.57108994	      0.00000000
      0.55998886	     -0.51530903	     -4.64339035	      0.00000000
      0.56136815	     -0.50339193	     -4.71887744	      0.00000000
      0.56274743	     -0.49139148	     -4.79792733	      0.00000000
      0.56412671	     -0.47918341	     -4.88025518	      0.00000000
      0.56550600	     -0.46642413	     -4.96578513	      0.00000000
      0.56688528	     -0.45336826	     -5.05379856	      0.00000000
      0.56826456	     -0.44071754	     -5.14331338	      0.00000000
      0.56964384	     -0.42892483	     -5.23376189	      0.00000000
      0.57102313	     -0.41790525	     -5.32509679	      0.00000000
      0.57240241	     -0.40734037	     -5.41744238	      0.00000000
      0.57378169	     -0.39718320	     -5.51060996	      0.00000000
      0.57516098	     -0.38742824	     -5.60438442	      0.00000000
      0.57654026	     -0.37811505	     -5.69852226	      0.00000000
      0.57791954	     -0.36939733	     -5.79270624	      0.00000000
      0.57929882	     -0.36139885	     -5.88670701	      0.00000000
      0.58067811	     -0.35424480	     -5.98032593	      0.00000000
      0.58205739	     -0.34817300	     -6.07326338	      0.00000000
      0.58343667	     -0.34329356	     -6.16528645	      0.00000000
      0.58481596	     -0.33967472	     -6.25622659	      0.00000000
      0.58619524	     -0.33716911	     -6.34603706	      0.00000000
      0.58757452	     -0.33557422	     -6.43467381	      0.00000000
      0.58895380	     -0.33465812	     -6.52211729	      0.00000000
      0.59033309	     -0.33425150	     -6.60826234	      0.00000000
      0.59171237	     -0.33432384	     -6.69297269	      0.00000000
      0.59309165	     -0.33490249	     -6.77601598	      0.00000000
      0.59447094	     -0.33592028	     -6.85749585	      0.00000000
      0.59585022	     -0.33716551	     -6.93769119	      0.00000000
      0.59722950	     -0.33842867	     -7.01698704	      0.00000000
      0.59860879	     -0.33950843	     -7.09572758	      0.00000000
      0.59998807	     -0.34029587	     -7.17406897	      0.00000000
      0.60136735	     -0.34065121	     -7.25216257	      0.00000000
      0.60274663	     -0.34033915	     -7.33020032	      0.00000000
      0.60412592	     -0.33903305	     -7.40850665	      0.00000000
      0.60550520	     -0.33623281	     -7.48746785	      0.00000000
      0.60688448	     -0.33116607	     -7.56772373	      0.00000000
      0.60826377	     -0.32321022	     -7.64963338	      0.00000000
      0.60964305	     -0.31168885	     -7.73361006	      0.00000000
      0.61102233	     -0.29617020	     -7.81974237	      0.00000000
      0.61240161	     -0.27623008	     -7.90812426	      0.00000000
      0.61378090	     -0.25134618	     -7.99904885	      0.00000000
      0.61516018	     -0.22194666	     -8.09194619	      0.00000000
      0.61653946	     -0.18856435	     -8.18626766	      0.00000000
      0.61791875	     -0.15270692	     -8.28054494	      0.00000000
      0.61929803	     -0.11561469	     -8.37377834	      0.00000000
      0.62067731	     -0.07719076	     -8.46631579	      0.00000000
      0.62205659	     -0.03895309	     -8.55710478	      0.00000000
      0.62343588	     -0.00218425	     -8.64531239	      0.00000000
      0.62481516	      0.03236070	     -8.73029449	      0.00000000
      0.62619444	      0.06461755	     -8.81178600	      0.00000000
      0.62757373	      0.09516310	     -8.88988994	      0.00000000
      0.62895301	      0.12414968	     -8.96437741	      0.00000000
      0.63033229	      0.15172957	     -9.03519920	      0.00000000
      0.63171158	      0.17735786	     -9.10216811	      0.00000000
      0.63309086	      0.20029563	     -9.16527913	      0.00000000
      0.63447014	      0.21979237	     -9.22456996	      0.00000000
      0.63584942	      0.23554010	     -9.28022804	      0.00000000
      0.63722871	      0.24848335	     -9.33248374	      0.00000000
      0.63860799	      0.26000931	     -9.38098820	      0.00000000
      0.63998727	      0.27290537	     -9.42556268	      0.00000000
      0.64136656	      0.28848879	     -9.46505904	      0.00000000
      0.64274584	      0.30761956	     -9.49852009	      0.00000000
      0.64412512	      0.32878364	     -9.52446140	      0.00000000
      0.64550440	      0.34829221	     -9.54124898	      0.00000000
      0.64688369	      0.36380335	     -9.54887862	      0.00000000
      0.64826297	      0.37341405	     -9.54830928	      0.00000000
      0.64964225	      0.37704269	     -9.54155296	      0.00000000
      0.65102154	      0.37280929	     -9.52952944	      0.00000000
      0.65240082	      0.36073722	     -9.51366655	      0.00000000
      0.65378010	      0.34182136	     -9.49539886	      0.00000000
      0.65515938	      0.31810377	     -9.47615583	      0.00000000
      0.65653867	      0.29136305	     -9.45684345	      0.00000000
      0.65791795	      0.26267113	     -9.43783610	      0.00000000
      0.65929723	      0.23332538	     -9.41952880	      0.00000000
      0.66067652	      0.20378008	     -9.40193969	      0.00000000
      0.66205580	      0.17508025	     -9.38541909	      0.00000000
      0.66343508	      0.14766414	     -9.37008236	      0.00000000
      0.66481437	      0.12285781	     -9.35653769	      0.00000000
      0.66619365	      0.10116400	     -9.34501388	      0.00000000
      0.66757293	      0.08292139	     -9.33565470	      0.00000000
      0.66895221	      0.06734963	     -9.32801167	      0.00000000
      0.67033150	      0.05340437	     -9.32152870	      0.00000000
      0.67171078	      0.04035496	     -9.31579523	      0.00000000
      0.67309006	      0.02740701	     -9.31040351	      0.00000000
      0.67446935	      0.01431262	     -9.30518803	      0.00000000
      0.67584863	      0.00069286	     -9.29994022	      0.00000000
      0.67722791	     -0.01347455	     -9.29460557	      0.00000000
      0.67860719	     -0.02832703	     -9.28908559	      0.00000000
      0.67998648	     -0.04381497	     -9.28336119	      0.00000000
      0.68136576	     -0.05995101	     -9.27738780	      0.00000000
      0.68274504	     -0.07665737	     -9.27116487	      0.00000000
      0.68412433	     -0.09387714	     -9.26468155	      0.00000000
      0.68550361	     -0.11152299	     -9.25794986	      0.00000000
      0.68688289	     -0.12950356	     -9.25097952	      0.00000000
      0.68826217	     -0.14774214	     -9.24378583	      0.00000000
      0.68964146	     -0.16614587	     -9.23638550	      0.00000000
      0.69102074	     -0.18466067	     -9.22879193	      0.00000000
      0.69240002	     -0.20320985	     -9.22102215	      0.00000000
      0.69377931	     -0.22175796	     -9.21308856	      0.00000000
      0.69515859	     -0.24024537	     -9.20500777	      0.00000000
      0.69653787	     -0.25864894	     -9.19679334	      0.00000000
      0.69791716	     -0.27692700	     -9.18846145	      0.00000000
      0.69929644	     -0.29506931	     -9.18002684	      0.00000000
      0.70067572	     -0.31305681	     -9.17150434	      0.00000000
      0.70205500	     -0.33089053	     -9.16290970	      0.00000000
      0.70343429	     -0.34857291	     -9.15425697	      0.00000000
      0.70481357	     -0.36610647	     -9.14556357	      0.00000000
      0.70619285	     -0.38350269	     -9.13684485	      0.00000000
      0.70757214	     -0.40075503	     -9.12811791	      0.00000000
      0.70895142	     -0.41786921	     -9.11939879	      0.00000000
      0.71033070	     -0.43482974	     -9.11069925	      0.00000000
      0.71170998	     -0.45163440	     -9.10203166	      0.00000000
      0.71308927	     -0.46826864	     -9.09339679	      0.00000000
      0.71446855	     -0.48472984	     -9.08479783	      0.00000000
      0.71584783	     -0.50101319	     -9.07621943	      0.00000000
      0.71722712	     -0.51712588	     -9.06764892	      0.00000000
      0.71860640	     -0.53307073	     -9.05905227	      0.00000000
      0.71998568	     -0.54886796	     -9.05039573	      0.00000000
      0.72136496	     -0.56450065	     -9.04162874	      0.00000000
      0.72274425	     -0.57996600	     -9.03269990	      0.00000000
      0.72412353	     -0.59518841	     -9.02355040	      0.00000000
      0.72550281	     -0.61009268	     -9.01412229	      0.00000000
      0.72688210	     -0.62456216	     -9.00435058	      0.00000000
      0.72826138	     -0.63847662	     -8.99417089	      0.00000000
      0.72964066	     -0.65175926	     -8.98350449	      0.00000000
      0.73101995	     -0.66433842	     -8.97226621	      0.00000000
      0.73239923	     -0.67621053	     -8.96037253	      0.00000000
      0.73377851	     -0.68736798	     -8.94772864	      0.00000000
      0.73515779	     -0.69784055	     -8.93427271	      0.00000000
      0.73653708	     -0.70765834	     -8.91993604	      0.00000000
      0.73791636	     -0.71684407	     -8.90469751	      0.00000000
      0.73929564	     -0.72542829	     -8.88853082	      0.00000000
      0.74067493	     -0.73338354	     -8.87144285	      0.00000000
      0.74205421	     -0.74066934	     -8.85344305	      0.00000000
      0.74343349	     -0.74722795	     -8.83453161	      0.00000000
      0.74481277	     -0.75299882	     -8.81471681	      0.00000000
      0.74619206	     -0.75797944	     -8.79397331	      0.00000000
      0.74757134	     -0.76217454	     -8.77227222	      0.00000000
      0.74895062	     -0.76564442	     -8.74957026	      0.00000000
      0.75032991	     -0.76844278	     -8.72582046	      0.00000000
      0.75170919	     -0.77065214	     -8.70098926	      0.00000000
      0.75308847	     -0.77234336	     -8.67504241	      0.00000000
      0.75446775	     -0.77361040	     -8.64797995	      0.00000000
      0.75584704	     -0.77453818	     -8.61980183	      0.00000000
      0.75722632	     -0.77524511	     -8.59054947	      0.00000000
      0.75860560	     -0.77585477	     -8.56025962	      0.00000000
      0.75998489	     -0.77649197	     -8.52901074	      0.00000000
      0.76136417	     -0.77728388	     -8.49688091	      0.00000000
      0.76274345	     -0.77830766	     -8.46397374	      0.00000000
      0.76412274	     -0.77964060	     -8.43040492	      0.00000000
      0.76550202	     -0.78129319	     -8.39628633	      0.00000000
      0.76688130	     -0.78328289	     -8.36175189	      0.00000000
      0.76826058	     -0.78556877	     -8.32689652	      0.00000000
      0.76963987	     -0.78811111	     -8.29183785	      0.00000000
      0.77101915	     -0.79085197	     -8.25661519	      0.00000000
      0.77239843	     -0.79372829	     -8.22129305	      0.00000000
      0.77377772	     -0.79673358	     -8.18584186	      0.00000000
      0.77515700	     -0.79996980	     -8.15037369	      0.00000000
      0.77653628	     -0.80333551	     -8.11457205	      0.00000000
      0.77791556	     -0.80704859	     -8.07844940	      0.00000000
      0.77929485	     -0.81133168	     -8.04191656	      0.00000000
      0.78067413	     -0.81640741	     -8.00487176	      0.00000000
      0.78205341	     -0.82250042	     -7.96726781	      0.00000000
      0.78343270	     -0.82981879	     -7.92904550	      0.00000000
      0.78481198	     -0.83853250	     -7.89022777	      0.00000000
      0.78619126	     -0.84881120	     -7.85081885	      0.00000000
      0.78757054	     -0.86080992	     -7.81090050	      0.00000000
      0.78894983	     -0.87472325	     -7.77052905	      0.00000000
      0.79032911	     -0.89067115	     -7.72984408	      0.00000000
      0.79170839	     -0.90882215	     -7.68896062	      0.00000000
      0.79308768	     -0.92911943	     -7.64810560	      0.00000000
      0.79446696	     -0.95153312	     -7.60753507	      0.00000000
      0.79584624	     -0.97575505	     -7.56754077	      0.00000000
      0.79722553	     -1.00142325	     -7.52843550	      0.00000000
      0.79860481	     -1.02818930	     -7.49040051	      0.00000000
      0.79998409	     -1.05574771	     -7.45367097	      0.00000000
      0.80136337	     -1.08399590	     -7.41824795	      0.00000000
      0.80274266	     -1.11280167	     -7.38404458	      0.00000000
      0.80412194	     -1.14220248	     -7.35095542	      0.00000000
      0.80550122	     -1.17222236	     -7.31898972	      0.00000000
      0.80688051	     -1.20293218	     -7.28827161	      0.00000000
      0.80825979	     -1.23436528	     -7.25890679	      0.00000000
      0.80963907	     -1.26653667	     -7.23094040	      0.00000000
      0.81101835	     -1.29939496	     -7.20436819	      0.00000000
      0.81239764	     -1.33306570	     -7.17913724	      0.00000000
      0.81377692	     -1.36784378	     -7.15526146	      0.00000000
      0.81515620	     -1.40396990	     -7.13272917	      0.00000000
      0.81653549	     -1.44160458	     -7.11144103	      0.00000000
      0.81791477	     -1.48070681	     -7.09131439	      0.00000000
      0.81929405	     -1.52116062	     -7.07229489	      0.00000000
      0.82067333	     -1.56289635	     -7.05446575	      0.00000000
      0.82205262	     -1.60579073	     -7.03782967	      0.00000000
      0.82343190	     -1.64997489	     -7.02277445	      0.00000000
      0.82481118	     -1.69564090	     -7.00956611	      0.00000000
      0.82619047	     -1.74307381	     -6.99918758	      0.00000000
      0.82756975	     -1.79277314	     -6.99161870	      0.00000000
