PointPosition
version=1
nRows=601
nColumns=4
inDegrees=no
No description.
endheader
time	state_0	state_1	state_2
      0.00000000	     -0.06475341	      0.85145202	      0.00000000
      0.00137928	     -0.06242103	      0.85145891	      0.00000000
      0.00275857	     -0.06007814	      0.85146261	      0.00000000
      0.00413785	     -0.05772445	      0.85146289	      0.00000000
      0.00551713	     -0.05535970	      0.85145951	      0.00000000
      0.00689641	     -0.05298361	      0.85145218	      0.00000000
      0.00827570	     -0.05059594	      0.85144058	      0.00000000
      0.00965498	     -0.04819647	      0.85142438	      0.00000000
      0.01103426	     -0.04578505	      0.85140319	      0.00000000
      0.01241355	     -0.04336158	      0.85137663	      0.00000000
      0.01379283	     -0.04092606	      0.85134429	      0.00000000
      0.01517211	     -0.03847859	      0.85130576	      0.00000000
      0.01655139	     -0.03601950	      0.85126056	      0.00000000
      0.01793068	     -0.03354914	      0.85120815	      0.00000000
      0.01930996	     -0.03106809	      0.85114794	      0.00000000
      0.02068924	     -0.02857711	      0.85107936	      0.00000000
      0.02206853	     -0.02607747	      0.85100201	      0.00000000
      0.02344781	     -0.02357074	      0.85091566	      0.00000000
      0.02482709	     -0.02105876	      0.85082040	      0.00000000
      0.02620638	     -0.01854330	      0.85071654	      0.00000000
      0.02758566	     -0.01602573	      0.85060492	      0.00000000
      0.02896494	     -0.01350735	      0.85048674	      0.00000000
      0.03034422	     -0.01098858	      0.85036351	      0.00000000
      0.03172351	     -0.00846917	      0.85023662	      0.00000000
      0.03310279	     -0.00594913	      0.85010699	      0.00000000
      0.03448207	     -0.00342871	      0.84997516	      0.00000000
      0.03586136	     -0.00090820	      0.84984135	      0.00000000
      0.03724064	      0.00161200	      0.84970572	      0.00000000
      0.03861992	      0.00413134	      0.84956839	      0.00000000
      0.03999920	      0.00664922	      0.84942945	      0.00000000
      0.04137849	      0.00916492	      0.84928903	      0.00000000
      0.04275777	      0.01167770	      0.84914728	      0.00000000
      0.04413705	      0.01418677	      0.84900443	      0.00000000
      0.04551634	      0.01669130	      0.84886070	      0.00000000
      0.04689562	      0.01919018	      0.84871619	      0.00000000
      0.04827490	      0.02168206	      0.84857077	      0.00000000
      0.04965418	      0.02416534	      0.84842413	      0.00000000
      0.05103347	      0.02663847	      0.84827598	      0.00000000
      0.05241275	      0.02910028	      0.84812654	      0.00000000
      0.05379203	      0.03155000	      0.84797651	      0.00000000
      0.05517132	      0.03398720	      0.84782698	      0.00000000
      0.05655060	      0.03641148	      0.84767905	      0.00000000
      0.05792988	      0.03882249	      0.84753380	      0.00000000
      0.05930917	      0.04121991	      0.84739234	      0.00000000
      0.06068845	      0.04360340	      0.84725571	      0.00000000
      0.06206773	      0.04597264	      0.84712491	      0.00000000
      0.06344701	      0.04832731	      0.84700094	      0.00000000
      0.06482630	      0.05066713	      0.84688473	      0.00000000
      0.06620558	      0.05299185	      0.84677719	      0.00000000
      0.06758486	      0.05530129	      0.84667922	      0.00000000
      0.06896415	      0.05759532	      0.84659164	      0.00000000
      0.07034343	      0.05987386	      0.84651530	      0.00000000
      0.07172271	      0.06213691	      0.84645095	      0.00000000
      0.07310199	      0.06438452	      0.84639935	      0.00000000
      0.07448128	      0.06661679	      0.84636116	      0.00000000
      0.07586056	      0.06883385	      0.84633704	      0.00000000
      0.07723984	      0.07103588	      0.84632755	      0.00000000
      0.07861913	      0.07322304	      0.84633321	      0.00000000
      0.07999841	      0.07539552	      0.84635446	      0.00000000
      0.08137769	      0.07755353	      0.84639169	      0.00000000
      0.08275697	      0.07969728	      0.84644523	      0.00000000
      0.08413626	      0.08182699	      0.84651533	      0.00000000
      0.08551554	      0.08394289	      0.84660218	      0.00000000
      0.08689482	      0.08604521	      0.84670592	      0.00000000
      0.08827411	      0.08813418	      0.84682661	      0.00000000
      0.08965339	      0.09021005	      0.84696429	      0.00000000
      0.09103267	      0.09227308	      0.84711889	      0.00000000
      0.09241196	      0.09432355	      0.84729035	      0.00000000
      0.09379124	      0.09636176	      0.84747853	      0.00000000
      0.09517052	      0.09838800	      0.84768327	      0.00000000
      0.09654980	      0.10040259	      0.84790433	      0.00000000
      0.09792909	      0.10240584	      0.84814149	      0.00000000
      0.09930837	      0.10439809	      0.84839445	      0.00000000
      0.10068765	      0.10637966	      0.84866290	      0.00000000
      0.10206694	      0.10835088	      0.84894649	      0.00000000
      0.10344622	      0.11031208	      0.84924485	      0.00000000
      0.10482550	      0.11226358	      0.84955757	      0.00000000
      0.10620478	      0.11420568	      0.84988421	      0.00000000
      0.10758407	      0.11613868	      0.85022431	      0.00000000
      0.10896335	      0.11806287	      0.85057738	      0.00000000
      0.11034263	      0.11997854	      0.85094293	      0.00000000
      0.11172192	      0.12188597	      0.85132043	      0.00000000
      0.11310120	      0.12378545	      0.85170936	      0.00000000
      0.11448048	      0.12567724	      0.85210916	      0.00000000
      0.11585976	      0.12756163	      0.85251929	      0.00000000
      0.11723905	      0.12943890	      0.85293920	      0.00000000
      0.11861833	      0.13130930	      0.85336832	      0.00000000
      0.11999761	      0.13317310	      0.85380609	      0.00000000
      0.12137690	      0.13503056	      0.85425196	      0.00000000
      0.12275618	      0.13688194	      0.85470536	      0.00000000
      0.12413546	      0.13872747	      0.85516574	      0.00000000
      0.12551475	      0.14056740	      0.85563255	      0.00000000
      0.12689403	      0.14240195	      0.85610525	      0.00000000
      0.12827331	      0.14423134	      0.85658331	      0.00000000
      0.12965259	      0.14605581	      0.85706620	      0.00000000
      0.13103188	      0.14787555	      0.85755341	      0.00000000
      0.13241116	      0.14969079	      0.85804444	      0.00000000
      0.13379044	      0.15150171	      0.85853880	      0.00000000
      0.13516973	      0.15330851	      0.85903601	      0.00000000
      0.13654901	      0.15511138	      0.85953562	      0.00000000
      0.13792829	      0.15691047	      0.86003715	      0.00000000
      0.13930757	      0.15870597	      0.86054018	      0.00000000
      0.14068686	      0.16049803	      0.86104428	      0.00000000
      0.14206614	      0.16228679	      0.86154902	      0.00000000
      0.14344542	      0.16407240	      0.86205400	      0.00000000
      0.14482471	      0.16585500	      0.86255882	      0.00000000
      0.14620399	      0.16763473	      0.86306309	      0.00000000
      0.14758327	      0.16941171	      0.86356646	      0.00000000
      0.14896255	      0.17118607	      0.86406855	      0.00000000
      0.15034184	      0.17295793	      0.86456900	      0.00000000
      0.15172112	      0.17472740	      0.86506749	      0.00000000
      0.15310040	      0.17649459	      0.86556366	      0.00000000
      0.15447969	      0.17825962	      0.86605721	      0.00000000
      0.15585897	      0.18002258	      0.86654781	      0.00000000
      0.15723825	      0.18178357	      0.86703516	      0.00000000
      0.15861754	      0.18354267	      0.86751895	      0.00000000
      0.15999682	      0.18529998	      0.86799891	      0.00000000
      0.16137610	      0.18705557	      0.86847474	      0.00000000
      0.16275538	      0.18880953	      0.86894618	      0.00000000
      0.16413467	      0.19056193	      0.86941296	      0.00000000
      0.16551395	      0.19231285	      0.86987482	      0.00000000
      0.16689323	      0.19406236	      0.87033152	      0.00000000
      0.16827252	      0.19581053	      0.87078281	      0.00000000
      0.16965180	      0.19755743	      0.87122845	      0.00000000
      0.17103108	      0.19930314	      0.87166822	      0.00000000
      0.17241036	      0.20104772	      0.87210190	      0.00000000
      0.17378965	      0.20279124	      0.87252928	      0.00000000
      0.17516893	      0.20453377	      0.87295014	      0.00000000
      0.17654821	      0.20627539	      0.87336428	      0.00000000
      0.17792750	      0.20801616	      0.87377152	      0.00000000
      0.17930678	      0.20975615	      0.87417167	      0.00000000
      0.18068606	      0.21149544	      0.87456454	      0.00000000
      0.18206534	      0.21323408	      0.87494998	      0.00000000
      0.18344463	      0.21497215	      0.87532782	      0.00000000
      0.18482391	      0.21670972	      0.87569790	      0.00000000
      0.18620319	      0.21844683	      0.87606008	      0.00000000
      0.18758248	      0.22018357	      0.87641422	      0.00000000
      0.18896176	      0.22191999	      0.87676018	      0.00000000
      0.19034104	      0.22365615	      0.87709785	      0.00000000
      0.19172033	      0.22539210	      0.87742711	      0.00000000
      0.19309961	      0.22712792	      0.87774783	      0.00000000
      0.19447889	      0.22886364	      0.87805991	      0.00000000
      0.19585817	      0.23059932	      0.87836326	      0.00000000
      0.19723746	      0.23233501	      0.87865777	      0.00000000
      0.19861674	      0.23407077	      0.87894335	      0.00000000
      0.19999602	      0.23580664	      0.87921991	      0.00000000
      0.20137531	      0.23754267	      0.87948738	      0.00000000
      0.20275459	      0.23927892	      0.87974566	      0.00000000
      0.20413387	      0.24101543	      0.87999469	      0.00000000
      0.20551315	      0.24275224	      0.88023439	      0.00000000
      0.20689244	      0.24448942	      0.88046470	      0.00000000
      0.20827172	      0.24622699	      0.88068555	      0.00000000
      0.20965100	      0.24796501	      0.88089687	      0.00000000
      0.21103029	      0.24970353	      0.88109862	      0.00000000
      0.21240957	      0.25144258	      0.88129073	      0.00000000
      0.21378885	      0.25318221	      0.88147315	      0.00000000
      0.21516813	      0.25492246	      0.88164585	      0.00000000
      0.21654742	      0.25666337	      0.88180876	      0.00000000
      0.21792670	      0.25840498	      0.88196185	      0.00000000
      0.21930598	      0.26014732	      0.88210509	      0.00000000
      0.22068527	      0.26189043	      0.88223844	      0.00000000
      0.22206455	      0.26363436	      0.88236186	      0.00000000
      0.22344383	      0.26537912	      0.88247533	      0.00000000
      0.22482312	      0.26712476	      0.88257884	      0.00000000
      0.22620240	      0.26887131	      0.88267235	      0.00000000
      0.22758168	      0.27061880	      0.88275585	      0.00000000
      0.22896096	      0.27236727	      0.88282934	      0.00000000
      0.23034025	      0.27411674	      0.88289280	      0.00000000
      0.23171953	      0.27586725	      0.88294624	      0.00000000
      0.23309881	      0.27761883	      0.88298964	      0.00000000
      0.23447810	      0.27937150	      0.88302302	      0.00000000
      0.23585738	      0.28112531	      0.88304639	      0.00000000
      0.23723666	      0.28288027	      0.88305974	      0.00000000
      0.23861594	      0.28463641	      0.88306310	      0.00000000
      0.23999523	      0.28639377	      0.88305648	      0.00000000
      0.24137451	      0.28815236	      0.88303989	      0.00000000
      0.24275379	      0.28991222	      0.88301337	      0.00000000
      0.24413308	      0.29167335	      0.88297693	      0.00000000
      0.24551236	      0.29343579	      0.88293060	      0.00000000
      0.24689164	      0.29519956	      0.88287441	      0.00000000
      0.24827092	      0.29696467	      0.88280840	      0.00000000
      0.24965021	      0.29873114	      0.88273260	      0.00000000
      0.25102949	      0.30049900	      0.88264704	      0.00000000
      0.25240877	      0.30226826	      0.88255177	      0.00000000
      0.25378806	      0.30403895	      0.88244683	      0.00000000
      0.25516734	      0.30581108	      0.88233227	      0.00000000
      0.25654662	      0.30758470	      0.88220815	      0.00000000
      0.25792591	      0.30935983	      0.88207452	      0.00000000
      0.25930519	      0.31113652	      0.88193145	      0.00000000
      0.26068447	      0.31291481	      0.88177901	      0.00000000
      0.26206375	      0.31469476	      0.88161728	      0.00000000
      0.26344304	      0.31647643	      0.88144634	      0.00000000
      0.26482232	      0.31825992	      0.88126631	      0.00000000
      0.26620160	      0.32004530	      0.88107728	      0.00000000
      0.26758089	      0.32183270	      0.88087937	      0.00000000
      0.26896017	      0.32362222	      0.88067273	      0.00000000
      0.27033945	      0.32541401	      0.88045750	      0.00000000
      0.27171873	      0.32720820	      0.88023382	      0.00000000
      0.27309802	      0.32900496	      0.88000186	      0.00000000
      0.27447730	      0.33080445	      0.87976179	      0.00000000
      0.27585658	      0.33260683	      0.87951379	      0.00000000
      0.27723587	      0.33441228	      0.87925804	      0.00000000
      0.27861515	      0.33622096	      0.87899472	      0.00000000
      0.27999443	      0.33803302	      0.87872400	      0.00000000
      0.28137371	      0.33984861	      0.87844606	      0.00000000
      0.28275300	      0.34166791	      0.87816109	      0.00000000
      0.28413228	      0.34349105	      0.87786927	      0.00000000
      0.28551156	      0.34531820	      0.87757077	      0.00000000
      0.28689085	      0.34714950	      0.87726579	      0.00000000
      0.28827013	      0.34898509	      0.87695449	      0.00000000
      0.28964941	      0.35082511	      0.87663705	      0.00000000
      0.29102870	      0.35266972	      0.87631365	      0.00000000
      0.29240798	      0.35451904	      0.87598446	      0.00000000
      0.29378726	      0.35637323	      0.87564965	      0.00000000
      0.29516654	      0.35823241	      0.87530940	      0.00000000
      0.29654583	      0.36009673	      0.87496387	      0.00000000
      0.29792511	      0.36196633	      0.87461322	      0.00000000
      0.29930439	      0.36384135	      0.87425762	      0.00000000
      0.30068368	      0.36572192	      0.87389721	      0.00000000
      0.30206296	      0.36760820	      0.87353216	      0.00000000
      0.30344224	      0.36950032	      0.87316259	      0.00000000
      0.30482152	      0.37139843	      0.87278866	      0.00000000
      0.30620081	      0.37330268	      0.87241048	      0.00000000
      0.30758009	      0.37521323	      0.87202819	      0.00000000
      0.30895937	      0.37713022	      0.87164189	      0.00000000
      0.31033866	      0.37905381	      0.87125171	      0.00000000
      0.31171794	      0.38098416	      0.87085775	      0.00000000
      0.31309722	      0.38292141	      0.87046011	      0.00000000
      0.31447650	      0.38486575	      0.87005887	      0.00000000
      0.31585579	      0.38681731	      0.86965413	      0.00000000
      0.31723507	      0.38877627	      0.86924597	      0.00000000
      0.31861435	      0.39074278	      0.86883445	      0.00000000
      0.31999364	      0.39271700	      0.86841966	      0.00000000
      0.32137292	      0.39469911	      0.86800165	      0.00000000
      0.32275220	      0.39668926	      0.86758048	      0.00000000
      0.32413149	      0.39868762	      0.86715620	      0.00000000
      0.32551077	      0.40069434	      0.86672884	      0.00000000
      0.32689005	      0.40270958	      0.86629845	      0.00000000
      0.32826933	      0.40473350	      0.86586505	      0.00000000
      0.32964862	      0.40676624	      0.86542866	      0.00000000
      0.33102790	      0.40880795	      0.86498929	      0.00000000
      0.33240718	      0.41085876	      0.86454692	      0.00000000
      0.33378647	      0.41291880	      0.86410155	      0.00000000
      0.33516575	      0.41498819	      0.86365315	      0.00000000
      0.33654503	      0.41706702	      0.86320167	      0.00000000
      0.33792431	      0.41915541	      0.86274706	      0.00000000
      0.33930360	      0.42125343	      0.86228925	      0.00000000
      0.34068288	      0.42336115	      0.86182815	      0.00000000
      0.34206216	      0.42547863	      0.86136369	      0.00000000
      0.34344145	      0.42760593	      0.86089574	      0.00000000
      0.34482073	      0.42974306	      0.86042421	      0.00000000
      0.34620001	      0.43189005	      0.85994895	      0.00000000
      0.34757929	      0.43404692	      0.85946984	      0.00000000
      0.34895858	      0.43621368	      0.85898674	      0.00000000
      0.35033786	      0.43839031	      0.85849951	      0.00000000
      0.35171714	      0.44057681	      0.85800800	      0.00000000
      0.35309643	      0.44277319	      0.85751207	      0.00000000
      0.35447571	      0.44497943	      0.85701158	      0.00000000
      0.35585499	      0.44719553	      0.85650639	      0.00000000
      0.35723428	      0.44942150	      0.85599636	      0.00000000
      0.35861356	      0.45165733	      0.85548137	      0.00000000
      0.35999284	      0.45390303	      0.85496130	      0.00000000
      0.36137212	      0.45615861	      0.85443602	      0.00000000
      0.36275141	      0.45842405	      0.85390543	      0.00000000
      0.36413069	      0.46069934	      0.85336942	      0.00000000
      0.36550997	      0.46298444	      0.85282789	      0.00000000
      0.36688926	      0.46527929	      0.85228074	      0.00000000
      0.36826854	      0.46758380	      0.85172789	      0.00000000
      0.36964782	      0.46989784	      0.85116923	      0.00000000
      0.37102710	      0.47222127	      0.85060470	      0.00000000
      0.37240639	      0.47455391	      0.85003420	      0.00000000
      0.37378567	      0.47689555	      0.84945766	      0.00000000
      0.37516495	      0.47924598	      0.84887502	      0.00000000
      0.37654424	      0.48160496	      0.84828621	      0.00000000
      0.37792352	      0.48397226	      0.84769119	      0.00000000
      0.37930280	      0.48634765	      0.84708989	      0.00000000
      0.38068208	      0.48873094	      0.84648230	      0.00000000
      0.38206137	      0.49112196	      0.84586839	      0.00000000
      0.38344065	      0.49352062	      0.84524819	      0.00000000
      0.38481993	      0.49592683	      0.84462172	      0.00000000
      0.38619922	      0.49834064	      0.84398904	      0.00000000
      0.38757850	      0.50076218	      0.84335023	      0.00000000
      0.38895778	      0.50319154	      0.84270536	      0.00000000
      0.39033707	      0.50562870	      0.84205440	      0.00000000
      0.39171635	      0.50807352	      0.84139732	      0.00000000
      0.39309563	      0.51052578	      0.84073411	      0.00000000
      0.39447491	      0.51298521	      0.84006480	      0.00000000
      0.39585420	      0.51545153	      0.83938949	      0.00000000
      0.39723348	      0.51792442	      0.83870828	      0.00000000
      0.39861276	      0.52040351	      0.83802128	      0.00000000
      0.39999205	      0.52288833	      0.83732871	      0.00000000
      0.40137133	      0.52537832	      0.83663086	      0.00000000
      0.40275061	      0.52787272	      0.83592831	      0.00000000
      0.40412989	      0.53037064	      0.83522177	      0.00000000
      0.40550918	      0.53287081	      0.83451244	      0.00000000
      0.40688846	      0.53537166	      0.83380182	      0.00000000
      0.40826774	      0.53787113	      0.83309204	      0.00000000
      0.40964703	      0.54036682	      0.83238555	      0.00000000
      0.41102631	      0.54285560	      0.83168572	      0.00000000
      0.41240559	      0.54533350	      0.83099676	      0.00000000
      0.41378487	      0.54779726	      0.83032308	      0.00000000
      0.41516416	      0.55024610	      0.82966746	      0.00000000
      0.41654344	      0.55268005	      0.82903248	      0.00000000
      0.41792272	      0.55509728	      0.82842212	      0.00000000
      0.41930201	      0.55749589	      0.82784018	      0.00000000
      0.42068129	      0.55987447	      0.82728995	      0.00000000
      0.42206057	      0.56223194	      0.82677423	      0.00000000
      0.42343986	      0.56456761	      0.82629543	      0.00000000
      0.42481914	      0.56688113	      0.82585527	      0.00000000
      0.42619842	      0.56917234	      0.82545508	      0.00000000
      0.42757770	      0.57144123	      0.82509544	      0.00000000
      0.42895699	      0.57368784	      0.82477648	      0.00000000
      0.43033627	      0.57591233	      0.82449773	      0.00000000
      0.43171555	      0.57811500	      0.82425852	      0.00000000
      0.43309484	      0.58029639	      0.82405793	      0.00000000
      0.43447412	      0.58245709	      0.82389492	      0.00000000
      0.43585340	      0.58459792	      0.82376823	      0.00000000
      0.43723268	      0.58671977	      0.82367654	      0.00000000
      0.43861197	      0.58882372	      0.82361842	      0.00000000
      0.43999125	      0.59091091	      0.82359245	      0.00000000
      0.44137053	      0.59298252	      0.82359717	      0.00000000
      0.44274982	      0.59503971	      0.82363108	      0.00000000
      0.44412910	      0.59708358	      0.82369268	      0.00000000
      0.44550838	      0.59911514	      0.82378043	      0.00000000
      0.44688766	      0.60113531	      0.82389282	      0.00000000
      0.44826695	      0.60314494	      0.82402833	      0.00000000
      0.44964623	      0.60514480	      0.82418546	      0.00000000
      0.45102551	      0.60713560	      0.82436279	      0.00000000
      0.45240480	      0.60911796	      0.82455892	      0.00000000
      0.45378408	      0.61109245	      0.82477250	      0.00000000
      0.45516336	      0.61305952	      0.82500224	      0.00000000
      0.45654265	      0.61501951	      0.82524685	      0.00000000
      0.45792193	      0.61697268	      0.82550511	      0.00000000
      0.45930121	      0.61891927	      0.82577581	      0.00000000
      0.46068049	      0.62085947	      0.82605780	      0.00000000
      0.46205978	      0.62279348	      0.82634997	      0.00000000
      0.46343906	      0.62472147	      0.82665130	      0.00000000
      0.46481834	      0.62664361	      0.82696076	      0.00000000
      0.46619763	      0.62856007	      0.82727743	      0.00000000
      0.46757691	      0.63047101	      0.82760041	      0.00000000
      0.46895619	      0.63237659	      0.82792885	      0.00000000
      0.47033547	      0.63427697	      0.82826197	      0.00000000
      0.47171476	      0.63617230	      0.82859901	      0.00000000
      0.47309404	      0.63806271	      0.82893927	      0.00000000
      0.47447332	      0.63994834	      0.82928208	      0.00000000
      0.47585261	      0.64182931	      0.82962681	      0.00000000
      0.47723189	      0.64370572	      0.82997287	      0.00000000
      0.47861117	      0.64557769	      0.83031969	      0.00000000
      0.47999045	      0.64744528	      0.83066674	      0.00000000
      0.48136974	      0.64930858	      0.83101351	      0.00000000
      0.48274902	      0.65116764	      0.83135954	      0.00000000
      0.48412830	      0.65302251	      0.83170434	      0.00000000
      0.48550759	      0.65487324	      0.83204751	      0.00000000
      0.48688687	      0.65671990	      0.83238862	      0.00000000
      0.48826615	      0.65856255	      0.83272730	      0.00000000
      0.48964544	      0.66040125	      0.83306318	      0.00000000
      0.49102472	      0.66223611	      0.83339594	      0.00000000
      0.49240400	      0.66406722	      0.83372527	      0.00000000
      0.49378328	      0.66589468	      0.83405087	      0.00000000
      0.49516257	      0.66771862	      0.83437250	      0.00000000
      0.49654185	      0.66953912	      0.83468992	      0.00000000
      0.49792113	      0.67135630	      0.83500289	      0.00000000
      0.49930042	      0.67317025	      0.83531121	      0.00000000
      0.50067970	      0.67498105	      0.83561469	      0.00000000
      0.50205898	      0.67678876	      0.83591315	      0.00000000
      0.50343826	      0.67859345	      0.83620642	      0.00000000
      0.50481755	      0.68039517	      0.83649433	      0.00000000
      0.50619683	      0.68219394	      0.83677674	      0.00000000
      0.50757611	      0.68398980	      0.83705350	      0.00000000
      0.50895540	      0.68578278	      0.83732449	      0.00000000
      0.51033468	      0.68757290	      0.83758957	      0.00000000
      0.51171396	      0.68936019	      0.83784863	      0.00000000
      0.51309324	      0.69114468	      0.83810157	      0.00000000
      0.51447253	      0.69292641	      0.83834830	      0.00000000
      0.51585181	      0.69470541	      0.83858873	      0.00000000
      0.51723109	      0.69648174	      0.83882280	      0.00000000
      0.51861038	      0.69825543	      0.83905045	      0.00000000
      0.51998966	      0.70002656	      0.83927162	      0.00000000
      0.52136894	      0.70179515	      0.83948628	      0.00000000
      0.52274823	      0.70356127	      0.83969440	      0.00000000
      0.52412751	      0.70532494	      0.83989595	      0.00000000
      0.52550679	      0.70708619	      0.84009092	      0.00000000
      0.52688607	      0.70884506	      0.84027931	      0.00000000
      0.52826536	      0.71060154	      0.84046110	      0.00000000
      0.52964464	      0.71235565	      0.84063630	      0.00000000
      0.53102392	      0.71410738	      0.84080493	      0.00000000
      0.53240321	      0.71585673	      0.84096701	      0.00000000
      0.53378249	      0.71760369	      0.84112256	      0.00000000
      0.53516177	      0.71934825	      0.84127164	      0.00000000
      0.53654105	      0.72109040	      0.84141430	      0.00000000
      0.53792034	      0.72283011	      0.84155062	      0.00000000
      0.53929962	      0.72456738	      0.84168068	      0.00000000
      0.54067890	      0.72630217	      0.84180457	      0.00000000
      0.54205819	      0.72803448	      0.84192241	      0.00000000
      0.54343747	      0.72976427	      0.84203431	      0.00000000
      0.54481675	      0.73149152	      0.84214040	      0.00000000
      0.54619603	      0.73321622	      0.84224081	      0.00000000
      0.54757532	      0.73493833	      0.84233569	      0.00000000
      0.54895460	      0.73665786	      0.84242519	      0.00000000
      0.55033388	      0.73837481	      0.84250946	      0.00000000
      0.55171317	      0.74008917	      0.84258869	      0.00000000
      0.55309245	      0.74180096	      0.84266305	      0.00000000
      0.55447173	      0.74351023	      0.84273270	      0.00000000
      0.55585101	      0.74521700	      0.84279784	      0.00000000
      0.55723030	      0.74692132	      0.84285865	      0.00000000
      0.55860958	      0.74862323	      0.84291532	      0.00000000
      0.55998886	      0.75032278	      0.84296805	      0.00000000
      0.56136815	      0.75201998	      0.84301706	      0.00000000
      0.56274743	      0.75371485	      0.84306255	      0.00000000
      0.56412671	      0.75540738	      0.84310471	      0.00000000
      0.56550600	      0.75709755	      0.84314373	      0.00000000
      0.56688528	      0.75878530	      0.84317975	      0.00000000
      0.56826456	      0.76047060	      0.84321294	      0.00000000
      0.56964384	      0.76215350	      0.84324346	      0.00000000
      0.57102313	      0.76383408	      0.84327152	      0.00000000
      0.57240241	      0.76551237	      0.84329729	      0.00000000
      0.57378169	      0.76718845	      0.84332094	      0.00000000
      0.57516098	      0.76886237	      0.84334265	      0.00000000
      0.57654026	      0.77053422	      0.84336259	      0.00000000
      0.57791954	      0.77220407	      0.84338092	      0.00000000
      0.57929882	      0.77387197	      0.84339778	      0.00000000
      0.58067811	      0.77553799	      0.84341332	      0.00000000
      0.58205739	      0.77720216	      0.84342765	      0.00000000
      0.58343667	      0.77886454	      0.84344090	      0.00000000
      0.58481596	      0.78052516	      0.84345319	      0.00000000
      0.58619524	      0.78218404	      0.84346462	      0.00000000
      0.58757452	      0.78384123	      0.84347530	      0.00000000
      0.58895380	      0.78549674	      0.84348534	      0.00000000
      0.59033309	      0.78715060	      0.84349481	      0.00000000
      0.59171237	      0.78880283	      0.84350380	      0.00000000
      0.59309165	      0.79045346	      0.84351239	      0.00000000
      0.59447094	      0.79210253	      0.84352063	      0.00000000
      0.59585022	      0.79375007	      0.84352860	      0.00000000
      0.59722950	      0.79539611	      0.84353635	      0.00000000
      0.59860879	      0.79704069	      0.84354395	      0.00000000
      0.59998807	      0.79868384	      0.84355145	      0.00000000
      0.60136735	      0.80032559	      0.84355892	      0.00000000
      0.60274663	      0.80196598	      0.84356642	      0.00000000
      0.60412592	      0.80360504	      0.84357403	      0.00000000
      0.60550520	      0.80524280	      0.84358180	      0.00000000
      0.60688448	      0.80687932	      0.84358983	      0.00000000
      0.60826377	      0.80851466	      0.84359821	      0.00000000
      0.60964305	      0.81014888	      0.84360704	      0.00000000
      0.61102233	      0.81178207	      0.84361643	      0.00000000
      0.61240161	      0.81341434	      0.84362647	      0.00000000
      0.61378090	      0.81504580	      0.84363723	      0.00000000
      0.61516018	      0.81667655	      0.84364880	      0.00000000
      0.61653946	      0.81830672	      0.84366122	      0.00000000
      0.61791875	      0.81993641	      0.84367456	      0.00000000
      0.61929803	      0.82156570	      0.84368887	      0.00000000
      0.62067731	      0.82319467	      0.84370424	      0.00000000
      0.62205659	      0.82482338	      0.84372072	      0.00000000
      0.62343588	      0.82645192	      0.84373834	      0.00000000
      0.62481516	      0.82808039	      0.84375713	      0.00000000
      0.62619444	      0.82970890	      0.84377708	      0.00000000
      0.62757373	      0.83133757	      0.84379817	      0.00000000
      0.62895301	      0.83296649	      0.84382035	      0.00000000
      0.63033229	      0.83459576	      0.84384358	      0.00000000
      0.63171158	      0.83622545	      0.84386783	      0.00000000
      0.63309086	      0.83785564	      0.84389303	      0.00000000
      0.63447014	      0.83948640	      0.84391914	      0.00000000
      0.63584942	      0.84111779	      0.84394610	      0.00000000
      0.63722871	      0.84274987	      0.84397387	      0.00000000
      0.63860799	      0.84438270	      0.84400240	      0.00000000
      0.63998727	      0.84601638	      0.84403166	      0.00000000
      0.64136656	      0.84765100	      0.84406163	      0.00000000
      0.64274584	      0.84928671	      0.84409230	      0.00000000
      0.64412512	      0.85092366	      0.84412363	      0.00000000
      0.64550440	      0.85256207	      0.84415559	      0.00000000
      0.64688369	      0.85420216	      0.84418811	      0.00000000
      0.64826297	      0.85584417	      0.84422114	      0.00000000
      0.64964225	      0.85748827	      0.84425463	      0.00000000
      0.65102154	      0.85913463	      0.84428858	      0.00000000
      0.65240082	      0.86078339	      0.84432297	      0.00000000
      0.65378010	      0.86243464	      0.84435781	      0.00000000
      0.65515938	      0.86408842	      0.84439314	      0.00000000
      0.65653867	      0.86574472	      0.84442902	      0.00000000
      0.65791795	      0.86740349	      0.84446553	      0.00000000
      0.65929723	      0.86906465	      0.84450276	      0.00000000
      0.66067652	      0.87072810	      0.84454081	      0.00000000
      0.66205580	      0.87239376	      0.84457979	      0.00000000
      0.66343508	      0.87406151	      0.84461979	      0.00000000
      0.66481437	      0.87573127	      0.84466092	      0.00000000
      0.66619365	      0.87740294	      0.84470327	      0.00000000
      0.66757293	      0.87907650	      0.84474692	      0.00000000
      0.66895221	      0.88075191	      0.84479195	      0.00000000
      0.67033150	      0.88242919	      0.84483840	      0.00000000
      0.67171078	      0.88410839	      0.84488632	      0.00000000
      0.67309006	      0.88578957	      0.84493571	      0.00000000
      0.67446935	      0.88747281	      0.84498660	      0.00000000
      0.67584863	      0.88915817	      0.84503900	      0.00000000
      0.67722791	      0.89084574	      0.84509289	      0.00000000
      0.67860719	      0.89253560	      0.84514826	      0.00000000
      0.67998648	      0.89422783	      0.84520509	      0.00000000
      0.68136576	      0.89592248	      0.84526336	      0.00000000
      0.68274504	      0.89761964	      0.84532303	      0.00000000
      0.68412433	      0.89931936	      0.84538405	      0.00000000
      0.68550361	      0.90102169	      0.84544639	      0.00000000
      0.68688289	      0.90272668	      0.84551000	      0.00000000
      0.68826217	      0.90443437	      0.84557481	      0.00000000
      0.68964146	      0.90614481	      0.84564077	      0.00000000
      0.69102074	      0.90785803	      0.84570783	      0.00000000
      0.69240002	      0.90957408	      0.84577590	      0.00000000
      0.69377931	      0.91129300	      0.84584494	      0.00000000
      0.69515859	      0.91301481	      0.84591487	      0.00000000
      0.69653787	      0.91473958	      0.84598563	      0.00000000
      0.69791716	      0.91646735	      0.84605715	      0.00000000
      0.69929644	      0.91819817	      0.84612938	      0.00000000
      0.70067572	      0.91993210	      0.84620225	      0.00000000
      0.70205500	      0.92166922	      0.84627571	      0.00000000
      0.70343429	      0.92340959	      0.84634972	      0.00000000
      0.70481357	      0.92515330	      0.84642421	      0.00000000
      0.70619285	      0.92690045	      0.84649917	      0.00000000
      0.70757214	      0.92865115	      0.84657455	      0.00000000
      0.70895142	      0.93040549	      0.84665033	      0.00000000
      0.71033070	      0.93216360	      0.84672649	      0.00000000
      0.71170998	      0.93392559	      0.84680301	      0.00000000
      0.71308927	      0.93569160	      0.84687989	      0.00000000
      0.71446855	      0.93746175	      0.84695711	      0.00000000
      0.71584783	      0.93923616	      0.84703466	      0.00000000
      0.71722712	      0.94101496	      0.84711255	      0.00000000
      0.71860640	      0.94279827	      0.84719077	      0.00000000
      0.71998568	      0.94458621	      0.84726932	      0.00000000
      0.72136496	      0.94637890	      0.84734819	      0.00000000
      0.72274425	      0.94817643	      0.84742737	      0.00000000
      0.72412353	      0.94997893	      0.84750684	      0.00000000
      0.72550281	      0.95178646	      0.84758658	      0.00000000
      0.72688210	      0.95359912	      0.84766655	      0.00000000
      0.72826138	      0.95541696	      0.84774673	      0.00000000
      0.72964066	      0.95724003	      0.84782704	      0.00000000
      0.73101995	      0.95906837	      0.84790744	      0.00000000
      0.73239923	      0.96090202	      0.84798786	      0.00000000
      0.73377851	      0.96274097	      0.84806821	      0.00000000
      0.73515779	      0.96458526	      0.84814843	      0.00000000
      0.73653708	      0.96643489	      0.84822844	      0.00000000
      0.73791636	      0.96828987	      0.84830816	      0.00000000
      0.73929564	      0.97015023	      0.84838751	      0.00000000
      0.74067493	      0.97201598	      0.84846643	      0.00000000
      0.74205421	      0.97388715	      0.84854484	      0.00000000
      0.74343349	      0.97576376	      0.84862268	      0.00000000
      0.74481277	      0.97764582	      0.84869988	      0.00000000
      0.74619206	      0.97953334	      0.84877637	      0.00000000
      0.74757134	      0.98142635	      0.84885207	      0.00000000
      0.74895062	      0.98332483	      0.84892693	      0.00000000
      0.75032991	      0.98522881	      0.84900088	      0.00000000
      0.75170919	      0.98713829	      0.84907384	      0.00000000
      0.75308847	      0.98905328	      0.84914575	      0.00000000
      0.75446775	      0.99097379	      0.84921656	      0.00000000
      0.75584704	      0.99289984	      0.84928622	      0.00000000
      0.75722632	      0.99483146	      0.84935466	      0.00000000
      0.75860560	      0.99676868	      0.84942186	      0.00000000
      0.75998489	      0.99871156	      0.84948779	      0.00000000
      0.76136417	      1.00066014	      0.84955242	      0.00000000
      0.76274345	      1.00261452	      0.84961577	      0.00000000
      0.76412274	      1.00457477	      0.84967782	      0.00000000
      0.76550202	      1.00654098	      0.84973861	      0.00000000
      0.76688130	      1.00851327	      0.84979816	      0.00000000
      0.76826058	      1.01049173	      0.84985650	      0.00000000
      0.76963987	      1.01247648	      0.84991368	      0.00000000
      0.77101915	      1.01446762	      0.84996974	      0.00000000
      0.77239843	      1.01646523	      0.85002473	      0.00000000
      0.77377772	      1.01846940	      0.85007869	      0.00000000
      0.77515700	      1.02048020	      0.85013165	      0.00000000
      0.77653628	      1.02249769	      0.85018363	      0.00000000
      0.77791556	      1.02452191	      0.85023467	      0.00000000
      0.77929485	      1.02655289	      0.85028476	      0.00000000
      0.78067413	      1.02859069	      0.85033391	      0.00000000
      0.78205341	      1.03063532	      0.85038212	      0.00000000
      0.78343270	      1.03268682	      0.85042939	      0.00000000
      0.78481198	      1.03474525	      0.85047572	      0.00000000
      0.78619126	      1.03681065	      0.85052110	      0.00000000
      0.78757054	      1.03888310	      0.85056554	      0.00000000
      0.78894983	      1.04096267	      0.85060904	      0.00000000
      0.79032911	      1.04304946	      0.85065163	      0.00000000
      0.79170839	      1.04514359	      0.85069332	      0.00000000
      0.79308768	      1.04724518	      0.85073413	      0.00000000
      0.79446696	      1.04935439	      0.85077411	      0.00000000
      0.79584624	      1.05147134	      0.85081328	      0.00000000
      0.79722553	      1.05359617	      0.85085169	      0.00000000
      0.79860481	      1.05572901	      0.85088936	      0.00000000
      0.79998409	      1.05786996	      0.85092630	      0.00000000
      0.80136337	      1.06001913	      0.85096255	      0.00000000
      0.80274266	      1.06217660	      0.85099808	      0.00000000
      0.80412194	      1.06434244	      0.85103290	      0.00000000
      0.80550122	      1.06651673	      0.85106697	      0.00000000
      0.80688051	      1.06869955	      0.85110026	      0.00000000
      0.80825979	      1.07089098	      0.85113274	      0.00000000
      0.80963907	      1.07309113	      0.85116438	      0.00000000
      0.81101835	      1.07530010	      0.85119512	      0.00000000
      0.81239764	      1.07751795	      0.85122489	      0.00000000
      0.81377692	      1.07974480	      0.85125360	      0.00000000
      0.81515620	      1.08198073	      0.85128115	      0.00000000
      0.81653549	      1.08422585	      0.85130743	      0.00000000
      0.81791477	      1.08648026	      0.85133230	      0.00000000
      0.81929405	      1.08874405	      0.85135562	      0.00000000
      0.82067333	      1.09101730	      0.85137720	      0.00000000
      0.82205262	      1.09330010	      0.85139684	      0.00000000
      0.82343190	      1.09559253	      0.85141436	      0.00000000
      0.82481118	      1.09789471	      0.85142954	      0.00000000
      0.82619047	      1.10020677	      0.85144216	      0.00000000
      0.82756975	      1.10252887	      0.85145202	      0.00000000
