PointVelocity
version=1
nRows=601
nColumns=4
inDegrees=no
No description.
endheader
time	state_0	state_1	state_2
      0.00000000	     -0.04751606	      0.10999200	      0.00000000
      0.00137928	     -0.04737460	      0.11323167	      0.00000000
      0.00275857	     -0.04724263	      0.11660074	      0.00000000
      0.00413785	     -0.04709522	      0.12007703	      0.00000000
      0.00551713	     -0.04693456	      0.12365845	      0.00000000
      0.00689641	     -0.04674839	      0.12731405	      0.00000000
      0.00827570	     -0.04653738	      0.13102391	      0.00000000
      0.00965498	     -0.04629198	      0.13477516	      0.00000000
      0.01103426	     -0.04599440	      0.13855975	      0.00000000
      0.01241355	     -0.04564820	      0.14237258	      0.00000000
      0.01379283	     -0.04525529	      0.14620849	      0.00000000
      0.01517211	     -0.04482981	      0.15007192	      0.00000000
      0.01655139	     -0.04437998	      0.15394257	      0.00000000
      0.01793068	     -0.04390295	      0.15781111	      0.00000000
      0.01930996	     -0.04340382	      0.16166921	      0.00000000
      0.02068924	     -0.04287939	      0.16554454	      0.00000000
      0.02206853	     -0.04233345	      0.16945313	      0.00000000
      0.02344781	     -0.04175651	      0.17344766	      0.00000000
      0.02482709	     -0.04114756	      0.17757683	      0.00000000
      0.02620638	     -0.04050770	      0.18191373	      0.00000000
      0.02758566	     -0.03986911	      0.18658654	      0.00000000
      0.02896494	     -0.03918955	      0.19162606	      0.00000000
      0.03034422	     -0.03838311	      0.19703374	      0.00000000
      0.03172351	     -0.03738259	      0.20269211	      0.00000000
      0.03310279	     -0.03615116	      0.20847395	      0.00000000
      0.03448207	     -0.03467445	      0.21430727	      0.00000000
      0.03586136	     -0.03295664	      0.22014797	      0.00000000
      0.03724064	     -0.03092533	      0.22604574	      0.00000000
      0.03861992	     -0.02851875	      0.23201657	      0.00000000
      0.03999920	     -0.02563591	      0.23812038	      0.00000000
      0.04137849	     -0.02259301	      0.24424292	      0.00000000
      0.04275777	     -0.01881106	      0.25058334	      0.00000000
      0.04413705	     -0.01561524	      0.25664786	      0.00000000
      0.04551634	     -0.00744350	      0.26423307	      0.00000000
      0.04689562	      0.01394921	      0.27648784	      0.00000000
      0.04827490	      0.05512204	      0.29438748	      0.00000000
      0.04965418	      0.13137043	      0.31722283	      0.00000000
      0.05103347	      0.24721228	      0.34164522	      0.00000000
      0.05241275	      0.38492333	      0.36540456	      0.00000000
      0.05379203	      0.51388330	      0.38642854	      0.00000000
      0.05517132	      0.62363052	      0.40335011	      0.00000000
      0.05655060	      0.71911690	      0.41666078	      0.00000000
      0.05792988	      0.79974481	      0.42665479	      0.00000000
      0.05930917	      0.86956977	      0.43421617	      0.00000000
      0.06068845	      0.93108886	      0.43988657	      0.00000000
      0.06206773	      0.98657650	      0.44413807	      0.00000000
      0.06344701	      1.03798226	      0.44732704	      0.00000000
      0.06482630	      1.08623402	      0.44960841	      0.00000000
      0.06620558	      1.13238544	      0.45113030	      0.00000000
      0.06758486	      1.17670867	      0.45189710	      0.00000000
      0.06896415	      1.21962192	      0.45193319	      0.00000000
      0.07034343	      1.26116081	      0.45120660	      0.00000000
      0.07172271	      1.30146554	      0.44968867	      0.00000000
      0.07310199	      1.34057150	      0.44735634	      0.00000000
      0.07448128	      1.37855888	      0.44418317	      0.00000000
      0.07586056	      1.41550856	      0.44019047	      0.00000000
      0.07723984	      1.45151656	      0.43540036	      0.00000000
      0.07861913	      1.48668747	      0.42988614	      0.00000000
      0.07999841	      1.52113200	      0.42372038	      0.00000000
      0.08137769	      1.55495160	      0.41700191	      0.00000000
      0.08275697	      1.58825774	      0.40983750	      0.00000000
      0.08413626	      1.62113183	      0.40232691	      0.00000000
      0.08551554	      1.65367105	      0.39458093	      0.00000000
      0.08689482	      1.68592054	      0.38667294	      0.00000000
      0.08827411	      1.71795082	      0.37869062	      0.00000000
      0.08965339	      1.74974464	      0.37066756	      0.00000000
      0.09103267	      1.78131773	      0.36264916	      0.00000000
      0.09241196	      1.81254942	      0.35462609	      0.00000000
      0.09379124	      1.84336485	      0.34660004	      0.00000000
      0.09517052	      1.87345512	      0.33852509	      0.00000000
      0.09654980	      1.90242920	      0.33034179	      0.00000000
      0.09792909	      1.92988226	      0.32198490	      0.00000000
      0.09930837	      1.95543319	      0.31337426	      0.00000000
      0.10068765	      1.97908306	      0.30449802	      0.00000000
      0.10206694	      2.00082990	      0.29535549	      0.00000000
      0.10344622	      2.02093356	      0.28602060	      0.00000000
      0.10482550	      2.03958540	      0.27655820	      0.00000000
      0.10620478	      2.05709024	      0.26705260	      0.00000000
      0.10758407	      2.07372913	      0.25758787	      0.00000000
      0.10896335	      2.08980752	      0.24823895	      0.00000000
      0.11034263	      2.10562935	      0.23909031	      0.00000000
      0.11172192	      2.12145020	      0.23020497	      0.00000000
      0.11310120	      2.13753240	      0.22165457	      0.00000000
      0.11448048	      2.15404932	      0.21348250	      0.00000000
      0.11585976	      2.17118769	      0.20573891	      0.00000000
      0.11723905	      2.18904703	      0.19844822	      0.00000000
      0.11861833	      2.20774926	      0.19164216	      0.00000000
      0.11999761	      2.22734008	      0.18533134	      0.00000000
      0.12137690	      2.24788921	      0.17953322	      0.00000000
      0.12275618	      2.26938068	      0.17424227	      0.00000000
      0.12413546	      2.29181658	      0.16945712	      0.00000000
      0.12551475	      2.31510371	      0.16515074	      0.00000000
      0.12689403	      2.33916317	      0.16129823	      0.00000000
      0.12827331	      2.36383871	      0.15785394	      0.00000000
      0.12965259	      2.38898512	      0.15477247	      0.00000000
      0.13103188	      2.41442079	      0.15199910	      0.00000000
      0.13241116	      2.43996860	      0.14947669	      0.00000000
      0.13379044	      2.46545970	      0.14715146	      0.00000000
      0.13516973	      2.49072191	      0.14496463	      0.00000000
      0.13654901	      2.51562624	      0.14287080	      0.00000000
      0.13792829	      2.54003468	      0.14081818	      0.00000000
      0.13930757	      2.56387094	      0.13877392	      0.00000000
      0.14068686	      2.58704717	      0.13669875	      0.00000000
      0.14206614	      2.60953792	      0.13457285	      0.00000000
      0.14344542	      2.63130589	      0.13237089	      0.00000000
      0.14482471	      2.65236380	      0.13008368	      0.00000000
      0.14620399	      2.67271451	      0.12769803	      0.00000000
      0.14758327	      2.69239338	      0.12521190	      0.00000000
      0.14896255	      2.71142945	      0.12262111	      0.00000000
      0.15034184	      2.72986692	      0.11992735	      0.00000000
      0.15172112	      2.74774700	      0.11713172	      0.00000000
      0.15310040	      2.76511172	      0.11423648	      0.00000000
      0.15447969	      2.78200180	      0.11124412	      0.00000000
      0.15585897	      2.79845134	      0.10815550	      0.00000000
      0.15723825	      2.81449320	      0.10497134	      0.00000000
      0.15861754	      2.83015689	      0.10169175	      0.00000000
      0.15999682	      2.84546929	      0.09831633	      0.00000000
      0.16137610	      2.86046712	      0.09484961	      0.00000000
      0.16275538	      2.87518317	      0.09129516	      0.00000000
      0.16413467	      2.88967559	      0.08766779	      0.00000000
      0.16551395	      2.90399840	      0.08398181	      0.00000000
      0.16689323	      2.91823657	      0.08026554	      0.00000000
      0.16827252	      2.93247290	      0.07654824	      0.00000000
      0.16965180	      2.94680786	      0.07286849	      0.00000000
      0.17103108	      2.96134438	      0.06926806	      0.00000000
      0.17241036	      2.97617045	      0.06578507	      0.00000000
      0.17378965	      2.99138121	      0.06246256	      0.00000000
      0.17516893	      3.00701820	      0.05932346	      0.00000000
      0.17654821	      3.02313263	      0.05639567	      0.00000000
      0.17792750	      3.03970089	      0.05367684	      0.00000000
      0.17930678	      3.05671028	      0.05116853	      0.00000000
      0.18068606	      3.07408269	      0.04884479	      0.00000000
      0.18206534	      3.09174996	      0.04668174	      0.00000000
      0.18344463	      3.10961006	      0.04464081	      0.00000000
      0.18482391	      3.12756739	      0.04268313	      0.00000000
      0.18620319	      3.14552637	      0.04077002	      0.00000000
      0.18758248	      3.16339358	      0.03886052	      0.00000000
      0.18896176	      3.18109600	      0.03692324	      0.00000000
      0.19034104	      3.19855776	      0.03492266	      0.00000000
      0.19172033	      3.21572963	      0.03283573	      0.00000000
      0.19309961	      3.23255532	      0.03063386	      0.00000000
      0.19447889	      3.24900894	      0.02830272	      0.00000000
      0.19585817	      3.26505689	      0.02582291	      0.00000000
      0.19723746	      3.28070148	      0.02319233	      0.00000000
      0.19861674	      3.29593858	      0.02040542	      0.00000000
      0.19999602	      3.31079929	      0.01747423	      0.00000000
      0.20137531	      3.32530957	      0.01440908	      0.00000000
      0.20275459	      3.33951864	      0.01123248	      0.00000000
      0.20413387	      3.35347180	      0.00796659	      0.00000000
      0.20551315	      3.36722035	      0.00463714	      0.00000000
      0.20689244	      3.38081363	      0.00127076	      0.00000000
      0.20827172	      3.39429376	     -0.00210944	      0.00000000
      0.20965100	      3.40770347	     -0.00547828	      0.00000000
      0.21103029	      3.42107221	     -0.00881761	      0.00000000
      0.21240957	      3.43443165	     -0.01210667	      0.00000000
      0.21378885	      3.44779916	     -0.01533262	      0.00000000
      0.21516813	      3.46119474	     -0.01848013	      0.00000000
      0.21654742	      3.47462589	     -0.02154104	      0.00000000
      0.21792670	      3.48810319	     -0.02450482	      0.00000000
      0.21930598	      3.50162653	     -0.02736734	      0.00000000
      0.22068527	      3.51519943	     -0.03012208	      0.00000000
      0.22206455	      3.52881356	     -0.03276980	      0.00000000
      0.22344383	      3.54246460	     -0.03530890	      0.00000000
      0.22482312	      3.55613159	     -0.03774830	      0.00000000
      0.22620240	      3.56979188	     -0.04009873	      0.00000000
      0.22758168	      3.58341510	     -0.04237645	      0.00000000
      0.22896096	      3.59696941	     -0.04459986	      0.00000000
      0.23034025	      3.61043891	     -0.04677776	      0.00000000
      0.23171953	      3.62381112	     -0.04891730	      0.00000000
      0.23309881	      3.63709376	     -0.05101245	      0.00000000
      0.23447810	      3.65029501	     -0.05305660	      0.00000000
      0.23585738	      3.66342246	     -0.05504338	      0.00000000
      0.23723666	      3.67647922	     -0.05696914	      0.00000000
      0.23861594	      3.68945766	     -0.05883792	      0.00000000
      0.23999523	      3.70234767	     -0.06065556	      0.00000000
      0.24137451	      3.71514208	     -0.06242686	      0.00000000
      0.24275379	      3.72783573	     -0.06415499	      0.00000000
      0.24413308	      3.74043677	     -0.06583495	      0.00000000
      0.24551236	      3.75295152	     -0.06746204	      0.00000000
      0.24689164	      3.76539780	     -0.06902514	      0.00000000
      0.24827092	      3.77779070	     -0.07051326	      0.00000000
      0.24965021	      3.79015272	     -0.07191329	      0.00000000
      0.25102949	      3.80250416	     -0.07321101	      0.00000000
      0.25240877	      3.81487002	     -0.07439477	      0.00000000
      0.25378806	      3.82727408	     -0.07544985	      0.00000000
      0.25516734	      3.83974257	     -0.07637078	      0.00000000
      0.25654662	      3.85229979	     -0.07714757	      0.00000000
      0.25792591	      3.86497323	     -0.07778774	      0.00000000
      0.25930519	      3.87779068	     -0.07829006	      0.00000000
      0.26068447	      3.89078214	     -0.07868564	      0.00000000
      0.26206375	      3.90396883	     -0.07900581	      0.00000000
      0.26344304	      3.91739216	     -0.07931024	      0.00000000
      0.26482232	      3.93109455	     -0.07965730	      0.00000000
      0.26620160	      3.94515405	     -0.08010238	      0.00000000
      0.26758089	      3.95964954	     -0.08069449	      0.00000000
      0.26896017	      3.97467716	     -0.08146168	      0.00000000
      0.27033945	      3.99033503	     -0.08243123	      0.00000000
      0.27171873	      4.00670407	     -0.08361418	      0.00000000
      0.27309802	      4.02387979	     -0.08503332	      0.00000000
      0.27447730	      4.04189186	     -0.08667620	      0.00000000
      0.27585658	      4.06076225	     -0.08852127	      0.00000000
      0.27723587	      4.08045091	     -0.09051233	      0.00000000
      0.27861515	      4.10093395	     -0.09259753	      0.00000000
      0.27999443	      4.12216853	     -0.09472077	      0.00000000
      0.28137371	      4.14412886	     -0.09683520	      0.00000000
      0.28275300	      4.16676383	     -0.09888816	      0.00000000
      0.28413228	      4.19001856	     -0.10082355	      0.00000000
      0.28551156	      4.21380514	     -0.10257070	      0.00000000
      0.28689085	      4.23804045	     -0.10405735	      0.00000000
      0.28827013	      4.26262567	     -0.10521157	      0.00000000
      0.28964941	      4.28747018	     -0.10595967	      0.00000000
      0.29102870	      4.31246954	     -0.10625384	      0.00000000
      0.29240798	      4.33752260	     -0.10604391	      0.00000000
      0.29378726	      4.36250526	     -0.10532580	      0.00000000
      0.29516654	      4.38728867	     -0.10410354	      0.00000000
      0.29654583	      4.41174190	     -0.10240840	      0.00000000
      0.29792511	      4.43573533	     -0.10027521	      0.00000000
      0.29930439	      4.45917233	     -0.09772410	      0.00000000
      0.30068368	      4.48196443	     -0.09476796	      0.00000000
      0.30206296	      4.50404609	     -0.09141368	      0.00000000
      0.30344224	      4.52534122	     -0.08768361	      0.00000000
      0.30482152	      4.54578473	     -0.08360880	      0.00000000
      0.30620081	      4.56531397	     -0.07921951	      0.00000000
      0.30758009	      4.58387526	     -0.07455762	      0.00000000
      0.30895937	      4.60141673	     -0.06966562	      0.00000000
      0.31033866	      4.61788702	     -0.06461167	      0.00000000
      0.31171794	      4.63323426	     -0.05947058	      0.00000000
      0.31309722	      4.64741112	     -0.05433896	      0.00000000
      0.31447650	      4.66037225	     -0.04931817	      0.00000000
      0.31585579	      4.67209075	     -0.04450701	      0.00000000
      0.31723507	      4.68254182	     -0.04000827	      0.00000000
      0.31861435	      4.69172712	     -0.03590210	      0.00000000
      0.31999364	      4.69965234	     -0.03226601	      0.00000000
      0.32137292	      4.70633620	     -0.02916782	      0.00000000
      0.32275220	      4.71179258	     -0.02668721	      0.00000000
      0.32413149	      4.71603985	     -0.02490163	      0.00000000
      0.32551077	      4.71909542	     -0.02389477	      0.00000000
      0.32689005	      4.72098730	     -0.02372670	      0.00000000
      0.32826933	      4.72173979	     -0.02446732	      0.00000000
      0.32964862	      4.72139700	     -0.02613165	      0.00000000
      0.33102790	      4.71999653	     -0.02874521	      0.00000000
      0.33240718	      4.71760087	     -0.03225305	      0.00000000
      0.33378647	      4.71426588	     -0.03660272	      0.00000000
      0.33516575	      4.71005627	     -0.04168313	      0.00000000
      0.33654503	      4.70502403	     -0.04739531	      0.00000000
      0.33792431	      4.69920874	     -0.05362699	      0.00000000
      0.33930360	      4.69263915	     -0.06027723	      0.00000000
      0.34068288	      4.68533210	     -0.06723233	      0.00000000
      0.34206216	      4.67729720	     -0.07438047	      0.00000000
      0.34344145	      4.66854040	     -0.08158763	      0.00000000
      0.34482073	      4.65906087	     -0.08872187	      0.00000000
      0.34620001	      4.64885387	     -0.09564648	      0.00000000
      0.34757929	      4.63790910	     -0.10222757	      0.00000000
      0.34895858	      4.62620609	     -0.10835559	      0.00000000
      0.35033786	      4.61372403	     -0.11392353	      0.00000000
      0.35171714	      4.60041964	     -0.11886491	      0.00000000
      0.35309643	      4.58625577	     -0.12311442	      0.00000000
      0.35447571	      4.57115267	     -0.12664319	      0.00000000
      0.35585499	      4.55504499	     -0.12942125	      0.00000000
      0.35723428	      4.53779678	     -0.13144942	      0.00000000
      0.35861356	      4.51929185	     -0.13273088	      0.00000000
      0.35999284	      4.49931613	     -0.13330828	      0.00000000
      0.36137212	      4.47767328	     -0.13324006	      0.00000000
      0.36275141	      4.45407078	     -0.13262459	      0.00000000
      0.36413069	      4.42822548	     -0.13159019	      0.00000000
      0.36550997	      4.39981797	     -0.13026492	      0.00000000
      0.36688926	      4.36852330	     -0.12880865	      0.00000000
      0.36826854	      4.33409495	     -0.12732132	      0.00000000
      0.36964782	      4.29626678	     -0.12592764	      0.00000000
      0.37102710	      4.25497211	     -0.12467177	      0.00000000
      0.37240639	      4.21011609	     -0.12361788	      0.00000000
      0.37378567	      4.16185626	     -0.12277016	      0.00000000
      0.37516495	      4.11032617	     -0.12212049	      0.00000000
      0.37654424	      4.05584668	     -0.12165501	      0.00000000
      0.37792352	      3.99873070	     -0.12129979	      0.00000000
      0.37930280	      3.93931030	     -0.12111143	      0.00000000
      0.38068208	      3.87790821	     -0.12119089	      0.00000000
      0.38206137	      3.81472851	     -0.12168328	      0.00000000
      0.38344065	      3.75000753	     -0.12285967	      0.00000000
      0.38481993	      3.68378972	     -0.12441644	      0.00000000
      0.38619922	      3.61608675	     -0.12588183	      0.00000000
      0.38757850	      3.54686585	     -0.12616325	      0.00000000
      0.38895778	      3.47646386	     -0.12329304	      0.00000000
      0.39033707	      3.40463757	     -0.11746529	      0.00000000
      0.39171635	      3.33098959	     -0.11021485	      0.00000000
      0.39309563	      3.25426064	     -0.10457663	      0.00000000
      0.39447491	      3.17338861	     -0.10342196	      0.00000000
      0.39585420	      3.08695105	     -0.10685204	      0.00000000
      0.39723348	      2.99425608	     -0.11245414	      0.00000000
      0.39861276	      2.89317539	     -0.11974396	      0.00000000
      0.39999205	      2.78158118	     -0.13027304	      0.00000000
      0.40137133	      2.65503660	     -0.14995790	      0.00000000
      0.40275061	      2.50939541	     -0.18271106	      0.00000000
      0.40412989	      2.33865583	     -0.23777170	      0.00000000
      0.40550918	      2.13530382	     -0.33069965	      0.00000000
      0.40688846	      1.89507659	     -0.46633501	      0.00000000
      0.40826774	      1.60876968	     -0.65595788	      0.00000000
      0.40964703	      1.28197961	     -0.87129997	      0.00000000
      0.41102631	      0.90194093	     -1.08161398	      0.00000000
      0.41240559	      0.49312706	     -1.22879375	      0.00000000
      0.41378487	      0.18956097	     -1.15807159	      0.00000000
      0.41516416	      0.07337618	     -0.88998854	      0.00000000
      0.41654344	      0.04973009	     -0.63450579	      0.00000000
      0.41792272	      0.02639147	     -0.47661465	      0.00000000
      0.41930201	      0.01387397	     -0.38164372	      0.00000000
      0.42068129	      0.00906220	     -0.32262989	      0.00000000
      0.42206057	      0.00574959	     -0.28398354	      0.00000000
      0.42343986	      0.00554856	     -0.25407863	      0.00000000
      0.42481914	      0.00491902	     -0.22701327	      0.00000000
      0.42619842	      0.00519493	     -0.20105175	      0.00000000
      0.42757770	      0.00507155	     -0.17525536	      0.00000000
      0.42895699	      0.00518294	     -0.14979751	      0.00000000
      0.43033627	      0.00509433	     -0.12493263	      0.00000000
      0.43171555	      0.00506560	     -0.10077068	      0.00000000
      0.43309484	      0.00494733	     -0.07758655	      0.00000000
      0.43447412	      0.00484540	     -0.05542866	      0.00000000
      0.43585340	      0.00470568	     -0.03453616	      0.00000000
      0.43723268	      0.00457747	     -0.01494598	      0.00000000
      0.43861197	      0.00444792	      0.00318851	      0.00000000
      0.43999125	      0.00433497	      0.01993605	      0.00000000
      0.44137053	      0.00422460	      0.03531706	      0.00000000
      0.44274982	      0.00411141	      0.04948092	      0.00000000
      0.44412910	      0.00397790	      0.06254637	      0.00000000
      0.44550838	      0.00381837	      0.07462463	      0.00000000
      0.44688766	      0.00362807	      0.08579593	      0.00000000
      0.44826695	      0.00340817	      0.09610271	      0.00000000
      0.44964623	      0.00315925	      0.10557961	      0.00000000
      0.45102551	      0.00288783	      0.11425876	      0.00000000
      0.45240480	      0.00260499	      0.12216715	      0.00000000
      0.45378408	      0.00231171	      0.12936478	      0.00000000
      0.45516336	      0.00200748	      0.13592795	      0.00000000
      0.45654265	      0.00169132	      0.14192429	      0.00000000
      0.45792193	      0.00136431	      0.14740820	      0.00000000
      0.45930121	      0.00103056	      0.15238289	      0.00000000
      0.46068049	      0.00069672	      0.15684840	      0.00000000
      0.46205978	      0.00036887	      0.16079393	      0.00000000
      0.46343906	      0.00005227	      0.16421645	      0.00000000
      0.46481834	     -0.00024931	      0.16712122	      0.00000000
      0.46619763	     -0.00053188	      0.16951091	      0.00000000
      0.46757691	     -0.00079527	      0.17139649	      0.00000000
      0.46895619	     -0.00103930	      0.17278873	      0.00000000
      0.47033547	     -0.00126406	      0.17370513	      0.00000000
      0.47171476	     -0.00146969	      0.17416253	      0.00000000
      0.47309404	     -0.00165533	      0.17417627	      0.00000000
      0.47447332	     -0.00182031	      0.17376292	      0.00000000
      0.47585261	     -0.00196209	      0.17292772	      0.00000000
      0.47723189	     -0.00207838	      0.17167788	      0.00000000
      0.47861117	     -0.00216401	      0.17000475	      0.00000000
      0.47999045	     -0.00221387	      0.16790032	      0.00000000
      0.48136974	     -0.00222107	      0.16534443	      0.00000000
      0.48274902	     -0.00217848	      0.16231535	      0.00000000
      0.48412830	     -0.00208046	      0.15879268	      0.00000000
      0.48550759	     -0.00192102	      0.15475382	      0.00000000
      0.48688687	     -0.00169903	      0.15019360	      0.00000000
      0.48826615	     -0.00141299	      0.14510509	      0.00000000
      0.48964544	     -0.00106700	      0.13950532	      0.00000000
      0.49102472	     -0.00066461	      0.13340924	      0.00000000
      0.49240400	     -0.00021285	      0.12684991	      0.00000000
      0.49378328	      0.00028171	      0.11985738	      0.00000000
      0.49516257	      0.00081213	      0.11247062	      0.00000000
      0.49654185	      0.00137163	      0.10472473	      0.00000000
      0.49792113	      0.00195507	      0.09666210	      0.00000000
      0.49930042	      0.00255733	      0.08832190	      0.00000000
      0.50067970	      0.00317439	      0.07975556	      0.00000000
      0.50205898	      0.00380258	      0.07101311	      0.00000000
      0.50343826	      0.00443625	      0.06215753	      0.00000000
      0.50481755	      0.00506990	      0.05325338	      0.00000000
      0.50619683	      0.00569503	      0.04436640	      0.00000000
      0.50757611	      0.00630333	      0.03556605	      0.00000000
      0.50895540	      0.00688621	      0.02690129	      0.00000000
      0.51033468	      0.00743528	      0.01842610	      0.00000000
      0.51171396	      0.00794556	      0.01015718	      0.00000000
      0.51309324	      0.00841188	      0.00211775	      0.00000000
      0.51447253	      0.00883441	     -0.00570836	      0.00000000
      0.51585181	      0.00921244	     -0.01333026	      0.00000000
      0.51723109	      0.00955074	     -0.02078689	      0.00000000
      0.51861038	      0.00985277	     -0.02811238	      0.00000000
      0.51998966	      0.01012697	     -0.03535530	      0.00000000
      0.52136894	      0.01038063	     -0.04256243	      0.00000000
      0.52274823	      0.01062428	     -0.04977853	      0.00000000
      0.52412751	      0.01086716	     -0.05704489	      0.00000000
      0.52550679	      0.01111895	     -0.06439931	      0.00000000
      0.52688607	      0.01138699	     -0.07187126	      0.00000000
      0.52826536	      0.01168031	     -0.07951497	      0.00000000
      0.52964464	      0.01200453	     -0.08737743	      0.00000000
      0.53102392	      0.01237522	     -0.09556788	      0.00000000
      0.53240321	      0.01280703	     -0.10421386	      0.00000000
      0.53378249	      0.01332729	     -0.11345428	      0.00000000
      0.53516177	      0.01396750	     -0.12348824	      0.00000000
      0.53654105	      0.01474981	     -0.13428627	      0.00000000
      0.53792034	      0.01569947	     -0.14581764	      0.00000000
      0.53929962	      0.01679164	     -0.15775186	      0.00000000
      0.54067890	      0.01800591	     -0.16976398	      0.00000000
      0.54205819	      0.01927617	     -0.18143744	      0.00000000
      0.54343747	      0.02054655	     -0.19236684	      0.00000000
      0.54481675	      0.02175609	     -0.20229732	      0.00000000
      0.54619603	      0.02285090	     -0.21096118	      0.00000000
      0.54757532	      0.02380435	     -0.21832583	      0.00000000
      0.54895460	      0.02458903	     -0.22431924	      0.00000000
      0.55033388	      0.02521042	     -0.22907273	      0.00000000
      0.55171317	      0.02566910	     -0.23268893	      0.00000000
      0.55309245	      0.02598919	     -0.23536732	      0.00000000
      0.55447173	      0.02618821	     -0.23729904	      0.00000000
      0.55585101	      0.02629255	     -0.23864325	      0.00000000
      0.55723030	      0.02632399	     -0.23956331	      0.00000000
      0.55860958	      0.02630083	     -0.24010445	      0.00000000
      0.55998886	      0.02623605	     -0.24030454	      0.00000000
      0.56136815	      0.02613328	     -0.24017107	      0.00000000
      0.56274743	      0.02599908	     -0.23972937	      0.00000000
      0.56412671	      0.02583651	     -0.23901616	      0.00000000
      0.56550600	      0.02564775	     -0.23807413	      0.00000000
      0.56688528	      0.02544170	     -0.23693537	      0.00000000
      0.56826456	      0.02523076	     -0.23564611	      0.00000000
      0.56964384	      0.02501504	     -0.23420663	      0.00000000
      0.57102313	      0.02479060	     -0.23260538	      0.00000000
      0.57240241	      0.02455389	     -0.23079909	      0.00000000
      0.57378169	      0.02430156	     -0.22873346	      0.00000000
      0.57516098	      0.02402844	     -0.22645481	      0.00000000
      0.57654026	      0.02373450	     -0.22402290	      0.00000000
      0.57791954	      0.02343113	     -0.22150246	      0.00000000
      0.57929882	      0.02312474	     -0.21895201	      0.00000000
      0.58067811	      0.02282220	     -0.21641249	      0.00000000
      0.58205739	      0.02253082	     -0.21393743	      0.00000000
      0.58343667	      0.02225401	     -0.21150863	      0.00000000
      0.58481596	      0.02199416	     -0.20911285	      0.00000000
      0.58619524	      0.02174591	     -0.20667940	      0.00000000
      0.58757452	      0.02150398	     -0.20413205	      0.00000000
      0.58895380	      0.02125761	     -0.20142848	      0.00000000
      0.59033309	      0.02100008	     -0.19852409	      0.00000000
      0.59171237	      0.02072793	     -0.19543033	      0.00000000
      0.59309165	      0.02043805	     -0.19214978	      0.00000000
      0.59447094	      0.02013089	     -0.18873931	      0.00000000
      0.59585022	      0.01980519	     -0.18525161	      0.00000000
      0.59722950	      0.01946815	     -0.18175124	      0.00000000
      0.59860879	      0.01912547	     -0.17830629	      0.00000000
      0.59998807	      0.01878553	     -0.17495104	      0.00000000
      0.60136735	      0.01845386	     -0.17172053	      0.00000000
      0.60274663	      0.01813101	     -0.16862870	      0.00000000
      0.60412592	      0.01781951	     -0.16569984	      0.00000000
      0.60550520	      0.01751805	     -0.16291155	      0.00000000
      0.60688448	      0.01722425	     -0.16024490	      0.00000000
      0.60826377	      0.01693367	     -0.15765612	      0.00000000
      0.60964305	      0.01664418	     -0.15510462	      0.00000000
      0.61102233	      0.01635145	     -0.15254772	      0.00000000
      0.61240161	      0.01605189	     -0.14993647	      0.00000000
      0.61378090	      0.01574004	     -0.14726233	      0.00000000
      0.61516018	      0.01541201	     -0.14451054	      0.00000000
      0.61653946	      0.01506610	     -0.14171230	      0.00000000
      0.61791875	      0.01470104	     -0.13889448	      0.00000000
      0.61929803	      0.01432167	     -0.13609694	      0.00000000
      0.62067731	      0.01393134	     -0.13336241	      0.00000000
      0.62205659	      0.01353578	     -0.13071363	      0.00000000
      0.62343588	      0.01313835	     -0.12818024	      0.00000000
      0.62481516	      0.01274017	     -0.12574909	      0.00000000
      0.62619444	      0.01234072	     -0.12339980	      0.00000000
      0.62757373	      0.01193443	     -0.12112792	      0.00000000
      0.62895301	      0.01152007	     -0.11893573	      0.00000000
      0.63033229	      0.01109787	     -0.11681969	      0.00000000
      0.63171158	      0.01066816	     -0.11478213	      0.00000000
      0.63309086	      0.01023374	     -0.11278474	      0.00000000
      0.63447014	      0.00979285	     -0.11077888	      0.00000000
      0.63584942	      0.00933734	     -0.10876470	      0.00000000
      0.63722871	      0.00886547	     -0.10674779	      0.00000000
      0.63860799	      0.00837957	     -0.10473071	      0.00000000
      0.63998727	      0.00787927	     -0.10271102	      0.00000000
      0.64136656	      0.00736509	     -0.10068994	      0.00000000
      0.64274584	      0.00683741	     -0.09866652	      0.00000000
      0.64412512	      0.00629624	     -0.09665400	      0.00000000
      0.64550440	      0.00574266	     -0.09467324	      0.00000000
      0.64688369	      0.00517938	     -0.09272313	      0.00000000
      0.64826297	      0.00460702	     -0.09079239	      0.00000000
      0.64964225	      0.00402693	     -0.08886849	      0.00000000
      0.65102154	      0.00344109	     -0.08695031	      0.00000000
      0.65240082	      0.00285032	     -0.08503378	      0.00000000
      0.65378010	      0.00225426	     -0.08310932	      0.00000000
      0.65515938	      0.00165448	     -0.08116378	      0.00000000
      0.65653867	      0.00105176	     -0.07918625	      0.00000000
      0.65791795	      0.00044696	     -0.07717584	      0.00000000
      0.65929723	     -0.00015906	     -0.07513131	      0.00000000
      0.66067652	     -0.00076528	     -0.07305815	      0.00000000
      0.66205580	     -0.00137064	     -0.07096057	      0.00000000
      0.66343508	     -0.00197371	     -0.06884375	      0.00000000
      0.66481437	     -0.00257300	     -0.06671169	      0.00000000
      0.66619365	     -0.00316779	     -0.06457225	      0.00000000
      0.66757293	     -0.00375663	     -0.06243344	      0.00000000
      0.66895221	     -0.00433906	     -0.06030257	      0.00000000
      0.67033150	     -0.00491414	     -0.05818614	      0.00000000
      0.67171078	     -0.00548180	     -0.05608805	      0.00000000
      0.67309006	     -0.00604147	     -0.05401246	      0.00000000
      0.67446935	     -0.00659269	     -0.05196015	      0.00000000
      0.67584863	     -0.00713494	     -0.04993232	      0.00000000
      0.67722791	     -0.00766790	     -0.04792940	      0.00000000
      0.67860719	     -0.00819119	     -0.04595248	      0.00000000
      0.67998648	     -0.00870429	     -0.04400205	      0.00000000
      0.68136576	     -0.00920692	     -0.04207905	      0.00000000
      0.68274504	     -0.00969860	     -0.04018447	      0.00000000
      0.68412433	     -0.01017905	     -0.03831969	      0.00000000
      0.68550361	     -0.01064776	     -0.03648652	      0.00000000
      0.68688289	     -0.01110444	     -0.03468709	      0.00000000
      0.68826217	     -0.01154858	     -0.03292392	      0.00000000
      0.68964146	     -0.01197983	     -0.03119978	      0.00000000
      0.69102074	     -0.01239784	     -0.02951783	      0.00000000
      0.69240002	     -0.01280228	     -0.02788148	      0.00000000
      0.69377931	     -0.01319294	     -0.02629405	      0.00000000
      0.69515859	     -0.01356953	     -0.02475918	      0.00000000
      0.69653787	     -0.01393202	     -0.02327970	      0.00000000
      0.69791716	     -0.01428016	     -0.02185883	      0.00000000
      0.69929644	     -0.01461426	     -0.02049816	      0.00000000
      0.70067572	     -0.01493424	     -0.01919970	      0.00000000
      0.70205500	     -0.01524117	     -0.01796315	      0.00000000
      0.70343429	     -0.01553558	     -0.01678855	      0.00000000
      0.70481357	     -0.01581981	     -0.01567339	      0.00000000
      0.70619285	     -0.01609570	     -0.01461528	      0.00000000
      0.70757214	     -0.01636674	     -0.01360957	      0.00000000
      0.70895142	     -0.01663618	     -0.01265141	      0.00000000
      0.71033070	     -0.01690769	     -0.01173500	      0.00000000
      0.71170998	     -0.01718493	     -0.01085403	      0.00000000
      0.71308927	     -0.01747030	     -0.01000311	      0.00000000
      0.71446855	     -0.01776637	     -0.00917618	      0.00000000
      0.71584783	     -0.01807326	     -0.00836941	      0.00000000
      0.71722712	     -0.01839129	     -0.00757831	      0.00000000
      0.71860640	     -0.01871862	     -0.00680112	      0.00000000
      0.71998568	     -0.01905327	     -0.00603588	      0.00000000
      0.72136496	     -0.01939324	     -0.00528164	      0.00000000
      0.72274425	     -0.01973639	     -0.00453746	      0.00000000
      0.72412353	     -0.02008291	     -0.00380147	      0.00000000
      0.72550281	     -0.02043341	     -0.00307147	      0.00000000
      0.72688210	     -0.02078971	     -0.00234552	      0.00000000
      0.72826138	     -0.02115427	     -0.00162131	      0.00000000
      0.72964066	     -0.02152674	     -0.00089969	      0.00000000
      0.73101995	     -0.02190658	     -0.00018198	      0.00000000
      0.73239923	     -0.02229052	      0.00052803	      0.00000000
      0.73377851	     -0.02267506	      0.00122593	      0.00000000
      0.73515779	     -0.02305735	      0.00190829	      0.00000000
      0.73653708	     -0.02343423	      0.00257123	      0.00000000
      0.73791636	     -0.02380610	      0.00321506	      0.00000000
      0.73929564	     -0.02417271	      0.00383925	      0.00000000
      0.74067493	     -0.02453846	      0.00444952	      0.00000000
      0.74205421	     -0.02490836	      0.00505198	      0.00000000
      0.74343349	     -0.02528727	      0.00565387	      0.00000000
      0.74481277	     -0.02568030	      0.00626317	      0.00000000
      0.74619206	     -0.02608802	      0.00688168	      0.00000000
      0.74757134	     -0.02651019	      0.00751093	      0.00000000
      0.74895062	     -0.02694403	      0.00814763	      0.00000000
      0.75032991	     -0.02738698	      0.00878875	      0.00000000
      0.75170919	     -0.02783635	      0.00943214	      0.00000000
      0.75308847	     -0.02829008	      0.01007621	      0.00000000
      0.75446775	     -0.02874646	      0.01072257	      0.00000000
      0.75584704	     -0.02920407	      0.01137355	      0.00000000
      0.75722632	     -0.02966135	      0.01203139	      0.00000000
      0.75860560	     -0.03011593	      0.01269807	      0.00000000
      0.75998489	     -0.03056652	      0.01337546	      0.00000000
      0.76136417	     -0.03101135	      0.01406501	      0.00000000
      0.76274345	     -0.03145109	      0.01477170	      0.00000000
      0.76412274	     -0.03188667	      0.01550063	      0.00000000
      0.76550202	     -0.03232117	      0.01626103	      0.00000000
      0.76688130	     -0.03275768	      0.01706220	      0.00000000
      0.76826058	     -0.03320073	      0.01791505	      0.00000000
      0.76963987	     -0.03365513	      0.01883053	      0.00000000
      0.77101915	     -0.03412490	      0.01981778	      0.00000000
      0.77239843	     -0.03461473	      0.02088691	      0.00000000
      0.77377772	     -0.03512581	      0.02204256	      0.00000000
      0.77515700	     -0.03566011	      0.02329035	      0.00000000
      0.77653628	     -0.03621458	      0.02462813	      0.00000000
      0.77791556	     -0.03678665	      0.02605505	      0.00000000
      0.77929485	     -0.03736993	      0.02756385	      0.00000000
      0.78067413	     -0.03795876	      0.02914826	      0.00000000
      0.78205341	     -0.03854494	      0.03079826	      0.00000000
      0.78343270	     -0.03912090	      0.03250460	      0.00000000
      0.78481198	     -0.03967856	      0.03425706	      0.00000000
      0.78619126	     -0.04020994	      0.03604503	      0.00000000
      0.78757054	     -0.04070900	      0.03786064	      0.00000000
      0.78894983	     -0.04116942	      0.03969455	      0.00000000
      0.79032911	     -0.04159008	      0.04154487	      0.00000000
      0.79170839	     -0.04196944	      0.04340750	      0.00000000
      0.79308768	     -0.04231358	      0.04528994	      0.00000000
      0.79446696	     -0.04262894	      0.04719904	      0.00000000
      0.79584624	     -0.04292719	      0.04915026	      0.00000000
      0.79722553	     -0.04322205	      0.05116022	      0.00000000
      0.79860481	     -0.04352210	      0.05323909	      0.00000000
      0.79998409	     -0.04383579	      0.05539798	      0.00000000
      0.80136337	     -0.04416137	      0.05763336	      0.00000000
      0.80274266	     -0.04449724	      0.05993970	      0.00000000
      0.80412194	     -0.04483437	      0.06230568	      0.00000000
      0.80550122	     -0.04516414	      0.06472168	      0.00000000
      0.80688051	     -0.04548000	      0.06718467	      0.00000000
      0.80825979	     -0.04577672	      0.06969136	      0.00000000
      0.80963907	     -0.04605502	      0.07224571	      0.00000000
      0.81101835	     -0.04631766	      0.07485281	      0.00000000
      0.81239764	     -0.04656530	      0.07751337	      0.00000000
      0.81377692	     -0.04679456	      0.08022540	      0.00000000
      0.81515620	     -0.04700052	      0.08298822	      0.00000000
      0.81653549	     -0.04717938	      0.08580135	      0.00000000
      0.81791477	     -0.04733046	      0.08866277	      0.00000000
      0.81929405	     -0.04745260	      0.09157073	      0.00000000
      0.82067333	     -0.04754457	      0.09452240	      0.00000000
      0.82205262	     -0.04760412	      0.09751437	      0.00000000
      0.82343190	     -0.04762583	      0.10054969	      0.00000000
      0.82481118	     -0.04761829	      0.10364661	      0.00000000
      0.82619047	     -0.04757115	      0.10678658	      0.00000000
      0.82756975	     -0.04751573	      0.11000237	      0.00000000
