PointPosition
version=1
nRows=601
nColumns=4
inDegrees=no
No description.
endheader
time	state_0	state_1	state_2
      0.00000000	     -0.06756280	      1.07223859	      0.00000000
      0.00128632	     -0.06551535	      1.07248718	      0.00000000
      0.00257264	     -0.06346523	      1.07272728	      0.00000000
      0.00385896	     -0.06141229	      1.07295871	      0.00000000
      0.00514528	     -0.05935636	      1.07318130	      0.00000000
      0.00643160	     -0.05729727	      1.07339487	      0.00000000
      0.00771792	     -0.05523489	      1.07359928	      0.00000000
      0.00900424	     -0.05316905	      1.07379434	      0.00000000
      0.01029056	     -0.05109962	      1.07397991	      0.00000000
      0.01157688	     -0.04902646	      1.07415585	      0.00000000
      0.01286320	     -0.04694946	      1.07432203	      0.00000000
      0.01414952	     -0.04486849	      1.07447831	      0.00000000
      0.01543584	     -0.04278344	      1.07462460	      0.00000000
      0.01672216	     -0.04069421	      1.07476077	      0.00000000
      0.01800848	     -0.03860069	      1.07488675	      0.00000000
      0.01929480	     -0.03650281	      1.07500245	      0.00000000
      0.02058112	     -0.03440047	      1.07510780	      0.00000000
      0.02186744	     -0.03229360	      1.07520274	      0.00000000
      0.02315376	     -0.03018213	      1.07528723	      0.00000000
      0.02444008	     -0.02806601	      1.07536122	      0.00000000
      0.02572640	     -0.02594517	      1.07542470	      0.00000000
      0.02701273	     -0.02381958	      1.07547764	      0.00000000
      0.02829905	     -0.02168917	      1.07552002	      0.00000000
      0.02958537	     -0.01955393	      1.07555186	      0.00000000
      0.03087169	     -0.01741381	      1.07557316	      0.00000000
      0.03215801	     -0.01526878	      1.07558393	      0.00000000
      0.03344433	     -0.01311884	      1.07558419	      0.00000000
      0.03473065	     -0.01096394	      1.07557398	      0.00000000
      0.03601697	     -0.00880409	      1.07555332	      0.00000000
      0.03730329	     -0.00663927	      1.07552226	      0.00000000
      0.03858961	     -0.00446946	      1.07548084	      0.00000000
      0.03987593	     -0.00229468	      1.07542910	      0.00000000
      0.04116225	     -0.00011491	      1.07536711	      0.00000000
      0.04244857	      0.00206985	      1.07529492	      0.00000000
      0.04373489	      0.00425958	      1.07521259	      0.00000000
      0.04502121	      0.00645428	      1.07512021	      0.00000000
      0.04630753	      0.00865394	      1.07501783	      0.00000000
      0.04759385	      0.01085855	      1.07490555	      0.00000000
      0.04888017	      0.01306808	      1.07478345	      0.00000000
      0.05016649	      0.01528253	      1.07465161	      0.00000000
      0.05145281	      0.01750187	      1.07451014	      0.00000000
      0.05273913	      0.01972608	      1.07435913	      0.00000000
      0.05402545	      0.02195513	      1.07419870	      0.00000000
      0.05531177	      0.02418900	      1.07402896	      0.00000000
      0.05659809	      0.02642766	      1.07385003	      0.00000000
      0.05788441	      0.02867109	      1.07366203	      0.00000000
      0.05917073	      0.03091926	      1.07346510	      0.00000000
      0.06045705	      0.03317214	      1.07325939	      0.00000000
      0.06174337	      0.03542971	      1.07304503	      0.00000000
      0.06302969	      0.03769193	      1.07282218	      0.00000000
      0.06431601	      0.03995879	      1.07259099	      0.00000000
      0.06560233	      0.04223025	      1.07235165	      0.00000000
      0.06688865	      0.04450630	      1.07210431	      0.00000000
      0.06817497	      0.04678691	      1.07184915	      0.00000000
      0.06946129	      0.04907205	      1.07158637	      0.00000000
      0.07074761	      0.05136172	      1.07131614	      0.00000000
      0.07203393	      0.05365590	      1.07103867	      0.00000000
      0.07332025	      0.05595456	      1.07075415	      0.00000000
      0.07460657	      0.05825769	      1.07046278	      0.00000000
      0.07589289	      0.06056528	      1.07016479	      0.00000000
      0.07717921	      0.06287732	      1.06986037	      0.00000000
      0.07846554	      0.06519379	      1.06954975	      0.00000000
      0.07975186	      0.06751470	      1.06923314	      0.00000000
      0.08103818	      0.06984003	      1.06891078	      0.00000000
      0.08232450	      0.07216978	      1.06858287	      0.00000000
      0.08361082	      0.07450395	      1.06824966	      0.00000000
      0.08489714	      0.07684253	      1.06791137	      0.00000000
      0.08618346	      0.07918553	      1.06756824	      0.00000000
      0.08746978	      0.08153296	      1.06722050	      0.00000000
      0.08875610	      0.08388481	      1.06686839	      0.00000000
      0.09004242	      0.08624111	      1.06651214	      0.00000000
      0.09132874	      0.08860185	      1.06615201	      0.00000000
      0.09261506	      0.09096707	      1.06578823	      0.00000000
      0.09390138	      0.09333678	      1.06542104	      0.00000000
      0.09518770	      0.09571100	      1.06505071	      0.00000000
      0.09647402	      0.09808976	      1.06467747	      0.00000000
      0.09776034	      0.10047309	      1.06430160	      0.00000000
      0.09904666	      0.10286104	      1.06392333	      0.00000000
      0.10033298	      0.10525365	      1.06354295	      0.00000000
      0.10161930	      0.10765097	      1.06316073	      0.00000000
      0.10290562	      0.11005308	      1.06277693	      0.00000000
      0.10419194	      0.11246004	      1.06239183	      0.00000000
      0.10547826	      0.11487190	      1.06200567	      0.00000000
      0.10676458	      0.11728874	      1.06161868	      0.00000000
      0.10805090	      0.11971062	      1.06123107	      0.00000000
      0.10933722	      0.12213759	      1.06084305	      0.00000000
      0.11062354	      0.12456972	      1.06045478	      0.00000000
      0.11190986	      0.12700707	      1.06006643	      0.00000000
      0.11319618	      0.12944968	      1.05967814	      0.00000000
      0.11448250	      0.13189763	      1.05929005	      0.00000000
      0.11576882	      0.13435094	      1.05890225	      0.00000000
      0.11705514	      0.13680967	      1.05851485	      0.00000000
      0.11834146	      0.13927386	      1.05812793	      0.00000000
      0.11962778	      0.14174357	      1.05774154	      0.00000000
      0.12091410	      0.14421886	      1.05735573	      0.00000000
      0.12220042	      0.14669979	      1.05697054	      0.00000000
      0.12348674	      0.14918641	      1.05658598	      0.00000000
      0.12477306	      0.15167879	      1.05620206	      0.00000000
      0.12605938	      0.15417698	      1.05581877	      0.00000000
      0.12734570	      0.15668104	      1.05543608	      0.00000000
      0.12863202	      0.15919102	      1.05505396	      0.00000000
      0.12991835	      0.16170698	      1.05467234	      0.00000000
      0.13120467	      0.16422894	      1.05429117	      0.00000000
      0.13249099	      0.16675695	      1.05391037	      0.00000000
      0.13377731	      0.16929104	      1.05352983	      0.00000000
      0.13506363	      0.17183124	      1.05314946	      0.00000000
      0.13634995	      0.17437759	      1.05276914	      0.00000000
      0.13763627	      0.17693012	      1.05238876	      0.00000000
      0.13892259	      0.17948885	      1.05200817	      0.00000000
      0.14020891	      0.18205382	      1.05162724	      0.00000000
      0.14149523	      0.18462504	      1.05124580	      0.00000000
      0.14278155	      0.18720253	      1.05086371	      0.00000000
      0.14406787	      0.18978628	      1.05048080	      0.00000000
      0.14535419	      0.19237630	      1.05009691	      0.00000000
      0.14664051	      0.19497256	      1.04971187	      0.00000000
      0.14792683	      0.19757504	      1.04932553	      0.00000000
      0.14921315	      0.20018367	      1.04893771	      0.00000000
      0.15049947	      0.20279840	      1.04854829	      0.00000000
      0.15178579	      0.20541918	      1.04815712	      0.00000000
      0.15307211	      0.20804596	      1.04776410	      0.00000000
      0.15435843	      0.21067871	      1.04736914	      0.00000000
      0.15564475	      0.21331741	      1.04697218	      0.00000000
      0.15693107	      0.21596205	      1.04657314	      0.00000000
      0.15821739	      0.21861265	      1.04617197	      0.00000000
      0.15950371	      0.22126922	      1.04576860	      0.00000000
      0.16079003	      0.22393179	      1.04536295	      0.00000000
      0.16207635	      0.22660037	      1.04495494	      0.00000000
      0.16336267	      0.22927500	      1.04454446	      0.00000000
      0.16464899	      0.23195568	      1.04413139	      0.00000000
      0.16593531	      0.23464241	      1.04371559	      0.00000000
      0.16722163	      0.23733519	      1.04329690	      0.00000000
      0.16850795	      0.24003399	      1.04287514	      0.00000000
      0.16979427	      0.24273874	      1.04245009	      0.00000000
      0.17108059	      0.24544937	      1.04202153	      0.00000000
      0.17236691	      0.24816578	      1.04158921	      0.00000000
      0.17365323	      0.25088783	      1.04115287	      0.00000000
      0.17493955	      0.25361536	      1.04071224	      0.00000000
      0.17622587	      0.25634816	      1.04026706	      0.00000000
      0.17751219	      0.25908600	      1.03981708	      0.00000000
      0.17879851	      0.26182860	      1.03936204	      0.00000000
      0.18008483	      0.26457567	      1.03890173	      0.00000000
      0.18137115	      0.26732690	      1.03843593	      0.00000000
      0.18265748	      0.27008193	      1.03796444	      0.00000000
      0.18394380	      0.27284042	      1.03748703	      0.00000000
      0.18523012	      0.27560202	      1.03700351	      0.00000000
      0.18651644	      0.27836637	      1.03651364	      0.00000000
      0.18780276	      0.28113311	      1.03601719	      0.00000000
      0.18908908	      0.28390187	      1.03551394	      0.00000000
      0.19037540	      0.28667228	      1.03500362	      0.00000000
      0.19166172	      0.28944398	      1.03448600	      0.00000000
      0.19294804	      0.29221656	      1.03396082	      0.00000000
      0.19423436	      0.29498965	      1.03342784	      0.00000000
      0.19552068	      0.29776283	      1.03288687	      0.00000000
      0.19680700	      0.30053567	      1.03233772	      0.00000000
      0.19809332	      0.30330770	      1.03178027	      0.00000000
      0.19937964	      0.30607843	      1.03121443	      0.00000000
      0.20066596	      0.30884729	      1.03064023	      0.00000000
      0.20195228	      0.31161369	      1.03005777	      0.00000000
      0.20323860	      0.31437684	      1.02946745	      0.00000000
      0.20452492	      0.31713590	      1.02886986	      0.00000000
      0.20581124	      0.31988978	      1.02826611	      0.00000000
      0.20709756	      0.32263723	      1.02765763	      0.00000000
      0.20838388	      0.32537664	      1.02704678	      0.00000000
      0.20967020	      0.32810611	      1.02643652	      0.00000000
      0.21095652	      0.33082321	      1.02583105	      0.00000000
      0.21224284	      0.33352494	      1.02523568	      0.00000000
      0.21352916	      0.33621020	      1.02465472	      0.00000000
      0.21481548	      0.33888050	      1.02409033	      0.00000000
      0.21610180	      0.34153653	      1.02354499	      0.00000000
      0.21738812	      0.34417712	      1.02302231	      0.00000000
      0.21867444	      0.34680063	      1.02252565	      0.00000000
      0.21996076	      0.34940564	      1.02205823	      0.00000000
      0.22124708	      0.35199114	      1.02162308	      0.00000000
      0.22253340	      0.35455631	      1.02122300	      0.00000000
      0.22381972	      0.35710061	      1.02086018	      0.00000000
      0.22510604	      0.35962363	      1.02053639	      0.00000000
      0.22639236	      0.36212529	      1.02025267	      0.00000000
      0.22767868	      0.36460568	      1.02000968	      0.00000000
      0.22896500	      0.36706522	      1.01980745	      0.00000000
      0.23025132	      0.36950442	      1.01964572	      0.00000000
      0.23153764	      0.37192400	      1.01952369	      0.00000000
      0.23282396	      0.37432475	      1.01944038	      0.00000000
      0.23411029	      0.37670755	      1.01939447	      0.00000000
      0.23539661	      0.37907332	      1.01938449	      0.00000000
      0.23668293	      0.38142304	      1.01940881	      0.00000000
      0.23796925	      0.38375766	      1.01946573	      0.00000000
      0.23925557	      0.38607813	      1.01955348	      0.00000000
      0.24054189	      0.38838535	      1.01967027	      0.00000000
      0.24182821	      0.39068021	      1.01981433	      0.00000000
      0.24311453	      0.39296357	      1.01998391	      0.00000000
      0.24440085	      0.39523618	      1.02017732	      0.00000000
      0.24568717	      0.39749879	      1.02039288	      0.00000000
      0.24697349	      0.39975205	      1.02062901	      0.00000000
      0.24825981	      0.40199656	      1.02088416	      0.00000000
      0.24954613	      0.40423286	      1.02115685	      0.00000000
      0.25083245	      0.40646143	      1.02144567	      0.00000000
      0.25211877	      0.40868270	      1.02174929	      0.00000000
      0.25340509	      0.41089703	      1.02206641	      0.00000000
      0.25469141	      0.41310477	      1.02239584	      0.00000000
      0.25597773	      0.41530620	      1.02273641	      0.00000000
      0.25726405	      0.41750157	      1.02308707	      0.00000000
      0.25855037	      0.41969111	      1.02344676	      0.00000000
      0.25983669	      0.42187500	      1.02381454	      0.00000000
      0.26112301	      0.42405340	      1.02418949	      0.00000000
      0.26240933	      0.42622644	      1.02457075	      0.00000000
      0.26369565	      0.42839425	      1.02495750	      0.00000000
      0.26498197	      0.43055692	      1.02534897	      0.00000000
      0.26626829	      0.43271450	      1.02574443	      0.00000000
      0.26755461	      0.43486707	      1.02614318	      0.00000000
      0.26884093	      0.43701465	      1.02654457	      0.00000000
      0.27012725	      0.43915727	      1.02694797	      0.00000000
      0.27141357	      0.44129494	      1.02735279	      0.00000000
      0.27269989	      0.44342767	      1.02775845	      0.00000000
      0.27398621	      0.44555545	      1.02816441	      0.00000000
      0.27527253	      0.44767826	      1.02857016	      0.00000000
      0.27655885	      0.44979609	      1.02897521	      0.00000000
      0.27784517	      0.45190893	      1.02937908	      0.00000000
      0.27913149	      0.45401676	      1.02978134	      0.00000000
      0.28041781	      0.45611956	      1.03018156	      0.00000000
      0.28170413	      0.45821732	      1.03057933	      0.00000000
      0.28299045	      0.46031003	      1.03097427	      0.00000000
      0.28427677	      0.46239770	      1.03136603	      0.00000000
      0.28556309	      0.46448034	      1.03175426	      0.00000000
      0.28684942	      0.46655796	      1.03213863	      0.00000000
      0.28813574	      0.46863059	      1.03251885	      0.00000000
      0.28942206	      0.47069826	      1.03289461	      0.00000000
      0.29070838	      0.47276103	      1.03326566	      0.00000000
      0.29199470	      0.47481894	      1.03363174	      0.00000000
      0.29328102	      0.47687207	      1.03399260	      0.00000000
      0.29456734	      0.47892049	      1.03434803	      0.00000000
      0.29585366	      0.48096428	      1.03469781	      0.00000000
      0.29713998	      0.48300353	      1.03504174	      0.00000000
      0.29842630	      0.48503833	      1.03537965	      0.00000000
      0.29971262	      0.48706880	      1.03571137	      0.00000000
      0.30099894	      0.48909502	      1.03603674	      0.00000000
      0.30228526	      0.49111712	      1.03635562	      0.00000000
      0.30357158	      0.49313521	      1.03666788	      0.00000000
      0.30485790	      0.49514940	      1.03697340	      0.00000000
      0.30614422	      0.49715981	      1.03727208	      0.00000000
      0.30743054	      0.49916657	      1.03756382	      0.00000000
      0.30871686	      0.50116980	      1.03784855	      0.00000000
      0.31000318	      0.50316961	      1.03812617	      0.00000000
      0.31128950	      0.50516613	      1.03839663	      0.00000000
      0.31257582	      0.50715947	      1.03865986	      0.00000000
      0.31386214	      0.50914976	      1.03891580	      0.00000000
      0.31514846	      0.51113711	      1.03916440	      0.00000000
      0.31643478	      0.51312162	      1.03940561	      0.00000000
      0.31772110	      0.51510341	      1.03963938	      0.00000000
      0.31900742	      0.51708258	      1.03986568	      0.00000000
      0.32029374	      0.51905922	      1.04008447	      0.00000000
      0.32158006	      0.52103344	      1.04029569	      0.00000000
      0.32286638	      0.52300534	      1.04049933	      0.00000000
      0.32415270	      0.52497500	      1.04069535	      0.00000000
      0.32543902	      0.52694251	      1.04088372	      0.00000000
      0.32672534	      0.52890797	      1.04106442	      0.00000000
      0.32801166	      0.53087147	      1.04123741	      0.00000000
      0.32929798	      0.53283310	      1.04140269	      0.00000000
      0.33058430	      0.53479295	      1.04156022	      0.00000000
      0.33187062	      0.53675112	      1.04171001	      0.00000000
      0.33315694	      0.53870770	      1.04185203	      0.00000000
      0.33444326	      0.54066279	      1.04198627	      0.00000000
      0.33572958	      0.54261646	      1.04211272	      0.00000000
      0.33701590	      0.54456879	      1.04223137	      0.00000000
      0.33830223	      0.54651989	      1.04234221	      0.00000000
      0.33958855	      0.54846982	      1.04244525	      0.00000000
      0.34087487	      0.55041868	      1.04254048	      0.00000000
      0.34216119	      0.55236654	      1.04262792	      0.00000000
      0.34344751	      0.55431349	      1.04270755	      0.00000000
      0.34473383	      0.55625960	      1.04277940	      0.00000000
      0.34602015	      0.55820496	      1.04284346	      0.00000000
      0.34730647	      0.56014964	      1.04289977	      0.00000000
      0.34859279	      0.56209371	      1.04294832	      0.00000000
      0.34987911	      0.56403724	      1.04298914	      0.00000000
      0.35116543	      0.56598032	      1.04302226	      0.00000000
      0.35245175	      0.56792299	      1.04304770	      0.00000000
      0.35373807	      0.56986534	      1.04306548	      0.00000000
      0.35502439	      0.57180743	      1.04307564	      0.00000000
      0.35631071	      0.57374931	      1.04307821	      0.00000000
      0.35759703	      0.57569105	      1.04307323	      0.00000000
      0.35888335	      0.57763271	      1.04306075	      0.00000000
      0.36016967	      0.57957433	      1.04304080	      0.00000000
      0.36145599	      0.58151599	      1.04301343	      0.00000000
      0.36274231	      0.58345772	      1.04297871	      0.00000000
      0.36402863	      0.58539957	      1.04293668	      0.00000000
      0.36531495	      0.58734159	      1.04288742	      0.00000000
      0.36660127	      0.58928383	      1.04283098	      0.00000000
      0.36788759	      0.59122633	      1.04276745	      0.00000000
      0.36917391	      0.59316913	      1.04269690	      0.00000000
      0.37046023	      0.59511226	      1.04261943	      0.00000000
      0.37174655	      0.59705577	      1.04253511	      0.00000000
      0.37303287	      0.59899969	      1.04244407	      0.00000000
      0.37431919	      0.60094404	      1.04234638	      0.00000000
      0.37560551	      0.60288885	      1.04224217	      0.00000000
      0.37689183	      0.60483414	      1.04213156	      0.00000000
      0.37817815	      0.60677994	      1.04201468	      0.00000000
      0.37946447	      0.60872629	      1.04189168	      0.00000000
      0.38075079	      0.61067322	      1.04176275	      0.00000000
      0.38203711	      0.61262078	      1.04162805	      0.00000000
      0.38332343	      0.61456901	      1.04148781	      0.00000000
      0.38460975	      0.61651797	      1.04134224	      0.00000000
      0.38589607	      0.61846772	      1.04119161	      0.00000000
      0.38718239	      0.62041833	      1.04103620	      0.00000000
      0.38846871	      0.62236987	      1.04087631	      0.00000000
      0.38975504	      0.62432240	      1.04071224	      0.00000000
      0.39104136	      0.62627599	      1.04054431	      0.00000000
      0.39232768	      0.62823070	      1.04037283	      0.00000000
      0.39361400	      0.63018660	      1.04019812	      0.00000000
      0.39490032	      0.63214373	      1.04002048	      0.00000000
      0.39618664	      0.63410217	      1.03984023	      0.00000000
      0.39747296	      0.63606196	      1.03965766	      0.00000000
      0.39875928	      0.63802317	      1.03947306	      0.00000000
      0.40004560	      0.63998586	      1.03928673	      0.00000000
      0.40133192	      0.64195010	      1.03909892	      0.00000000
      0.40261824	      0.64391594	      1.03890991	      0.00000000
      0.40390456	      0.64588346	      1.03871996	      0.00000000
      0.40519088	      0.64785271	      1.03852931	      0.00000000
      0.40647720	      0.64982376	      1.03833819	      0.00000000
      0.40776352	      0.65179666	      1.03814684	      0.00000000
      0.40904984	      0.65377148	      1.03795545	      0.00000000
      0.41033616	      0.65574828	      1.03776425	      0.00000000
      0.41162248	      0.65772712	      1.03757343	      0.00000000
      0.41290880	      0.65970805	      1.03738317	      0.00000000
      0.41419512	      0.66169112	      1.03719365	      0.00000000
      0.41548144	      0.66367641	      1.03700503	      0.00000000
      0.41676776	      0.66566396	      1.03681748	      0.00000000
      0.41805408	      0.66765383	      1.03663113	      0.00000000
      0.41934040	      0.66964607	      1.03644614	      0.00000000
      0.42062672	      0.67164073	      1.03626263	      0.00000000
      0.42191304	      0.67363786	      1.03608073	      0.00000000
      0.42319936	      0.67563751	      1.03590053	      0.00000000
      0.42448568	      0.67763974	      1.03572216	      0.00000000
      0.42577200	      0.67964458	      1.03554571	      0.00000000
      0.42705832	      0.68165209	      1.03537125	      0.00000000
      0.42834464	      0.68366230	      1.03519889	      0.00000000
      0.42963096	      0.68567526	      1.03502868	      0.00000000
      0.43091728	      0.68769101	      1.03486070	      0.00000000
      0.43220360	      0.68970959	      1.03469501	      0.00000000
      0.43348992	      0.69173105	      1.03453166	      0.00000000
      0.43477624	      0.69375541	      1.03437071	      0.00000000
      0.43606256	      0.69578273	      1.03421220	      0.00000000
      0.43734888	      0.69781304	      1.03405617	      0.00000000
      0.43863520	      0.69984638	      1.03390267	      0.00000000
      0.43992152	      0.70188279	      1.03375172	      0.00000000
      0.44120784	      0.70392230	      1.03360336	      0.00000000
      0.44249417	      0.70596497	      1.03345762	      0.00000000
      0.44378049	      0.70801084	      1.03331453	      0.00000000
      0.44506681	      0.71005993	      1.03317412	      0.00000000
      0.44635313	      0.71211230	      1.03303641	      0.00000000
      0.44763945	      0.71416799	      1.03290142	      0.00000000
      0.44892577	      0.71622705	      1.03276919	      0.00000000
      0.45021209	      0.71828951	      1.03263973	      0.00000000
      0.45149841	      0.72035543	      1.03251307	      0.00000000
      0.45278473	      0.72242485	      1.03238923	      0.00000000
      0.45407105	      0.72449783	      1.03226824	      0.00000000
      0.45535737	      0.72657440	      1.03215012	      0.00000000
      0.45664369	      0.72865462	      1.03203489	      0.00000000
      0.45793001	      0.73073855	      1.03192259	      0.00000000
      0.45921633	      0.73282623	      1.03181323	      0.00000000
      0.46050265	      0.73491771	      1.03170685	      0.00000000
      0.46178897	      0.73701305	      1.03160346	      0.00000000
      0.46307529	      0.73911231	      1.03150311	      0.00000000
      0.46436161	      0.74121554	      1.03140583	      0.00000000
      0.46564793	      0.74332279	      1.03131163	      0.00000000
      0.46693425	      0.74543413	      1.03122055	      0.00000000
      0.46822057	      0.74754961	      1.03113264	      0.00000000
      0.46950689	      0.74966929	      1.03104791	      0.00000000
      0.47079321	      0.75179322	      1.03096639	      0.00000000
      0.47207953	      0.75392145	      1.03088812	      0.00000000
      0.47336585	      0.75605404	      1.03081313	      0.00000000
      0.47465217	      0.75819107	      1.03074146	      0.00000000
      0.47593849	      0.76033259	      1.03067316	      0.00000000
      0.47722481	      0.76247867	      1.03060828	      0.00000000
      0.47851113	      0.76462939	      1.03054688	      0.00000000
      0.47979745	      0.76678482	      1.03048900	      0.00000000
      0.48108377	      0.76894501	      1.03043470	      0.00000000
      0.48237009	      0.77111006	      1.03038401	      0.00000000
      0.48365641	      0.77328002	      1.03033698	      0.00000000
      0.48494273	      0.77545497	      1.03029364	      0.00000000
      0.48622905	      0.77763496	      1.03025402	      0.00000000
      0.48751537	      0.77982008	      1.03021814	      0.00000000
      0.48880169	      0.78201038	      1.03018603	      0.00000000
      0.49008801	      0.78420593	      1.03015769	      0.00000000
      0.49137433	      0.78640680	      1.03013315	      0.00000000
      0.49266065	      0.78861304	      1.03011242	      0.00000000
      0.49394698	      0.79082471	      1.03009549	      0.00000000
      0.49523330	      0.79304189	      1.03008237	      0.00000000
      0.49651962	      0.79526462	      1.03007306	      0.00000000
      0.49780594	      0.79749297	      1.03006756	      0.00000000
      0.49909226	      0.79972699	      1.03006585	      0.00000000
      0.50037858	      0.80196673	      1.03006793	      0.00000000
      0.50166490	      0.80421226	      1.03007378	      0.00000000
      0.50295122	      0.80646362	      1.03008338	      0.00000000
      0.50423754	      0.80872088	      1.03009671	      0.00000000
      0.50552386	      0.81098406	      1.03011375	      0.00000000
      0.50681018	      0.81325324	      1.03013447	      0.00000000
      0.50809650	      0.81552845	      1.03015884	      0.00000000
      0.50938282	      0.81780975	      1.03018682	      0.00000000
      0.51066914	      0.82009718	      1.03021839	      0.00000000
      0.51195546	      0.82239080	      1.03025351	      0.00000000
      0.51324178	      0.82469064	      1.03029215	      0.00000000
      0.51452810	      0.82699676	      1.03033425	      0.00000000
      0.51581442	      0.82930920	      1.03037979	      0.00000000
      0.51710074	      0.83162800	      1.03042871	      0.00000000
      0.51838706	      0.83395321	      1.03048097	      0.00000000
      0.51967338	      0.83628486	      1.03053652	      0.00000000
      0.52095970	      0.83862299	      1.03059531	      0.00000000
      0.52224602	      0.84096765	      1.03065728	      0.00000000
      0.52353234	      0.84331886	      1.03072238	      0.00000000
      0.52481866	      0.84567666	      1.03079054	      0.00000000
      0.52610498	      0.84804108	      1.03086170	      0.00000000
      0.52739130	      0.85041215	      1.03093580	      0.00000000
      0.52867762	      0.85278990	      1.03101276	      0.00000000
      0.52996394	      0.85517437	      1.03109251	      0.00000000
      0.53125026	      0.85756556	      1.03117497	      0.00000000
      0.53253658	      0.85996351	      1.03126005	      0.00000000
      0.53382290	      0.86236824	      1.03134769	      0.00000000
      0.53510922	      0.86477976	      1.03143778	      0.00000000
      0.53639554	      0.86719809	      1.03153024	      0.00000000
      0.53768186	      0.86962324	      1.03162496	      0.00000000
      0.53896818	      0.87205523	      1.03172185	      0.00000000
      0.54025450	      0.87449406	      1.03182081	      0.00000000
      0.54154082	      0.87693976	      1.03192172	      0.00000000
      0.54282714	      0.87939234	      1.03202447	      0.00000000
      0.54411346	      0.88185182	      1.03212895	      0.00000000
      0.54539979	      0.88431822	      1.03223504	      0.00000000
      0.54668611	      0.88679156	      1.03234261	      0.00000000
      0.54797243	      0.88927186	      1.03245155	      0.00000000
      0.54925875	      0.89175916	      1.03256171	      0.00000000
      0.55054507	      0.89425347	      1.03267296	      0.00000000
      0.55183139	      0.89675482	      1.03278518	      0.00000000
      0.55311771	      0.89926322	      1.03289823	      0.00000000
      0.55440403	      0.90177870	      1.03301197	      0.00000000
      0.55569035	      0.90430128	      1.03312627	      0.00000000
      0.55697667	      0.90683096	      1.03324097	      0.00000000
      0.55826299	      0.90936775	      1.03335594	      0.00000000
      0.55954931	      0.91191168	      1.03347104	      0.00000000
      0.56083563	      0.91446276	      1.03358612	      0.00000000
      0.56212195	      0.91702099	      1.03370102	      0.00000000
      0.56340827	      0.91958642	      1.03381560	      0.00000000
      0.56469459	      0.92215905	      1.03392969	      0.00000000
      0.56598091	      0.92473892	      1.03404314	      0.00000000
      0.56726723	      0.92732607	      1.03415579	      0.00000000
      0.56855355	      0.92992054	      1.03426746	      0.00000000
      0.56983987	      0.93252240	      1.03437797	      0.00000000
      0.57112619	      0.93513171	      1.03448715	      0.00000000
      0.57241251	      0.93774853	      1.03459481	      0.00000000
      0.57369883	      0.94037296	      1.03470074	      0.00000000
      0.57498515	      0.94300506	      1.03480475	      0.00000000
      0.57627147	      0.94564494	      1.03490661	      0.00000000
      0.57755779	      0.94829268	      1.03500613	      0.00000000
      0.57884411	      0.95094835	      1.03510306	      0.00000000
      0.58013043	      0.95361199	      1.03519721	      0.00000000
      0.58141675	      0.95628359	      1.03528833	      0.00000000
      0.58270307	      0.95896321	      1.03537619	      0.00000000
      0.58398939	      0.96165092	      1.03546055	      0.00000000
      0.58527571	      0.96434674	      1.03554120	      0.00000000
      0.58656203	      0.96705059	      1.03561790	      0.00000000
      0.58784835	      0.96976236	      1.03569044	      0.00000000
      0.58913467	      0.97248178	      1.03575861	      0.00000000
      0.59042099	      0.97520850	      1.03582216	      0.00000000
      0.59170731	      0.97794188	      1.03588088	      0.00000000
      0.59299363	      0.98068114	      1.03593459	      0.00000000
      0.59427995	      0.98342497	      1.03598318	      0.00000000
      0.59556627	      0.98617174	      1.03602663	      0.00000000
      0.59685259	      0.98891939	      1.03606517	      0.00000000
      0.59813892	      0.99166580	      1.03609920	      0.00000000
      0.59942524	      0.99440954	      1.03612947	      0.00000000
      0.60071156	      0.99714988	      1.03615695	      0.00000000
      0.60199788	      0.99988694	      1.03618289	      0.00000000
      0.60328420	      1.00262089	      1.03620861	      0.00000000
      0.60457052	      1.00535252	      1.03623509	      0.00000000
      0.60585684	      1.00808294	      1.03626304	      0.00000000
      0.60714316	      1.01081244	      1.03629279	      0.00000000
      0.60842948	      1.01354104	      1.03632449	      0.00000000
      0.60971580	      1.01626864	      1.03635810	      0.00000000
      0.61100212	      1.01899498	      1.03639355	      0.00000000
      0.61228844	      1.02171975	      1.03643072	      0.00000000
      0.61357476	      1.02444260	      1.03646949	      0.00000000
      0.61486108	      1.02716312	      1.03650972	      0.00000000
      0.61614740	      1.02988090	      1.03655126	      0.00000000
      0.61743372	      1.03259557	      1.03659400	      0.00000000
      0.61872004	      1.03530675	      1.03663784	      0.00000000
      0.62000636	      1.03801425	      1.03668274	      0.00000000
      0.62129268	      1.04071794	      1.03672873	      0.00000000
      0.62257900	      1.04341784	      1.03677588	      0.00000000
      0.62386532	      1.04611394	      1.03682430	      0.00000000
      0.62515164	      1.04880622	      1.03687415	      0.00000000
      0.62643796	      1.05149469	      1.03692561	      0.00000000
      0.62772428	      1.05417925	      1.03697890	      0.00000000
      0.62901060	      1.05685976	      1.03703422	      0.00000000
      0.63029692	      1.05953599	      1.03709182	      0.00000000
      0.63158324	      1.06220762	      1.03715193	      0.00000000
      0.63286956	      1.06487421	      1.03721477	      0.00000000
      0.63415588	      1.06753527	      1.03728055	      0.00000000
      0.63544220	      1.07019018	      1.03734946	      0.00000000
      0.63672852	      1.07283829	      1.03742164	      0.00000000
      0.63801484	      1.07547887	      1.03749716	      0.00000000
      0.63930116	      1.07811113	      1.03757612	      0.00000000
      0.64058748	      1.08073427	      1.03765861	      0.00000000
      0.64187380	      1.08334750	      1.03774482	      0.00000000
      0.64316012	      1.08595007	      1.03783494	      0.00000000
      0.64444644	      1.08854126	      1.03792916	      0.00000000
      0.64573276	      1.09112045	      1.03802773	      0.00000000
      0.64701908	      1.09368710	      1.03813093	      0.00000000
      0.64830540	      1.09624080	      1.03823916	      0.00000000
      0.64959173	      1.09878122	      1.03835285	      0.00000000
      0.65087805	      1.10130820	      1.03847253	      0.00000000
      0.65216437	      1.10382162	      1.03859874	      0.00000000
      0.65345069	      1.10632146	      1.03873206	      0.00000000
      0.65473701	      1.10880769	      1.03887301	      0.00000000
      0.65602333	      1.11128034	      1.03902207	      0.00000000
      0.65730965	      1.11373943	      1.03917966	      0.00000000
      0.65859597	      1.11618500	      1.03934612	      0.00000000
      0.65988229	      1.11861710	      1.03952179	      0.00000000
      0.66116861	      1.12103582	      1.03970690	      0.00000000
      0.66245493	      1.12344123	      1.03990166	      0.00000000
      0.66374125	      1.12583346	      1.04010624	      0.00000000
      0.66502757	      1.12821265	      1.04032080	      0.00000000
      0.66631389	      1.13057895	      1.04054542	      0.00000000
      0.66760021	      1.13293257	      1.04078018	      0.00000000
      0.66888653	      1.13527370	      1.04102513	      0.00000000
      0.67017285	      1.13760256	      1.04128026	      0.00000000
      0.67145917	      1.13991939	      1.04154555	      0.00000000
      0.67274549	      1.14222444	      1.04182094	      0.00000000
      0.67403181	      1.14451796	      1.04210633	      0.00000000
      0.67531813	      1.14680023	      1.04240162	      0.00000000
      0.67660445	      1.14907154	      1.04270665	      0.00000000
      0.67789077	      1.15133216	      1.04302128	      0.00000000
      0.67917709	      1.15358241	      1.04334532	      0.00000000
      0.68046341	      1.15582257	      1.04367856	      0.00000000
      0.68174973	      1.15805296	      1.04402080	      0.00000000
      0.68303605	      1.16027389	      1.04437179	      0.00000000
      0.68432237	      1.16248565	      1.04473127	      0.00000000
      0.68560869	      1.16468857	      1.04509899	      0.00000000
      0.68689501	      1.16688293	      1.04547465	      0.00000000
      0.68818133	      1.16906904	      1.04585796	      0.00000000
      0.68946765	      1.17124719	      1.04624861	      0.00000000
      0.69075397	      1.17341768	      1.04664628	      0.00000000
      0.69204029	      1.17558078	      1.04705066	      0.00000000
      0.69332661	      1.17773679	      1.04746142	      0.00000000
      0.69461293	      1.17988597	      1.04787822	      0.00000000
      0.69589925	      1.18202859	      1.04830074	      0.00000000
      0.69718557	      1.18416491	      1.04872865	      0.00000000
      0.69847189	      1.18629519	      1.04916160	      0.00000000
      0.69975821	      1.18841968	      1.04959926	      0.00000000
      0.70104454	      1.19053860	      1.05004130	      0.00000000
      0.70233086	      1.19265220	      1.05048738	      0.00000000
      0.70361718	      1.19476068	      1.05093715	      0.00000000
      0.70490350	      1.19686427	      1.05139027	      0.00000000
      0.70618982	      1.19896316	      1.05184639	      0.00000000
      0.70747614	      1.20105755	      1.05230516	      0.00000000
      0.70876246	      1.20314763	      1.05276623	      0.00000000
      0.71004878	      1.20523358	      1.05322923	      0.00000000
      0.71133510	      1.20731557	      1.05369383	      0.00000000
      0.71262142	      1.20939378	      1.05415966	      0.00000000
      0.71390774	      1.21146835	      1.05462639	      0.00000000
      0.71519406	      1.21353945	      1.05509367	      0.00000000
      0.71648038	      1.21560723	      1.05556116	      0.00000000
      0.71776670	      1.21767183	      1.05602854	      0.00000000
      0.71905302	      1.21973339	      1.05649547	      0.00000000
      0.72033934	      1.22179207	      1.05696165	      0.00000000
      0.72162566	      1.22384798	      1.05742677	      0.00000000
      0.72291198	      1.22590126	      1.05789052	      0.00000000
      0.72419830	      1.22795205	      1.05835260	      0.00000000
      0.72548462	      1.23000046	      1.05881273	      0.00000000
      0.72677094	      1.23204662	      1.05927063	      0.00000000
      0.72805726	      1.23409066	      1.05972601	      0.00000000
      0.72934358	      1.23613268	      1.06017863	      0.00000000
      0.73062990	      1.23817282	      1.06062821	      0.00000000
      0.73191622	      1.24021118	      1.06107450	      0.00000000
      0.73320254	      1.24224788	      1.06151726	      0.00000000
      0.73448886	      1.24428304	      1.06195625	      0.00000000
      0.73577518	      1.24631677	      1.06239124	      0.00000000
      0.73706150	      1.24834919	      1.06282201	      0.00000000
      0.73834782	      1.25038041	      1.06324836	      0.00000000
      0.73963414	      1.25241055	      1.06367006	      0.00000000
      0.74092046	      1.25443972	      1.06408694	      0.00000000
      0.74220678	      1.25646804	      1.06449878	      0.00000000
      0.74349310	      1.25849564	      1.06490542	      0.00000000
      0.74477942	      1.26052264	      1.06530668	      0.00000000
      0.74606574	      1.26254916	      1.06570238	      0.00000000
      0.74735206	      1.26457533	      1.06609237	      0.00000000
      0.74863838	      1.26660127	      1.06647648	      0.00000000
      0.74992470	      1.26862712	      1.06685455	      0.00000000
      0.75121102	      1.27065301	      1.06722645	      0.00000000
      0.75249734	      1.27267908	      1.06759203	      0.00000000
      0.75378367	      1.27470545	      1.06795115	      0.00000000
      0.75506999	      1.27673227	      1.06830369	      0.00000000
      0.75635631	      1.27875965	      1.06864953	      0.00000000
      0.75764263	      1.28078774	      1.06898856	      0.00000000
      0.75892895	      1.28281666	      1.06932068	      0.00000000
      0.76021527	      1.28484654	      1.06964578	      0.00000000
      0.76150159	      1.28687751	      1.06996378	      0.00000000
      0.76278791	      1.28890970	      1.07027458	      0.00000000
      0.76407423	      1.29094324	      1.07057808	      0.00000000
      0.76536055	      1.29297828	      1.07087417	      0.00000000
      0.76664687	      1.29501497	      1.07116272	      0.00000000
      0.76793319	      1.29705348	      1.07144359	      0.00000000
      0.76921951	      1.29909397	      1.07171663	      0.00000000
      0.77050583	      1.30113661	      1.07198169	      0.00000000
      0.77179215	      1.30318157	      1.07223859	      0.00000000
