PointVelocity
version=1
nRows=601
nColumns=4
inDegrees=no
No description.
endheader
time	state_0	state_1	state_2
      0.00000000	      4.19664251	     -0.03805666	      0.00000000
      0.00128632	      4.21530761	     -0.04557481	      0.00000000
      0.00257264	      4.23393563	     -0.05294860	      0.00000000
      0.00385896	      4.25257751	     -0.06012268	      0.00000000
      0.00514528	      4.27130474	     -0.06703446	      0.00000000
      0.00643160	      4.29015958	     -0.07364248	      0.00000000
      0.00771792	      4.30918447	     -0.07989774	      0.00000000
      0.00900424	      4.32836490	     -0.08578290	      0.00000000
      0.01029056	      4.34769424	     -0.09127618	      0.00000000
      0.01157688	      4.36711615	     -0.09638697	      0.00000000
      0.01286320	      4.38657820	     -0.10112369	      0.00000000
      0.01414952	      4.40601006	     -0.10550982	      0.00000000
      0.01543584	      4.42534523	     -0.10956920	      0.00000000
      0.01672216	      4.44453508	     -0.11332067	      0.00000000
      0.01800848	      4.46353335	     -0.11678354	      0.00000000
      0.01929480	      4.48232158	     -0.11996505	      0.00000000
      0.02058112	      4.50087942	     -0.12287413	      0.00000000
      0.02186744	      4.51920079	     -0.12551443	      0.00000000
      0.02315376	      4.53727597	     -0.12789184	      0.00000000
      0.02444008	      4.55509592	     -0.13001477	      0.00000000
      0.02572640	      4.57264899	     -0.13189357	      0.00000000
      0.02701273	      4.58992372	     -0.13354131	      0.00000000
      0.02829905	      4.60690737	     -0.13497244	      0.00000000
      0.02958537	      4.62359572	     -0.13619840	      0.00000000
      0.03087169	      4.63998336	     -0.13723167	      0.00000000
      0.03215801	      4.65607997	     -0.13807651	      0.00000000
      0.03344433	      4.67189347	     -0.13873781	      0.00000000
      0.03473065	      4.68744582	     -0.13921193	      0.00000000
      0.03601697	      4.70275705	     -0.13949517	      0.00000000
      0.03730329	      4.71785399	     -0.13957957	      0.00000000
      0.03858961	      4.73276213	     -0.13945628	      0.00000000
      0.03987593	      4.74750526	     -0.13911803	      0.00000000
      0.04116225	      4.76210691	     -0.13855595	      0.00000000
      0.04244857	      4.77658329	     -0.13776698	      0.00000000
      0.04373489	      4.79095147	     -0.13674615	      0.00000000
      0.04502121	      4.80521973	     -0.13549553	      0.00000000
      0.04630753	      4.81939783	     -0.13401539	      0.00000000
      0.04759385	      4.83348829	     -0.13231183	      0.00000000
      0.04888017	      4.84749526	     -0.13038962	      0.00000000
      0.05016649	      4.86141833	     -0.12825702	      0.00000000
      0.05145281	      4.87525846	     -0.12592155	      0.00000000
      0.05273913	      4.88901443	     -0.12339179	      0.00000000
      0.05402545	      4.90268614	     -0.12067603	      0.00000000
      0.05531177	      4.91627253	     -0.11778196	      0.00000000
      0.05659809	      4.92977357	     -0.11471716	      0.00000000
      0.05788441	      4.94318792	     -0.11148813	      0.00000000
      0.05917073	      4.95651541	     -0.10810137	      0.00000000
      0.06045705	      4.96975296	     -0.10456298	      0.00000000
      0.06174337	      4.98289889	     -0.10087912	      0.00000000
      0.06302969	      4.99594675	     -0.09705681	      0.00000000
      0.06431601	      5.00889173	     -0.09310323	      0.00000000
      0.06560233	      5.02172319	     -0.08902714	      0.00000000
      0.06688865	      5.03443242	     -0.08483767	      0.00000000
      0.06817497	      5.04700512	     -0.08054511	      0.00000000
      0.06946129	      5.05942910	     -0.07616036	      0.00000000
      0.07074761	      5.07168762	     -0.07169446	      0.00000000
      0.07203393	      5.08376607	     -0.06715925	      0.00000000
      0.07332025	      5.09564635	     -0.06256596	      0.00000000
      0.07460657	      5.10731230	     -0.05792688	      0.00000000
      0.07589289	      5.11874504	     -0.05325348	      0.00000000
      0.07717921	      5.12992735	     -0.04855862	      0.00000000
      0.07846554	      5.14084029	     -0.04385418	      0.00000000
      0.07975186	      5.15146624	     -0.03915368	      0.00000000
      0.08103818	      5.16178758	     -0.03446879	      0.00000000
      0.08232450	      5.17178766	     -0.02981301	      0.00000000
      0.08361082	      5.18145209	     -0.02519628	      0.00000000
      0.08489714	      5.19076698	     -0.02063040	      0.00000000
      0.08618346	      5.19972279	     -0.01612204	      0.00000000
      0.08746978	      5.20830994	     -0.01167959	      0.00000000
      0.08875610	      5.21652426	     -0.00730572	      0.00000000
      0.09004242	      5.22436101	     -0.00300455	      0.00000000
      0.09132874	      5.23182082	      0.00122487	      0.00000000
      0.09261506	      5.23890333	      0.00538247	      0.00000000
      0.09390138	      5.24561318	      0.00947175	      0.00000000
      0.09518770	      5.25195385	      0.01349562	      0.00000000
      0.09647402	      5.25793315	      0.01745924	      0.00000000
      0.09776034	      5.26355761	      0.02136767	      0.00000000
      0.09904666	      5.26883758	      0.02522726	      0.00000000
      0.10033298	      5.27378262	      0.02904482	      0.00000000
      0.10161930	      5.27840474	      0.03282795	      0.00000000
      0.10290562	      5.28271452	      0.03658555	      0.00000000
      0.10419194	      5.28672292	      0.04032498	      0.00000000
      0.10547826	      5.29043982	      0.04405508	      0.00000000
      0.10676458	      5.29387432	      0.04778006	      0.00000000
      0.10805090	      5.29703494	      0.05150640	      0.00000000
      0.10933722	      5.29992814	      0.05523268	      0.00000000
      0.11062354	      5.30256028	      0.05896016	      0.00000000
      0.11190986	      5.30493380	      0.06267855	      0.00000000
      0.11319618	      5.30705158	      0.06638101	      0.00000000
      0.11448250	      5.30891154	      0.07004582	      0.00000000
      0.11576882	      5.31051397	      0.07365579	      0.00000000
      0.11705514	      5.31185176	      0.07717413	      0.00000000
      0.11834146	      5.31292036	      0.08056805	      0.00000000
      0.11962778	      5.31370647	      0.08378168	      0.00000000
      0.12091410	      5.31420019	      0.08676135	      0.00000000
      0.12220042	      5.31438416	      0.08943465	      0.00000000
      0.12348674	      5.31424452	      0.09172837	      0.00000000
      0.12477306	      5.31376401	      0.09356616	      0.00000000
      0.12605938	      5.31292769	      0.09486556	      0.00000000
      0.12734570	      5.31172302	      0.09556821	      0.00000000
      0.12863202	      5.31013626	      0.09560272	      0.00000000
      0.12991835	      5.30816443	      0.09495831	      0.00000000
      0.13120467	      5.30580313	      0.09360712	      0.00000000
      0.13249099	      5.30306036	      0.09161513	      0.00000000
      0.13377731	      5.29994556	      0.08903915	      0.00000000
      0.13506363	      5.29645569	      0.08602134	      0.00000000
      0.13634995	      5.29259466	      0.08270788	      0.00000000
      0.13763627	      5.28829844	      0.07924522	      0.00000000
      0.13892259	      5.28351903	      0.07578902	      0.00000000
      0.14020891	      5.27807750	      0.07237129	      0.00000000
      0.14149523	      5.27182129	      0.06903920	      0.00000000
      0.14278155	      5.26442868	      0.06562534	      0.00000000
      0.14406787	      5.25560618	      0.06197335	      0.00000000
      0.14535419	      5.24491144	      0.05770618	      0.00000000
      0.14664051	      5.23192169	      0.05243368	      0.00000000
      0.14792683	      5.21616140	      0.04565838	      0.00000000
      0.14921315	      5.19715221	      0.03682839	      0.00000000
      0.15049947	      5.17450777	      0.02552563	      0.00000000
      0.15178579	      5.14776449	      0.01125088	      0.00000000
      0.15307211	      5.11678526	     -0.00608799	      0.00000000
      0.15435843	      5.08138699	     -0.02665904	      0.00000000
      0.15564475	      5.04184226	     -0.05009396	      0.00000000
      0.15693107	      4.99835158	     -0.07607516	      0.00000000
      0.15821739	      4.95143383	     -0.10388780	      0.00000000
      0.15950371	      4.90154747	     -0.13284949	      0.00000000
      0.16079003	      4.84923071	     -0.16216888	      0.00000000
      0.16207635	      4.79499914	     -0.19107460	      0.00000000
      0.16336267	      4.73927534	     -0.21887489	      0.00000000
      0.16464899	      4.68250228	     -0.24487846	      0.00000000
      0.16593531	      4.62497574	     -0.26845778	      0.00000000
      0.16722163	      4.56704721	     -0.28892273	      0.00000000
      0.16850795	      4.50892301	     -0.30563847	      0.00000000
      0.16979427	      4.45088592	     -0.31779687	      0.00000000
      0.17108059	      4.39304483	     -0.32503099	      0.00000000
      0.17236691	      4.33557412	     -0.32677880	      0.00000000
      0.17365323	      4.27841937	     -0.32360349	      0.00000000
      0.17493955	      4.22154760	     -0.31599338	      0.00000000
      0.17622587	      4.16472647	     -0.30566666	      0.00000000
      0.17751219	      4.10771066	     -0.29433556	      0.00000000
      0.17879851	      4.05021444	     -0.28398152	      0.00000000
      0.18008483	      3.99193703	     -0.27656871	      0.00000000
      0.18137115	      3.93269440	     -0.27311467	      0.00000000
      0.18265748	      3.87230390	     -0.27461987	      0.00000000
      0.18394380	      3.81069049	     -0.28086232	      0.00000000
      0.18523012	      3.74776421	     -0.29190804	      0.00000000
      0.18651644	      3.68343621	     -0.30689016	      0.00000000
      0.18780276	      3.61765256	     -0.32509736	      0.00000000
      0.18908908	      3.55023285	     -0.34522502	      0.00000000
      0.19037540	      3.48110476	     -0.36583777	      0.00000000
      0.19166172	      3.40984132	     -0.38590940	      0.00000000
      0.19294804	      3.33610340	     -0.40465612	      0.00000000
      0.19423436	      3.25902122	     -0.42213046	      0.00000000
      0.19552068	      3.17790961	     -0.43832224	      0.00000000
      0.19680700	      3.09145782	     -0.45337020	      0.00000000
      0.19809332	      2.99882154	     -0.46618397	      0.00000000
      0.19937964	      2.89781968	     -0.47788786	      0.00000000
      0.20066596	      2.78673710	     -0.48940477	      0.00000000
      0.20195228	      2.66121483	     -0.50682386	      0.00000000
      0.20323860	      2.51684997	     -0.53860168	      0.00000000
      0.20452492	      2.34674636	     -0.59174983	      0.00000000
      0.20581124	      2.14194353	     -0.67659125	      0.00000000
      0.20709756	      1.89601833	     -0.78626088	      0.00000000
      0.20838388	      1.59262762	     -0.91739522	      0.00000000
      0.20967020	      1.24233649	     -1.03442115	      0.00000000
      0.21095652	      0.82630702	     -1.12104839	      0.00000000
      0.21224284	      0.39363638	     -1.13731144	      0.00000000
      0.21352916	      0.12816825	     -0.93975015	      0.00000000
      0.21481548	      0.04783104	     -0.63441884	      0.00000000
      0.21610180	      0.02401474	     -0.43792472	      0.00000000
      0.21738812	      0.00747275	     -0.33795773	      0.00000000
      0.21867444	      0.00148587	     -0.28811423	      0.00000000
      0.21996076	      0.00039321	     -0.26478046	      0.00000000
      0.22124708	      0.00059056	     -0.24754958	      0.00000000
      0.22253340	      0.00207524	     -0.23256461	      0.00000000
      0.22381972	      0.00313730	     -0.21410204	      0.00000000
      0.22510604	      0.00430591	     -0.19345819	      0.00000000
      0.22639236	      0.00507534	     -0.17025234	      0.00000000
      0.22767868	      0.00573767	     -0.14569863	      0.00000000
      0.22896500	      0.00617698	     -0.12046881	      0.00000000
      0.23025132	      0.00650852	     -0.09513595	      0.00000000
      0.23153764	      0.00671215	     -0.07027342	      0.00000000
      0.23282396	      0.00682867	     -0.04610898	      0.00000000
      0.23411029	      0.00686243	     -0.02298543	      0.00000000
      0.23539661	      0.00683815	     -0.00099170	      0.00000000
      0.23668293	      0.00673760	      0.01974293	      0.00000000
      0.23796925	      0.00656004	      0.03926553	      0.00000000
      0.23925557	      0.00632217	      0.05750986	      0.00000000
      0.24054189	      0.00602810	      0.07450375	      0.00000000
      0.24182821	      0.00568327	      0.09026596	      0.00000000
      0.24311453	      0.00529017	      0.10486202	      0.00000000
      0.24440085	      0.00485459	      0.11833970	      0.00000000
      0.24568717	      0.00437833	      0.13077090	      0.00000000
      0.24697349	      0.00386716	      0.14221669	      0.00000000
      0.24825981	      0.00332245	      0.15274671	      0.00000000
      0.24954613	      0.00274947	      0.16242478	      0.00000000
      0.25083245	      0.00214946	      0.17131452	      0.00000000
      0.25211877	      0.00152687	      0.17947666	      0.00000000
      0.25340509	      0.00088294	      0.18696717	      0.00000000
      0.25469141	      0.00022123	      0.19384073	      0.00000000
      0.25597773	     -0.00045706	      0.20014529	      0.00000000
      0.25726405	     -0.00114923	      0.20592827	      0.00000000
      0.25855037	     -0.00185427	      0.21123019	      0.00000000
      0.25983669	     -0.00257034	      0.21609154	      0.00000000
      0.26112301	     -0.00329674	      0.22054658	      0.00000000
      0.26240933	     -0.00403241	      0.22462995	      0.00000000
      0.26369565	     -0.00477689	      0.22837029	      0.00000000
      0.26498197	     -0.00552972	      0.23179708	      0.00000000
      0.26626829	     -0.00629026	      0.23493254	      0.00000000
      0.26755461	     -0.00705822	      0.23780039	      0.00000000
      0.26884093	     -0.00783215	      0.24041399	      0.00000000
      0.27012725	     -0.00861117	      0.24278906	      0.00000000
      0.27141357	     -0.00939224	      0.24492663	      0.00000000
      0.27269989	     -0.01017298	      0.24683102	      0.00000000
      0.27398621	     -0.01094809	      0.24848755	      0.00000000
      0.27527253	     -0.01171296	      0.24988549	      0.00000000
      0.27655885	     -0.01245974	      0.25099250	      0.00000000
      0.27784517	     -0.01318118	      0.25178007	      0.00000000
      0.27913149	     -0.01386688	      0.25219904	      0.00000000
      0.28041781	     -0.01450675	      0.25220272	      0.00000000
      0.28170413	     -0.01508822	      0.25173031	      0.00000000
      0.28299045	     -0.01559851	      0.25072066	      0.00000000
      0.28427677	     -0.01602406	      0.24911265	      0.00000000
      0.28556309	     -0.01635052	      0.24684078	      0.00000000
      0.28684942	     -0.01656594	      0.24386129	      0.00000000
      0.28813574	     -0.01665699	      0.24012216	      0.00000000
      0.28942206	     -0.01661705	      0.23561761	      0.00000000
      0.29070838	     -0.01643791	      0.23033170	      0.00000000
      0.29199470	     -0.01612161	      0.22431128	      0.00000000
      0.29328102	     -0.01566873	      0.21759424	      0.00000000
      0.29456734	     -0.01509095	      0.21027718	      0.00000000
      0.29585366	     -0.01439888	      0.20245170	      0.00000000
      0.29713998	     -0.01361131	      0.19423903	      0.00000000
      0.29842630	     -0.01274656	      0.18576022	      0.00000000
      0.29971262	     -0.01182499	      0.17712347	      0.00000000
      0.30099894	     -0.01086710	      0.16844093	      0.00000000
      0.30228526	     -0.00988889	      0.15977876	      0.00000000
      0.30357158	     -0.00890696	      0.15120959	      0.00000000
      0.30485790	     -0.00792982	      0.14275335	      0.00000000
      0.30614422	     -0.00696684	      0.13443678	      0.00000000
      0.30743054	     -0.00602021	      0.12625242	      0.00000000
      0.30871686	     -0.00509288	      0.11819783	      0.00000000
      0.31000318	     -0.00418467	      0.11026395	      0.00000000
      0.31128950	     -0.00329581	      0.10244407	      0.00000000
      0.31257582	     -0.00242740	      0.09474360	      0.00000000
      0.31386214	     -0.00158065	      0.08716846	      0.00000000
      0.31514846	     -0.00075921	      0.07973795	      0.00000000
      0.31643478	      0.00003332	      0.07247165	      0.00000000
      0.31772110	      0.00079214	      0.06538972	      0.00000000
      0.31900742	      0.00151241	      0.05851355	      0.00000000
      0.32029374	      0.00219094	      0.05184907	      0.00000000
      0.32158006	      0.00282423	      0.04540453	      0.00000000
      0.32286638	      0.00341280	      0.03916427	      0.00000000
      0.32415270	      0.00395661	      0.03311513	      0.00000000
      0.32543902	      0.00446003	      0.02722421	      0.00000000
      0.32672534	      0.00492686	      0.02146010	      0.00000000
      0.32801166	      0.00536337	      0.01578554	      0.00000000
      0.32929798	      0.00577575	      0.01016299	      0.00000000
      0.33058430	      0.00616994	      0.00456461	      0.00000000
      0.33187062	      0.00655094	     -0.00103935	      0.00000000
      0.33315694	      0.00692047	     -0.00665826	      0.00000000
      0.33444326	      0.00728177	     -0.01230459	      0.00000000
      0.33572958	      0.00763415	     -0.01797044	      0.00000000
      0.33701590	      0.00797723	     -0.02365033	      0.00000000
      0.33830223	      0.00830738	     -0.02932670	      0.00000000
      0.33958855	      0.00862152	     -0.03498312	      0.00000000
      0.34087487	      0.00891530	     -0.04060341	      0.00000000
      0.34216119	      0.00918462	     -0.04617094	      0.00000000
      0.34344751	      0.00942644	     -0.05167932	      0.00000000
      0.34473383	      0.00963757	     -0.05712062	      0.00000000
      0.34602015	      0.00981734	     -0.06250073	      0.00000000
      0.34730647	      0.00996468	     -0.06782373	      0.00000000
      0.34859279	      0.01008122	     -0.07310434	      0.00000000
      0.34987911	      0.01016810	     -0.07835598	      0.00000000
      0.35116543	      0.01022830	     -0.08359564	      0.00000000
      0.35245175	      0.01026438	     -0.08883988	      0.00000000
      0.35373807	      0.01027960	     -0.09410183	      0.00000000
      0.35502439	      0.01027688	     -0.09939498	      0.00000000
      0.35631071	      0.01025899	     -0.10472583	      0.00000000
      0.35759703	      0.01022851	     -0.11010178	      0.00000000
      0.35888335	      0.01018766	     -0.11552365	      0.00000000
      0.36016967	      0.01013862	     -0.12099390	      0.00000000
      0.36145599	      0.01008344	     -0.12650999	      0.00000000
      0.36274231	      0.01002441	     -0.13207322	      0.00000000
      0.36402863	      0.00996365	     -0.13767505	      0.00000000
      0.36531495	      0.00990383	     -0.14331157	      0.00000000
      0.36660127	      0.00984595	     -0.14895747	      0.00000000
      0.36788759	      0.00979176	     -0.15459083	      0.00000000
      0.36917391	      0.00973836	     -0.16016801	      0.00000000
      0.37046023	      0.00968710	     -0.16569206	      0.00000000
      0.37174655	      0.00963882	     -0.17101942	      0.00000000
      0.37303287	      0.00958434	     -0.17577639	      0.00000000
      0.37431919	      0.00947749	     -0.17998187	      0.00000000
      0.37560551	      0.00927025	     -0.18386395	      0.00000000
      0.37689183	      0.00901618	     -0.18795800	      0.00000000
      0.37817815	      0.00876753	     -0.19272337	      0.00000000
      0.37946447	      0.00860199	     -0.19849857	      0.00000000
      0.38075079	      0.00858154	     -0.20554014	      0.00000000
      0.38203711	      0.00873154	     -0.21402627	      0.00000000
      0.38332343	      0.00908654	     -0.22437885	      0.00000000
      0.38460975	      0.00968315	     -0.23652043	      0.00000000
      0.38589607	      0.01057665	     -0.25042159	      0.00000000
      0.38718239	      0.01172809	     -0.26515572	      0.00000000
      0.38846871	      0.01310388	     -0.27969467	      0.00000000
      0.38975504	      0.01453393	     -0.29285304	      0.00000000
      0.39104136	      0.01586189	     -0.30343905	      0.00000000
      0.39232768	      0.01694323	     -0.31112537	      0.00000000
      0.39361400	      0.01765329	     -0.31559892	      0.00000000
      0.39490032	      0.01800448	     -0.31739365	      0.00000000
      0.39618664	      0.01799903	     -0.31695567	      0.00000000
      0.39747296	      0.01773354	     -0.31493678	      0.00000000
      0.39875928	      0.01727735	     -0.31190709	      0.00000000
      0.40004560	      0.01670708	     -0.30823248	      0.00000000
      0.40133192	      0.01608393	     -0.30427479	      0.00000000
      0.40261824	      0.01544010	     -0.30015472	      0.00000000
      0.40390456	      0.01480695	     -0.29603059	      0.00000000
      0.40519088	      0.01419116	     -0.29192070	      0.00000000
      0.40647720	      0.01360348	     -0.28787747	      0.00000000
      0.40776352	      0.01304261	     -0.28389469	      0.00000000
      0.40904984	      0.01251043	     -0.27998411	      0.00000000
      0.41033616	      0.01200444	     -0.27613633	      0.00000000
      0.41162248	      0.01152368	     -0.27234883	      0.00000000
      0.41290880	      0.01106578	     -0.26861199	      0.00000000
      0.41419512	      0.01062904	     -0.26491822	      0.00000000
      0.41548144	      0.01021134	     -0.26125880	      0.00000000
      0.41676776	      0.00981091	     -0.25762531	      0.00000000
      0.41805408	      0.00942596	     -0.25401133	      0.00000000
      0.41934040	      0.00905493	     -0.25041007	      0.00000000
      0.42062672	      0.00869643	     -0.24681805	      0.00000000
      0.42191304	      0.00834924	     -0.24323118	      0.00000000
      0.42319936	      0.00801237	     -0.23964862	      0.00000000
      0.42448568	      0.00768491	     -0.23606891	      0.00000000
      0.42577200	      0.00736615	     -0.23249306	      0.00000000
      0.42705832	      0.00705545	     -0.22892159	      0.00000000
      0.42834464	      0.00675227	     -0.22535645	      0.00000000
      0.42963096	      0.00645611	     -0.22179929	      0.00000000
      0.43091728	      0.00616651	     -0.21825231	      0.00000000
      0.43220360	      0.00588303	     -0.21471758	      0.00000000
      0.43348992	      0.00560518	     -0.21119710	      0.00000000
      0.43477624	      0.00533252	     -0.20769283	      0.00000000
      0.43606256	      0.00506451	     -0.20420632	      0.00000000
      0.43734888	      0.00480065	     -0.20073918	      0.00000000
      0.43863520	      0.00454034	     -0.19729241	      0.00000000
      0.43992152	      0.00428299	     -0.19386710	      0.00000000
      0.44120784	      0.00402792	     -0.19046377	      0.00000000
      0.44249417	      0.00377447	     -0.18708298	      0.00000000
      0.44378049	      0.00352189	     -0.18372482	      0.00000000
      0.44506681	      0.00326943	     -0.18038940	      0.00000000
      0.44635313	      0.00301625	     -0.17707645	      0.00000000
      0.44763945	      0.00276155	     -0.17378573	      0.00000000
      0.44892577	      0.00250441	     -0.17051673	      0.00000000
      0.45021209	      0.00224396	     -0.16726895	      0.00000000
      0.45149841	      0.00197920	     -0.16404170	      0.00000000
      0.45278473	      0.00170919	     -0.16083431	      0.00000000
      0.45407105	      0.00143288	     -0.15764601	      0.00000000
      0.45535737	      0.00114923	     -0.15447601	      0.00000000
      0.45664369	      0.00085713	     -0.15132353	      0.00000000
      0.45793001	      0.00055549	     -0.14818770	      0.00000000
      0.45921633	      0.00024317	     -0.14506773	      0.00000000
      0.46050265	     -0.00008100	     -0.14196274	      0.00000000
      0.46178897	     -0.00041811	     -0.13887195	      0.00000000
      0.46307529	     -0.00076933	     -0.13579448	      0.00000000
      0.46436161	     -0.00113563	     -0.13272962	      0.00000000
      0.46564793	     -0.00151805	     -0.12967652	      0.00000000
      0.46693425	     -0.00191725	     -0.12663465	      0.00000000
      0.46822057	     -0.00233416	     -0.12360332	      0.00000000
      0.46950689	     -0.00277080	     -0.12058288	      0.00000000
      0.47079321	     -0.00322661	     -0.11757406	      0.00000000
      0.47207953	     -0.00370360	     -0.11457500	      0.00000000
      0.47336585	     -0.00420767	     -0.11158342	      0.00000000
      0.47465217	     -0.00474328	     -0.10859842	      0.00000000
      0.47593849	     -0.00531567	     -0.10561793	      0.00000000
      0.47722481	     -0.00591799	     -0.10264132	      0.00000000
      0.47851113	     -0.00654049	     -0.09966869	      0.00000000
      0.47979745	     -0.00717080	     -0.09670428	      0.00000000
      0.48108377	     -0.00779898	     -0.09375218	      0.00000000
      0.48237009	     -0.00842340	     -0.09081592	      0.00000000
      0.48365641	     -0.00904242	     -0.08789840	      0.00000000
      0.48494273	     -0.00965780	     -0.08500081	      0.00000000
      0.48622905	     -0.01027020	     -0.08212467	      0.00000000
      0.48751537	     -0.01088070	     -0.07927066	      0.00000000
      0.48880169	     -0.01149005	     -0.07643969	      0.00000000
      0.49008801	     -0.01209880	     -0.07363228	      0.00000000
      0.49137433	     -0.01270751	     -0.07084901	      0.00000000
      0.49266065	     -0.01331647	     -0.06809027	      0.00000000
      0.49394698	     -0.01392606	     -0.06535645	      0.00000000
      0.49523330	     -0.01453643	     -0.06264779	      0.00000000
      0.49651962	     -0.01514779	     -0.05996455	      0.00000000
      0.49780594	     -0.01576022	     -0.05730684	      0.00000000
      0.49909226	     -0.01637382	     -0.05467481	      0.00000000
      0.50037858	     -0.01698856	     -0.05206846	      0.00000000
      0.50166490	     -0.01760446	     -0.04948782	      0.00000000
      0.50295122	     -0.01822143	     -0.04693276	      0.00000000
      0.50423754	     -0.01883941	     -0.04440317	      0.00000000
      0.50552386	     -0.01945827	     -0.04189870	      0.00000000
      0.50681018	     -0.02007790	     -0.03941902	      0.00000000
      0.50809650	     -0.02069822	     -0.03696355	      0.00000000
      0.50938282	     -0.02131914	     -0.03453167	      0.00000000
      0.51066914	     -0.02194066	     -0.03212266	      0.00000000
      0.51195546	     -0.02256277	     -0.02973576	      0.00000000
      0.51324178	     -0.02318548	     -0.02737019	      0.00000000
      0.51452810	     -0.02380883	     -0.02502514	      0.00000000
      0.51581442	     -0.02443286	     -0.02269987	      0.00000000
      0.51710074	     -0.02505758	     -0.02039355	      0.00000000
      0.51838706	     -0.02568304	     -0.01810540	      0.00000000
      0.51967338	     -0.02630925	     -0.01583459	      0.00000000
      0.52095970	     -0.02693623	     -0.01358035	      0.00000000
      0.52224602	     -0.02756396	     -0.01134182	      0.00000000
      0.52353234	     -0.02819246	     -0.00911825	      0.00000000
      0.52481866	     -0.02882165	     -0.00690879	      0.00000000
      0.52610498	     -0.02945152	     -0.00471274	      0.00000000
      0.52739130	     -0.03008195	     -0.00252926	      0.00000000
      0.52867762	     -0.03071294	     -0.00035765	      0.00000000
      0.52996394	     -0.03134435	      0.00180293	      0.00000000
      0.53125026	     -0.03197618	      0.00395320	      0.00000000
      0.53253658	     -0.03260835	      0.00609404	      0.00000000
      0.53382290	     -0.03324089	      0.00822621	      0.00000000
      0.53510922	     -0.03387372	      0.01035064	      0.00000000
      0.53639554	     -0.03450689	      0.01246811	      0.00000000
      0.53768186	     -0.03514034	      0.01457961	      0.00000000
      0.53896818	     -0.03577410	      0.01668594	      0.00000000
      0.54025450	     -0.03640811	      0.01878819	      0.00000000
      0.54154082	     -0.03704242	      0.02088718	      0.00000000
      0.54282714	     -0.03767698	      0.02298410	      0.00000000
      0.54411346	     -0.03831186	      0.02507985	      0.00000000
      0.54539979	     -0.03894705	      0.02717577	      0.00000000
      0.54668611	     -0.03958265	      0.02927292	      0.00000000
      0.54797243	     -0.04021874	      0.03137282	      0.00000000
      0.54925875	     -0.04085543	      0.03347671	      0.00000000
      0.55054507	     -0.04149283	      0.03558630	      0.00000000
      0.55183139	     -0.04213100	      0.03770288	      0.00000000
      0.55311771	     -0.04277000	      0.03982830	      0.00000000
      0.55440403	     -0.04340977	      0.04196377	      0.00000000
      0.55569035	     -0.04405028	      0.04411117	      0.00000000
      0.55697667	     -0.04469135	      0.04627163	      0.00000000
      0.55826299	     -0.04533286	      0.04844698	      0.00000000
      0.55954931	     -0.04597459	      0.05063829	      0.00000000
      0.56083563	     -0.04661637	      0.05284733	      0.00000000
      0.56212195	     -0.04725797	      0.05507510	      0.00000000
      0.56340827	     -0.04789919	      0.05732331	      0.00000000
      0.56469459	     -0.04853985	      0.05959286	      0.00000000
      0.56598091	     -0.04917974	      0.06188535	      0.00000000
      0.56726723	     -0.04981882	      0.06420168	      0.00000000
      0.56855355	     -0.05045694	      0.06654338	      0.00000000
      0.56983987	     -0.05109444	      0.06891156	      0.00000000
      0.57112619	     -0.05173140	      0.07130792	      0.00000000
      0.57241251	     -0.05236870	      0.07373411	      0.00000000
      0.57369883	     -0.05300671	      0.07619228	      0.00000000
      0.57498515	     -0.05364665	      0.07868476	      0.00000000
      0.57627147	     -0.05428916	      0.08121470	      0.00000000
      0.57755779	     -0.05493548	      0.08378515	      0.00000000
      0.57884411	     -0.05558778	      0.08640253	      0.00000000
      0.58013043	     -0.05625091	      0.08907346	      0.00000000
      0.58141675	     -0.05692024	      0.09179503	      0.00000000
      0.58270307	     -0.05759427	      0.09456926	      0.00000000
      0.58398939	     -0.05827862	      0.09741007	      0.00000000
      0.58527571	     -0.05897459	      0.10032524	      0.00000000
      0.58656203	     -0.05967875	      0.10331913	      0.00000000
      0.58784835	     -0.06038983	      0.10639607	      0.00000000
      0.58913467	     -0.06110568	      0.10955901	      0.00000000
      0.59042099	     -0.06182923	      0.11281944	      0.00000000
      0.59170731	     -0.06256539	      0.11618637	      0.00000000
      0.59299363	     -0.06332413	      0.11968907	      0.00000000
      0.59427995	     -0.06412624	      0.12335741	      0.00000000
      0.59556627	     -0.06498620	      0.12724556	      0.00000000
      0.59685259	     -0.06593646	      0.13142013	      0.00000000
      0.59813892	     -0.06696588	      0.13594062	      0.00000000
      0.59942524	     -0.06805822	      0.14087851	      0.00000000
      0.60071156	     -0.06918762	      0.14627135	      0.00000000
      0.60199788	     -0.07036479	      0.15219478	      0.00000000
      0.60328420	     -0.07157636	      0.15858128	      0.00000000
      0.60457052	     -0.07276617	      0.16532801	      0.00000000
      0.60585684	     -0.07395611	      0.17237473	      0.00000000
      0.60714316	     -0.07516418	      0.17964268	      0.00000000
      0.60842948	     -0.07635878	      0.18706094	      0.00000000
      0.60971580	     -0.07751972	      0.19458568	      0.00000000
      0.61100212	     -0.07865344	      0.20221967	      0.00000000
      0.61228844	     -0.07976505	      0.20995338	      0.00000000
      0.61357476	     -0.08086526	      0.21779447	      0.00000000
      0.61486108	     -0.08203157	      0.22577774	      0.00000000
      0.61614740	     -0.08318803	      0.23383493	      0.00000000
      0.61743372	     -0.08429777	      0.24187035	      0.00000000
      0.61872004	     -0.08492941	      0.24964393	      0.00000000
      0.62000636	     -0.08449766	      0.25675860	      0.00000000
      0.62129268	     -0.08234953	      0.26308048	      0.00000000
      0.62257900	     -0.07797959	      0.26854545	      0.00000000
      0.62386532	     -0.07140673	      0.27333998	      0.00000000
      0.62515164	     -0.06254378	      0.27753066	      0.00000000
      0.62643796	     -0.05160352	      0.28130723	      0.00000000
      0.62772428	     -0.03879480	      0.28484459	      0.00000000
      0.62901060	     -0.02440880	      0.28838963	      0.00000000
      0.63029692	     -0.00887518	      0.29217989	      0.00000000
      0.63158324	      0.00784970	      0.29649039	      0.00000000
      0.63286956	      0.02500397	      0.30144368	      0.00000000
      0.63415588	      0.04442639	      0.30747930	      0.00000000
      0.63544220	      0.06816989	      0.31477240	      0.00000000
      0.63672852	      0.10158084	      0.32374850	      0.00000000
      0.63801484	      0.15212587	      0.33449046	      0.00000000
      0.63930116	      0.22379504	      0.34692121	      0.00000000
      0.64058748	      0.31679883	      0.36070090	      0.00000000
      0.64187380	      0.42674841	      0.37467990	      0.00000000
      0.64316012	      0.55368156	      0.38805395	      0.00000000
      0.64444644	      0.69590196	      0.39949008	      0.00000000
      0.64573276	      0.85036066	      0.40829055	      0.00000000
      0.64701908	      1.01038808	      0.41390714	      0.00000000
      0.64830540	      1.16968041	      0.41641057	      0.00000000
      0.64959173	      1.32190603	      0.41615817	      0.00000000
      0.65087805	      1.45999665	      0.41368345	      0.00000000
      0.65216437	      1.58182585	      0.40970050	      0.00000000
      0.65345069	      1.68597412	      0.40477269	      0.00000000
      0.65473701	      1.77546499	      0.39942834	      0.00000000
      0.65602333	      1.85227550	      0.39395747	      0.00000000
      0.65730965	      1.91934707	      0.38858024	      0.00000000
      0.65859597	      1.97928689	      0.38340488	      0.00000000
      0.65988229	      2.03394109	      0.37850081	      0.00000000
      0.66116861	      2.08516873	      0.37390342	      0.00000000
      0.66245493	      2.13354720	      0.36962878	      0.00000000
      0.66374125	      2.17964943	      0.36567935	      0.00000000
      0.66502757	      2.22343285	      0.36204708	      0.00000000
      0.66631389	      2.26510251	      0.35872081	      0.00000000
      0.66760021	      2.30494065	      0.35568560	      0.00000000
      0.66888653	      2.34331873	      0.35292584	      0.00000000
      0.67017285	      2.38068247	      0.35042138	      0.00000000
      0.67145917	      2.41749714	      0.34815526	      0.00000000
      0.67274549	      2.45404366	      0.34610417	      0.00000000
      0.67403181	      2.49059233	      0.34424761	      0.00000000
      0.67531813	      2.52714096	      0.34255988	      0.00000000
      0.67660445	      2.56370245	      0.34101516	      0.00000000
      0.67789077	      2.60017486	      0.33958817	      0.00000000
      0.67917709	      2.63648646	      0.33825131	      0.00000000
      0.68046341	      2.67262189	      0.33698447	      0.00000000
      0.68174973	      2.70859135	      0.33576582	      0.00000000
      0.68303605	      2.74446986	      0.33458415	      0.00000000
      0.68432237	      2.78034001	      0.33342814	      0.00000000
      0.68560869	      2.81623696	      0.33229345	      0.00000000
      0.68689501	      2.85220254	      0.33117526	      0.00000000
      0.68818133	      2.88813996	      0.33006816	      0.00000000
      0.68946765	      2.92397122	      0.32896331	      0.00000000
      0.69075397	      2.95946970	      0.32784584	      0.00000000
      0.69204029	      2.99442622	      0.32669295	      0.00000000
      0.69332661	      3.02853934	      0.32547603	      0.00000000
      0.69461293	      3.06151017	      0.32415424	      0.00000000
      0.69589925	      3.09304494	      0.32268668	      0.00000000
      0.69718557	      3.12280995	      0.32101614	      0.00000000
      0.69847189	      3.15063867	      0.31909776	      0.00000000
      0.69975821	      3.17633545	      0.31687599	      0.00000000
      0.70104454	      3.20000623	      0.31432362	      0.00000000
      0.70233086	      3.22173448	      0.31141350	      0.00000000
      0.70361718	      3.24185500	      0.30814871	      0.00000000
      0.70490350	      3.26067811	      0.30454158	      0.00000000
      0.70618982	      3.27857531	      0.30061864	      0.00000000
      0.70747614	      3.29590397	      0.29641925	      0.00000000
      0.70876246	      3.31291656	      0.29197547	      0.00000000
      0.71004878	      3.32987601	      0.28733134	      0.00000000
      0.71133510	      3.34688257	      0.28251031	      0.00000000
      0.71262142	      3.36406174	      0.27754427	      0.00000000
      0.71390774	      3.38140241	      0.27244329	      0.00000000
      0.71519406	      3.39891477	      0.26722132	      0.00000000
      0.71648038	      3.41653732	      0.26187849	      0.00000000
      0.71776670	      3.43422135	      0.25641547	      0.00000000
      0.71905302	      3.45191318	      0.25083057	      0.00000000
      0.72033934	      3.46956321	      0.24512108	      0.00000000
      0.72162566	      3.48715592	      0.23929019	      0.00000000
      0.72291198	      3.50467385	      0.23334009	      0.00000000
      0.72419830	      3.52213692	      0.22728059	      0.00000000
      0.72548462	      3.53956118	      0.22112128	      0.00000000
      0.72677094	      3.55697967	      0.21487559	      0.00000000
      0.72805726	      3.57442307	      0.20855764	      0.00000000
      0.72934358	      3.59191466	      0.20217946	      0.00000000
      0.73062990	      3.60947807	      0.19575439	      0.00000000
      0.73191622	      3.62711572	      0.18928888	      0.00000000
      0.73320254	      3.64483212	      0.18279073	      0.00000000
      0.73448886	      3.66261165	      0.17625855	      0.00000000
      0.73577518	      3.68044089	      0.16969151	      0.00000000
      0.73706150	      3.69829785	      0.16308079	      0.00000000
      0.73834782	      3.71616138	      0.15641729	      0.00000000
      0.73963414	      3.73401563	      0.14968861	      0.00000000
      0.74092046	      3.75184365	      0.14288119	      0.00000000
      0.74220678	      3.76964351	      0.13598462	      0.00000000
      0.74349310	      3.78741092	      0.12898704	      0.00000000
      0.74477942	      3.80515939	      0.12188511	      0.00000000
      0.74606574	      3.82290000	      0.11467455	      0.00000000
      0.74735206	      3.84065697	      0.10736062	      0.00000000
      0.74863838	      3.85845269	      0.09994773	      0.00000000
      0.74992470	      3.87631375	      0.09244681	      0.00000000
      0.75121102	      3.89426563	      0.08486837	      0.00000000
      0.75249734	      3.91233071	      0.07722596	      0.00000000
      0.75378367	      3.93053221	      0.06953348	      0.00000000
      0.75506999	      3.94888608	      0.06180552	      0.00000000
      0.75635631	      3.96741265	      0.05405824	      0.00000000
      0.75764263	      3.98611696	      0.04630540	      0.00000000
      0.75892895	      4.00501053	      0.03856321	      0.00000000
      0.76021527	      4.02407470	      0.03083919	      0.00000000
      0.76150159	      4.04329384	      0.02314077	      0.00000000
      0.76278791	      4.06261820	      0.01546392	      0.00000000
      0.76407423	      4.08199866	      0.00780184	      0.00000000
      0.76536055	      4.10137433	      0.00014592	      0.00000000
      0.76664687	      4.12068703	     -0.00751349	      0.00000000
      0.76793319	      4.13989475	     -0.01517530	      0.00000000
      0.76921951	      4.15895879	     -0.02282964	      0.00000000
      0.77050583	      4.17786230	     -0.03047224	      0.00000000
      0.77179215	      4.19665961	     -0.03803874	      0.00000000
