PointVelocity
version=1
nRows=601
nColumns=4
inDegrees=no
No description.
endheader
time	state_0	state_1	state_2
      0.00000000	      1.82018746	     -0.07181517	      0.00000000
      0.00170729	      1.78174581	     -0.08152041	      0.00000000
      0.00341459	      1.74119280	     -0.09267900	      0.00000000
      0.00512188	      1.69670374	     -0.10607466	      0.00000000
      0.00682918	      1.64817011	     -0.12179012	      0.00000000
      0.00853647	      1.59431985	     -0.14057238	      0.00000000
      0.01024377	      1.53428345	     -0.16291619	      0.00000000
      0.01195106	      1.46661316	     -0.18892328	      0.00000000
      0.01365836	      1.38991628	     -0.21874358	      0.00000000
      0.01536565	      1.30252255	     -0.25188107	      0.00000000
      0.01707295	      1.20237857	     -0.28826910	      0.00000000
      0.01878024	      1.08827244	     -0.32652206	      0.00000000
      0.02048754	      0.95779290	     -0.36603531	      0.00000000
      0.02219483	      0.81270449	     -0.40233778	      0.00000000
      0.02390213	      0.65297240	     -0.43034516	      0.00000000
      0.02560942	      0.48723149	     -0.44357577	      0.00000000
      0.02731671	      0.31511052	     -0.43953743	      0.00000000
      0.02902401	      0.16280891	     -0.40637843	      0.00000000
      0.03073130	      0.08667169	     -0.32274539	      0.00000000
      0.03243860	      0.06210501	     -0.23903690	      0.00000000
      0.03414589	      0.04366128	     -0.19995787	      0.00000000
      0.03585319	      0.02961997	     -0.18124243	      0.00000000
      0.03756048	      0.02014109	     -0.17355764	      0.00000000
      0.03926778	      0.01384720	     -0.17365725	      0.00000000
      0.04097507	      0.01006484	     -0.17610905	      0.00000000
      0.04268237	      0.00784685	     -0.18008016	      0.00000000
      0.04438966	      0.00654704	     -0.18341268	      0.00000000
      0.04609696	      0.00594727	     -0.18605347	      0.00000000
      0.04780425	      0.00576593	     -0.18730203	      0.00000000
      0.04951154	      0.00595207	     -0.18731164	      0.00000000
      0.05121884	      0.00637715	     -0.18593623	      0.00000000
      0.05292613	      0.00700639	     -0.18335123	      0.00000000
      0.05463343	      0.00776680	     -0.17960050	      0.00000000
      0.05634072	      0.00862776	     -0.17488418	      0.00000000
      0.05804802	      0.00953922	     -0.16938922	      0.00000000
      0.05975531	      0.01047348	     -0.16334538	      0.00000000
      0.06146261	      0.01139456	     -0.15693139	      0.00000000
      0.06316990	      0.01229983	     -0.15021643	      0.00000000
      0.06487720	      0.01319331	     -0.14328096	      0.00000000
      0.06658449	      0.01407766	     -0.13621578	      0.00000000
      0.06829179	      0.01494911	     -0.12912353	      0.00000000
      0.06999908	      0.01580004	     -0.12209141	      0.00000000
      0.07170638	      0.01662517	     -0.11521184	      0.00000000
      0.07341367	      0.01741755	     -0.10854115	      0.00000000
      0.07512096	      0.01817381	     -0.10214560	      0.00000000
      0.07682826	      0.01888932	     -0.09605195	      0.00000000
      0.07853555	      0.01956237	     -0.09029818	      0.00000000
      0.08024285	      0.02018976	     -0.08488952	      0.00000000
      0.08195014	      0.02077036	     -0.07984031	      0.00000000
      0.08365744	      0.02130302	     -0.07514392	      0.00000000
      0.08536473	      0.02178859	     -0.07080120	      0.00000000
      0.08707203	      0.02222797	     -0.06679969	      0.00000000
      0.08877932	      0.02262379	     -0.06313214	      0.00000000
      0.09048662	      0.02297737	     -0.05978182	      0.00000000
      0.09219391	      0.02329097	     -0.05673445	      0.00000000
      0.09390121	      0.02356573	     -0.05397266	      0.00000000
      0.09560850	      0.02380341	     -0.05148102	      0.00000000
      0.09731579	      0.02400582	     -0.04924425	      0.00000000
      0.09902309	      0.02417519	     -0.04724843	      0.00000000
      0.10073038	      0.02431392	     -0.04548008	      0.00000000
      0.10243768	      0.02442451	     -0.04392627	      0.00000000
      0.10414497	      0.02450939	     -0.04257482	      0.00000000
      0.10585227	      0.02457094	     -0.04141381	      0.00000000
      0.10755956	      0.02461150	     -0.04043249	      0.00000000
      0.10926686	      0.02463323	     -0.03962025	      0.00000000
      0.11097415	      0.02463859	     -0.03896776	      0.00000000
      0.11268145	      0.02462989	     -0.03846605	      0.00000000
      0.11438874	      0.02460977	     -0.03810601	      0.00000000
      0.11609604	      0.02458080	     -0.03787908	      0.00000000
      0.11780333	      0.02454544	     -0.03777445	      0.00000000
      0.11951063	      0.02450612	     -0.03778163	      0.00000000
      0.12121792	      0.02446453	     -0.03788797	      0.00000000
      0.12292521	      0.02442245	     -0.03808080	      0.00000000
      0.12463251	      0.02438059	     -0.03834745	      0.00000000
      0.12633980	      0.02433985	     -0.03867509	      0.00000000
      0.12804710	      0.02430029	     -0.03905246	      0.00000000
      0.12975439	      0.02426218	     -0.03946810	      0.00000000
      0.13146169	      0.02422541	     -0.03991181	      0.00000000
      0.13316898	      0.02418995	     -0.04037287	      0.00000000
      0.13487628	      0.02415554	     -0.04084260	      0.00000000
      0.13658357	      0.02412207	     -0.04131188	      0.00000000
      0.13829087	      0.02408923	     -0.04177344	      0.00000000
      0.13999816	      0.02405678	     -0.04221947	      0.00000000
      0.14170546	      0.02402428	     -0.04264369	      0.00000000
      0.14341275	      0.02399131	     -0.04303903	      0.00000000
      0.14512005	      0.02395726	     -0.04340141	      0.00000000
      0.14682734	      0.02392164	     -0.04372611	      0.00000000
      0.14853463	      0.02388403	     -0.04401171	      0.00000000
      0.15024193	      0.02384404	     -0.04425627	      0.00000000
      0.15194922	      0.02380146	     -0.04446016	      0.00000000
      0.15365652	      0.02375603	     -0.04462329	      0.00000000
      0.15536381	      0.02370762	     -0.04474687	      0.00000000
      0.15707111	      0.02365602	     -0.04483184	      0.00000000
      0.15877840	      0.02360112	     -0.04487949	      0.00000000
      0.16048570	      0.02354277	     -0.04489104	      0.00000000
      0.16219299	      0.02348084	     -0.04486734	      0.00000000
      0.16390029	      0.02341519	     -0.04480920	      0.00000000
      0.16560758	      0.02334557	     -0.04471708	      0.00000000
      0.16731488	      0.02327178	     -0.04459130	      0.00000000
      0.16902217	      0.02319341	     -0.04443245	      0.00000000
      0.17072946	      0.02311012	     -0.04424100	      0.00000000
      0.17243676	      0.02302134	     -0.04401824	      0.00000000
      0.17414405	      0.02292655	     -0.04376536	      0.00000000
      0.17585135	      0.02282497	     -0.04348431	      0.00000000
      0.17755864	      0.02271584	     -0.04317697	      0.00000000
      0.17926594	      0.02259800	     -0.04284526	      0.00000000
      0.18097323	      0.02247026	     -0.04249112	      0.00000000
      0.18268053	      0.02233104	     -0.04211583	      0.00000000
      0.18438782	      0.02217856	     -0.04172070	      0.00000000
      0.18609512	      0.02201105	     -0.04130627	      0.00000000
      0.18780241	      0.02182637	     -0.04087306	      0.00000000
      0.18950971	      0.02162335	     -0.04042118	      0.00000000
      0.19121700	      0.02140041	     -0.03995067	      0.00000000
      0.19292430	      0.02115808	     -0.03946177	      0.00000000
      0.19463159	      0.02089659	     -0.03895474	      0.00000000
      0.19633888	      0.02061841	     -0.03843021	      0.00000000
      0.19804618	      0.02032592	     -0.03788864	      0.00000000
      0.19975347	      0.02002283	     -0.03733152	      0.00000000
      0.20146077	      0.01971195	     -0.03675993	      0.00000000
      0.20316806	      0.01939548	     -0.03617491	      0.00000000
      0.20487536	      0.01907627	     -0.03557831	      0.00000000
      0.20658265	      0.01875512	     -0.03497127	      0.00000000
      0.20828995	      0.01843279	     -0.03435430	      0.00000000
      0.20999724	      0.01810913	     -0.03372821	      0.00000000
      0.21170454	      0.01778421	     -0.03309416	      0.00000000
      0.21341183	      0.01745765	     -0.03245350	      0.00000000
      0.21511913	      0.01712920	     -0.03180721	      0.00000000
      0.21682642	      0.01679877	     -0.03115603	      0.00000000
      0.21853371	      0.01646622	     -0.03050093	      0.00000000
      0.22024101	      0.01613146	     -0.02984346	      0.00000000
      0.22194830	      0.01579441	     -0.02918505	      0.00000000
      0.22365560	      0.01545533	     -0.02852651	      0.00000000
      0.22536289	      0.01511436	     -0.02786877	      0.00000000
      0.22707019	      0.01477177	     -0.02721219	      0.00000000
      0.22877748	      0.01442775	     -0.02655718	      0.00000000
      0.23048478	      0.01408246	     -0.02590391	      0.00000000
      0.23219207	      0.01373607	     -0.02525251	      0.00000000
      0.23389937	      0.01338871	     -0.02460325	      0.00000000
      0.23560666	      0.01304054	     -0.02395636	      0.00000000
      0.23731396	      0.01269167	     -0.02331242	      0.00000000
      0.23902125	      0.01234222	     -0.02267194	      0.00000000
      0.24072855	      0.01199233	     -0.02203561	      0.00000000
      0.24243584	      0.01164210	     -0.02140409	      0.00000000
      0.24414313	      0.01129167	     -0.02077789	      0.00000000
      0.24585043	      0.01094112	     -0.02015757	      0.00000000
      0.24755772	      0.01059056	     -0.01954333	      0.00000000
      0.24926502	      0.01024005	     -0.01893540	      0.00000000
      0.25097231	      0.00988963	     -0.01833378	      0.00000000
      0.25267961	      0.00953932	     -0.01773843	      0.00000000
      0.25438690	      0.00918909	     -0.01714934	      0.00000000
      0.25609420	      0.00883894	     -0.01656648	      0.00000000
      0.25780149	      0.00848882	     -0.01599003	      0.00000000
      0.25950879	      0.00813870	     -0.01542022	      0.00000000
      0.26121608	      0.00778854	     -0.01485748	      0.00000000
      0.26292338	      0.00743831	     -0.01430223	      0.00000000
      0.26463067	      0.00708802	     -0.01375480	      0.00000000
      0.26633797	      0.00673768	     -0.01321556	      0.00000000
      0.26804526	      0.00638734	     -0.01268453	      0.00000000
      0.26975255	      0.00603703	     -0.01216185	      0.00000000
      0.27145985	      0.00568668	     -0.01164735	      0.00000000
      0.27316714	      0.00533624	     -0.01114072	      0.00000000
      0.27487444	      0.00498577	     -0.01064159	      0.00000000
      0.27658173	      0.00463530	     -0.01014980	      0.00000000
      0.27828903	      0.00428472	     -0.00966569	      0.00000000
      0.27999632	      0.00393405	     -0.00918952	      0.00000000
      0.28170362	      0.00358321	     -0.00872158	      0.00000000
      0.28341091	      0.00323191	     -0.00826213	      0.00000000
      0.28511821	      0.00288062	     -0.00781155	      0.00000000
      0.28682550	      0.00252950	     -0.00736976	      0.00000000
      0.28853280	      0.00217812	     -0.00693578	      0.00000000
      0.29024009	      0.00182657	     -0.00650937	      0.00000000
      0.29194738	      0.00147488	     -0.00609077	      0.00000000
      0.29365468	      0.00112299	     -0.00567983	      0.00000000
      0.29536197	      0.00077091	     -0.00527645	      0.00000000
      0.29706927	      0.00041864	     -0.00488057	      0.00000000
      0.29877656	      0.00006612	     -0.00449218	      0.00000000
      0.30048386	     -0.00028668	     -0.00411127	      0.00000000
      0.30219115	     -0.00063981	     -0.00373792	      0.00000000
      0.30389845	     -0.00099329	     -0.00337225	      0.00000000
      0.30560574	     -0.00134716	     -0.00301445	      0.00000000
      0.30731304	     -0.00170143	     -0.00266475	      0.00000000
      0.30902033	     -0.00205609	     -0.00232323	      0.00000000
      0.31072763	     -0.00241113	     -0.00199003	      0.00000000
      0.31243492	     -0.00276654	     -0.00166509	      0.00000000
      0.31414222	     -0.00312230	     -0.00134839	      0.00000000
      0.31584951	     -0.00347842	     -0.00103986	      0.00000000
      0.31755680	     -0.00383491	     -0.00073947	      0.00000000
      0.31926410	     -0.00419179	     -0.00044728	      0.00000000
      0.32097139	     -0.00454908	     -0.00016336	      0.00000000
      0.32267869	     -0.00490678	      0.00011213	      0.00000000
      0.32438598	     -0.00526491	      0.00037903	      0.00000000
      0.32609328	     -0.00562344	      0.00063720	      0.00000000
      0.32780057	     -0.00598239	      0.00088654	      0.00000000
      0.32950787	     -0.00634174	      0.00112701	      0.00000000
      0.33121516	     -0.00670149	      0.00135856	      0.00000000
      0.33292246	     -0.00706164	      0.00158130	      0.00000000
      0.33462975	     -0.00742219	      0.00179535	      0.00000000
      0.33633705	     -0.00778313	      0.00200098	      0.00000000
      0.33804434	     -0.00814450	      0.00219852	      0.00000000
      0.33975164	     -0.00850635	      0.00238830	      0.00000000
      0.34145893	     -0.00886875	      0.00257074	      0.00000000
      0.34316622	     -0.00923178	      0.00274605	      0.00000000
      0.34487352	     -0.00959553	      0.00291450	      0.00000000
      0.34658081	     -0.00996007	      0.00307612	      0.00000000
      0.34828811	     -0.01032548	      0.00323094	      0.00000000
      0.34999540	     -0.01069180	      0.00337897	      0.00000000
      0.35170270	     -0.01105908	      0.00352021	      0.00000000
      0.35340999	     -0.01142735	      0.00365482	      0.00000000
      0.35511729	     -0.01179667	      0.00378302	      0.00000000
      0.35682458	     -0.01216710	      0.00390514	      0.00000000
      0.35853188	     -0.01253868	      0.00402157	      0.00000000
      0.36023917	     -0.01291148	      0.00413259	      0.00000000
      0.36194647	     -0.01328557	      0.00423847	      0.00000000
      0.36365376	     -0.01366098	      0.00433941	      0.00000000
      0.36536105	     -0.01403778	      0.00443560	      0.00000000
      0.36706835	     -0.01441599	      0.00452719	      0.00000000
      0.36877564	     -0.01479569	      0.00461437	      0.00000000
      0.37048294	     -0.01517692	      0.00469736	      0.00000000
      0.37219023	     -0.01555975	      0.00477638	      0.00000000
      0.37389753	     -0.01594426	      0.00485167	      0.00000000
      0.37560482	     -0.01633052	      0.00492346	      0.00000000
      0.37731212	     -0.01671860	      0.00499204	      0.00000000
      0.37901941	     -0.01710856	      0.00505767	      0.00000000
      0.38072671	     -0.01750045	      0.00512063	      0.00000000
      0.38243400	     -0.01789433	      0.00518119	      0.00000000
      0.38414130	     -0.01829024	      0.00523959	      0.00000000
      0.38584859	     -0.01868822	      0.00529609	      0.00000000
      0.38755589	     -0.01908831	      0.00535085	      0.00000000
      0.38926318	     -0.01949056	      0.00540406	      0.00000000
      0.39097047	     -0.01989499	      0.00545586	      0.00000000
      0.39267777	     -0.02030164	      0.00550636	      0.00000000
      0.39438506	     -0.02071054	      0.00555580	      0.00000000
      0.39609236	     -0.02112173	      0.00560441	      0.00000000
      0.39779965	     -0.02153524	      0.00565259	      0.00000000
      0.39950695	     -0.02195110	      0.00570071	      0.00000000
      0.40121424	     -0.02236938	      0.00574930	      0.00000000
      0.40292154	     -0.02279011	      0.00579885	      0.00000000
      0.40462883	     -0.02321337	      0.00584995	      0.00000000
      0.40633613	     -0.02363919	      0.00590317	      0.00000000
      0.40804342	     -0.02406765	      0.00595906	      0.00000000
      0.40975072	     -0.02449879	      0.00601820	      0.00000000
      0.41145801	     -0.02493267	      0.00608110	      0.00000000
      0.41316530	     -0.02536935	      0.00614829	      0.00000000
      0.41487260	     -0.02580884	      0.00622025	      0.00000000
      0.41657989	     -0.02625120	      0.00629750	      0.00000000
      0.41828719	     -0.02669645	      0.00638055	      0.00000000
      0.41999448	     -0.02714465	      0.00646996	      0.00000000
      0.42170178	     -0.02759585	      0.00656627	      0.00000000
      0.42340907	     -0.02805011	      0.00667009	      0.00000000
      0.42511637	     -0.02850754	      0.00678200	      0.00000000
      0.42682366	     -0.02896824	      0.00690266	      0.00000000
      0.42853096	     -0.02943234	      0.00703262	      0.00000000
      0.43023825	     -0.02989998	      0.00717255	      0.00000000
      0.43194555	     -0.03037134	      0.00732308	      0.00000000
      0.43365284	     -0.03084658	      0.00748493	      0.00000000
      0.43536014	     -0.03132590	      0.00765883	      0.00000000
      0.43706743	     -0.03180952	      0.00784561	      0.00000000
      0.43877472	     -0.03229769	      0.00804612	      0.00000000
      0.44048202	     -0.03279065	      0.00826133	      0.00000000
      0.44218931	     -0.03328872	      0.00849214	      0.00000000
      0.44389661	     -0.03379220	      0.00873961	      0.00000000
      0.44560390	     -0.03430148	      0.00900461	      0.00000000
      0.44731120	     -0.03481693	      0.00928821	      0.00000000
      0.44901849	     -0.03533897	      0.00959126	      0.00000000
      0.45072579	     -0.03586801	      0.00991481	      0.00000000
      0.45243308	     -0.03640450	      0.01025979	      0.00000000
      0.45414038	     -0.03694884	      0.01062744	      0.00000000
      0.45584767	     -0.03750154	      0.01101859	      0.00000000
      0.45755497	     -0.03806304	      0.01143445	      0.00000000
      0.45926226	     -0.03863381	      0.01187551	      0.00000000
      0.46096956	     -0.03921427	      0.01234265	      0.00000000
      0.46267685	     -0.03980477	      0.01283610	      0.00000000
      0.46438414	     -0.04040564	      0.01335663	      0.00000000
      0.46609144	     -0.04101722	      0.01390438	      0.00000000
      0.46779873	     -0.04163981	      0.01448011	      0.00000000
      0.46950603	     -0.04227377	      0.01508385	      0.00000000
      0.47121332	     -0.04291940	      0.01571617	      0.00000000
      0.47292062	     -0.04357693	      0.01637744	      0.00000000
      0.47462791	     -0.04424657	      0.01706854	      0.00000000
      0.47633521	     -0.04492836	      0.01779086	      0.00000000
      0.47804250	     -0.04562232	      0.01854641	      0.00000000
      0.47974980	     -0.04632842	      0.01933756	      0.00000000
      0.48145709	     -0.04704647	      0.02016745	      0.00000000
      0.48316439	     -0.04777653	      0.02103881	      0.00000000
      0.48487168	     -0.04851826	      0.02195530	      0.00000000
      0.48657897	     -0.04927189	      0.02291985	      0.00000000
      0.48828627	     -0.05003708	      0.02393654	      0.00000000
      0.48999356	     -0.05081416	      0.02500946	      0.00000000
      0.49170086	     -0.05160296	      0.02614403	      0.00000000
      0.49340815	     -0.05240372	      0.02734689	      0.00000000
      0.49511545	     -0.05321645	      0.02862611	      0.00000000
      0.49682274	     -0.05404138	      0.02999121	      0.00000000
      0.49853004	     -0.05487859	      0.03145298	      0.00000000
      0.50023733	     -0.05572832	      0.03302332	      0.00000000
      0.50194463	     -0.05659087	      0.03471533	      0.00000000
      0.50365192	     -0.05746640	      0.03654297	      0.00000000
      0.50535922	     -0.05835571	      0.03852241	      0.00000000
      0.50706651	     -0.05925960	      0.04066607	      0.00000000
      0.50877381	     -0.06017941	      0.04298820	      0.00000000
      0.51048110	     -0.06111518	      0.04549430	      0.00000000
      0.51218839	     -0.06206692	      0.04819078	      0.00000000
      0.51389569	     -0.06303209	      0.05107782	      0.00000000
      0.51560298	     -0.06400854	      0.05415572	      0.00000000
      0.51731028	     -0.06499429	      0.05742469	      0.00000000
      0.51901757	     -0.06598628	      0.06088563	      0.00000000
      0.52072487	     -0.06698380	      0.06454881	      0.00000000
      0.52243216	     -0.06798540	      0.06842379	      0.00000000
      0.52413946	     -0.06899059	      0.07254088	      0.00000000
      0.52584675	     -0.07000124	      0.07693082	      0.00000000
      0.52755405	     -0.07101557	      0.08164911	      0.00000000
      0.52926134	     -0.07203667	      0.08675749	      0.00000000
      0.53096864	     -0.07306065	      0.09232349	      0.00000000
      0.53267593	     -0.07409023	      0.09842071	      0.00000000
      0.53438322	     -0.07512143	      0.10509769	      0.00000000
      0.53609052	     -0.07615423	      0.11240256	      0.00000000
      0.53779781	     -0.07718898	      0.12036185	      0.00000000
      0.53950511	     -0.07820014	      0.12894313	      0.00000000
      0.54121240	     -0.07903744	      0.13772224	      0.00000000
      0.54291970	     -0.07970964	      0.14653657	      0.00000000
      0.54462699	     -0.08042656	      0.15593265	      0.00000000
      0.54633429	     -0.08123403	      0.16612668	      0.00000000
      0.54804158	     -0.08203604	      0.17695109	      0.00000000
      0.54974888	     -0.08281190	      0.18835482	      0.00000000
      0.55145617	     -0.08351831	      0.20026115	      0.00000000
      0.55316347	     -0.08414234	      0.21261674	      0.00000000
      0.55487076	     -0.08467650	      0.22546777	      0.00000000
      0.55657806	     -0.08517267	      0.23875477	      0.00000000
      0.55828535	     -0.08549566	      0.25255342	      0.00000000
      0.55999264	     -0.08621977	      0.26661858	      0.00000000
      0.56169994	     -0.08618096	      0.28166056	      0.00000000
      0.56340723	     -0.08712349	      0.29751280	      0.00000000
      0.56511453	     -0.08425964	      0.31616165	      0.00000000
      0.56682182	     -0.05850769	      0.34255687	      0.00000000
      0.56852912	      0.00980584	      0.37963072	      0.00000000
      0.57023641	      0.11831101	      0.42395293	      0.00000000
      0.57194371	      0.23807567	      0.46685393	      0.00000000
      0.57365100	      0.35690586	      0.50549531	      0.00000000
      0.57535830	      0.47149012	      0.53944514	      0.00000000
      0.57706559	      0.57451695	      0.56777082	      0.00000000
      0.57877289	      0.66518272	      0.59094082	      0.00000000
      0.58048018	      0.74220703	      0.60925761	      0.00000000
      0.58218748	      0.80854964	      0.62373275	      0.00000000
      0.58389477	      0.86661759	      0.63507743	      0.00000000
      0.58560206	      0.91880755	      0.64394817	      0.00000000
      0.58730936	      0.96686909	      0.65077806	      0.00000000
      0.58901665	      1.01145449	      0.65581974	      0.00000000
      0.59072395	      1.05332140	      0.65929968	      0.00000000
      0.59243124	      1.09273834	      0.66137116	      0.00000000
      0.59413854	      1.13018011	      0.66219761	      0.00000000
      0.59584583	      1.16598068	      0.66191428	      0.00000000
      0.59755313	      1.20055526	      0.66065583	      0.00000000
      0.59926042	      1.23417761	      0.65852759	      0.00000000
      0.60096772	      1.26715354	      0.65563356	      0.00000000
      0.60267501	      1.29960052	      0.65204547	      0.00000000
      0.60438231	      1.33166051	      0.64783782	      0.00000000
      0.60608960	      1.36331877	      0.64305932	      0.00000000
      0.60779689	      1.39458785	      0.63776439	      0.00000000
      0.60950419	      1.42539740	      0.63199077	      0.00000000
      0.61121148	      1.45569453	      0.62578136	      0.00000000
      0.61291878	      1.48540681	      0.61916886	      0.00000000
      0.61462607	      1.51446368	      0.61218896	      0.00000000
      0.61633337	      1.54282101	      0.60487139	      0.00000000
      0.61804066	      1.57042769	      0.59724684	      0.00000000
      0.61974796	      1.59728893	      0.58934280	      0.00000000
      0.62145525	      1.62340100	      0.58118633	      0.00000000
      0.62316255	      1.64882133	      0.57280234	      0.00000000
      0.62486984	      1.67359967	      0.56421457	      0.00000000
      0.62657714	      1.69782471	      0.55544434	      0.00000000
      0.62828443	      1.72158056	      0.54651165	      0.00000000
      0.62999173	      1.74495516	      0.53743369	      0.00000000
      0.63169902	      1.76803617	      0.52822683	      0.00000000
      0.63340631	      1.79088607	      0.51890392	      0.00000000
      0.63511361	      1.81357148	      0.50947740	      0.00000000
      0.63682090	      1.83612079	      0.49995638	      0.00000000
      0.63852820	      1.85856898	      0.49035005	      0.00000000
      0.64023549	      1.88091372	      0.48066487	      0.00000000
      0.64194279	      1.90315544	      0.47090737	      0.00000000
      0.64365008	      1.92527720	      0.46108261	      0.00000000
      0.64535738	      1.94727435	      0.45119585	      0.00000000
      0.64706467	      1.96913596	      0.44125196	      0.00000000
      0.64877197	      1.99093844	      0.43125769	      0.00000000
      0.65047926	      2.01251624	      0.42121302	      0.00000000
      0.65218656	      2.03355209	      0.41110130	      0.00000000
      0.65389385	      2.05440991	      0.40090867	      0.00000000
      0.65560114	      2.07539662	      0.39065933	      0.00000000
      0.65730844	      2.09624952	      0.38039622	      0.00000000
      0.65901573	      2.11680915	      0.37012208	      0.00000000
      0.66072303	      2.13701944	      0.35982695	      0.00000000
      0.66243032	      2.15693272	      0.34951779	      0.00000000
      0.66413762	      2.17669595	      0.33920112	      0.00000000
      0.66584491	      2.19633559	      0.32888044	      0.00000000
      0.66755221	      2.21583349	      0.31855633	      0.00000000
      0.66925950	      2.23518487	      0.30823003	      0.00000000
      0.67096680	      2.25439003	      0.29790290	      0.00000000
      0.67267409	      2.27345551	      0.28757648	      0.00000000
      0.67438139	      2.29240007	      0.27725296	      0.00000000
      0.67608868	      2.31124236	      0.26693443	      0.00000000
      0.67779598	      2.33000074	      0.25662308	      0.00000000
      0.67950327	      2.34869223	      0.24632105	      0.00000000
      0.68121056	      2.36732675	      0.23603037	      0.00000000
      0.68291786	      2.38591904	      0.22575330	      0.00000000
      0.68462515	      2.40446830	      0.21549165	      0.00000000
      0.68633245	      2.42297557	      0.20524717	      0.00000000
      0.68803974	      2.44142157	      0.19502081	      0.00000000
      0.68974704	      2.45978196	      0.18481278	      0.00000000
      0.69145433	      2.47803671	      0.17462382	      0.00000000
      0.69316163	      2.49617078	      0.16445455	      0.00000000
      0.69486892	      2.51418799	      0.15430723	      0.00000000
      0.69657622	      2.53209280	      0.14418405	      0.00000000
      0.69828351	      2.54989652	      0.13408818	      0.00000000
      0.69999081	      2.56760947	      0.12402279	      0.00000000
      0.70169810	      2.58523363	      0.11399098	      0.00000000
      0.70340540	      2.60277175	      0.10399583	      0.00000000
      0.70511269	      2.62021178	      0.09403970	      0.00000000
      0.70681998	      2.63754118	      0.08412454	      0.00000000
      0.70852728	      2.65474052	      0.07425197	      0.00000000
      0.71023457	      2.67179014	      0.06442311	      0.00000000
      0.71194187	      2.68867887	      0.05464010	      0.00000000
      0.71364916	      2.70539737	      0.04490493	      0.00000000
      0.71535646	      2.72194718	      0.03522097	      0.00000000
      0.71706375	      2.73832779	      0.02559131	      0.00000000
      0.71877105	      2.75454388	      0.01601986	      0.00000000
      0.72047834	      2.77059685	      0.00651017	      0.00000000
      0.72218564	      2.78649398	     -0.00293332	      0.00000000
      0.72389293	      2.80224279	     -0.01230598	      0.00000000
      0.72560023	      2.81785610	     -0.02160233	      0.00000000
      0.72730752	      2.83334820	     -0.03081633	      0.00000000
      0.72901481	      2.84872945	     -0.03994227	      0.00000000
      0.73072211	      2.86401016	     -0.04897413	      0.00000000
      0.73242940	      2.87918958	     -0.05790741	      0.00000000
      0.73413670	      2.89426734	     -0.06673750	      0.00000000
      0.73584399	      2.90923456	     -0.07546123	      0.00000000
      0.73755129	      2.92408348	     -0.08407539	      0.00000000
      0.73925858	      2.93880474	     -0.09257731	      0.00000000
      0.74096588	      2.95338955	     -0.10096442	      0.00000000
      0.74267317	      2.96783220	     -0.10923403	      0.00000000
      0.74438047	      2.98212679	     -0.11738361	      0.00000000
      0.74608776	      2.99627131	     -0.12541040	      0.00000000
      0.74779506	      3.01026280	     -0.13331183	      0.00000000
      0.74950235	      3.02410149	     -0.14108526	      0.00000000
      0.75120965	      3.03778684	     -0.14872812	      0.00000000
      0.75291694	      3.05132055	     -0.15623799	      0.00000000
      0.75462423	      3.06470337	     -0.16361251	      0.00000000
      0.75633153	      3.07793820	     -0.17084945	      0.00000000
      0.75803882	      3.09102712	     -0.17794658	      0.00000000
      0.75974612	      3.10397505	     -0.18490157	      0.00000000
      0.76145341	      3.11678583	     -0.19171206	      0.00000000
      0.76316071	      3.12946732	     -0.19837512	      0.00000000
      0.76486800	      3.14202723	     -0.20488750	      0.00000000
      0.76657530	      3.15447603	     -0.21124533	      0.00000000
      0.76828259	      3.16682477	     -0.21744419	      0.00000000
      0.76998989	      3.17908184	     -0.22348017	      0.00000000
      0.77169718	      3.19125603	     -0.22934894	      0.00000000
      0.77340448	      3.20334868	     -0.23504810	      0.00000000
      0.77511177	      3.21536124	     -0.24057508	      0.00000000
      0.77681906	      3.22728885	     -0.24592925	      0.00000000
      0.77852636	      3.23912709	     -0.25110992	      0.00000000
      0.78023365	      3.25087030	     -0.25611709	      0.00000000
      0.78194095	      3.26251350	     -0.26095067	      0.00000000
      0.78364824	      3.27405342	     -0.26561032	      0.00000000
      0.78535554	      3.28548729	     -0.27009558	      0.00000000
      0.78706283	      3.29681219	     -0.27440625	      0.00000000
      0.78877013	      3.30802388	     -0.27854262	      0.00000000
      0.79047742	      3.31911813	     -0.28250515	      0.00000000
      0.79218472	      3.33008969	     -0.28629475	      0.00000000
      0.79389201	      3.34093716	     -0.28991114	      0.00000000
      0.79559931	      3.35165878	     -0.29335413	      0.00000000
      0.79730660	      3.36225825	     -0.29662159	      0.00000000
      0.79901390	      3.37273905	     -0.29971120	      0.00000000
      0.80072119	      3.38310662	     -0.30261988	      0.00000000
      0.80242848	      3.39336553	     -0.30534449	      0.00000000
      0.80413578	      3.40351844	     -0.30788265	      0.00000000
      0.80584307	      3.41356660	     -0.31023228	      0.00000000
      0.80755037	      3.42351082	     -0.31239152	      0.00000000
      0.80925766	      3.43335087	     -0.31435875	      0.00000000
      0.81096496	      3.44309130	     -0.31613035	      0.00000000
      0.81267225	      3.45273660	     -0.31770228	      0.00000000
      0.81437955	      3.46229734	     -0.31906770	      0.00000000
      0.81608684	      3.47178658	     -0.32021788	      0.00000000
      0.81779414	      3.48121165	     -0.32114650	      0.00000000
      0.81950143	      3.49057987	     -0.32184661	      0.00000000
      0.82120873	      3.49988185	     -0.32231931	      0.00000000
      0.82291602	      3.50910227	     -0.32256884	      0.00000000
      0.82462332	      3.51822918	     -0.32259831	      0.00000000
      0.82633061	      3.52725634	     -0.32240818	      0.00000000
      0.82803790	      3.53619073	     -0.32199204	      0.00000000
      0.82974520	      3.54504804	     -0.32133832	      0.00000000
      0.83145249	      3.55382316	     -0.32044576	      0.00000000
      0.83315979	      3.56250264	     -0.31931801	      0.00000000
      0.83486708	      3.57104847	     -0.31797227	      0.00000000
      0.83657438	      3.57941565	     -0.31643176	      0.00000000
      0.83828167	      3.58758342	     -0.31470631	      0.00000000
      0.83998897	      3.59553179	     -0.31280643	      0.00000000
      0.84169626	      3.60329710	     -0.31070827	      0.00000000
      0.84340356	      3.61093152	     -0.30837604	      0.00000000
      0.84511085	      3.61847745	     -0.30577668	      0.00000000
      0.84681815	      3.62597291	     -0.30287748	      0.00000000
      0.84852544	      3.63337945	     -0.29969241	      0.00000000
      0.85023273	      3.64064625	     -0.29624601	      0.00000000
      0.85194003	      3.64769348	     -0.29258290	      0.00000000
      0.85364732	      3.65445593	     -0.28874270	      0.00000000
      0.85535462	      3.66089340	     -0.28474840	      0.00000000
      0.85706191	      3.66697250	     -0.28062133	      0.00000000
      0.85876921	      3.67267670	     -0.27636966	      0.00000000
      0.86047650	      3.67797071	     -0.27201742	      0.00000000
      0.86218380	      3.68285806	     -0.26755806	      0.00000000
      0.86389109	      3.68737224	     -0.26296249	      0.00000000
      0.86559839	      3.69151549	     -0.25821940	      0.00000000
      0.86730568	      3.69526456	     -0.25333879	      0.00000000
      0.86901298	      3.69855621	     -0.24835823	      0.00000000
      0.87072027	      3.70133811	     -0.24331204	      0.00000000
      0.87242757	      3.70355545	     -0.23823211	      0.00000000
      0.87413486	      3.70515321	     -0.23315597	      0.00000000
      0.87584215	      3.70610226	     -0.22809423	      0.00000000
      0.87754945	      3.70637794	     -0.22305728	      0.00000000
      0.87925674	      3.70597035	     -0.21803559	      0.00000000
      0.88096404	      3.70484637	     -0.21304198	      0.00000000
      0.88267133	      3.70303970	     -0.20802198	      0.00000000
      0.88437863	      3.70074248	     -0.20277110	      0.00000000
      0.88608592	      3.69776575	     -0.19742696	      0.00000000
      0.88779322	      3.69352235	     -0.19253591	      0.00000000
      0.88950051	      3.68792266	     -0.18817682	      0.00000000
      0.89120781	      3.68169036	     -0.18364739	      0.00000000
      0.89291510	      3.67514712	     -0.17856737	      0.00000000
      0.89462240	      3.66751804	     -0.17355148	      0.00000000
      0.89632969	      3.65876340	     -0.16861446	      0.00000000
      0.89803699	      3.64928654	     -0.16340270	      0.00000000
      0.89974428	      3.63873150	     -0.15830533	      0.00000000
      0.90145157	      3.62705044	     -0.15336517	      0.00000000
      0.90315887	      3.61445457	     -0.14835967	      0.00000000
      0.90486616	      3.60091276	     -0.14332134	      0.00000000
      0.90657346	      3.58640610	     -0.13829250	      0.00000000
      0.90828075	      3.57093871	     -0.13328439	      0.00000000
      0.90998805	      3.55453746	     -0.12830271	      0.00000000
      0.91169534	      3.53721681	     -0.12336175	      0.00000000
      0.91340264	      3.51900686	     -0.11847723	      0.00000000
      0.91510993	      3.49993670	     -0.11366057	      0.00000000
      0.91681723	      3.48004835	     -0.10892426	      0.00000000
      0.91852452	      3.45938177	     -0.10427822	      0.00000000
      0.92023182	      3.43798208	     -0.09973626	      0.00000000
      0.92193911	      3.41589328	     -0.09530914	      0.00000000
      0.92364640	      3.39315831	     -0.09101298	      0.00000000
      0.92535370	      3.36981910	     -0.08686244	      0.00000000
      0.92706099	      3.34591645	     -0.08287269	      0.00000000
      0.92876829	      3.32149146	     -0.07905683	      0.00000000
      0.93047558	      3.29658662	     -0.07542170	      0.00000000
      0.93218288	      3.27124536	     -0.07197145	      0.00000000
      0.93389017	      3.24551130	     -0.06870407	      0.00000000
      0.93559747	      3.21942861	     -0.06561552	      0.00000000
      0.93730476	      3.19303769	     -0.06270107	      0.00000000
      0.93901206	      3.16637932	     -0.05995434	      0.00000000
      0.94071935	      3.13948818	     -0.05737213	      0.00000000
      0.94242665	      3.11239991	     -0.05494904	      0.00000000
      0.94413394	      3.08514415	     -0.05268331	      0.00000000
      0.94584124	      3.05775204	     -0.05057043	      0.00000000
      0.94754853	      3.03024926	     -0.04860933	      0.00000000
      0.94925582	      3.00266303	     -0.04679631	      0.00000000
      0.95096312	      2.97501505	     -0.04513161	      0.00000000
      0.95267041	      2.94732867	     -0.04361329	      0.00000000
      0.95437771	      2.91962113	     -0.04224350	      0.00000000
      0.95608500	      2.89191057	     -0.04102200	      0.00000000
      0.95779230	      2.86420927	     -0.03995249	      0.00000000
      0.95949959	      2.83653129	     -0.03903656	      0.00000000
      0.96120689	      2.80888620	     -0.03828041	      0.00000000
      0.96291418	      2.78128455	     -0.03768901	      0.00000000
      0.96462148	      2.75373330	     -0.03727038	      0.00000000
      0.96632877	      2.72623913	     -0.03703323	      0.00000000
      0.96803607	      2.69880908	     -0.03698153	      0.00000000
      0.96974336	      2.67144954	     -0.03711964	      0.00000000
      0.97145065	      2.64417225	     -0.03743900	      0.00000000
      0.97315795	      2.61698764	     -0.03793150	      0.00000000
      0.97486524	      2.58991411	     -0.03857444	      0.00000000
      0.97657254	      2.56296975	     -0.03934307	      0.00000000
      0.97827983	      2.53617619	     -0.04020901	      0.00000000
      0.97998713	      2.50955463	     -0.04114254	      0.00000000
      0.98169442	      2.48312122	     -0.04212363	      0.00000000
      0.98340172	      2.45689254	     -0.04313121	      0.00000000
      0.98510901	      2.43087432	     -0.04415562	      0.00000000
      0.98681631	      2.40507473	     -0.04518512	      0.00000000
      0.98852360	      2.37948836	     -0.04621308	      0.00000000
      0.99023090	      2.35411209	     -0.04723423	      0.00000000
      0.99193819	      2.32893084	     -0.04823482	      0.00000000
      0.99364549	      2.30393495	     -0.04919866	      0.00000000
      0.99535278	      2.27910053	     -0.05010131	      0.00000000
      0.99706007	      2.25440829	     -0.05091741	      0.00000000
      0.99876737	      2.22981558	     -0.05162844	      0.00000000
      1.00047466	      2.20528429	     -0.05221571	      0.00000000
      1.00218196	      2.18075214	     -0.05268364	      0.00000000
      1.00388925	      2.15616233	     -0.05303723	      0.00000000
      1.00559655	      2.13143606	     -0.05330368	      0.00000000
      1.00730384	      2.10650422	     -0.05350150	      0.00000000
      1.00901114	      2.08127244	     -0.05368067	      0.00000000
      1.01071843	      2.05565906	     -0.05387947	      0.00000000
      1.01242573	      2.02953986	     -0.05420093	      0.00000000
      1.01413302	      2.00280460	     -0.05475253	      0.00000000
      1.01584032	      1.97528885	     -0.05567992	      0.00000000
      1.01754761	      1.94691141	     -0.05702559	      0.00000000
      1.01925491	      1.91740345	     -0.05904218	      0.00000000
      1.02096220	      1.88675981	     -0.06168932	      0.00000000
      1.02266949	      1.85421596	     -0.06591108	      0.00000000
      1.02437679	      1.81998845	     -0.07179969	      0.00000000
