PointVelocity
version=1
nRows=601
nColumns=4
inDegrees=no
No description.
endheader
time	state_0	state_1	state_2
      0.00000000	     -0.04935461	      0.06373124	      0.00000000
      0.00141887	     -0.04935899	      0.06816791	      0.00000000
      0.00283773	     -0.04939608	      0.07293377	      0.00000000
      0.00425660	     -0.04945805	      0.07812944	      0.00000000
      0.00567546	     -0.04948991	      0.08356634	      0.00000000
      0.00709433	     -0.04944206	      0.08909106	      0.00000000
      0.00851319	     -0.04932505	      0.09469718	      0.00000000
      0.00993206	     -0.04916730	      0.10041867	      0.00000000
      0.01135093	     -0.04897570	      0.10624661	      0.00000000
      0.01276979	     -0.04875247	      0.11217942	      0.00000000
      0.01418866	     -0.04850231	      0.11821823	      0.00000000
      0.01560752	     -0.04822661	      0.12435156	      0.00000000
      0.01702639	     -0.04792296	      0.13056060	      0.00000000
      0.01844526	     -0.04759459	      0.13683239	      0.00000000
      0.01986412	     -0.04724465	      0.14315727	      0.00000000
      0.02128299	     -0.04688366	      0.14954303	      0.00000000
      0.02270185	     -0.04652435	      0.15600252	      0.00000000
      0.02412072	     -0.04617620	      0.16254927	      0.00000000
      0.02553958	     -0.04584623	      0.16918860	      0.00000000
      0.02695845	     -0.04553345	      0.17592456	      0.00000000
      0.02837732	     -0.04524159	      0.18275393	      0.00000000
      0.02979618	     -0.04495939	      0.18969199	      0.00000000
      0.03121505	     -0.04470316	      0.19673850	      0.00000000
      0.03263391	     -0.04442646	      0.20394433	      0.00000000
      0.03405278	     -0.04422915	      0.21128106	      0.00000000
      0.03547165	     -0.04387367	      0.21890458	      0.00000000
      0.03689051	     -0.04388931	      0.22656389	      0.00000000
      0.03830938	     -0.04189470	      0.23529771	      0.00000000
      0.03972824	     -0.03575784	      0.24647690	      0.00000000
      0.04114711	     -0.02146065	      0.26161001	      0.00000000
      0.04256597	      0.00520459	      0.28226658	      0.00000000
      0.04398484	      0.05020279	      0.30703121	      0.00000000
      0.04540371	      0.12832928	      0.33406548	      0.00000000
      0.04682257	      0.23232099	      0.36226593	      0.00000000
      0.04824144	      0.34040430	      0.39067135	      0.00000000
      0.04966030	      0.43543423	      0.41635741	      0.00000000
      0.05107917	      0.50945341	      0.43748734	      0.00000000
      0.05249804	      0.56645570	      0.45496009	      0.00000000
      0.05391690	      0.60982827	      0.46959932	      0.00000000
      0.05533577	      0.64468468	      0.48256543	      0.00000000
      0.05675463	      0.67317948	      0.49427397	      0.00000000
      0.05817350	      0.69655386	      0.50496974	      0.00000000
      0.05959236	      0.71701697	      0.51507094	      0.00000000
      0.06101123	      0.73543561	      0.52471731	      0.00000000
      0.06243010	      0.75235835	      0.53395859	      0.00000000
      0.06384896	      0.76736827	      0.54262219	      0.00000000
      0.06526783	      0.78021123	      0.55056197	      0.00000000
      0.06668669	      0.79089026	      0.55766798	      0.00000000
      0.06810556	      0.79959592	      0.56384976	      0.00000000
      0.06952443	      0.80700347	      0.56913710	      0.00000000
      0.07094329	      0.81379441	      0.57355427	      0.00000000
      0.07236216	      0.82060915	      0.57718043	      0.00000000
      0.07378102	      0.82803299	      0.58007550	      0.00000000
      0.07519989	      0.83627200	      0.58228309	      0.00000000
      0.07661875	      0.84554421	      0.58383689	      0.00000000
      0.07803762	      0.85578081	      0.58474931	      0.00000000
      0.07945649	      0.86697418	      0.58503720	      0.00000000
      0.08087535	      0.87902399	      0.58471674	      0.00000000
      0.08229422	      0.89186710	      0.58380880	      0.00000000
      0.08371308	      0.90544239	      0.58234159	      0.00000000
      0.08513195	      0.91969859	      0.58034714	      0.00000000
      0.08655081	      0.93460145	      0.57785860	      0.00000000
      0.08796968	      0.95011816	      0.57490950	      0.00000000
      0.08938855	      0.96622208	      0.57152935	      0.00000000
      0.09080741	      0.98288627	      0.56775172	      0.00000000
      0.09222628	      1.00007813	      0.56360632	      0.00000000
      0.09364514	      1.01776646	      0.55912611	      0.00000000
      0.09506401	      1.03591308	      0.55433920	      0.00000000
      0.09648288	      1.05448241	      0.54927717	      0.00000000
      0.09790174	      1.07343508	      0.54396627	      0.00000000
      0.09932061	      1.09273368	      0.53843620	      0.00000000
      0.10073947	      1.11234068	      0.53271083	      0.00000000
      0.10215834	      1.13221962	      0.52681729	      0.00000000
      0.10357720	      1.15233687	      0.52077630	      0.00000000
      0.10499607	      1.17265959	      0.51461164	      0.00000000
      0.10641494	      1.19315818	      0.50833997	      0.00000000
      0.10783380	      1.21380212	      0.50198050	      0.00000000
      0.10925267	      1.23456531	      0.49554535	      0.00000000
      0.11067153	      1.25542046	      0.48904882	      0.00000000
      0.11209040	      1.27634774	      0.48249908	      0.00000000
      0.11350927	      1.29732639	      0.47590613	      0.00000000
      0.11492813	      1.31834392	      0.46927480	      0.00000000
      0.11634700	      1.33938645	      0.46261122	      0.00000000
      0.11776586	      1.36044655	      0.45591717	      0.00000000
      0.11918473	      1.38151503	      0.44919522	      0.00000000
      0.12060359	      1.40258776	      0.44244464	      0.00000000
      0.12202246	      1.42365937	      0.43566528	      0.00000000
      0.12344133	      1.44472874	      0.42885470	      0.00000000
      0.12486019	      1.46579313	      0.42201149	      0.00000000
      0.12627906	      1.48685425	      0.41513101	      0.00000000
      0.12769792	      1.50791355	      0.40820743	      0.00000000
      0.12911679	      1.52897608	      0.40123311	      0.00000000
      0.13053566	      1.55004605	      0.39420099	      0.00000000
      0.13195452	      1.57112800	      0.38710493	      0.00000000
      0.13337339	      1.59222587	      0.37993826	      0.00000000
      0.13479225	      1.61334300	      0.37269555	      0.00000000
      0.13621112	      1.63448279	      0.36537082	      0.00000000
      0.13762998	      1.65564812	      0.35795936	      0.00000000
      0.13904885	      1.67684202	      0.35045592	      0.00000000
      0.14046772	      1.69806704	      0.34285653	      0.00000000
      0.14188658	      1.71932589	      0.33515673	      0.00000000
      0.14330545	      1.74062076	      0.32735333	      0.00000000
      0.14472431	      1.76195396	      0.31944270	      0.00000000
      0.14614318	      1.78332745	      0.31142254	      0.00000000
      0.14756204	      1.80474360	      0.30329020	      0.00000000
      0.14898091	      1.82620387	      0.29504432	      0.00000000
      0.15039978	      1.84770992	      0.28668319	      0.00000000
      0.15181864	      1.86926204	      0.27820640	      0.00000000
      0.15323751	      1.89086057	      0.26961319	      0.00000000
      0.15465637	      1.91250476	      0.26090424	      0.00000000
      0.15607524	      1.93418949	      0.25207924	      0.00000000
      0.15749411	      1.95592084	      0.24314134	      0.00000000
      0.15891297	      1.97770512	      0.23409342	      0.00000000
      0.16033184	      1.99956649	      0.22494297	      0.00000000
      0.16175070	      2.02152646	      0.21569696	      0.00000000
      0.16316957	      2.04362716	      0.20636725	      0.00000000
      0.16458843	      2.06595731	      0.19697224	      0.00000000
      0.16600730	      2.08849517	      0.18751627	      0.00000000
      0.16742617	      2.11116950	      0.17799660	      0.00000000
      0.16884503	      2.13383615	      0.16840140	      0.00000000
      0.17026390	      2.15634710	      0.15871793	      0.00000000
      0.17168276	      2.17866558	      0.14894988	      0.00000000
      0.17310163	      2.20080480	      0.13910806	      0.00000000
      0.17452050	      2.22283184	      0.12921148	      0.00000000
      0.17593936	      2.24474804	      0.11926973	      0.00000000
      0.17735823	      2.26661284	      0.10930130	      0.00000000
      0.17877709	      2.28858260	      0.09934100	      0.00000000
      0.18019596	      2.31065526	      0.08939808	      0.00000000
      0.18161482	      2.33267089	      0.07945584	      0.00000000
      0.18303369	      2.35452457	      0.06950433	      0.00000000
      0.18445256	      2.37620440	      0.05955087	      0.00000000
      0.18587142	      2.39786219	      0.04962726	      0.00000000
      0.18729029	      2.41946878	      0.03973778	      0.00000000
      0.18870915	      2.44104468	      0.02988890	      0.00000000
      0.19012802	      2.46308498	      0.02015868	      0.00000000
      0.19154689	      2.48511467	      0.01048839	      0.00000000
      0.19296575	      2.50648857	      0.00079178	      0.00000000
      0.19438462	      2.52772179	     -0.00884474	      0.00000000
      0.19580348	      2.54905662	     -0.01837586	      0.00000000
      0.19722235	      2.57038048	     -0.02781563	      0.00000000
      0.19864121	      2.59168538	     -0.03716081	      0.00000000
      0.20006008	      2.61291763	     -0.04641643	      0.00000000
      0.20147895	      2.63407451	     -0.05557897	      0.00000000
      0.20289781	      2.65516312	     -0.06464294	      0.00000000
      0.20431668	      2.67618446	     -0.07360386	      0.00000000
      0.20573554	      2.69713837	     -0.08245723	      0.00000000
      0.20715441	      2.71802425	     -0.09119863	      0.00000000
      0.20857328	      2.73884056	     -0.09982377	      0.00000000
      0.20999214	      2.75958602	     -0.10832826	      0.00000000
      0.21141101	      2.78025923	     -0.11670786	      0.00000000
      0.21282987	      2.80085882	     -0.12495827	      0.00000000
      0.21424874	      2.82138351	     -0.13307540	      0.00000000
      0.21566760	      2.84183191	     -0.14105514	      0.00000000
      0.21708647	      2.86220279	     -0.14889369	      0.00000000
      0.21850534	      2.88249477	     -0.15658719	      0.00000000
      0.21992420	      2.90270673	     -0.16413223	      0.00000000
      0.22134307	      2.92283737	     -0.17152529	      0.00000000
      0.22276193	      2.94288568	     -0.17876330	      0.00000000
      0.22418080	      2.96285047	     -0.18584315	      0.00000000
      0.22559966	      2.98273085	     -0.19276217	      0.00000000
      0.22701853	      3.00252574	     -0.19951762	      0.00000000
      0.22843740	      3.02223436	     -0.20610722	      0.00000000
      0.22985626	      3.04185575	     -0.21252861	      0.00000000
      0.23127513	      3.06138919	     -0.21877987	      0.00000000
      0.23269399	      3.08083384	     -0.22485903	      0.00000000
      0.23411286	      3.10018905	     -0.23076451	      0.00000000
      0.23553173	      3.11945405	     -0.23649466	      0.00000000
      0.23695059	      3.13862825	     -0.24204820	      0.00000000
      0.23836946	      3.15771094	     -0.24742381	      0.00000000
      0.23978832	      3.17670158	     -0.25262046	      0.00000000
      0.24120719	      3.19559949	     -0.25763708	      0.00000000
      0.24262605	      3.21440413	     -0.26247291	      0.00000000
      0.24404492	      3.23311486	     -0.26712713	      0.00000000
      0.24546379	      3.25173109	     -0.27159915	      0.00000000
      0.24688265	      3.27025215	     -0.27588839	      0.00000000
      0.24830152	      3.28867739	     -0.27999445	      0.00000000
      0.24972038	      3.30700608	     -0.28391693	      0.00000000
      0.25113925	      3.32523747	     -0.28765557	      0.00000000
      0.25255812	      3.34337073	     -0.29121012	      0.00000000
      0.25397698	      3.36140495	     -0.29458042	      0.00000000
      0.25539585	      3.37933918	     -0.29776634	      0.00000000
      0.25681471	      3.39717233	     -0.30076776	      0.00000000
      0.25823358	      3.41490329	     -0.30358464	      0.00000000
      0.25965244	      3.43253072	     -0.30621688	      0.00000000
      0.26107131	      3.45005331	     -0.30866446	      0.00000000
      0.26249018	      3.46746945	     -0.31092729	      0.00000000
      0.26390904	      3.48477755	     -0.31300535	      0.00000000
      0.26532791	      3.50197566	     -0.31489852	      0.00000000
      0.26674677	      3.51906188	     -0.31660678	      0.00000000
      0.26816564	      3.53603384	     -0.31812995	      0.00000000
      0.26958451	      3.55288926	     -0.31946798	      0.00000000
      0.27100337	      3.56962535	     -0.32062066	      0.00000000
      0.27242224	      3.58623938	     -0.32158789	      0.00000000
      0.27384110	      3.60272807	     -0.32236941	      0.00000000
      0.27525997	      3.61908822	     -0.32296511	      0.00000000
      0.27667883	      3.63531605	     -0.32337470	      0.00000000
      0.27809770	      3.65140783	     -0.32359806	      0.00000000
      0.27951657	      3.66735927	     -0.32363496	      0.00000000
      0.28093543	      3.68316613	     -0.32348530	      0.00000000
      0.28235430	      3.69882360	     -0.32314895	      0.00000000
      0.28377316	      3.71432694	     -0.32262592	      0.00000000
      0.28519203	      3.72967083	     -0.32191626	      0.00000000
      0.28661089	      3.74485005	     -0.32102019	      0.00000000
      0.28802976	      3.75985880	     -0.31993803	      0.00000000
      0.28944863	      3.77469140	     -0.31867028	      0.00000000
      0.29086749	      3.78934157	     -0.31721767	      0.00000000
      0.29228636	      3.80380318	     -0.31558109	      0.00000000
      0.29370522	      3.81806938	     -0.31376170	      0.00000000
      0.29512409	      3.83213356	     -0.31176091	      0.00000000
      0.29654296	      3.84598810	     -0.30958037	      0.00000000
      0.29796182	      3.85962577	     -0.30722201	      0.00000000
      0.29938069	      3.87303782	     -0.30468795	      0.00000000
      0.30079955	      3.88621608	     -0.30198065	      0.00000000
      0.30221842	      3.89915009	     -0.29910257	      0.00000000
      0.30363728	      3.91183017	     -0.29605663	      0.00000000
      0.30505615	      3.92424326	     -0.29284540	      0.00000000
      0.30647502	      3.93637742	     -0.28947208	      0.00000000
      0.30789388	      3.94821582	     -0.28593904	      0.00000000
      0.30931275	      3.95974309	     -0.28224954	      0.00000000
      0.31073161	      3.97093739	     -0.27840539	      0.00000000
      0.31215048	      3.98177857	     -0.27440960	      0.00000000
      0.31356935	      3.99223847	     -0.27026313	      0.00000000
      0.31498821	      4.00229079	     -0.26596847	      0.00000000
      0.31640708	      4.01190012	     -0.26152560	      0.00000000
      0.31782594	      4.02103293	     -0.25693636	      0.00000000
      0.31924481	      4.02964650	     -0.25219990	      0.00000000
      0.32066367	      4.03769966	     -0.24731754	      0.00000000
      0.32208254	      4.04514372	     -0.24228820	      0.00000000
      0.32350141	      4.05193077	     -0.23711315	      0.00000000
      0.32492027	      4.05800924	     -0.23179210	      0.00000000
      0.32633914	      4.06332714	     -0.22632710	      0.00000000
      0.32775800	      4.06783480	     -0.22071997	      0.00000000
      0.32917687	      4.07148080	     -0.21497466	      0.00000000
      0.33059574	      4.07422324	     -0.20909638	      0.00000000
      0.33201460	      4.07601717	     -0.20309204	      0.00000000
      0.33343347	      4.07683414	     -0.19697104	      0.00000000
      0.33485233	      4.07664170	     -0.19074391	      0.00000000
      0.33627120	      4.07542852	     -0.18442427	      0.00000000
      0.33769006	      4.07317900	     -0.17802619	      0.00000000
      0.33910893	      4.06989930	     -0.17156659	      0.00000000
      0.34052780	      4.06559167	     -0.16506232	      0.00000000
      0.34194666	      4.06027665	     -0.15853199	      0.00000000
      0.34336553	      4.05397199	     -0.15199353	      0.00000000
      0.34478439	      4.04670678	     -0.14546564	      0.00000000
      0.34620326	      4.03850715	     -0.13896759	      0.00000000
      0.34762213	      4.02940642	     -0.13251487	      0.00000000
      0.34904099	      4.01944221	     -0.12611765	      0.00000000
      0.35045986	      4.00863851	     -0.11979661	      0.00000000
      0.35187872	      3.99697049	     -0.11362512	      0.00000000
      0.35329759	      3.98451604	     -0.10755786	      0.00000000
      0.35471645	      3.97144372	     -0.10145208	      0.00000000
      0.35613532	      3.95763537	     -0.09546811	      0.00000000
      0.35755419	      3.94293598	     -0.08980602	      0.00000000
      0.35897305	      3.92744239	     -0.08437095	      0.00000000
      0.36039192	      3.91130323	     -0.07901301	      0.00000000
      0.36181078	      3.89458386	     -0.07368995	      0.00000000
      0.36322965	      3.87720953	     -0.06853056	      0.00000000
      0.36464851	      3.85909869	     -0.06366829	      0.00000000
      0.36606738	      3.84029254	     -0.05908096	      0.00000000
      0.36748625	      3.82087062	     -0.05469696	      0.00000000
      0.36890511	      3.80088309	     -0.05048310	      0.00000000
      0.37032398	      3.78032251	     -0.04648261	      0.00000000
      0.37174284	      3.75916974	     -0.04275973	      0.00000000
      0.37316171	      3.73738336	     -0.03939612	      0.00000000
      0.37458058	      3.71492579	     -0.03647339	      0.00000000
      0.37599944	      3.69180576	     -0.03399214	      0.00000000
      0.37741831	      3.66805282	     -0.03192371	      0.00000000
      0.37883717	      3.64371162	     -0.03021371	      0.00000000
      0.38025604	      3.61882119	     -0.02881601	      0.00000000
      0.38167490	      3.59337117	     -0.02775342	      0.00000000
      0.38309377	      3.56733942	     -0.02707202	      0.00000000
      0.38451264	      3.54067595	     -0.02683910	      0.00000000
      0.38593150	      3.51335071	     -0.02709874	      0.00000000
      0.38735037	      3.48532343	     -0.02788120	      0.00000000
      0.38876923	      3.45655910	     -0.02921971	      0.00000000
      0.39018810	      3.42700259	     -0.03114442	      0.00000000
      0.39160697	      3.39660447	     -0.03368979	      0.00000000
      0.39302583	      3.36528695	     -0.03689200	      0.00000000
      0.39444470	      3.33298087	     -0.04079035	      0.00000000
      0.39586356	      3.29958186	     -0.04542419	      0.00000000
      0.39728243	      3.26499743	     -0.05083651	      0.00000000
      0.39870129	      3.22908921	     -0.05706697	      0.00000000
      0.40012016	      3.19173463	     -0.06415994	      0.00000000
      0.40153903	      3.15274713	     -0.07215515	      0.00000000
      0.40295789	      3.11196332	     -0.08109814	      0.00000000
      0.40437676	      3.06912520	     -0.09103092	      0.00000000
      0.40579562	      3.02400877	     -0.10200222	      0.00000000
      0.40721449	      2.97624587	     -0.11406195	      0.00000000
      0.40863336	      2.92551726	     -0.12726844	      0.00000000
      0.41005222	      2.87128810	     -0.14168770	      0.00000000
      0.41147109	      2.81308886	     -0.15739778	      0.00000000
      0.41288995	      2.75014746	     -0.17448641	      0.00000000
      0.41430882	      2.68176415	     -0.19306080	      0.00000000
      0.41572768	      2.60686950	     -0.21322280	      0.00000000
      0.41714655	      2.52445111	     -0.23510351	      0.00000000
      0.41856542	      2.43314968	     -0.25878350	      0.00000000
      0.41998428	      2.33159293	     -0.28438495	      0.00000000
      0.42140315	      2.21830426	     -0.31188444	      0.00000000
      0.42282201	      2.09164310	     -0.34130567	      0.00000000
      0.42424088	      1.95050557	     -0.37236541	      0.00000000
      0.42565974	      1.79338723	     -0.40481727	      0.00000000
      0.42707861	      1.62049484	     -0.43789692	      0.00000000
      0.42849748	      1.43129771	     -0.47090862	      0.00000000
      0.42991634	      1.22864980	     -0.50238976	      0.00000000
      0.43133521	      1.01364633	     -0.53143274	      0.00000000
      0.43275407	      0.79358587	     -0.55559526	      0.00000000
      0.43417294	      0.56689531	     -0.57686641	      0.00000000
      0.43559181	      0.34367890	     -0.59121996	      0.00000000
      0.43701067	      0.18112000	     -0.56752457	      0.00000000
      0.43842954	      0.11143911	     -0.51261005	      0.00000000
      0.43984840	      0.09495620	     -0.47561613	      0.00000000
      0.44126727	      0.08437737	     -0.46163753	      0.00000000
      0.44268613	      0.07696802	     -0.45268647	      0.00000000
      0.44410500	      0.07304688	     -0.44576223	      0.00000000
      0.44552387	      0.06875792	     -0.43922296	      0.00000000
      0.44694273	      0.06563368	     -0.43248345	      0.00000000
      0.44836160	      0.06242889	     -0.42565049	      0.00000000
      0.44978046	      0.05970442	     -0.41854120	      0.00000000
      0.45119933	      0.05711117	     -0.41128984	      0.00000000
      0.45261820	      0.05479723	     -0.40378403	      0.00000000
      0.45403706	      0.05265820	     -0.39604039	      0.00000000
      0.45545593	      0.05071318	     -0.38800454	      0.00000000
      0.45687479	      0.04891582	     -0.37967463	      0.00000000
      0.45829366	      0.04725887	     -0.37105876	      0.00000000
      0.45971252	      0.04571859	     -0.36218384	      0.00000000
      0.46113139	      0.04428604	     -0.35307967	      0.00000000
      0.46255026	      0.04294555	     -0.34377860	      0.00000000
      0.46396912	      0.04169210	     -0.33429896	      0.00000000
      0.46538799	      0.04051595	     -0.32465677	      0.00000000
      0.46680685	      0.03941162	     -0.31487016	      0.00000000
      0.46822572	      0.03837202	     -0.30494647	      0.00000000
      0.46964459	      0.03738865	     -0.29491538	      0.00000000
      0.47106345	      0.03645010	     -0.28481477	      0.00000000
      0.47248232	      0.03555414	     -0.27469661	      0.00000000
      0.47390118	      0.03469750	     -0.26461349	      0.00000000
      0.47532005	      0.03387909	     -0.25460711	      0.00000000
      0.47673891	      0.03309591	     -0.24471681	      0.00000000
      0.47815778	      0.03234546	     -0.23496697	      0.00000000
      0.47957665	      0.03162434	     -0.22538208	      0.00000000
      0.48099551	      0.03092956	     -0.21598047	      0.00000000
      0.48241438	      0.03025791	     -0.20678253	      0.00000000
      0.48383324	      0.02960757	     -0.19780060	      0.00000000
      0.48525211	      0.02897601	     -0.18904859	      0.00000000
      0.48667098	      0.02836216	     -0.18053085	      0.00000000
      0.48808984	      0.02776429	     -0.17225279	      0.00000000
      0.48950871	      0.02718151	     -0.16421333	      0.00000000
      0.49092757	      0.02661272	     -0.15641241	      0.00000000
      0.49234644	      0.02605721	     -0.14884670	      0.00000000
      0.49376530	      0.02551425	     -0.14151389	      0.00000000
      0.49518417	      0.02498333	     -0.13440936	      0.00000000
      0.49660304	      0.02446388	     -0.12752900	      0.00000000
      0.49802190	      0.02395532	     -0.12086749	      0.00000000
      0.49944077	      0.02345708	     -0.11441971	      0.00000000
      0.50085963	      0.02296845	     -0.10818042	      0.00000000
      0.50227850	      0.02248881	     -0.10214454	      0.00000000
      0.50369736	      0.02201745	     -0.09630706	      0.00000000
      0.50511623	      0.02155372	     -0.09066305	      0.00000000
      0.50653510	      0.02109696	     -0.08520766	      0.00000000
      0.50795396	      0.02064659	     -0.07993606	      0.00000000
      0.50937283	      0.02020206	     -0.07484350	      0.00000000
      0.51079169	      0.01976289	     -0.06992526	      0.00000000
      0.51221056	      0.01932867	     -0.06517673	      0.00000000
      0.51362943	      0.01889909	     -0.06059334	      0.00000000
      0.51504829	      0.01847389	     -0.05617067	      0.00000000
      0.51646716	      0.01805290	     -0.05190430	      0.00000000
      0.51788602	      0.01763597	     -0.04779006	      0.00000000
      0.51930489	      0.01722305	     -0.04382378	      0.00000000
      0.52072375	      0.01681405	     -0.04000148	      0.00000000
      0.52214262	      0.01640895	     -0.03631920	      0.00000000
      0.52356149	      0.01600767	     -0.03277314	      0.00000000
      0.52498035	      0.01561019	     -0.02935947	      0.00000000
      0.52639922	      0.01521639	     -0.02607450	      0.00000000
      0.52781808	      0.01482622	     -0.02291456	      0.00000000
      0.52923695	      0.01443952	     -0.01987604	      0.00000000
      0.53065582	      0.01405619	     -0.01695534	      0.00000000
      0.53207468	      0.01367608	     -0.01414900	      0.00000000
      0.53349355	      0.01329910	     -0.01145353	      0.00000000
      0.53491241	      0.01292510	     -0.00886555	      0.00000000
      0.53633128	      0.01255398	     -0.00638166	      0.00000000
      0.53775014	      0.01218566	     -0.00399859	      0.00000000
      0.53916901	      0.01182008	     -0.00171306	      0.00000000
      0.54058788	      0.01145719	      0.00047803	      0.00000000
      0.54200674	      0.01109699	      0.00257779	      0.00000000
      0.54342561	      0.01073947	      0.00458915	      0.00000000
      0.54484447	      0.01038465	      0.00651504	      0.00000000
      0.54626334	      0.01003256	      0.00835820	      0.00000000
      0.54768221	      0.00968325	      0.01012140	      0.00000000
      0.54910107	      0.00933674	      0.01180720	      0.00000000
      0.55051994	      0.00899308	      0.01341821	      0.00000000
      0.55193880	      0.00865231	      0.01495686	      0.00000000
      0.55335767	      0.00831448	      0.01642561	      0.00000000
      0.55477653	      0.00797960	      0.01782676	      0.00000000
      0.55619540	      0.00764771	      0.01916264	      0.00000000
      0.55761427	      0.00731883	      0.02043543	      0.00000000
      0.55903313	      0.00699298	      0.02164733	      0.00000000
      0.56045200	      0.00667016	      0.02280039	      0.00000000
      0.56187086	      0.00635037	      0.02389670	      0.00000000
      0.56328973	      0.00603363	      0.02493819	      0.00000000
      0.56470859	      0.00571991	      0.02592682	      0.00000000
      0.56612746	      0.00540921	      0.02686441	      0.00000000
      0.56754633	      0.00510152	      0.02775280	      0.00000000
      0.56896519	      0.00479682	      0.02859369	      0.00000000
      0.57038406	      0.00449507	      0.02938881	      0.00000000
      0.57180292	      0.00419625	      0.03013973	      0.00000000
      0.57322179	      0.00390030	      0.03084808	      0.00000000
      0.57464066	      0.00360716	      0.03151534	      0.00000000
      0.57605952	      0.00331675	      0.03214303	      0.00000000
      0.57747839	      0.00302901	      0.03273259	      0.00000000
      0.57889725	      0.00274384	      0.03328542	      0.00000000
      0.58031612	      0.00246117	      0.03380290	      0.00000000
      0.58173498	      0.00218097	      0.03428639	      0.00000000
      0.58315385	      0.00190319	      0.03473719	      0.00000000
      0.58457272	      0.00162783	      0.03515663	      0.00000000
      0.58599158	      0.00135483	      0.03554582	      0.00000000
      0.58741045	      0.00108412	      0.03590587	      0.00000000
      0.58882931	      0.00081565	      0.03623767	      0.00000000
      0.59024818	      0.00054947	      0.03654263	      0.00000000
      0.59166705	      0.00028550	      0.03682178	      0.00000000
      0.59308591	      0.00002335	      0.03707493	      0.00000000
      0.59450478	     -0.00023688	      0.03730314	      0.00000000
      0.59592364	     -0.00049494	      0.03750860	      0.00000000
      0.59734251	     -0.00075117	      0.03769153	      0.00000000
      0.59876137	     -0.00100574	      0.03785207	      0.00000000
      0.60018024	     -0.00125852	      0.03799133	      0.00000000
      0.60159911	     -0.00150965	      0.03811018	      0.00000000
      0.60301797	     -0.00175916	      0.03820955	      0.00000000
      0.60443684	     -0.00200713	      0.03829033	      0.00000000
      0.60585570	     -0.00225359	      0.03835334	      0.00000000
      0.60727457	     -0.00249860	      0.03839941	      0.00000000
      0.60869344	     -0.00274218	      0.03842928	      0.00000000
      0.61011230	     -0.00298440	      0.03844370	      0.00000000
      0.61153117	     -0.00322528	      0.03844332	      0.00000000
      0.61295003	     -0.00346488	      0.03842884	      0.00000000
      0.61436890	     -0.00370324	      0.03840082	      0.00000000
      0.61578776	     -0.00394041	      0.03835988	      0.00000000
      0.61720663	     -0.00417643	      0.03830654	      0.00000000
      0.61862550	     -0.00441134	      0.03824131	      0.00000000
      0.62004436	     -0.00464517	      0.03816465	      0.00000000
      0.62146323	     -0.00487798	      0.03807702	      0.00000000
      0.62288209	     -0.00510980	      0.03797881	      0.00000000
      0.62430096	     -0.00534066	      0.03787039	      0.00000000
      0.62571983	     -0.00557059	      0.03775209	      0.00000000
      0.62713869	     -0.00579963	      0.03762424	      0.00000000
      0.62855756	     -0.00602781	      0.03748709	      0.00000000
      0.62997642	     -0.00625515	      0.03734090	      0.00000000
      0.63139529	     -0.00648167	      0.03718589	      0.00000000
      0.63281415	     -0.00670742	      0.03702227	      0.00000000
      0.63423302	     -0.00693240	      0.03685019	      0.00000000
      0.63565189	     -0.00715665	      0.03666983	      0.00000000
      0.63707075	     -0.00738017	      0.03648132	      0.00000000
      0.63848962	     -0.00760300	      0.03628478	      0.00000000
      0.63990848	     -0.00782514	      0.03608033	      0.00000000
      0.64132735	     -0.00804663	      0.03586806	      0.00000000
      0.64274621	     -0.00826748	      0.03564807	      0.00000000
      0.64416508	     -0.00848770	      0.03542044	      0.00000000
      0.64558395	     -0.00870732	      0.03518524	      0.00000000
      0.64700281	     -0.00892636	      0.03494255	      0.00000000
      0.64842168	     -0.00914483	      0.03469244	      0.00000000
      0.64984054	     -0.00936276	      0.03443498	      0.00000000
      0.65125941	     -0.00958016	      0.03417023	      0.00000000
      0.65267828	     -0.00979707	      0.03389826	      0.00000000
      0.65409714	     -0.01001349	      0.03361912	      0.00000000
      0.65551601	     -0.01022947	      0.03333287	      0.00000000
      0.65693487	     -0.01044502	      0.03303957	      0.00000000
      0.65835374	     -0.01066017	      0.03273929	      0.00000000
      0.65977260	     -0.01087495	      0.03243208	      0.00000000
      0.66119147	     -0.01108940	      0.03211801	      0.00000000
      0.66261034	     -0.01130354	      0.03179713	      0.00000000
      0.66402920	     -0.01151742	      0.03146952	      0.00000000
      0.66544807	     -0.01173108	      0.03113525	      0.00000000
      0.66686693	     -0.01194454	      0.03079438	      0.00000000
      0.66828580	     -0.01215786	      0.03044701	      0.00000000
      0.66970467	     -0.01237108	      0.03009323	      0.00000000
      0.67112353	     -0.01258425	      0.02973312	      0.00000000
      0.67254240	     -0.01279740	      0.02936679	      0.00000000
      0.67396126	     -0.01301058	      0.02899432	      0.00000000
      0.67538013	     -0.01322382	      0.02861582	      0.00000000
      0.67679899	     -0.01343718	      0.02823137	      0.00000000
      0.67821786	     -0.01365068	      0.02784105	      0.00000000
      0.67963673	     -0.01386436	      0.02744497	      0.00000000
      0.68105559	     -0.01407827	      0.02704323	      0.00000000
      0.68247446	     -0.01429245	      0.02663593	      0.00000000
      0.68389332	     -0.01450696	      0.02622321	      0.00000000
      0.68531219	     -0.01472183	      0.02580518	      0.00000000
      0.68673106	     -0.01493712	      0.02538199	      0.00000000
      0.68814992	     -0.01515288	      0.02495377	      0.00000000
      0.68956879	     -0.01536919	      0.02452069	      0.00000000
      0.69098765	     -0.01558607	      0.02408290	      0.00000000
      0.69240652	     -0.01580361	      0.02364058	      0.00000000
      0.69382538	     -0.01602184	      0.02319391	      0.00000000
      0.69524425	     -0.01624085	      0.02274306	      0.00000000
      0.69666312	     -0.01646067	      0.02228825	      0.00000000
      0.69808198	     -0.01668137	      0.02182968	      0.00000000
      0.69950085	     -0.01690301	      0.02136758	      0.00000000
      0.70091971	     -0.01712564	      0.02090218	      0.00000000
      0.70233858	     -0.01734932	      0.02043373	      0.00000000
      0.70375744	     -0.01757410	      0.01996248	      0.00000000
      0.70517631	     -0.01780002	      0.01948871	      0.00000000
      0.70659518	     -0.01802715	      0.01901272	      0.00000000
      0.70801404	     -0.01825552	      0.01853480	      0.00000000
      0.70943291	     -0.01848517	      0.01805528	      0.00000000
      0.71085177	     -0.01871614	      0.01757450	      0.00000000
      0.71227064	     -0.01894848	      0.01709280	      0.00000000
      0.71368951	     -0.01918220	      0.01661055	      0.00000000
      0.71510837	     -0.01941736	      0.01612815	      0.00000000
      0.71652724	     -0.01965396	      0.01564597	      0.00000000
      0.71794610	     -0.01989204	      0.01516443	      0.00000000
      0.71936497	     -0.02013161	      0.01468395	      0.00000000
      0.72078383	     -0.02037271	      0.01420497	      0.00000000
      0.72220270	     -0.02061534	      0.01372792	      0.00000000
      0.72362157	     -0.02085952	      0.01325324	      0.00000000
      0.72504043	     -0.02110527	      0.01278137	      0.00000000
      0.72645930	     -0.02135260	      0.01231278	      0.00000000
      0.72787816	     -0.02160152	      0.01184788	      0.00000000
      0.72929703	     -0.02185205	      0.01138714	      0.00000000
      0.73071590	     -0.02210418	      0.01093096	      0.00000000
      0.73213476	     -0.02235793	      0.01047980	      0.00000000
      0.73355363	     -0.02261330	      0.01003403	      0.00000000
      0.73497249	     -0.02287030	      0.00959407	      0.00000000
      0.73639136	     -0.02312893	      0.00916028	      0.00000000
      0.73781022	     -0.02338920	      0.00873306	      0.00000000
      0.73922909	     -0.02365111	      0.00831274	      0.00000000
      0.74064796	     -0.02391468	      0.00789971	      0.00000000
      0.74206682	     -0.02417992	      0.00749428	      0.00000000
      0.74348569	     -0.02444685	      0.00709685	      0.00000000
      0.74490455	     -0.02471550	      0.00670773	      0.00000000
      0.74632342	     -0.02498588	      0.00632731	      0.00000000
      0.74774229	     -0.02525804	      0.00595591	      0.00000000
      0.74916115	     -0.02553201	      0.00559392	      0.00000000
      0.75058002	     -0.02580783	      0.00524159	      0.00000000
      0.75199888	     -0.02608554	      0.00489929	      0.00000000
      0.75341775	     -0.02636520	      0.00456718	      0.00000000
      0.75483661	     -0.02664686	      0.00424552	      0.00000000
      0.75625548	     -0.02693056	      0.00393445	      0.00000000
      0.75767435	     -0.02721635	      0.00363407	      0.00000000
      0.75909321	     -0.02750420	      0.00334470	      0.00000000
      0.76051208	     -0.02779408	      0.00306655	      0.00000000
      0.76193094	     -0.02808579	      0.00280057	      0.00000000
      0.76334981	     -0.02837916	      0.00254770	      0.00000000
      0.76476868	     -0.02867395	      0.00230964	      0.00000000
      0.76618754	     -0.02896990	      0.00208856	      0.00000000
      0.76760641	     -0.02926757	      0.00188493	      0.00000000
      0.76902527	     -0.02956725	      0.00169936	      0.00000000
      0.77044414	     -0.02986973	      0.00153012	      0.00000000
      0.77186300	     -0.03017562	      0.00137470	      0.00000000
      0.77328187	     -0.03048389	      0.00123359	      0.00000000
      0.77470074	     -0.03079406	      0.00110781	      0.00000000
      0.77611960	     -0.03110584	      0.00100003	      0.00000000
      0.77753847	     -0.03141881	      0.00091304	      0.00000000
      0.77895733	     -0.03173345	      0.00084850	      0.00000000
      0.78037620	     -0.03204993	      0.00080785	      0.00000000
      0.78179506	     -0.03236842	      0.00079159	      0.00000000
      0.78321393	     -0.03268909	      0.00080046	      0.00000000
      0.78463280	     -0.03301204	      0.00083465	      0.00000000
      0.78605166	     -0.03333738	      0.00089461	      0.00000000
      0.78747053	     -0.03366537	      0.00098009	      0.00000000
      0.78888939	     -0.03399621	      0.00109090	      0.00000000
      0.79030826	     -0.03432997	      0.00122672	      0.00000000
      0.79172713	     -0.03466680	      0.00138730	      0.00000000
      0.79314599	     -0.03500671	      0.00157280	      0.00000000
      0.79456486	     -0.03534980	      0.00178330	      0.00000000
      0.79598372	     -0.03569603	      0.00201979	      0.00000000
      0.79740259	     -0.03604541	      0.00228307	      0.00000000
      0.79882145	     -0.03639789	      0.00257507	      0.00000000
      0.80024032	     -0.03675344	      0.00289754	      0.00000000
      0.80165919	     -0.03711205	      0.00325324	      0.00000000
      0.80307805	     -0.03747367	      0.00364466	      0.00000000
      0.80449692	     -0.03783847	      0.00407545	      0.00000000
      0.80591578	     -0.03820668	      0.00454896	      0.00000000
      0.80733465	     -0.03857790	      0.00506798	      0.00000000
      0.80875352	     -0.03895080	      0.00563240	      0.00000000
      0.81017238	     -0.03932667	      0.00624806	      0.00000000
      0.81159125	     -0.03970739	      0.00692643	      0.00000000
      0.81301011	     -0.04008960	      0.00766277	      0.00000000
      0.81442898	     -0.04047388	      0.00845418	      0.00000000
      0.81584784	     -0.04086298	      0.00930874	      0.00000000
      0.81726671	     -0.04125440	      0.01022597	      0.00000000
      0.81868558	     -0.04164751	      0.01120676	      0.00000000
      0.82010444	     -0.04204366	      0.01225621	      0.00000000
      0.82152331	     -0.04244190	      0.01337636	      0.00000000
      0.82294217	     -0.04284109	      0.01456776	      0.00000000
      0.82436104	     -0.04324054	      0.01583387	      0.00000000
      0.82577991	     -0.04364016	      0.01717840	      0.00000000
      0.82719877	     -0.04403915	      0.01860684	      0.00000000
      0.82861764	     -0.04443682	      0.02012376	      0.00000000
      0.83003650	     -0.04483184	      0.02173597	      0.00000000
      0.83145537	     -0.04522317	      0.02344943	      0.00000000
      0.83287423	     -0.04560937	      0.02527274	      0.00000000
      0.83429310	     -0.04598929	      0.02721346	      0.00000000
      0.83571197	     -0.04636118	      0.02928178	      0.00000000
      0.83713083	     -0.04672372	      0.03148678	      0.00000000
      0.83854970	     -0.04707463	      0.03383925	      0.00000000
      0.83996856	     -0.04741156	      0.03634726	      0.00000000
      0.84138743	     -0.04773196	      0.03902552	      0.00000000
      0.84280629	     -0.04803599	      0.04189043	      0.00000000
      0.84422516	     -0.04832133	      0.04495383	      0.00000000
      0.84564403	     -0.04858401	      0.04821625	      0.00000000
      0.84706289	     -0.04881711	      0.05170503	      0.00000000
      0.84848176	     -0.04904735	      0.05547885	      0.00000000
      0.84990062	     -0.04923487	      0.05952404	      0.00000000
      0.85131949	     -0.04936741	      0.06374744	      0.00000000
