PointVelocity
version=1
nRows=601
nColumns=4
inDegrees=no
No description.
endheader
time	state_0	state_1	state_2
      0.00000000	      1.57307886	     -0.12541006	      0.00000000
      0.00141887	      1.57684327	     -0.12277038	      0.00000000
      0.00283773	      1.58040466	     -0.11951174	      0.00000000
      0.00425660	      1.58331160	     -0.11533951	      0.00000000
      0.00567546	      1.58537187	     -0.11053625	      0.00000000
      0.00709433	      1.58681563	     -0.10533149	      0.00000000
      0.00851319	      1.58770111	     -0.09982368	      0.00000000
      0.00993206	      1.58797965	     -0.09400860	      0.00000000
      0.01135093	      1.58766104	     -0.08792028	      0.00000000
      0.01276979	      1.58673137	     -0.08156496	      0.00000000
      0.01418866	      1.58517545	     -0.07495254	      0.00000000
      0.01560752	      1.58304565	     -0.06812556	      0.00000000
      0.01702639	      1.58042579	     -0.06114508	      0.00000000
      0.01844526	      1.57743664	     -0.05408654	      0.00000000
      0.01986412	      1.57419922	     -0.04702273	      0.00000000
      0.02128299	      1.57076842	     -0.03999965	      0.00000000
      0.02270185	      1.56717804	     -0.03305340	      0.00000000
      0.02412072	      1.56339278	     -0.02619404	      0.00000000
      0.02553958	      1.55939322	     -0.01944048	      0.00000000
      0.02695845	      1.55515877	     -0.01280578	      0.00000000
      0.02837732	      1.55068498	     -0.00631188	      0.00000000
      0.02979618	      1.54597509	      0.00003000	      0.00000000
      0.03121505	      1.54102889	      0.00621068	      0.00000000
      0.03263391	      1.53583626	      0.01223444	      0.00000000
      0.03405278	      1.53038562	      0.01811216	      0.00000000
      0.03547165	      1.52466057	      0.02384449	      0.00000000
      0.03689051	      1.51867907	      0.02945504	      0.00000000
      0.03830938	      1.51239159	      0.03488388	      0.00000000
      0.03972824	      1.50571670	      0.04004747	      0.00000000
      0.04114711	      1.49850762	      0.04478355	      0.00000000
      0.04256597	      1.49057179	      0.04887532	      0.00000000
      0.04398484	      1.48187446	      0.05225467	      0.00000000
      0.04540371	      1.47242660	      0.05490226	      0.00000000
      0.04682257	      1.46252912	      0.05721470	      0.00000000
      0.04824144	      1.45247429	      0.05958166	      0.00000000
      0.04966030	      1.44241380	      0.06211500	      0.00000000
      0.05107917	      1.43247270	      0.06489836	      0.00000000
      0.05249804	      1.42264217	      0.06787510	      0.00000000
      0.05391690	      1.41291559	      0.07100192	      0.00000000
      0.05533577	      1.40326147	      0.07422027	      0.00000000
      0.05675463	      1.39368230	      0.07750309	      0.00000000
      0.05817350	      1.38418583	      0.08083497	      0.00000000
      0.05959236	      1.37476893	      0.08418982	      0.00000000
      0.06101123	      1.36543911	      0.08755607	      0.00000000
      0.06243010	      1.35620870	      0.09092506	      0.00000000
      0.06384896	      1.34709916	      0.09429870	      0.00000000
      0.06526783	      1.33813040	      0.09767696	      0.00000000
      0.06668669	      1.32931882	      0.10105836	      0.00000000
      0.06810556	      1.32068113	      0.10443973	      0.00000000
      0.06952443	      1.31222412	      0.10781318	      0.00000000
      0.07094329	      1.30395501	      0.11117062	      0.00000000
      0.07236216	      1.29587177	      0.11450341	      0.00000000
      0.07378102	      1.28797382	      0.11780348	      0.00000000
      0.07519989	      1.28025651	      0.12106578	      0.00000000
      0.07661875	      1.27271675	      0.12428536	      0.00000000
      0.07803762	      1.26535050	      0.12745996	      0.00000000
      0.07945649	      1.25815413	      0.13058684	      0.00000000
      0.08087535	      1.25112349	      0.13366414	      0.00000000
      0.08229422	      1.24425448	      0.13668965	      0.00000000
      0.08371308	      1.23754240	      0.13966109	      0.00000000
      0.08513195	      1.23098237	      0.14257603	      0.00000000
      0.08655081	      1.22456945	      0.14543180	      0.00000000
      0.08796968	      1.21829901	      0.14822577	      0.00000000
      0.08938855	      1.21216661	      0.15095528	      0.00000000
      0.09080741	      1.20616755	      0.15361760	      0.00000000
      0.09222628	      1.20029715	      0.15621011	      0.00000000
      0.09364514	      1.19455070	      0.15873017	      0.00000000
      0.09506401	      1.18892374	      0.16117537	      0.00000000
      0.09648288	      1.18341172	      0.16354323	      0.00000000
      0.09790174	      1.17801062	      0.16583165	      0.00000000
      0.09932061	      1.17271626	      0.16803841	      0.00000000
      0.10073947	      1.16752511	      0.17016172	      0.00000000
      0.10215834	      1.16243349	      0.17219969	      0.00000000
      0.10357720	      1.15743849	      0.17415089	      0.00000000
      0.10499607	      1.15253699	      0.17601376	      0.00000000
      0.10641494	      1.14772676	      0.17778730	      0.00000000
      0.10783380	      1.14300541	      0.17947037	      0.00000000
      0.10925267	      1.13837135	      0.18106237	      0.00000000
      0.11067153	      1.13382289	      0.18256262	      0.00000000
      0.11209040	      1.12935899	      0.18397088	      0.00000000
      0.11350927	      1.12497847	      0.18528681	      0.00000000
      0.11492813	      1.12068064	      0.18651050	      0.00000000
      0.11634700	      1.11646468	      0.18764189	      0.00000000
      0.11776586	      1.11233008	      0.18868131	      0.00000000
      0.11918473	      1.10827628	      0.18962901	      0.00000000
      0.12060359	      1.10430283	      0.19048550	      0.00000000
      0.12202246	      1.10040930	      0.19125128	      0.00000000
      0.12344133	      1.09659525	      0.19192704	      0.00000000
      0.12486019	      1.09286017	      0.19251343	      0.00000000
      0.12627906	      1.08920377	      0.19301135	      0.00000000
      0.12769792	      1.08562592	      0.19342173	      0.00000000
      0.12911679	      1.08212657	      0.19374568	      0.00000000
      0.13053566	      1.07870557	      0.19398425	      0.00000000
      0.13195452	      1.07536258	      0.19413864	      0.00000000
      0.13337339	      1.07209731	      0.19420999	      0.00000000
      0.13479225	      1.06890932	      0.19419960	      0.00000000
      0.13621112	      1.06579822	      0.19410872	      0.00000000
      0.13762998	      1.06276353	      0.19393874	      0.00000000
      0.13904885	      1.05980482	      0.19369100	      0.00000000
      0.14046772	      1.05692157	      0.19336695	      0.00000000
      0.14188658	      1.05411328	      0.19296801	      0.00000000
      0.14330545	      1.05137943	      0.19249566	      0.00000000
      0.14472431	      1.04871946	      0.19195136	      0.00000000
      0.14614318	      1.04613277	      0.19133661	      0.00000000
      0.14756204	      1.04361878	      0.19065288	      0.00000000
      0.14898091	      1.04117680	      0.18990163	      0.00000000
      0.15039978	      1.03880620	      0.18908435	      0.00000000
      0.15181864	      1.03650624	      0.18820248	      0.00000000
      0.15323751	      1.03427625	      0.18725749	      0.00000000
      0.15465637	      1.03211548	      0.18625080	      0.00000000
      0.15607524	      1.03002322	      0.18518390	      0.00000000
      0.15749411	      1.02799868	      0.18405809	      0.00000000
      0.15891297	      1.02604106	      0.18287470	      0.00000000
      0.16033184	      1.02414942	      0.18163477	      0.00000000
      0.16175070	      1.02232287	      0.18033940	      0.00000000
      0.16316957	      1.02056031	      0.17898933	      0.00000000
      0.16458843	      1.01886062	      0.17758492	      0.00000000
      0.16600730	      1.01722275	      0.17612743	      0.00000000
      0.16742617	      1.01564577	      0.17461867	      0.00000000
      0.16884503	      1.01412866	      0.17306092	      0.00000000
      0.17026390	      1.01267030	      0.17145651	      0.00000000
      0.17168276	      1.01126939	      0.16980654	      0.00000000
      0.17310163	      1.00992456	      0.16811164	      0.00000000
      0.17452050	      1.00863469	      0.16637199	      0.00000000
      0.17593936	      1.00739879	      0.16458845	      0.00000000
      0.17735823	      1.00621604	      0.16276133	      0.00000000
      0.17877709	      1.00508524	      0.16088992	      0.00000000
      0.18019596	      1.00400584	      0.15897519	      0.00000000
      0.18161482	      1.00297774	      0.15701980	      0.00000000
      0.18303369	      1.00200079	      0.15502583	      0.00000000
      0.18445256	      1.00107425	      0.15299421	      0.00000000
      0.18587142	      1.00019730	      0.15092422	      0.00000000
      0.18729029	      0.99936933	      0.14881699	      0.00000000
      0.18870915	      0.99859029	      0.14667333	      0.00000000
      0.19012802	      0.99786019	      0.14448971	      0.00000000
      0.19154689	      0.99717768	      0.14227102	      0.00000000
      0.19296575	      0.99654129	      0.14002360	      0.00000000
      0.19438462	      0.99595093	      0.13774338	      0.00000000
      0.19580348	      0.99540648	      0.13542896	      0.00000000
      0.19722235	      0.99490785	      0.13308230	      0.00000000
      0.19864121	      0.99445489	      0.13070434	      0.00000000
      0.20006008	      0.99404740	      0.12829637	      0.00000000
      0.20147895	      0.99368518	      0.12585919	      0.00000000
      0.20289781	      0.99336809	      0.12339347	      0.00000000
      0.20431668	      0.99309593	      0.12089997	      0.00000000
      0.20573554	      0.99286859	      0.11837938	      0.00000000
      0.20715441	      0.99268593	      0.11583245	      0.00000000
      0.20857328	      0.99254786	      0.11325990	      0.00000000
      0.20999214	      0.99245429	      0.11066244	      0.00000000
      0.21141101	      0.99240515	      0.10804078	      0.00000000
      0.21282987	      0.99240038	      0.10539561	      0.00000000
      0.21424874	      0.99243995	      0.10272763	      0.00000000
      0.21566760	      0.99252382	      0.10003750	      0.00000000
      0.21708647	      0.99265198	      0.09732591	      0.00000000
      0.21850534	      0.99282444	      0.09459353	      0.00000000
      0.21992420	      0.99304124	      0.09184102	      0.00000000
      0.22134307	      0.99330241	      0.08906906	      0.00000000
      0.22276193	      0.99360804	      0.08627830	      0.00000000
      0.22418080	      0.99395822	      0.08346943	      0.00000000
      0.22559966	      0.99435308	      0.08064311	      0.00000000
      0.22701853	      0.99479277	      0.07780002	      0.00000000
      0.22843740	      0.99527745	      0.07494084	      0.00000000
      0.22985626	      0.99580731	      0.07206626	      0.00000000
      0.23127513	      0.99638258	      0.06917696	      0.00000000
      0.23269399	      0.99700348	      0.06627363	      0.00000000
      0.23411286	      0.99767029	      0.06335697	      0.00000000
      0.23553173	      0.99838324	      0.06042768	      0.00000000
      0.23695059	      0.99914264	      0.05748645	      0.00000000
      0.23836946	      0.99994875	      0.05453397	      0.00000000
      0.23978832	      1.00080188	      0.05157093	      0.00000000
      0.24120719	      1.00170231	      0.04859801	      0.00000000
      0.24262605	      1.00265034	      0.04561589	      0.00000000
      0.24404492	      1.00364629	      0.04262527	      0.00000000
      0.24546379	      1.00469048	      0.03962680	      0.00000000
      0.24688265	      1.00578322	      0.03662118	      0.00000000
      0.24830152	      1.00692487	      0.03360909	      0.00000000
      0.24972038	      1.00811578	      0.03059120	      0.00000000
      0.25113925	      1.00935630	      0.02756821	      0.00000000
      0.25255812	      1.01064680	      0.02454079	      0.00000000
      0.25397698	      1.01198764	      0.02150961	      0.00000000
      0.25539585	      1.01337919	      0.01847534	      0.00000000
      0.25681471	      1.01482180	      0.01543864	      0.00000000
      0.25823358	      1.01631582	      0.01240014	      0.00000000
      0.25965244	      1.01786158	      0.00936048	      0.00000000
      0.26107131	      1.01945942	      0.00632029	      0.00000000
      0.26249018	      1.02110967	      0.00328014	      0.00000000
      0.26390904	      1.02281262	      0.00024065	      0.00000000
      0.26532791	      1.02456859	     -0.00279763	      0.00000000
      0.26674677	      1.02637787	     -0.00583413	      0.00000000
      0.26816564	      1.02824073	     -0.00886834	      0.00000000
      0.26958451	      1.03015744	     -0.01189971	      0.00000000
      0.27100337	      1.03212827	     -0.01492776	      0.00000000
      0.27242224	      1.03415345	     -0.01795201	      0.00000000
      0.27384110	      1.03623322	     -0.02097200	      0.00000000
      0.27525997	      1.03836781	     -0.02398729	      0.00000000
      0.27667883	      1.04055743	     -0.02699748	      0.00000000
      0.27809770	      1.04280228	     -0.03000215	      0.00000000
      0.27951657	      1.04510257	     -0.03300096	      0.00000000
      0.28093543	      1.04745848	     -0.03599354	      0.00000000
      0.28235430	      1.04987022	     -0.03897957	      0.00000000
      0.28377316	      1.05233797	     -0.04195872	      0.00000000
      0.28519203	      1.05486193	     -0.04493072	      0.00000000
      0.28661089	      1.05744231	     -0.04789527	      0.00000000
      0.28802976	      1.06007933	     -0.05085212	      0.00000000
      0.28944863	      1.06277322	     -0.05380100	      0.00000000
      0.29086749	      1.06552426	     -0.05674169	      0.00000000
      0.29228636	      1.06833271	     -0.05967392	      0.00000000
      0.29370522	      1.07119893	     -0.06259747	      0.00000000
      0.29512409	      1.07412325	     -0.06551210	      0.00000000
      0.29654296	      1.07710613	     -0.06841756	      0.00000000
      0.29796182	      1.08014799	     -0.07131361	      0.00000000
      0.29938069	      1.08324941	     -0.07419998	      0.00000000
      0.30079955	      1.08641095	     -0.07707641	      0.00000000
      0.30221842	      1.08963335	     -0.07994260	      0.00000000
      0.30363728	      1.09291728	     -0.08279826	      0.00000000
      0.30505615	      1.09626367	     -0.08564307	      0.00000000
      0.30647502	      1.09967337	     -0.08847669	      0.00000000
      0.30789388	      1.10314746	     -0.09129878	      0.00000000
      0.30931275	      1.10668698	     -0.09410898	      0.00000000
      0.31073161	      1.11029319	     -0.09690691	      0.00000000
      0.31215048	      1.11396729	     -0.09969222	      0.00000000
      0.31356935	      1.11771066	     -0.10246453	      0.00000000
      0.31498821	      1.12152467	     -0.10522349	      0.00000000
      0.31640708	      1.12541078	     -0.10796877	      0.00000000
      0.31782594	      1.12937044	     -0.11070005	      0.00000000
      0.31924481	      1.13340510	     -0.11341709	      0.00000000
      0.32066367	      1.13751625	     -0.11611961	      0.00000000
      0.32208254	      1.14170522	     -0.11880749	      0.00000000
      0.32350141	      1.14597342	     -0.12148054	      0.00000000
      0.32492027	      1.15032195	     -0.12413877	      0.00000000
      0.32633914	      1.15475202	     -0.12678211	      0.00000000
      0.32775800	      1.15926437	     -0.12941067	      0.00000000
      0.32917687	      1.16385988	     -0.13202454	      0.00000000
      0.33059574	      1.16853887	     -0.13462396	      0.00000000
      0.33201460	      1.17330176	     -0.13720910	      0.00000000
      0.33343347	      1.17814836	     -0.13978035	      0.00000000
      0.33485233	      1.18307859	     -0.14233799	      0.00000000
      0.33627120	      1.18809173	     -0.14488252	      0.00000000
      0.33769006	      1.19318719	     -0.14741434	      0.00000000
      0.33910893	      1.19836380	     -0.14993405	      0.00000000
      0.34052780	      1.20362050	     -0.15244219	      0.00000000
      0.34194666	      1.20895577	     -0.15493949	      0.00000000
      0.34336553	      1.21436818	     -0.15742661	      0.00000000
      0.34478439	      1.21985601	     -0.15990442	      0.00000000
      0.34620326	      1.22541757	     -0.16237373	      0.00000000
      0.34762213	      1.23105111	     -0.16483555	      0.00000000
      0.34904099	      1.23675495	     -0.16729086	      0.00000000
      0.35045986	      1.24252728	     -0.16974070	      0.00000000
      0.35187872	      1.24836548	     -0.17218569	      0.00000000
      0.35329759	      1.25426891	     -0.17462734	      0.00000000
      0.35471645	      1.26023860	     -0.17706753	      0.00000000
      0.35613532	      1.26627070	     -0.17950623	      0.00000000
      0.35755419	      1.27236024	     -0.18194387	      0.00000000
      0.35897305	      1.27850690	     -0.18438288	      0.00000000
      0.36039192	      1.28471171	     -0.18682543	      0.00000000
      0.36181078	      1.29097431	     -0.18927248	      0.00000000
      0.36322965	      1.29729158	     -0.19172404	      0.00000000
      0.36464851	      1.30366065	     -0.19417995	      0.00000000
      0.36606738	      1.31008096	     -0.19664119	      0.00000000
      0.36748625	      1.31655260	     -0.19910891	      0.00000000
      0.36890511	      1.32307507	     -0.20158399	      0.00000000
      0.37032398	      1.32964655	     -0.20406679	      0.00000000
      0.37174284	      1.33626489	     -0.20655761	      0.00000000
      0.37316171	      1.34292754	     -0.20905668	      0.00000000
      0.37458058	      1.34963190	     -0.21156434	      0.00000000
      0.37599944	      1.35637667	     -0.21408121	      0.00000000
      0.37741831	      1.36316103	     -0.21660808	      0.00000000
      0.37883717	      1.36998480	     -0.21914541	      0.00000000
      0.38025604	      1.37684773	     -0.22169357	      0.00000000
      0.38167490	      1.38374848	     -0.22425244	      0.00000000
      0.38309377	      1.39068541	     -0.22682178	      0.00000000
      0.38451264	      1.39765616	     -0.22940154	      0.00000000
      0.38593150	      1.40465878	     -0.23199180	      0.00000000
      0.38735037	      1.41169102	     -0.23459303	      0.00000000
      0.38876923	      1.41875084	     -0.23720540	      0.00000000
      0.39018810	      1.42583545	     -0.23982968	      0.00000000
      0.39160697	      1.43294223	     -0.24246661	      0.00000000
      0.39302583	      1.44006740	     -0.24511769	      0.00000000
      0.39444470	      1.44720719	     -0.24778491	      0.00000000
      0.39586356	      1.45435720	     -0.25046949	      0.00000000
      0.39728243	      1.46151392	     -0.25317151	      0.00000000
      0.39870129	      1.46867209	     -0.25589127	      0.00000000
      0.40012016	      1.47582624	     -0.25863006	      0.00000000
      0.40153903	      1.48296910	     -0.26138974	      0.00000000
      0.40295789	      1.49009403	     -0.26417205	      0.00000000
      0.40437676	      1.49719299	     -0.26697789	      0.00000000
      0.40579562	      1.50425840	     -0.26980861	      0.00000000
      0.40721449	      1.51128111	     -0.27266362	      0.00000000
      0.40863336	      1.51825270	     -0.27554305	      0.00000000
      0.41005222	      1.52516236	     -0.27844387	      0.00000000
      0.41147109	      1.53200024	     -0.28136424	      0.00000000
      0.41288995	      1.53875252	     -0.28429732	      0.00000000
      0.41430882	      1.54540656	     -0.28723825	      0.00000000
      0.41572768	      1.55194413	     -0.29017425	      0.00000000
      0.41714655	      1.55834875	     -0.29309540	      0.00000000
      0.41856542	      1.56459667	     -0.29597950	      0.00000000
      0.41998428	      1.57066612	     -0.29880843	      0.00000000
      0.42140315	      1.57652646	     -0.30154566	      0.00000000
      0.42282201	      1.58214934	     -0.30415971	      0.00000000
      0.42424088	      1.58749669	     -0.30659469	      0.00000000
      0.42565974	      1.59253273	     -0.30879948	      0.00000000
      0.42707861	      1.59721227	     -0.31069695	      0.00000000
      0.42849748	      1.60149051	     -0.31221192	      0.00000000
      0.42991634	      1.60531746	     -0.31325316	      0.00000000
      0.43133521	      1.60863168	     -0.31372787	      0.00000000
      0.43275407	      1.61139252	     -0.31355151	      0.00000000
      0.43417294	      1.61348000	     -0.31263225	      0.00000000
      0.43559181	      1.61489593	     -0.31093328	      0.00000000
      0.43701067	      1.61598447	     -0.30837839	      0.00000000
      0.43842954	      1.61696517	     -0.30493508	      0.00000000
      0.43984840	      1.61754556	     -0.30063193	      0.00000000
      0.44126727	      1.61747204	     -0.29571582	      0.00000000
      0.44268613	      1.61678416	     -0.29035450	      0.00000000
      0.44410500	      1.61549912	     -0.28458238	      0.00000000
      0.44552387	      1.61360613	     -0.27845441	      0.00000000
      0.44694273	      1.61111843	     -0.27198836	      0.00000000
      0.44836160	      1.60803268	     -0.26521276	      0.00000000
      0.44978046	      1.60435988	     -0.25815011	      0.00000000
      0.45119933	      1.60010656	     -0.25082192	      0.00000000
      0.45261820	      1.59528730	     -0.24325695	      0.00000000
      0.45403706	      1.58993041	     -0.23546403	      0.00000000
      0.45545593	      1.58402832	     -0.22751134	      0.00000000
      0.45687479	      1.57754509	     -0.21949622	      0.00000000
      0.45829366	      1.57044011	     -0.21154375	      0.00000000
      0.45971252	      1.56268289	     -0.20377040	      0.00000000
      0.46113139	      1.55429510	     -0.19623180	      0.00000000
      0.46255026	      1.54527691	     -0.18900588	      0.00000000
      0.46396912	      1.53572040	     -0.18204939	      0.00000000
      0.46538799	      1.52572971	     -0.17532243	      0.00000000
      0.46680685	      1.51546863	     -0.16866365	      0.00000000
      0.46822572	      1.50512098	     -0.16187327	      0.00000000
      0.46964459	      1.49477065	     -0.15483895	      0.00000000
      0.47106345	      1.48445392	     -0.14751351	      0.00000000
      0.47248232	      1.47411699	     -0.13997925	      0.00000000
      0.47390118	      1.46374526	     -0.13227763	      0.00000000
      0.47532005	      1.45333952	     -0.12445489	      0.00000000
      0.47673891	      1.44290309	     -0.11654901	      0.00000000
      0.47815778	      1.43245635	     -0.10858640	      0.00000000
      0.47957665	      1.42201746	     -0.10059414	      0.00000000
      0.48099551	      1.41161116	     -0.09259014	      0.00000000
      0.48241438	      1.40126054	     -0.08459415	      0.00000000
      0.48383324	      1.39098740	     -0.07662106	      0.00000000
      0.48525211	      1.38081364	     -0.06868742	      0.00000000
      0.48667098	      1.37075648	     -0.06080651	      0.00000000
      0.48808984	      1.36083439	     -0.05299254	      0.00000000
      0.48950871	      1.35105908	     -0.04525693	      0.00000000
      0.49092757	      1.34144365	     -0.03761169	      0.00000000
      0.49234644	      1.33199359	     -0.03006657	      0.00000000
      0.49376530	      1.32271576	     -0.02263195	      0.00000000
      0.49518417	      1.31361068	     -0.01531606	      0.00000000
      0.49660304	      1.30467995	     -0.00812786	      0.00000000
      0.49802190	      1.29592138	     -0.00107372	      0.00000000
      0.49944077	      1.28733378	      0.00583954	      0.00000000
      0.50085963	      1.27891398	      0.01260751	      0.00000000
      0.50227850	      1.27065926	      0.01922525	      0.00000000
      0.50369736	      1.26256596	      0.02568974	      0.00000000
      0.50511623	      1.25463058	      0.03199749	      0.00000000
      0.50653510	      1.24684930	      0.03814660	      0.00000000
      0.50795396	      1.23921833	      0.04413479	      0.00000000
      0.50937283	      1.23173395	      0.04996111	      0.00000000
      0.51079169	      1.22439242	      0.05562430	      0.00000000
      0.51221056	      1.21719034	      0.06112423	      0.00000000
      0.51362943	      1.21012419	      0.06646052	      0.00000000
      0.51504829	      1.20319094	      0.07163370	      0.00000000
      0.51646716	      1.19638745	      0.07664413	      0.00000000
      0.51788602	      1.18971105	      0.08149290	      0.00000000
      0.51930489	      1.18315895	      0.08618091	      0.00000000
      0.52072375	      1.17672876	      0.09070967	      0.00000000
      0.52214262	      1.17041801	      0.09508055	      0.00000000
      0.52356149	      1.16422456	      0.09929535	      0.00000000
      0.52498035	      1.15814617	      0.10335579	      0.00000000
      0.52639922	      1.15218087	      0.10726393	      0.00000000
      0.52781808	      1.14632664	      0.11102178	      0.00000000
      0.52923695	      1.14058165	      0.11463160	      0.00000000
      0.53065582	      1.13494395	      0.11809559	      0.00000000
      0.53207468	      1.12941204	      0.12141623	      0.00000000
      0.53349355	      1.12398446	      0.12459600	      0.00000000
      0.53491241	      1.11866002	      0.12763753	      0.00000000
      0.53633128	      1.11343739	      0.13054341	      0.00000000
      0.53775014	      1.10831536	      0.13331634	      0.00000000
      0.53916901	      1.10329269	      0.13595899	      0.00000000
      0.54058788	      1.09836831	      0.13847409	      0.00000000
      0.54200674	      1.09354112	      0.14086435	      0.00000000
      0.54342561	      1.08881015	      0.14313250	      0.00000000
      0.54484447	      1.08417445	      0.14528129	      0.00000000
      0.54626334	      1.07963314	      0.14731340	      0.00000000
      0.54768221	      1.07518534	      0.14923152	      0.00000000
      0.54910107	      1.07083020	      0.15103827	      0.00000000
      0.55051994	      1.06656686	      0.15273627	      0.00000000
      0.55193880	      1.06239448	      0.15432803	      0.00000000
      0.55335767	      1.05831224	      0.15581610	      0.00000000
      0.55477653	      1.05431932	      0.15720288	      0.00000000
      0.55619540	      1.05041491	      0.15849083	      0.00000000
      0.55761427	      1.04659826	      0.15968225	      0.00000000
      0.55903313	      1.04286859	      0.16077951	      0.00000000
      0.56045200	      1.03922520	      0.16178482	      0.00000000
      0.56187086	      1.03566736	      0.16270045	      0.00000000
      0.56328973	      1.03219441	      0.16352853	      0.00000000
      0.56470859	      1.02880567	      0.16427123	      0.00000000
      0.56612746	      1.02550051	      0.16493061	      0.00000000
      0.56754633	      1.02227831	      0.16550874	      0.00000000
      0.56896519	      1.01913842	      0.16600756	      0.00000000
      0.57038406	      1.01608025	      0.16642908	      0.00000000
      0.57180292	      1.01310305	      0.16677508	      0.00000000
      0.57322179	      1.01020614	      0.16704742	      0.00000000
      0.57464066	      1.00738853	      0.16724762	      0.00000000
      0.57605952	      1.00464932	      0.16737727	      0.00000000
      0.57747839	      1.00198738	      0.16743760	      0.00000000
      0.57889725	      0.99940155	      0.16742979	      0.00000000
      0.58031612	      0.99689072	      0.16735505	      0.00000000
      0.58173498	      0.99445376	      0.16721472	      0.00000000
      0.58315385	      0.99208983	      0.16701034	      0.00000000
      0.58457272	      0.98979817	      0.16674359	      0.00000000
      0.58599158	      0.98757817	      0.16641577	      0.00000000
      0.58741045	      0.98542902	      0.16602790	      0.00000000
      0.58882931	      0.98335018	      0.16558133	      0.00000000
      0.59024818	      0.98134161	      0.16507967	      0.00000000
      0.59166705	      0.97940314	      0.16452435	      0.00000000
      0.59308591	      0.97753347	      0.16391197	      0.00000000
      0.59450478	      0.97573068	      0.16324514	      0.00000000
      0.59592364	      0.97399389	      0.16252872	      0.00000000
      0.59734251	      0.97232320	      0.16176145	      0.00000000
      0.59876137	      0.97071838	      0.16094374	      0.00000000
      0.60018024	      0.96917915	      0.16007774	      0.00000000
      0.60159911	      0.96770517	      0.15916460	      0.00000000
      0.60301797	      0.96629589	      0.15820554	      0.00000000
      0.60443684	      0.96495078	      0.15720165	      0.00000000
      0.60585570	      0.96366922	      0.15615396	      0.00000000
      0.60727457	      0.96245062	      0.15506353	      0.00000000
      0.60869344	      0.96129434	      0.15393134	      0.00000000
      0.61011230	      0.96019972	      0.15275841	      0.00000000
      0.61153117	      0.95916609	      0.15154563	      0.00000000
      0.61295003	      0.95819276	      0.15029394	      0.00000000
      0.61436890	      0.95727900	      0.14900418	      0.00000000
      0.61578776	      0.95642410	      0.14767719	      0.00000000
      0.61720663	      0.95562729	      0.14631370	      0.00000000
      0.61862550	      0.95488784	      0.14491449	      0.00000000
      0.62004436	      0.95420500	      0.14348019	      0.00000000
      0.62146323	      0.95357801	      0.14201148	      0.00000000
      0.62288209	      0.95300616	      0.14050891	      0.00000000
      0.62430096	      0.95248872	      0.13897307	      0.00000000
      0.62571983	      0.95202504	      0.13740445	      0.00000000
      0.62713869	      0.95161443	      0.13580355	      0.00000000
      0.62855756	      0.95125631	      0.13417079	      0.00000000
      0.62997642	      0.95095007	      0.13250663	      0.00000000
      0.63139529	      0.95069520	      0.13081145	      0.00000000
      0.63281415	      0.95049119	      0.12908565	      0.00000000
      0.63423302	      0.95033761	      0.12732961	      0.00000000
      0.63565189	      0.95023403	      0.12554369	      0.00000000
      0.63707075	      0.95018015	      0.12372828	      0.00000000
      0.63848962	      0.95017560	      0.12188375	      0.00000000
      0.63990848	      0.95022018	      0.12001050	      0.00000000
      0.64132735	      0.95031361	      0.11810894	      0.00000000
      0.64274621	      0.95045574	      0.11617951	      0.00000000
      0.64416508	      0.95064641	      0.11422266	      0.00000000
      0.64558395	      0.95088552	      0.11223887	      0.00000000
      0.64700281	      0.95117298	      0.11022866	      0.00000000
      0.64842168	      0.95150875	      0.10819257	      0.00000000
      0.64984054	      0.95189280	      0.10613115	      0.00000000
      0.65125941	      0.95232516	      0.10404503	      0.00000000
      0.65267828	      0.95280584	      0.10193482	      0.00000000
      0.65409714	      0.95333493	      0.09980119	      0.00000000
      0.65551601	      0.95391250	      0.09764482	      0.00000000
      0.65693487	      0.95453866	      0.09546645	      0.00000000
      0.65835374	      0.95521355	      0.09326679	      0.00000000
      0.65977260	      0.95593732	      0.09104666	      0.00000000
      0.66119147	      0.95671013	      0.08880684	      0.00000000
      0.66261034	      0.95753217	      0.08654818	      0.00000000
      0.66402920	      0.95840364	      0.08427152	      0.00000000
      0.66544807	      0.95932476	      0.08197778	      0.00000000
      0.66686693	      0.96029573	      0.07966783	      0.00000000
      0.66828580	      0.96131677	      0.07734262	      0.00000000
      0.66970467	      0.96238812	      0.07500308	      0.00000000
      0.67112353	      0.96351000	      0.07265018	      0.00000000
      0.67254240	      0.96468264	      0.07028487	      0.00000000
      0.67396126	      0.96590628	      0.06790816	      0.00000000
      0.67538013	      0.96718116	      0.06552103	      0.00000000
      0.67679899	      0.96850755	      0.06312451	      0.00000000
      0.67821786	      0.96988571	      0.06071961	      0.00000000
      0.67963673	      0.97131591	      0.05830736	      0.00000000
      0.68105559	      0.97279841	      0.05588880	      0.00000000
      0.68247446	      0.97433349	      0.05346495	      0.00000000
      0.68389332	      0.97592142	      0.05103684	      0.00000000
      0.68531219	      0.97756247	      0.04860550	      0.00000000
      0.68673106	      0.97925691	      0.04617192	      0.00000000
      0.68814992	      0.98100501	      0.04373711	      0.00000000
      0.68956879	      0.98280704	      0.04130204	      0.00000000
      0.69098765	      0.98466329	      0.03886767	      0.00000000
      0.69240652	      0.98657406	      0.03643495	      0.00000000
      0.69382538	      0.98853965	      0.03400480	      0.00000000
      0.69524425	      0.99056037	      0.03157813	      0.00000000
      0.69666312	      0.99263657	      0.02915581	      0.00000000
      0.69808198	      0.99476859	      0.02673872	      0.00000000
      0.69950085	      0.99695681	      0.02432769	      0.00000000
      0.70091971	      0.99920161	      0.02192357	      0.00000000
      0.70233858	      1.00150340	      0.01952715	      0.00000000
      0.70375744	      1.00386259	      0.01713923	      0.00000000
      0.70517631	      1.00627964	      0.01476060	      0.00000000
      0.70659518	      1.00875499	      0.01239201	      0.00000000
      0.70801404	      1.01128913	      0.01003424	      0.00000000
      0.70943291	      1.01388252	      0.00768804	      0.00000000
      0.71085177	      1.01653567	      0.00535418	      0.00000000
      0.71227064	      1.01924908	      0.00303340	      0.00000000
      0.71368951	      1.02202324	      0.00072648	      0.00000000
      0.71510837	      1.02485867	     -0.00156583	      0.00000000
      0.71652724	      1.02775585	     -0.00384272	      0.00000000
      0.71794610	      1.03071529	     -0.00610343	      0.00000000
      0.71936497	      1.03373744	     -0.00834712	      0.00000000
      0.72078383	      1.03682280	     -0.01057300	      0.00000000
      0.72220270	      1.03997176	     -0.01278020	      0.00000000
      0.72362157	      1.04318477	     -0.01496789	      0.00000000
      0.72504043	      1.04646220	     -0.01713520	      0.00000000
      0.72645930	      1.04980441	     -0.01928126	      0.00000000
      0.72787816	      1.05321174	     -0.02140522	      0.00000000
      0.72929703	      1.05668452	     -0.02350622	      0.00000000
      0.73071590	      1.06022311	     -0.02558345	      0.00000000
      0.73213476	      1.06382783	     -0.02763611	      0.00000000
      0.73355363	      1.06749915	     -0.02966351	      0.00000000
      0.73497249	      1.07123749	     -0.03166494	      0.00000000
      0.73639136	      1.07504347	     -0.03363985	      0.00000000
      0.73781022	      1.07891767	     -0.03558768	      0.00000000
      0.73922909	      1.08286085	     -0.03750806	      0.00000000
      0.74064796	      1.08687378	     -0.03940057	      0.00000000
      0.74206682	      1.09095725	     -0.04126500	      0.00000000
      0.74348569	      1.09511211	     -0.04310107	      0.00000000
      0.74490455	      1.09933908	     -0.04490868	      0.00000000
      0.74632342	      1.10363891	     -0.04668768	      0.00000000
      0.74774229	      1.10801214	     -0.04843807	      0.00000000
      0.74916115	      1.11245934	     -0.05015979	      0.00000000
      0.75058002	      1.11698076	     -0.05185293	      0.00000000
      0.75199888	      1.12157674	     -0.05351753	      0.00000000
      0.75341775	      1.12624727	     -0.05515377	      0.00000000
      0.75483661	      1.13099243	     -0.05676178	      0.00000000
      0.75625548	      1.13581199	     -0.05834187	      0.00000000
      0.75767435	      1.14070576	     -0.05989429	      0.00000000
      0.75909321	      1.14567334	     -0.06141948	      0.00000000
      0.76051208	      1.15071435	     -0.06291783	      0.00000000
      0.76193094	      1.15582818	     -0.06439002	      0.00000000
      0.76334981	      1.16101429	     -0.06583663	      0.00000000
      0.76476868	      1.16627190	     -0.06725863	      0.00000000
      0.76618754	      1.17160025	     -0.06865698	      0.00000000
      0.76760641	      1.17699842	     -0.07003289	      0.00000000
      0.76902527	      1.18246551	     -0.07138756	      0.00000000
      0.77044414	      1.18800054	     -0.07272223	      0.00000000
      0.77186300	      1.19360259	     -0.07403804	      0.00000000
      0.77328187	      1.19927067	     -0.07533618	      0.00000000
      0.77470074	      1.20500381	     -0.07661786	      0.00000000
      0.77611960	      1.21080101	     -0.07788446	      0.00000000
      0.77753847	      1.21666128	     -0.07913739	      0.00000000
      0.77895733	      1.22258373	     -0.08037808	      0.00000000
      0.78037620	      1.22856742	     -0.08160796	      0.00000000
      0.78179506	      1.23461162	     -0.08282829	      0.00000000
      0.78321393	      1.24071553	     -0.08404035	      0.00000000
      0.78463280	      1.24687861	     -0.08524511	      0.00000000
      0.78605166	      1.25310022	     -0.08644363	      0.00000000
      0.78747053	      1.25938003	     -0.08763651	      0.00000000
      0.78888939	      1.26571763	     -0.08882447	      0.00000000
      0.79030826	      1.27211284	     -0.09000773	      0.00000000
      0.79172713	      1.27856546	     -0.09118664	      0.00000000
      0.79314599	      1.28507542	     -0.09236111	      0.00000000
      0.79456486	      1.29164266	     -0.09353115	      0.00000000
      0.79598372	      1.29826710	     -0.09469653	      0.00000000
      0.79740259	      1.30494876	     -0.09585700	      0.00000000
      0.79882145	      1.31168743	     -0.09701234	      0.00000000
      0.80024032	      1.31848316	     -0.09816228	      0.00000000
      0.80165919	      1.32533530	     -0.09930686	      0.00000000
      0.80307805	      1.33224395	     -0.10044608	      0.00000000
      0.80449692	      1.33920619	     -0.10158042	      0.00000000
      0.80591578	      1.34621711	     -0.10271072	      0.00000000
      0.80733465	      1.35327670	     -0.10383886	      0.00000000
      0.80875352	      1.36040815	     -0.10497222	      0.00000000
      0.81017238	      1.36760824	     -0.10610770	      0.00000000
      0.81159125	      1.37482420	     -0.10722753	      0.00000000
      0.81301011	      1.38207143	     -0.10834169	      0.00000000
      0.81442898	      1.38938279	     -0.10946683	      0.00000000
      0.81584784	      1.39673041	     -0.11059771	      0.00000000
      0.81726671	      1.40411611	     -0.11173546	      0.00000000
      0.81868558	      1.41155113	     -0.11288168	      0.00000000
      0.82010444	      1.41902211	     -0.11403350	      0.00000000
      0.82152331	      1.42652062	     -0.11518931	      0.00000000
      0.82294217	      1.43404802	     -0.11634901	      0.00000000
      0.82436104	      1.44160677	     -0.11751097	      0.00000000
      0.82577991	      1.44919534	     -0.11867341	      0.00000000
      0.82719877	      1.45680697	     -0.11983219	      0.00000000
      0.82861764	      1.46443612	     -0.12098393	      0.00000000
      0.83003650	      1.47207324	     -0.12212221	      0.00000000
      0.83145537	      1.47971080	     -0.12324200	      0.00000000
      0.83287423	      1.48733576	     -0.12433341	      0.00000000
      0.83429310	      1.49493699	     -0.12538837	      0.00000000
      0.83571197	      1.50249450	     -0.12639067	      0.00000000
      0.83713083	      1.50999076	     -0.12732669	      0.00000000
      0.83854970	      1.51739659	     -0.12817092	      0.00000000
      0.83996856	      1.52468793	     -0.12890161	      0.00000000
      0.84138743	      1.53182222	     -0.12948083	      0.00000000
      0.84280629	      1.53875797	     -0.12987478	      0.00000000
      0.84422516	      1.54543833	     -0.13003053	      0.00000000
      0.84564403	      1.55182391	     -0.12990584	      0.00000000
      0.84706289	      1.55783905	     -0.12942638	      0.00000000
      0.84848176	      1.56343120	     -0.12856186	      0.00000000
      0.84990062	      1.56846971	     -0.12717453	      0.00000000
      0.85131949	      1.57310608	     -0.12538691	      0.00000000
