PointPosition
version=1
nRows=601
nColumns=4
inDegrees=no
No description.
endheader
time	state_0	state_1	state_2
      0.00000000	      0.20556279	      0.02239044	      0.09478690
      0.00142426	      0.21171022	      0.02261627	      0.09478690
      0.00284852	      0.21779301	      0.02284471	      0.09478690
      0.00427278	      0.22380130	      0.02307442	      0.09478690
      0.00569704	      0.22972263	      0.02330184	      0.09478690
      0.00712130	      0.23554299	      0.02352030	      0.09478690
      0.00854556	      0.24124731	      0.02372187	      0.09478690
      0.00996982	      0.24682106	      0.02389891	      0.09478690
      0.01139408	      0.25224944	      0.02404298	      0.09478690
      0.01281834	      0.25751688	      0.02414411	      0.09478690
      0.01424260	      0.26260181	      0.02418696	      0.09478690
      0.01566686	      0.26747765	      0.02415201	      0.09478690
      0.01709112	      0.27210807	      0.02401403	      0.09478690
      0.01851538	      0.27645271	      0.02374585	      0.09478690
      0.01993964	      0.28046844	      0.02332163	      0.09478690
      0.02136390	      0.28411331	      0.02271809	      0.09478690
      0.02278816	      0.28735164	      0.02191965	      0.09478690
      0.02421242	      0.29015220	      0.02091585	      0.09478690
      0.02563668	      0.29249448	      0.01970535	      0.09478690
      0.02706094	      0.29436353	      0.01829239	      0.09478690
      0.02848521	      0.29575809	      0.01669637	      0.09478690
      0.02990947	      0.29667251	      0.01493572	      0.09478690
      0.03133373	      0.29716874	      0.01311666	      0.09478690
      0.03275799	      0.29741586	      0.01144966	      0.09478690
      0.03418225	      0.29757475	      0.01003760	      0.09478690
      0.03560651	      0.29769894	      0.00883276	      0.09478690
      0.03703077	      0.29779524	      0.00777923	      0.09478690
      0.03845503	      0.29787616	      0.00685450	      0.09478690
      0.03987929	      0.29794381	      0.00603961	      0.09478690
      0.04130355	      0.29800223	      0.00532035	      0.09478690
      0.04272781	      0.29805305	      0.00468350	      0.09478690
      0.04415207	      0.29809838	      0.00411791	      0.09478690
      0.04557633	      0.29813941	      0.00361419	      0.09478690
      0.04700059	      0.29817740	      0.00316431	      0.09478690
      0.04842485	      0.29821311	      0.00276170	      0.09478690
      0.04984911	      0.29824730	      0.00240061	      0.09478690
      0.05127337	      0.29828044	      0.00207629	      0.09478690
      0.05269763	      0.29831301	      0.00178444	      0.09478690
      0.05412189	      0.29834531	      0.00152141	      0.09478690
      0.05554615	      0.29837763	      0.00128386	      0.09478690
      0.05697041	      0.29841018	      0.00106893	      0.09478690
      0.05839467	      0.29844311	      0.00087395	      0.09478690
      0.05981893	      0.29847656	      0.00069664	      0.09478690
      0.06124319	      0.29851061	      0.00053489	      0.09478690
      0.06266745	      0.29854532	      0.00038685	      0.09478690
      0.06409171	      0.29858074	      0.00025083	      0.09478690
      0.06551597	      0.29861688	      0.00012536	      0.09478690
      0.06694023	      0.29865374	      0.00000908	      0.09478690
      0.06836449	      0.29869130	     -0.00009919	      0.09478690
      0.06978875	      0.29872955	     -0.00020056	      0.09478690
      0.07121301	      0.29876845	     -0.00029595	      0.09478690
      0.07263727	      0.29880796	     -0.00038626	      0.09478690
      0.07406153	      0.29884803	     -0.00047224	      0.09478690
      0.07548579	      0.29888861	     -0.00055459	      0.09478690
      0.07691005	      0.29892966	     -0.00063392	      0.09478690
      0.07833431	      0.29897111	     -0.00071077	      0.09478690
      0.07975857	      0.29901292	     -0.00078564	      0.09478690
      0.08118283	      0.29905503	     -0.00085894	      0.09478690
      0.08260709	      0.29909740	     -0.00093107	      0.09478690
      0.08403135	      0.29913996	     -0.00100235	      0.09478690
      0.08545562	      0.29918268	     -0.00107307	      0.09478690
      0.08687988	      0.29922550	     -0.00114350	      0.09478690
      0.08830414	      0.29926837	     -0.00121386	      0.09478690
      0.08972840	      0.29931124	     -0.00128433	      0.09478690
      0.09115266	      0.29935409	     -0.00135508	      0.09478690
      0.09257692	      0.29939685	     -0.00142627	      0.09478690
      0.09400118	      0.29943950	     -0.00149799	      0.09478690
      0.09542544	      0.29948198	     -0.00157036	      0.09478690
      0.09684970	      0.29952427	     -0.00164346	      0.09478690
      0.09827396	      0.29956633	     -0.00171736	      0.09478690
      0.09969822	      0.29960812	     -0.00179210	      0.09478690
      0.10112248	      0.29964962	     -0.00186773	      0.09478690
      0.10254674	      0.29969079	     -0.00194428	      0.09478690
      0.10397100	      0.29973161	     -0.00202176	      0.09478690
      0.10539526	      0.29977204	     -0.00210018	      0.09478690
      0.10681952	      0.29981208	     -0.00217954	      0.09478690
      0.10824378	      0.29985169	     -0.00225984	      0.09478690
      0.10966804	      0.29989086	     -0.00234105	      0.09478690
      0.11109230	      0.29992956	     -0.00242317	      0.09478690
      0.11251656	      0.29996779	     -0.00250617	      0.09478690
      0.11394082	      0.30000553	     -0.00259003	      0.09478690
      0.11536508	      0.30004277	     -0.00267470	      0.09478690
      0.11678934	      0.30007949	     -0.00276017	      0.09478690
      0.11821360	      0.30011569	     -0.00284639	      0.09478690
      0.11963786	      0.30015137	     -0.00293333	      0.09478690
      0.12106212	      0.30018651	     -0.00302094	      0.09478690
      0.12248638	      0.30022110	     -0.00310920	      0.09478690
      0.12391064	      0.30025516	     -0.00319805	      0.09478690
      0.12533490	      0.30028868	     -0.00328746	      0.09478690
      0.12675916	      0.30032165	     -0.00337739	      0.09478690
      0.12818342	      0.30035407	     -0.00346778	      0.09478690
      0.12960768	      0.30038596	     -0.00355859	      0.09478690
      0.13103194	      0.30041731	     -0.00364979	      0.09478690
      0.13245620	      0.30044812	     -0.00374131	      0.09478690
      0.13388046	      0.30047840	     -0.00383313	      0.09478690
      0.13530472	      0.30050816	     -0.00392518	      0.09478690
      0.13672898	      0.30053740	     -0.00401742	      0.09478690
      0.13815324	      0.30056614	     -0.00410980	      0.09478690
      0.13957750	      0.30059437	     -0.00420228	      0.09478690
      0.14100177	      0.30062210	     -0.00429479	      0.09478690
      0.14242603	      0.30064936	     -0.00438730	      0.09478690
      0.14385029	      0.30067614	     -0.00447976	      0.09478690
      0.14527455	      0.30070245	     -0.00457210	      0.09478690
      0.14669881	      0.30072831	     -0.00466428	      0.09478690
      0.14812307	      0.30075373	     -0.00475624	      0.09478690
      0.14954733	      0.30077871	     -0.00484794	      0.09478690
      0.15097159	      0.30080328	     -0.00493931	      0.09478690
      0.15239585	      0.30082743	     -0.00503031	      0.09478690
      0.15382011	      0.30085118	     -0.00512087	      0.09478690
      0.15524437	      0.30087455	     -0.00521096	      0.09478690
      0.15666863	      0.30089753	     -0.00530051	      0.09478690
      0.15809289	      0.30092014	     -0.00538948	      0.09478690
      0.15951715	      0.30094240	     -0.00547781	      0.09478690
      0.16094141	      0.30096430	     -0.00556546	      0.09478690
      0.16236567	      0.30098586	     -0.00565238	      0.09478690
      0.16378993	      0.30100710	     -0.00573852	      0.09478690
      0.16521419	      0.30102801	     -0.00582384	      0.09478690
      0.16663845	      0.30104860	     -0.00590828	      0.09478690
      0.16806271	      0.30106889	     -0.00599180	      0.09478690
      0.16948697	      0.30108888	     -0.00607436	      0.09478690
      0.17091123	      0.30110857	     -0.00615592	      0.09478690
      0.17233549	      0.30112797	     -0.00623645	      0.09478690
      0.17375975	      0.30114709	     -0.00631589	      0.09478690
      0.17518401	      0.30116592	     -0.00639421	      0.09478690
      0.17660827	      0.30118447	     -0.00647139	      0.09478690
      0.17803253	      0.30120274	     -0.00654738	      0.09478690
      0.17945679	      0.30122073	     -0.00662217	      0.09478690
      0.18088105	      0.30123843	     -0.00669571	      0.09478690
      0.18230531	      0.30125584	     -0.00676798	      0.09478690
      0.18372957	      0.30127296	     -0.00683896	      0.09478690
      0.18515383	      0.30128978	     -0.00690862	      0.09478690
      0.18657809	      0.30130630	     -0.00697694	      0.09478690
      0.18800235	      0.30132251	     -0.00704391	      0.09478690
      0.18942661	      0.30133840	     -0.00710950	      0.09478690
      0.19085087	      0.30135398	     -0.00717370	      0.09478690
      0.19227513	      0.30136925	     -0.00723650	      0.09478690
      0.19369939	      0.30138422	     -0.00729789	      0.09478690
      0.19512365	      0.30139888	     -0.00735786	      0.09478690
      0.19654792	      0.30141325	     -0.00741640	      0.09478690
      0.19797218	      0.30142733	     -0.00747353	      0.09478690
      0.19939644	      0.30144113	     -0.00752923	      0.09478690
      0.20082070	      0.30145465	     -0.00758352	      0.09478690
      0.20224496	      0.30146789	     -0.00763640	      0.09478690
      0.20366922	      0.30148087	     -0.00768788	      0.09478690
      0.20509348	      0.30149358	     -0.00773797	      0.09478690
      0.20651774	      0.30150602	     -0.00778669	      0.09478690
      0.20794200	      0.30151820	     -0.00783405	      0.09478690
      0.20936626	      0.30153011	     -0.00788007	      0.09478690
      0.21079052	      0.30154177	     -0.00792476	      0.09478690
      0.21221478	      0.30155316	     -0.00796815	      0.09478690
      0.21363904	      0.30156428	     -0.00801026	      0.09478690
      0.21506330	      0.30157515	     -0.00805111	      0.09478690
      0.21648756	      0.30158575	     -0.00809073	      0.09478690
      0.21791182	      0.30159608	     -0.00812914	      0.09478690
      0.21933608	      0.30160614	     -0.00816638	      0.09478690
      0.22076034	      0.30161594	     -0.00820245	      0.09478690
      0.22218460	      0.30162545	     -0.00823741	      0.09478690
      0.22360886	      0.30163469	     -0.00827127	      0.09478690
      0.22503312	      0.30164365	     -0.00830406	      0.09478690
      0.22645738	      0.30165232	     -0.00833582	      0.09478690
      0.22788164	      0.30166071	     -0.00836657	      0.09478690
      0.22930590	      0.30166879	     -0.00839635	      0.09478690
      0.23073016	      0.30167658	     -0.00842519	      0.09478690
      0.23215442	      0.30168406	     -0.00845311	      0.09478690
      0.23357868	      0.30169122	     -0.00848016	      0.09478690
      0.23500294	      0.30169807	     -0.00850636	      0.09478690
      0.23642720	      0.30170460	     -0.00853174	      0.09478690
      0.23785146	      0.30171079	     -0.00855633	      0.09478690
      0.23927572	      0.30171665	     -0.00858017	      0.09478690
      0.24069998	      0.30172217	     -0.00860328	      0.09478690
      0.24212424	      0.30172733	     -0.00862570	      0.09478690
      0.24354850	      0.30173214	     -0.00864745	      0.09478690
      0.24497276	      0.30173658	     -0.00866857	      0.09478690
      0.24639702	      0.30174066	     -0.00868907	      0.09478690
      0.24782128	      0.30174435	     -0.00870900	      0.09478690
      0.24924554	      0.30174766	     -0.00872837	      0.09478690
      0.25066980	      0.30175057	     -0.00874721	      0.09478690
      0.25209406	      0.30175308	     -0.00876555	      0.09478690
      0.25351833	      0.30175519	     -0.00878342	      0.09478690
      0.25494259	      0.30175687	     -0.00880083	      0.09478690
      0.25636685	      0.30175814	     -0.00881781	      0.09478690
      0.25779111	      0.30175897	     -0.00883438	      0.09478690
      0.25921537	      0.30175936	     -0.00885057	      0.09478690
      0.26063963	      0.30175931	     -0.00886639	      0.09478690
      0.26206389	      0.30175881	     -0.00888187	      0.09478690
      0.26348815	      0.30175785	     -0.00889702	      0.09478690
      0.26491241	      0.30175642	     -0.00891187	      0.09478690
      0.26633667	      0.30175451	     -0.00892642	      0.09478690
      0.26776093	      0.30175213	     -0.00894071	      0.09478690
      0.26918519	      0.30174926	     -0.00895473	      0.09478690
      0.27060945	      0.30174590	     -0.00896851	      0.09478690
      0.27203371	      0.30174204	     -0.00898207	      0.09478690
      0.27345797	      0.30173768	     -0.00899541	      0.09478690
      0.27488223	      0.30173280	     -0.00900855	      0.09478690
      0.27630649	      0.30172742	     -0.00902150	      0.09478690
      0.27773075	      0.30172151	     -0.00903427	      0.09478690
      0.27915501	      0.30171508	     -0.00904687	      0.09478690
      0.28057927	      0.30170812	     -0.00905931	      0.09478690
      0.28200353	      0.30170063	     -0.00907160	      0.09478690
      0.28342779	      0.30169260	     -0.00908375	      0.09478690
      0.28485205	      0.30168402	     -0.00909576	      0.09478690
      0.28627631	      0.30167491	     -0.00910764	      0.09478690
      0.28770057	      0.30166524	     -0.00911941	      0.09478690
      0.28912483	      0.30165502	     -0.00913105	      0.09478690
      0.29054909	      0.30164425	     -0.00914258	      0.09478690
      0.29197335	      0.30163293	     -0.00915400	      0.09478690
      0.29339761	      0.30162104	     -0.00916532	      0.09478690
      0.29482187	      0.30160859	     -0.00917653	      0.09478690
      0.29624613	      0.30159557	     -0.00918764	      0.09478690
      0.29767039	      0.30158199	     -0.00919866	      0.09478690
      0.29909465	      0.30156783	     -0.00920957	      0.09478690
      0.30051891	      0.30155311	     -0.00922038	      0.09478690
      0.30194317	      0.30153781	     -0.00923110	      0.09478690
      0.30336743	      0.30152194	     -0.00924171	      0.09478690
      0.30479169	      0.30150548	     -0.00925222	      0.09478690
      0.30621595	      0.30148845	     -0.00926263	      0.09478690
      0.30764021	      0.30147084	     -0.00927293	      0.09478690
      0.30906448	      0.30145264	     -0.00928312	      0.09478690
      0.31048874	      0.30143386	     -0.00929319	      0.09478690
      0.31191300	      0.30141449	     -0.00930315	      0.09478690
      0.31333726	      0.30139453	     -0.00931298	      0.09478690
      0.31476152	      0.30137397	     -0.00932269	      0.09478690
      0.31618578	      0.30135282	     -0.00933225	      0.09478690
      0.31761004	      0.30133107	     -0.00934168	      0.09478690
      0.31903430	      0.30130872	     -0.00935095	      0.09478690
      0.32045856	      0.30128576	     -0.00936007	      0.09478690
      0.32188282	      0.30126219	     -0.00936902	      0.09478690
      0.32330708	      0.30123800	     -0.00937779	      0.09478690
      0.32473134	      0.30121320	     -0.00938637	      0.09478690
      0.32615560	      0.30118778	     -0.00939476	      0.09478690
      0.32757986	      0.30116172	     -0.00940293	      0.09478690
      0.32900412	      0.30113503	     -0.00941087	      0.09478690
      0.33042838	      0.30110771	     -0.00941857	      0.09478690
      0.33185264	      0.30107973	     -0.00942602	      0.09478690
      0.33327690	      0.30105111	     -0.00943319	      0.09478690
      0.33470116	      0.30102182	     -0.00944008	      0.09478690
      0.33612542	      0.30099187	     -0.00944665	      0.09478690
      0.33754968	      0.30096124	     -0.00945289	      0.09478690
      0.33897394	      0.30092994	     -0.00945878	      0.09478690
      0.34039820	      0.30089794	     -0.00946430	      0.09478690
      0.34182246	      0.30086525	     -0.00946941	      0.09478690
      0.34324672	      0.30083185	     -0.00947410	      0.09478690
      0.34467098	      0.30079774	     -0.00947834	      0.09478690
      0.34609524	      0.30076290	     -0.00948209	      0.09478690
      0.34751950	      0.30072733	     -0.00948534	      0.09478690
      0.34894376	      0.30069102	     -0.00948804	      0.09478690
      0.35036802	      0.30065396	     -0.00949017	      0.09478690
      0.35179228	      0.30061613	     -0.00949169	      0.09478690
      0.35321654	      0.30057754	     -0.00949257	      0.09478690
      0.35464080	      0.30053816	     -0.00949277	      0.09478690
      0.35606506	      0.30049799	     -0.00949226	      0.09478690
      0.35748932	      0.30045703	     -0.00949099	      0.09478690
      0.35891358	      0.30041525	     -0.00948894	      0.09478690
      0.36033784	      0.30037265	     -0.00948605	      0.09478690
      0.36176210	      0.30032922	     -0.00948228	      0.09478690
      0.36318636	      0.30028495	     -0.00947761	      0.09478690
      0.36461063	      0.30023982	     -0.00947197	      0.09478690
      0.36603489	      0.30019383	     -0.00946535	      0.09478690
      0.36745915	      0.30014697	     -0.00945768	      0.09478690
      0.36888341	      0.30009923	     -0.00944893	      0.09478690
      0.37030767	      0.30005059	     -0.00943907	      0.09478690
      0.37173193	      0.30000104	     -0.00942803	      0.09478690
      0.37315619	      0.29995058	     -0.00941579	      0.09478690
      0.37458045	      0.29989919	     -0.00940229	      0.09478690
      0.37600471	      0.29984686	     -0.00938749	      0.09478690
      0.37742897	      0.29979357	     -0.00937135	      0.09478690
      0.37885323	      0.29973933	     -0.00935382	      0.09478690
      0.38027749	      0.29968412	     -0.00933486	      0.09478690
      0.38170175	      0.29962793	     -0.00931441	      0.09478690
      0.38312601	      0.29957074	     -0.00929243	      0.09478690
      0.38455027	      0.29951254	     -0.00926887	      0.09478690
      0.38597453	      0.29945334	     -0.00924367	      0.09478690
      0.38739879	      0.29939310	     -0.00921680	      0.09478690
      0.38882305	      0.29933183	     -0.00918818	      0.09478690
      0.39024731	      0.29926952	     -0.00915778	      0.09478690
      0.39167157	      0.29920615	     -0.00912553	      0.09478690
      0.39309583	      0.29914172	     -0.00909139	      0.09478690
      0.39452009	      0.29907621	     -0.00905528	      0.09478690
      0.39594435	      0.29900962	     -0.00901715	      0.09478690
      0.39736861	      0.29894194	     -0.00897694	      0.09478690
      0.39879287	      0.29887316	     -0.00893458	      0.09478690
      0.40021713	      0.29880328	     -0.00889002	      0.09478690
      0.40164139	      0.29873228	     -0.00884317	      0.09478690
      0.40306565	      0.29866018	     -0.00879399	      0.09478690
      0.40448991	      0.29858695	     -0.00874238	      0.09478690
      0.40591417	      0.29851259	     -0.00868830	      0.09478690
      0.40733843	      0.29843712	     -0.00863165	      0.09478690
      0.40876269	      0.29836051	     -0.00857236	      0.09478690
      0.41018695	      0.29828278	     -0.00851037	      0.09478690
      0.41161121	      0.29820392	     -0.00844558	      0.09478690
      0.41303547	      0.29812394	     -0.00837792	      0.09478690
      0.41445973	      0.29804285	     -0.00830730	      0.09478690
      0.41588399	      0.29796065	     -0.00823363	      0.09478690
      0.41730825	      0.29787735	     -0.00815683	      0.09478690
      0.41873251	      0.29779296	     -0.00807679	      0.09478690
      0.42015677	      0.29770750	     -0.00799342	      0.09478690
      0.42158104	      0.29762099	     -0.00790662	      0.09478690
      0.42300530	      0.29753344	     -0.00781625	      0.09478690
      0.42442956	      0.29744488	     -0.00772222	      0.09478690
      0.42585382	      0.29735533	     -0.00762437	      0.09478690
      0.42727808	      0.29726482	     -0.00752257	      0.09478690
      0.42870234	      0.29717338	     -0.00741666	      0.09478690
      0.43012660	      0.29708105	     -0.00730648	      0.09478690
      0.43155086	      0.29698787	     -0.00719184	      0.09478690
      0.43297512	      0.29689387	     -0.00707255	      0.09478690
      0.43439938	      0.29679911	     -0.00694838	      0.09478690
      0.43582364	      0.29670364	     -0.00681911	      0.09478690
      0.43724790	      0.29660752	     -0.00668451	      0.09478690
      0.43867216	      0.29651081	     -0.00654430	      0.09478690
      0.44009642	      0.29641358	     -0.00639822	      0.09478690
      0.44152068	      0.29631590	     -0.00624597	      0.09478690
      0.44294494	      0.29621785	     -0.00608721	      0.09478690
      0.44436920	      0.29611949	     -0.00592158	      0.09478690
      0.44579346	      0.29602091	     -0.00574867	      0.09478690
      0.44721772	      0.29592219	     -0.00556805	      0.09478690
      0.44864198	      0.29582341	     -0.00537924	      0.09478690
      0.45006624	      0.29572470	     -0.00518174	      0.09478690
      0.45149050	      0.29562617	     -0.00497499	      0.09478690
      0.45291476	      0.29552798	     -0.00475841	      0.09478690
      0.45433902	      0.29543031	     -0.00453136	      0.09478690
      0.45576328	      0.29533339	     -0.00429312	      0.09478690
      0.45718754	      0.29523748	     -0.00404293	      0.09478690
      0.45861180	      0.29514293	     -0.00377992	      0.09478690
      0.46003606	      0.29505013	     -0.00350305	      0.09478690
      0.46146032	      0.29495983	     -0.00321138	      0.09478690
      0.46288458	      0.29487330	     -0.00290386	      0.09478690
      0.46430884	      0.29479388	     -0.00257744	      0.09478690
      0.46573310	      0.29472688	     -0.00222790	      0.09478690
      0.46715736	      0.29469239	     -0.00184674	      0.09478690
      0.46858162	      0.29472088	     -0.00142465	      0.09478690
      0.47000588	      0.29486073	     -0.00095626	      0.09478690
      0.47143014	      0.29516303	     -0.00043965	      0.09478690
      0.47285440	      0.29563852	      0.00012393	      0.09478690
      0.47427866	      0.29627105	      0.00073051	      0.09478690
      0.47570292	      0.29703193	      0.00137396	      0.09478690
      0.47712719	      0.29789665	      0.00204964	      0.09478690
      0.47855145	      0.29884916	      0.00275442	      0.09478690
      0.47997571	      0.29987794	      0.00348609	      0.09478690
      0.48139997	      0.30097647	      0.00424314	      0.09478690
      0.48282423	      0.30213934	      0.00502427	      0.09478690
      0.48424849	      0.30336275	      0.00582831	      0.09478690
      0.48567275	      0.30464328	      0.00665417	      0.09478690
      0.48709701	      0.30597824	      0.00750080	      0.09478690
      0.48852127	      0.30736517	      0.00836720	      0.09478690
      0.48994553	      0.30880202	      0.00925241	      0.09478690
      0.49136979	      0.31028687	      0.01015548	      0.09478690
      0.49279405	      0.31181803	      0.01107553	      0.09478690
      0.49421831	      0.31339388	      0.01201169	      0.09478690
      0.49564257	      0.31501295	      0.01296312	      0.09478690
      0.49706683	      0.31667381	      0.01392905	      0.09478690
      0.49849109	      0.31837517	      0.01490872	      0.09478690
      0.49991535	      0.32011577	      0.01590143	      0.09478690
      0.50133961	      0.32189447	      0.01690651	      0.09478690
      0.50276387	      0.32371016	      0.01792333	      0.09478690
      0.50418813	      0.32556187	      0.01895128	      0.09478690
      0.50561239	      0.32744862	      0.01998981	      0.09478690
      0.50703665	      0.32936959	      0.02103838	      0.09478690
      0.50846091	      0.33132395	      0.02209647	      0.09478690
      0.50988517	      0.33331100	      0.02316361	      0.09478690
      0.51130943	      0.33533006	      0.02423933	      0.09478690
      0.51273369	      0.33738056	      0.02532319	      0.09478690
      0.51415795	      0.33946194	      0.02641474	      0.09478690
      0.51558221	      0.34157374	      0.02751357	      0.09478690
      0.51700647	      0.34371552	      0.02861926	      0.09478690
      0.51843073	      0.34588694	      0.02973138	      0.09478690
      0.51985499	      0.34808767	      0.03084950	      0.09478690
      0.52127925	      0.35031747	      0.03197319	      0.09478690
      0.52270351	      0.35257612	      0.03310201	      0.09478690
      0.52412777	      0.35486346	      0.03423549	      0.09478690
      0.52555203	      0.35717936	      0.03537319	      0.09478690
      0.52697629	      0.35952373	      0.03651463	      0.09478690
      0.52840055	      0.36189652	      0.03765932	      0.09478690
      0.52982481	      0.36429769	      0.03880677	      0.09478690
      0.53124907	      0.36672726	      0.03995647	      0.09478690
      0.53267333	      0.36918524	      0.04110791	      0.09478690
      0.53409760	      0.37167168	      0.04226056	      0.09478690
      0.53552186	      0.37418666	      0.04341388	      0.09478690
      0.53694612	      0.37673025	      0.04456732	      0.09478690
      0.53837038	      0.37930255	      0.04572033	      0.09478690
      0.53979464	      0.38190366	      0.04687232	      0.09478690
      0.54121890	      0.38453371	      0.04802273	      0.09478690
      0.54264316	      0.38719281	      0.04917097	      0.09478690
      0.54406742	      0.38988111	      0.05031645	      0.09478690
      0.54549168	      0.39259873	      0.05145857	      0.09478690
      0.54691594	      0.39534583	      0.05259671	      0.09478690
      0.54834020	      0.39812254	      0.05373028	      0.09478690
      0.54976446	      0.40092901	      0.05485865	      0.09478690
      0.55118872	      0.40376539	      0.05598122	      0.09478690
      0.55261298	      0.40663182	      0.05709735	      0.09478690
      0.55403724	      0.40952843	      0.05820644	      0.09478690
      0.55546150	      0.41245538	      0.05930787	      0.09478690
      0.55688576	      0.41541280	      0.06040102	      0.09478690
      0.55831002	      0.41840080	      0.06148529	      0.09478690
      0.55973428	      0.42141950	      0.06256006	      0.09478690
      0.56115854	      0.42446896	      0.06362474	      0.09478690
      0.56258280	      0.42754923	      0.06467871	      0.09478690
      0.56400706	      0.43066033	      0.06572139	      0.09478690
      0.56543132	      0.43380250	      0.06675214	      0.09478690
      0.56685558	      0.43697628	      0.06777025	      0.09478690
      0.56827984	      0.44018202	      0.06877515	      0.09478690
      0.56970410	      0.44341982	      0.06976636	      0.09478690
      0.57112836	      0.44668981	      0.07074341	      0.09478690
      0.57255262	      0.44999207	      0.07170579	      0.09478690
      0.57397688	      0.45332667	      0.07265305	      0.09478690
      0.57540114	      0.45669360	      0.07358470	      0.09478690
      0.57682540	      0.46009284	      0.07450031	      0.09478690
      0.57824966	      0.46352432	      0.07539942	      0.09478690
      0.57967392	      0.46698798	      0.07628160	      0.09478690
      0.58109818	      0.47048378	      0.07714642	      0.09478690
      0.58252244	      0.47401168	      0.07799346	      0.09478690
      0.58394670	      0.47757166	      0.07882232	      0.09478690
      0.58537096	      0.48116368	      0.07963260	      0.09478690
      0.58679522	      0.48478773	      0.08042391	      0.09478690
      0.58821948	      0.48844378	      0.08119588	      0.09478690
      0.58964375	      0.49213178	      0.08194814	      0.09478690
      0.59106801	      0.49585169	      0.08268034	      0.09478690
      0.59249227	      0.49960345	      0.08339212	      0.09478690
      0.59391653	      0.50338701	      0.08408315	      0.09478690
      0.59534079	      0.50720227	      0.08475311	      0.09478690
      0.59676505	      0.51104916	      0.08540168	      0.09478690
      0.59818931	      0.51492758	      0.08602856	      0.09478690
      0.59961357	      0.51883745	      0.08663346	      0.09478690
      0.60103783	      0.52277867	      0.08721609	      0.09478690
      0.60246209	      0.52675114	      0.08777617	      0.09478690
      0.60388635	      0.53075477	      0.08831346	      0.09478690
      0.60531061	      0.53478946	      0.08882769	      0.09478690
      0.60673487	      0.53885514	      0.08931862	      0.09478690
      0.60815913	      0.54295172	      0.08978603	      0.09478690
      0.60958339	      0.54707910	      0.09022969	      0.09478690
      0.61100765	      0.55123722	      0.09064941	      0.09478690
      0.61243191	      0.55542600	      0.09104498	      0.09478690
      0.61385617	      0.55964537	      0.09141621	      0.09478690
      0.61528043	      0.56389526	      0.09176295	      0.09478690
      0.61670469	      0.56817562	      0.09208504	      0.09478690
      0.61812895	      0.57248638	      0.09238232	      0.09478690
      0.61955321	      0.57682750	      0.09265467	      0.09478690
      0.62097747	      0.58119892	      0.09290198	      0.09478690
      0.62240173	      0.58560061	      0.09312414	      0.09478690
      0.62382599	      0.59003252	      0.09332107	      0.09478690
      0.62525025	      0.59449462	      0.09349269	      0.09478690
      0.62667451	      0.59898688	      0.09363897	      0.09478690
      0.62809877	      0.60350928	      0.09375985	      0.09478690
      0.62952303	      0.60806180	      0.09385532	      0.09478690
      0.63094729	      0.61264442	      0.09392538	      0.09478690
      0.63237155	      0.61725715	      0.09397004	      0.09478690
      0.63379581	      0.62189997	      0.09398934	      0.09478690
      0.63522007	      0.62657289	      0.09398333	      0.09478690
      0.63664433	      0.63127592	      0.09395208	      0.09478690
      0.63806859	      0.63600907	      0.09389568	      0.09478690
      0.63949285	      0.64077236	      0.09381424	      0.09478690
      0.64091711	      0.64556581	      0.09370789	      0.09478690
      0.64234137	      0.65038945	      0.09357677	      0.09478690
      0.64376563	      0.65524332	      0.09342105	      0.09478690
      0.64518990	      0.66012744	      0.09324092	      0.09478690
      0.64661416	      0.66504185	      0.09303658	      0.09478690
      0.64803842	      0.66998661	      0.09280826	      0.09478690
      0.64946268	      0.67496176	      0.09255620	      0.09478690
      0.65088694	      0.67996735	      0.09228065	      0.09478690
      0.65231120	      0.68500342	      0.09198191	      0.09478690
      0.65373546	      0.69007004	      0.09166026	      0.09478690
      0.65515972	      0.69516724	      0.09131603	      0.09478690
      0.65658398	      0.70029509	      0.09094954	      0.09478690
      0.65800824	      0.70545364	      0.09056115	      0.09478690
      0.65943250	      0.71064292	      0.09015122	      0.09478690
      0.66085676	      0.71586299	      0.08972014	      0.09478690
      0.66228102	      0.72111390	      0.08926830	      0.09478690
      0.66370528	      0.72639567	      0.08879612	      0.09478690
      0.66512954	      0.73170836	      0.08830403	      0.09478690
      0.66655380	      0.73705199	      0.08779247	      0.09478690
      0.66797806	      0.74242659	      0.08726189	      0.09478690
      0.66940232	      0.74783218	      0.08671277	      0.09478690
      0.67082658	      0.75326880	      0.08614558	      0.09478690
      0.67225084	      0.75873645	      0.08556083	      0.09478690
      0.67367510	      0.76423514	      0.08495902	      0.09478690
      0.67509936	      0.76976487	      0.08434066	      0.09478690
      0.67652362	      0.77532564	      0.08370629	      0.09478690
      0.67794788	      0.78091744	      0.08305644	      0.09478690
      0.67937214	      0.78654024	      0.08239166	      0.09478690
      0.68079640	      0.79219401	      0.08171251	      0.09478690
      0.68222066	      0.79787873	      0.08101954	      0.09478690
      0.68364492	      0.80359434	      0.08031334	      0.09478690
      0.68506918	      0.80934078	      0.07959447	      0.09478690
      0.68649344	      0.81511798	      0.07886353	      0.09478690
      0.68791770	      0.82092588	      0.07812111	      0.09478690
      0.68934196	      0.82676437	      0.07736779	      0.09478690
      0.69076622	      0.83263336	      0.07660419	      0.09478690
      0.69219048	      0.83853274	      0.07583090	      0.09478690
      0.69361474	      0.84446237	      0.07504854	      0.09478690
      0.69503900	      0.85042214	      0.07425772	      0.09478690
      0.69646326	      0.85641188	      0.07345903	      0.09478690
      0.69788752	      0.86243143	      0.07265311	      0.09478690
      0.69931178	      0.86848062	      0.07184056	      0.09478690
      0.70073604	      0.87455927	      0.07102200	      0.09478690
      0.70216031	      0.88066717	      0.07019805	      0.09478690
      0.70358457	      0.88680411	      0.06936930	      0.09478690
      0.70500883	      0.89296986	      0.06853639	      0.09478690
      0.70643309	      0.89916419	      0.06769990	      0.09478690
      0.70785735	      0.90538685	      0.06686046	      0.09478690
      0.70928161	      0.91163756	      0.06601866	      0.09478690
      0.71070587	      0.91791605	      0.06517510	      0.09478690
      0.71213013	      0.92422202	      0.06433038	      0.09478690
      0.71355439	      0.93055519	      0.06348507	      0.09478690
      0.71497865	      0.93691522	      0.06263977	      0.09478690
      0.71640291	      0.94330180	      0.06179504	      0.09478690
      0.71782717	      0.94971458	      0.06095146	      0.09478690
      0.71925143	      0.95615321	      0.06010958	      0.09478690
      0.72067569	      0.96261732	      0.05926995	      0.09478690
      0.72209995	      0.96910655	      0.05843313	      0.09478690
      0.72352421	      0.97562050	      0.05759963	      0.09478690
      0.72494847	      0.98215879	      0.05676999	      0.09478690
      0.72637273	      0.98872099	      0.05594472	      0.09478690
      0.72779699	      0.99530670	      0.05512432	      0.09478690
      0.72922125	      1.00191550	      0.05430928	      0.09478690
      0.73064551	      1.00854693	      0.05350009	      0.09478690
      0.73206977	      1.01520057	      0.05269720	      0.09478690
      0.73349403	      1.02187594	      0.05190108	      0.09478690
      0.73491829	      1.02857259	      0.05111215	      0.09478690
      0.73634255	      1.03529004	      0.05033086	      0.09478690
      0.73776681	      1.04202781	      0.04955761	      0.09478690
      0.73919107	      1.04878541	      0.04879281	      0.09478690
      0.74061533	      1.05556232	      0.04803682	      0.09478690
      0.74203959	      1.06235805	      0.04729002	      0.09478690
      0.74346385	      1.06917206	      0.04655275	      0.09478690
      0.74488811	      1.07600382	      0.04582535	      0.09478690
      0.74631237	      1.08285280	      0.04510811	      0.09478690
      0.74773663	      1.08971842	      0.04440134	      0.09478690
      0.74916089	      1.09660013	      0.04370531	      0.09478690
      0.75058515	      1.10349735	      0.04302025	      0.09478690
      0.75200941	      1.11040948	      0.04234639	      0.09478690
      0.75343367	      1.11733593	      0.04168393	      0.09478690
      0.75485793	      1.12427606	      0.04103306	      0.09478690
      0.75628219	      1.13122926	      0.04039391	      0.09478690
      0.75770646	      1.13819487	      0.03976660	      0.09478690
      0.75913072	      1.14517224	      0.03915123	      0.09478690
      0.76055498	      1.15216069	      0.03854787	      0.09478690
      0.76197924	      1.15915955	      0.03795655	      0.09478690
      0.76340350	      1.16616812	      0.03737726	      0.09478690
      0.76482776	      1.17318570	      0.03680999	      0.09478690
      0.76625202	      1.18021156	      0.03625469	      0.09478690
      0.76767628	      1.18724499	      0.03571126	      0.09478690
      0.76910054	      1.19428527	      0.03517958	      0.09478690
      0.77052480	      1.20133164	      0.03465953	      0.09478690
      0.77194906	      1.20838338	      0.03415092	      0.09478690
      0.77337332	      1.21543975	      0.03365356	      0.09478690
      0.77479758	      1.22250001	      0.03316724	      0.09478690
      0.77622184	      1.22956342	      0.03269172	      0.09478690
      0.77764610	      1.23662925	      0.03222674	      0.09478690
      0.77907036	      1.24369679	      0.03177203	      0.09478690
      0.78049462	      1.25076531	      0.03132733	      0.09478690
      0.78191888	      1.25783412	      0.03089234	      0.09478690
      0.78334314	      1.26490253	      0.03046679	      0.09478690
      0.78476740	      1.27196987	      0.03005039	      0.09478690
      0.78619166	      1.27903550	      0.02964288	      0.09478690
      0.78761592	      1.28609877	      0.02924401	      0.09478690
      0.78904018	      1.29315907	      0.02885354	      0.09478690
      0.79046444	      1.30021579	      0.02847125	      0.09478690
      0.79188870	      1.30726837	      0.02809697	      0.09478690
      0.79331296	      1.31431622	      0.02773053	      0.09478690
      0.79473722	      1.32135880	      0.02737181	      0.09478690
      0.79616148	      1.32839556	      0.02702070	      0.09478690
      0.79758574	      1.33542599	      0.02667719	      0.09478690
      0.79901000	      1.34244958	      0.02634129	      0.09478690
      0.80043426	      1.34946582	      0.02601304	      0.09478690
      0.80185852	      1.35647414	      0.02569245	      0.09478690
      0.80328278	      1.36347403	      0.02537962	      0.09478690
      0.80470704	      1.37046466	      0.02507444	      0.09478690
      0.80613130	      1.37744502	      0.02477677	      0.09478690
      0.80755556	      1.38441451	      0.02448710	      0.09478690
      0.80897982	      1.39137275	      0.02420608	      0.09478690
      0.81040408	      1.39831904	      0.02393404	      0.09478690
      0.81182834	      1.40525267	      0.02367131	      0.09478690
      0.81325261	      1.41217291	      0.02341825	      0.09478690
      0.81467687	      1.41907903	      0.02317527	      0.09478690
      0.81610113	      1.42597027	      0.02294277	      0.09478690
      0.81752539	      1.43284586	      0.02272119	      0.09478690
      0.81894965	      1.43970502	      0.02251097	      0.09478690
      0.82037391	      1.44654695	      0.02231255	      0.09478690
      0.82179817	      1.45337088	      0.02212639	      0.09478690
      0.82322243	      1.46017603	      0.02195298	      0.09478690
      0.82464669	      1.46696163	      0.02179278	      0.09478690
      0.82607095	      1.47372695	      0.02164631	      0.09478690
      0.82749521	      1.48047127	      0.02151409	      0.09478690
      0.82891947	      1.48719392	      0.02139666	      0.09478690
      0.83034373	      1.49389425	      0.02129456	      0.09478690
      0.83176799	      1.50057165	      0.02120837	      0.09478690
      0.83319225	      1.50722555	      0.02113864	      0.09478690
      0.83461651	      1.51385542	      0.02108597	      0.09478690
      0.83604077	      1.52046074	      0.02105093	      0.09478690
      0.83746503	      1.52704103	      0.02103410	      0.09478690
      0.83888929	      1.53359582	      0.02103605	      0.09478690
      0.84031355	      1.54012462	      0.02105732	      0.09478690
      0.84173781	      1.54662694	      0.02109843	      0.09478690
      0.84316207	      1.55310219	      0.02115984	      0.09478690
      0.84458633	      1.55954972	      0.02124194	      0.09478690
      0.84601059	      1.56596863	      0.02134504	      0.09478690
      0.84743485	      1.57235789	      0.02146932	      0.09478690
      0.84885911	      1.57871586	      0.02161458	      0.09478690
      0.85028337	      1.58504051	      0.02178037	      0.09478690
      0.85170763	      1.59132893	      0.02196618	      0.09478690
      0.85313189	      1.59757761	      0.02217122	      0.09478690
      0.85455615	      1.60377991	      0.02239044	      0.09478690
