PointVelocity
version=1
nRows=601
nColumns=4
inDegrees=no
No description.
endheader
time	state_0	state_1	state_2
      0.00000000	      4.33792561	      0.15744529	      0.00000000
      0.00142426	      4.29429686	      0.15957171	      0.00000000
      0.00284852	      4.24611274	      0.16108323	      0.00000000
      0.00427278	      4.18952234	      0.16109108	      0.00000000
      0.00569704	      4.12379007	      0.15745015	      0.00000000
      0.00712130	      4.04756635	      0.14835541	      0.00000000
      0.00854556	      3.96101026	      0.13384882	      0.00000000
      0.00996982	      3.86406031	      0.11372852	      0.00000000
      0.01139408	      3.75701977	      0.08753192	      0.00000000
      0.01281834	      3.63705066	      0.05259115	      0.00000000
      0.01424260	      3.50048725	      0.00538128	      0.00000000
      0.01566686	      3.34190955	     -0.05748961	      0.00000000
      0.01709112	      3.15563530	     -0.13950346	      0.00000000
      0.01851538	      2.94017920	     -0.24004881	      0.00000000
      0.01993964	      2.69379797	     -0.35856715	      0.00000000
      0.02136390	      2.42048840	     -0.49056191	      0.00000000
      0.02278816	      2.12290984	     -0.63214566	      0.00000000
      0.02421242	      1.80777002	     -0.77719397	      0.00000000
      0.02563668	      1.47896900	     -0.92279692	      0.00000000
      0.02706094	      1.14645802	     -1.05806201	      0.00000000
      0.02848521	      0.80978434	     -1.18255118	      0.00000000
      0.02990947	      0.48068805	     -1.27851636	      0.00000000
      0.03133373	      0.23778412	     -1.24706096	      0.00000000
      0.03275799	      0.12974204	     -1.08146183	      0.00000000
      0.03418225	      0.09824464	     -0.90963693	      0.00000000
      0.03560651	      0.07618898	     -0.78894850	      0.00000000
      0.03703077	      0.06121422	     -0.69242201	      0.00000000
      0.03845503	      0.05207155	     -0.60864233	      0.00000000
      0.03987929	      0.04375771	     -0.53709923	      0.00000000
      0.04130355	      0.03825169	     -0.47457153	      0.00000000
      0.04272781	      0.03349377	     -0.42097872	      0.00000000
      0.04415207	      0.03021531	     -0.37435288	      0.00000000
      0.04557633	      0.02759941	     -0.33393314	      0.00000000
      0.04700059	      0.02579932	     -0.29855824	      0.00000000
      0.04842485	      0.02445688	     -0.26749009	      0.00000000
      0.04984911	      0.02358849	     -0.24009353	      0.00000000
      0.05127337	      0.02302058	     -0.21584784	      0.00000000
      0.05269763	      0.02274080	     -0.19439152	      0.00000000
      0.05412189	      0.02265710	     -0.17536744	      0.00000000
      0.05554615	      0.02275096	     -0.15852902	      0.00000000
      0.05697041	      0.02296844	     -0.14361496	      0.00000000
      0.05839467	      0.02329126	     -0.13043866	      0.00000000
      0.05981893	      0.02368525	     -0.11879940	      0.00000000
      0.06124319	      0.02413477	     -0.10855071	      0.00000000
      0.06266745	      0.02461701	     -0.09953392	      0.00000000
      0.06409171	      0.02511963	     -0.09163240	      0.00000000
      0.06551597	      0.02562712	     -0.08471895	      0.00000000
      0.06694023	      0.02613054	     -0.07870065	      0.00000000
      0.06836449	      0.02661952	     -0.07347557	      0.00000000
      0.06978875	      0.02708818	     -0.06896897	      0.00000000
      0.07121301	      0.02753004	     -0.06509859	      0.00000000
      0.07263727	      0.02794174	     -0.06180372	      0.00000000
      0.07406153	      0.02831970	     -0.05901757	      0.00000000
      0.07548579	      0.02866243	     -0.05669042	      0.00000000
      0.07691005	      0.02896839	     -0.05476774	      0.00000000
      0.07833431	      0.02923723	     -0.05320859	      0.00000000
      0.07975857	      0.02946876	     -0.05196832	      0.00000000
      0.08118283	      0.02966335	     -0.05101317	      0.00000000
      0.08260709	      0.02982159	     -0.05030654	      0.00000000
      0.08403135	      0.02994421	     -0.04982072	      0.00000000
      0.08545562	      0.03003224	     -0.04952586	      0.00000000
      0.08687988	      0.03008651	     -0.04939947	      0.00000000
      0.08830414	      0.03010822	     -0.04941746	      0.00000000
      0.08972840	      0.03009828	     -0.04956170	      0.00000000
      0.09115266	      0.03005794	     -0.04981285	      0.00000000
      0.09257692	      0.02998819	     -0.05015618	      0.00000000
      0.09400118	      0.02989038	     -0.05057612	      0.00000000
      0.09542544	      0.02976562	     -0.05106066	      0.00000000
      0.09684970	      0.02961532	     -0.05159721	      0.00000000
      0.09827396	      0.02944070	     -0.05217585	      0.00000000
      0.09969822	      0.02924324	     -0.05278635	      0.00000000
      0.10112248	      0.02902425	     -0.05342062	      0.00000000
      0.10254674	      0.02878527	     -0.05407046	      0.00000000
      0.10397100	      0.02852767	     -0.05472944	      0.00000000
      0.10539526	      0.02825296	     -0.05539113	      0.00000000
      0.10681952	      0.02796250	     -0.05605048	      0.00000000
      0.10824378	      0.02765775	     -0.05670257	      0.00000000
      0.10966804	      0.02734003	     -0.05734360	      0.00000000
      0.11109230	      0.02701071	     -0.05796990	      0.00000000
      0.11251656	      0.02667103	     -0.05857867	      0.00000000
      0.11394082	      0.02632230	     -0.05916731	      0.00000000
      0.11536508	      0.02596566	     -0.05973377	      0.00000000
      0.11678934	      0.02560231	     -0.06027629	      0.00000000
      0.11821360	      0.02523333	     -0.06079339	      0.00000000
      0.11963786	      0.02485979	     -0.06128387	      0.00000000
      0.12106212	      0.02448270	     -0.06174668	      0.00000000
      0.12248638	      0.02410305	     -0.06218100	      0.00000000
      0.12391064	      0.02372177	     -0.06258605	      0.00000000
      0.12533490	      0.02333976	     -0.06296123	      0.00000000
      0.12675916	      0.02295788	     -0.06330589	      0.00000000
      0.12818342	      0.02257696	     -0.06361953	      0.00000000
      0.12960768	      0.02219777	     -0.06390158	      0.00000000
      0.13103194	      0.02182107	     -0.06415151	      0.00000000
      0.13245620	      0.02144753	     -0.06436880	      0.00000000
      0.13388046	      0.02107779	     -0.06455289	      0.00000000
      0.13530472	      0.02071241	     -0.06470339	      0.00000000
      0.13672898	      0.02035192	     -0.06481974	      0.00000000
      0.13815324	      0.01999675	     -0.06490179	      0.00000000
      0.13957750	      0.01964732	     -0.06494923	      0.00000000
      0.14100177	      0.01930403	     -0.06496183	      0.00000000
      0.14242603	      0.01896730	     -0.06493903	      0.00000000
      0.14385029	      0.01863749	     -0.06488020	      0.00000000
      0.14527455	      0.01831500	     -0.06478440	      0.00000000
      0.14669881	      0.01799993	     -0.06465123	      0.00000000
      0.14812307	      0.01769277	     -0.06448029	      0.00000000
      0.14954733	      0.01739370	     -0.06427339	      0.00000000
      0.15097159	      0.01710169	     -0.06402947	      0.00000000
      0.15239585	      0.01681658	     -0.06374665	      0.00000000
      0.15382011	      0.01653907	     -0.06342583	      0.00000000
      0.15524437	      0.01626887	     -0.06306923	      0.00000000
      0.15666863	      0.01600588	     -0.06267688	      0.00000000
      0.15809289	      0.01575000	     -0.06224940	      0.00000000
      0.15951715	      0.01550107	     -0.06178698	      0.00000000
      0.16094141	      0.01525891	     -0.06129025	      0.00000000
      0.16236567	      0.01502325	     -0.06075943	      0.00000000
      0.16378993	      0.01479374	     -0.06019541	      0.00000000
      0.16521419	      0.01457004	     -0.05959867	      0.00000000
      0.16663845	      0.01435168	     -0.05897033	      0.00000000
      0.16806271	      0.01413821	     -0.05831121	      0.00000000
      0.16948697	      0.01392912	     -0.05762252	      0.00000000
      0.17091123	      0.01372384	     -0.05690528	      0.00000000
      0.17233549	      0.01352170	     -0.05616076	      0.00000000
      0.17375975	      0.01332198	     -0.05539015	      0.00000000
      0.17518401	      0.01312386	     -0.05459475	      0.00000000
      0.17660827	      0.01292641	     -0.05377592	      0.00000000
      0.17803253	      0.01272868	     -0.05293493	      0.00000000
      0.17945679	      0.01252958	     -0.05207317	      0.00000000
      0.18088105	      0.01232827	     -0.05119185	      0.00000000
      0.18230531	      0.01212367	     -0.05029235	      0.00000000
      0.18372957	      0.01191548	     -0.04937583	      0.00000000
      0.18515383	      0.01170317	     -0.04844366	      0.00000000
      0.18657809	      0.01148748	     -0.04749703	      0.00000000
      0.18800235	      0.01126903	     -0.04653744	      0.00000000
      0.18942661	      0.01104951	     -0.04556640	      0.00000000
      0.19085087	      0.01083057	     -0.04458573	      0.00000000
      0.19227513	      0.01061376	     -0.04359733	      0.00000000
      0.19369939	      0.01040061	     -0.04260342	      0.00000000
      0.19512365	      0.01019155	     -0.04160596	      0.00000000
      0.19654792	      0.00998704	     -0.04060724	      0.00000000
      0.19797218	      0.00978663	     -0.03960898	      0.00000000
      0.19939644	      0.00958994	     -0.03861325	      0.00000000
      0.20082070	      0.00939634	     -0.03762152	      0.00000000
      0.20224496	      0.00920527	     -0.03663562	      0.00000000
      0.20366922	      0.00901628	     -0.03565687	      0.00000000
      0.20509348	      0.00882892	     -0.03468689	      0.00000000
      0.20651774	      0.00864286	     -0.03372692	      0.00000000
      0.20794200	      0.00845775	     -0.03277842	      0.00000000
      0.20936626	      0.00827327	     -0.03184248	      0.00000000
      0.21079052	      0.00808910	     -0.03092040	      0.00000000
      0.21221478	      0.00790490	     -0.03001314	      0.00000000
      0.21363904	      0.00772033	     -0.02912181	      0.00000000
      0.21506330	      0.00753502	     -0.02824725	      0.00000000
      0.21648756	      0.00734864	     -0.02739038	      0.00000000
      0.21791182	      0.00716085	     -0.02655192	      0.00000000
      0.21933608	      0.00697132	     -0.02573261	      0.00000000
      0.22076034	      0.00677975	     -0.02493300	      0.00000000
      0.22218460	      0.00658584	     -0.02415366	      0.00000000
      0.22360886	      0.00638932	     -0.02339501	      0.00000000
      0.22503312	      0.00618994	     -0.02265746	      0.00000000
      0.22645738	      0.00598746	     -0.02194132	      0.00000000
      0.22788164	      0.00578166	     -0.02124686	      0.00000000
      0.22930590	      0.00557233	     -0.02057425	      0.00000000
      0.23073016	      0.00535929	     -0.01992361	      0.00000000
      0.23215442	      0.00514237	     -0.01929499	      0.00000000
      0.23357868	      0.00492137	     -0.01868834	      0.00000000
      0.23500294	      0.00469616	     -0.01810362	      0.00000000
      0.23642720	      0.00446657	     -0.01754068	      0.00000000
      0.23785146	      0.00423248	     -0.01699937	      0.00000000
      0.23927572	      0.00399375	     -0.01647946	      0.00000000
      0.24069998	      0.00375028	     -0.01598070	      0.00000000
      0.24212424	      0.00350194	     -0.01550276	      0.00000000
      0.24354850	      0.00324866	     -0.01504533	      0.00000000
      0.24497276	      0.00299034	     -0.01460798	      0.00000000
      0.24639702	      0.00272692	     -0.01419033	      0.00000000
      0.24782128	      0.00245833	     -0.01379189	      0.00000000
      0.24924554	      0.00218454	     -0.01341223	      0.00000000
      0.25066980	      0.00190551	     -0.01305080	      0.00000000
      0.25209406	      0.00162122	     -0.01270712	      0.00000000
      0.25351833	      0.00133168	     -0.01238061	      0.00000000
      0.25494259	      0.00103689	     -0.01207076	      0.00000000
      0.25636685	      0.00073689	     -0.01177696	      0.00000000
      0.25779111	      0.00043172	     -0.01149869	      0.00000000
      0.25921537	      0.00012142	     -0.01123532	      0.00000000
      0.26063963	     -0.00019391	     -0.01098632	      0.00000000
      0.26206389	     -0.00051422	     -0.01075105	      0.00000000
      0.26348815	     -0.00083939	     -0.01052897	      0.00000000
      0.26491241	     -0.00116933	     -0.01031945	      0.00000000
      0.26633667	     -0.00150391	     -0.01012194	      0.00000000
      0.26776093	     -0.00184300	     -0.00993583	      0.00000000
      0.26918519	     -0.00218648	     -0.00976059	      0.00000000
      0.27060945	     -0.00253419	     -0.00959560	      0.00000000
      0.27203371	     -0.00288597	     -0.00944033	      0.00000000
      0.27345797	     -0.00324170	     -0.00929419	      0.00000000
      0.27488223	     -0.00360118	     -0.00915664	      0.00000000
      0.27630649	     -0.00396428	     -0.00902711	      0.00000000
      0.27773075	     -0.00433082	     -0.00890508	      0.00000000
      0.27915501	     -0.00470063	     -0.00878998	      0.00000000
      0.28057927	     -0.00507356	     -0.00868132	      0.00000000
      0.28200353	     -0.00544943	     -0.00857855	      0.00000000
      0.28342779	     -0.00582809	     -0.00848119	      0.00000000
      0.28485205	     -0.00620938	     -0.00838870	      0.00000000
      0.28627631	     -0.00659316	     -0.00830060	      0.00000000
      0.28770057	     -0.00697927	     -0.00821638	      0.00000000
      0.28912483	     -0.00736758	     -0.00813558	      0.00000000
      0.29054909	     -0.00775796	     -0.00805772	      0.00000000
      0.29197335	     -0.00815028	     -0.00798235	      0.00000000
      0.29339761	     -0.00854443	     -0.00790900	      0.00000000
      0.29482187	     -0.00894031	     -0.00783726	      0.00000000
      0.29624613	     -0.00933783	     -0.00776665	      0.00000000
      0.29767039	     -0.00973692	     -0.00769678	      0.00000000
      0.29909465	     -0.01013751	     -0.00762721	      0.00000000
      0.30051891	     -0.01053955	     -0.00755753	      0.00000000
      0.30194317	     -0.01094301	     -0.00748733	      0.00000000
      0.30336743	     -0.01134788	     -0.00741623	      0.00000000
      0.30479169	     -0.01175414	     -0.00734380	      0.00000000
      0.30621595	     -0.01216184	     -0.00726967	      0.00000000
      0.30764021	     -0.01257098	     -0.00719342	      0.00000000
      0.30906448	     -0.01298164	     -0.00711466	      0.00000000
      0.31048874	     -0.01339388	     -0.00703297	      0.00000000
      0.31191300	     -0.01380781	     -0.00694795	      0.00000000
      0.31333726	     -0.01422352	     -0.00685916	      0.00000000
      0.31476152	     -0.01464115	     -0.00676618	      0.00000000
      0.31618578	     -0.01506085	     -0.00666855	      0.00000000
      0.31761004	     -0.01548277	     -0.00656581	      0.00000000
      0.31903430	     -0.01590710	     -0.00645746	      0.00000000
      0.32045856	     -0.01633403	     -0.00634299	      0.00000000
      0.32188282	     -0.01676376	     -0.00622186	      0.00000000
      0.32330708	     -0.01719651	     -0.00609348	      0.00000000
      0.32473134	     -0.01763250	     -0.00595726	      0.00000000
      0.32615560	     -0.01807196	     -0.00581253	      0.00000000
      0.32757986	     -0.01851513	     -0.00565865	      0.00000000
      0.32900412	     -0.01896223	     -0.00549488	      0.00000000
      0.33042838	     -0.01941352	     -0.00532052	      0.00000000
      0.33185264	     -0.01986920	     -0.00513477	      0.00000000
      0.33327690	     -0.02032953	     -0.00493688	      0.00000000
      0.33470116	     -0.02079471	     -0.00472598	      0.00000000
      0.33612542	     -0.02126498	     -0.00450122	      0.00000000
      0.33754968	     -0.02174054	     -0.00426167	      0.00000000
      0.33897394	     -0.02222161	     -0.00400641	      0.00000000
      0.34039820	     -0.02270837	     -0.00373449	      0.00000000
      0.34182246	     -0.02320104	     -0.00344497	      0.00000000
      0.34324672	     -0.02369973	     -0.00313691	      0.00000000
      0.34467098	     -0.02420466	     -0.00280938	      0.00000000
      0.34609524	     -0.02471590	     -0.00246144	      0.00000000
      0.34751950	     -0.02523363	     -0.00209215	      0.00000000
      0.34894376	     -0.02575792	     -0.00170059	      0.00000000
      0.35036802	     -0.02628892	     -0.00128589	      0.00000000
      0.35179228	     -0.02682670	     -0.00084722	      0.00000000
      0.35321654	     -0.02737140	     -0.00038378	      0.00000000
      0.35464080	     -0.02792304	      0.00010517	      0.00000000
      0.35606506	     -0.02848174	      0.00062036	      0.00000000
      0.35748932	     -0.02904749	      0.00116253	      0.00000000
      0.35891358	     -0.02962042	      0.00173251	      0.00000000
      0.36033784	     -0.03020048	      0.00233080	      0.00000000
      0.36176210	     -0.03078757	      0.00295781	      0.00000000
      0.36318636	     -0.03138189	      0.00361424	      0.00000000
      0.36461063	     -0.03198427	      0.00429988	      0.00000000
      0.36603489	     -0.03259423	      0.00501359	      0.00000000
      0.36745915	     -0.03321133	      0.00575611	      0.00000000
      0.36888341	     -0.03383602	      0.00652919	      0.00000000
      0.37030767	     -0.03446841	      0.00733296	      0.00000000
      0.37173193	     -0.03510833	      0.00816720	      0.00000000
      0.37315619	     -0.03575594	      0.00903209	      0.00000000
      0.37458045	     -0.03641120	      0.00992799	      0.00000000
      0.37600471	     -0.03707424	      0.01085536	      0.00000000
      0.37742897	     -0.03774499	      0.01181467	      0.00000000
      0.37885323	     -0.03842349	      0.01280647	      0.00000000
      0.38027749	     -0.03910963	      0.01383124	      0.00000000
      0.38170175	     -0.03980342	      0.01488966	      0.00000000
      0.38312601	     -0.04050474	      0.01598232	      0.00000000
      0.38455027	     -0.04121359	      0.01711003	      0.00000000
      0.38597453	     -0.04192982	      0.01827346	      0.00000000
      0.38739879	     -0.04265335	      0.01947351	      0.00000000
      0.38882305	     -0.04338395	      0.02071094	      0.00000000
      0.39024731	     -0.04412148	      0.02198684	      0.00000000
      0.39167157	     -0.04486567	      0.02330203	      0.00000000
      0.39309583	     -0.04561632	      0.02465777	      0.00000000
      0.39452009	     -0.04637312	      0.02605491	      0.00000000
      0.39594435	     -0.04713577	      0.02749483	      0.00000000
      0.39736861	     -0.04790389	      0.02897839	      0.00000000
      0.39879287	     -0.04867706	      0.03050706	      0.00000000
      0.40021713	     -0.04945482	      0.03208169	      0.00000000
      0.40164139	     -0.05023658	      0.03370383	      0.00000000
      0.40306565	     -0.05102179	      0.03537434	      0.00000000
      0.40448991	     -0.05180968	      0.03709487	      0.00000000
      0.40591417	     -0.05259959	      0.03886631	      0.00000000
      0.40733843	     -0.05339059	      0.04069027	      0.00000000
      0.40876269	     -0.05418190	      0.04256761	      0.00000000
      0.41018695	     -0.05497237	      0.04450000	      0.00000000
      0.41161121	     -0.05576098	      0.04648864	      0.00000000
      0.41303547	     -0.05654634	      0.04853557	      0.00000000
      0.41445973	     -0.05732724	      0.05064262	      0.00000000
      0.41588399	     -0.05810204	      0.05281243	      0.00000000
      0.41730825	     -0.05886938	      0.05504772	      0.00000000
      0.41873251	     -0.05962738	      0.05735195	      0.00000000
      0.42015677	     -0.06037453	      0.05972902	      0.00000000
      0.42158104	     -0.06110874	      0.06218352	      0.00000000
      0.42300530	     -0.06182831	      0.06472092	      0.00000000
      0.42442956	     -0.06253100	      0.06734731	      0.00000000
      0.42585382	     -0.06321495	      0.07007011	      0.00000000
      0.42727808	     -0.06387776	      0.07289735	      0.00000000
      0.42870234	     -0.06451735	      0.07583835	      0.00000000
      0.43012660	     -0.06513115	      0.07890298	      0.00000000
      0.43155086	     -0.06571652	      0.08210155	      0.00000000
      0.43297512	     -0.06627027	      0.08544469	      0.00000000
      0.43439938	     -0.06678883	      0.08894279	      0.00000000
      0.43582364	     -0.06726796	      0.09260541	      0.00000000
      0.43724790	     -0.06770393	      0.09644397	      0.00000000
      0.43867216	     -0.06809286	      0.10046820	      0.00000000
      0.44009642	     -0.06843250	      0.10469574	      0.00000000
      0.44152068	     -0.06872199	      0.10914315	      0.00000000
      0.44294494	     -0.06895960	      0.11383616	      0.00000000
      0.44436920	     -0.06914610	      0.11879827	      0.00000000
      0.44579346	     -0.06927551	      0.12405645	      0.00000000
      0.44721772	     -0.06934567	      0.12963428	      0.00000000
      0.44864198	     -0.06934354	      0.13555776	      0.00000000
      0.45006624	     -0.06926230	      0.14184967	      0.00000000
      0.45149050	     -0.06907964	      0.14854192	      0.00000000
      0.45291476	     -0.06878443	      0.15566271	      0.00000000
      0.45433902	     -0.06833774	      0.16325876	      0.00000000
      0.45576328	     -0.06773782	      0.17136769	      0.00000000
      0.45718754	     -0.06688636	      0.18005818	      0.00000000
      0.45861180	     -0.06586179	      0.18939258	      0.00000000
      0.46003606	     -0.06432608	      0.19953145	      0.00000000
      0.46146032	     -0.06242879	      0.21010030	      0.00000000
      0.46288458	     -0.05851718	      0.22216012	      0.00000000
      0.46430884	     -0.05278117	      0.23659425	      0.00000000
      0.46573310	     -0.03866339	      0.25531140	      0.00000000
      0.46715736	     -0.00643939	      0.28109683	      0.00000000
      0.46858162	      0.05215295	      0.31220253	      0.00000000
      0.47000588	      0.15119029	      0.34577247	      0.00000000
      0.47143014	      0.27397504	      0.37950507	      0.00000000
      0.47285440	      0.39187521	      0.41145013	      0.00000000
      0.47427866	      0.49265253	      0.43952976	      0.00000000
      0.47570292	      0.57293442	      0.46351402	      0.00000000
      0.47712719	      0.63956160	      0.48493572	      0.00000000
      0.47855145	      0.69656171	      0.50448313	      0.00000000
      0.47997571	      0.74744922	      0.52279128	      0.00000000
      0.48139997	      0.79444328	      0.54013618	      0.00000000
      0.48282423	      0.83811976	      0.55661658	      0.00000000
      0.48424849	      0.87940028	      0.57231544	      0.00000000
      0.48567275	      0.91848190	      0.58726298	      0.00000000
      0.48709701	      0.95581289	      0.60149260	      0.00000000
      0.48852127	      0.99154229	      0.61503108	      0.00000000
      0.48994553	      1.02590479	      0.62790103	      0.00000000
      0.49136979	      1.05898993	      0.64012805	      0.00000000
      0.49279405	      1.09092598	      0.65173543	      0.00000000
      0.49421831	      1.12177241	      0.66274985	      0.00000000
      0.49564257	      1.15160936	      0.67319776	      0.00000000
      0.49706683	      1.18048875	      0.68310668	      0.00000000
      0.49849109	      1.20847307	      0.69250500	      0.00000000
      0.49991535	      1.23561422	      0.70141935	      0.00000000
      0.50133961	      1.26196892	      0.70987760	      0.00000000
      0.50276387	      1.28758867	      0.71790371	      0.00000000
      0.50418813	      1.31252700	      0.72552286	      0.00000000
      0.50561239	      1.33683354	      0.73275528	      0.00000000
      0.50703665	      1.36055890	      0.73962219	      0.00000000
      0.50846091	      1.38375065	      0.74613973	      0.00000000
      0.50988517	      1.40645753	      0.75232487	      0.00000000
      0.51130943	      1.42872389	      0.75818953	      0.00000000
      0.51273369	      1.45059360	      0.76374708	      0.00000000
      0.51415795	      1.47210698	      0.76900446	      0.00000000
      0.51558221	      1.49330509	      0.77396700	      0.00000000
      0.51700647	      1.51422806	      0.77863223	      0.00000000
      0.51843073	      1.53491676	      0.78299826	      0.00000000
      0.51985499	      1.55540722	      0.78706097	      0.00000000
      0.52127925	      1.57573524	      0.79081534	      0.00000000
      0.52270351	      1.59593068	      0.79425572	      0.00000000
      0.52412777	      1.61602400	      0.79737512	      0.00000000
      0.52555203	      1.63604059	      0.80016684	      0.00000000
      0.52697629	      1.65600698	      0.80262282	      0.00000000
      0.52840055	      1.67594439	      0.80473583	      0.00000000
      0.52982481	      1.69587481	      0.80649735	      0.00000000
      0.53124907	      1.71581479	      0.80790008	      0.00000000
      0.53267333	      1.73578168	      0.80893552	      0.00000000
      0.53409760	      1.75578796	      0.80959661	      0.00000000
      0.53552186	      1.77584699	      0.80987528	      0.00000000
      0.53694612	      1.79596804	      0.80976501	      0.00000000
      0.53837038	      1.81616124	      0.80925843	      0.00000000
      0.53979464	      1.83643318	      0.80834972	      0.00000000
      0.54121890	      1.85679134	      0.80703240	      0.00000000
      0.54264316	      1.87723993	      0.80530150	      0.00000000
      0.54406742	      1.89778395	      0.80315154	      0.00000000
      0.54549168	      1.91842562	      0.80057858	      0.00000000
      0.54691594	      1.93916810	      0.79757807	      0.00000000
      0.54834020	      1.96001190	      0.79414742	      0.00000000
      0.54976446	      1.98095836	      0.79028412	      0.00000000
      0.55118872	      2.00200604	      0.78598792	      0.00000000
      0.55261298	      2.02315468	      0.78125826	      0.00000000
      0.55403724	      2.04440135	      0.77609581	      0.00000000
      0.55546150	      2.06574645	      0.77050118	      0.00000000
      0.55688576	      2.08718135	      0.76447616	      0.00000000
      0.55831002	      2.10869972	      0.75802226	      0.00000000
      0.55973428	      2.13027982	      0.75114312	      0.00000000
      0.56115854	      2.15189595	      0.74384020	      0.00000000
      0.56258280	      2.17353041	      0.73612211	      0.00000000
      0.56400706	      2.19521677	      0.72797705	      0.00000000
      0.56543132	      2.21721023	      0.71934662	      0.00000000
      0.56685558	      2.23957279	      0.71025496	      0.00000000
      0.56827984	      2.26205291	      0.70081095	      0.00000000
      0.56970410	      2.28460798	      0.69103422	      0.00000000
      0.57112836	      2.30724387	      0.68091018	      0.00000000
      0.57255262	      2.32992636	      0.67045215	      0.00000000
      0.57397688	      2.35263674	      0.65966329	      0.00000000
      0.57540114	      2.37533250	      0.64855203	      0.00000000
      0.57682540	      2.39799554	      0.63712447	      0.00000000
      0.57824966	      2.42061230	      0.62538786	      0.00000000
      0.57967392	      2.44319142	      0.61334852	      0.00000000
      0.58109818	      2.46574034	      0.60101330	      0.00000000
      0.58252244	      2.48826780	      0.58838879	      0.00000000
      0.58394670	      2.51077965	      0.57548197	      0.00000000
      0.58537096	      2.53327429	      0.56229973	      0.00000000
      0.58679522	      2.55575040	      0.54884926	      0.00000000
      0.58821948	      2.57820167	      0.53513769	      0.00000000
      0.58964375	      2.60062362	      0.52117235	      0.00000000
      0.59106801	      2.62300921	      0.50696048	      0.00000000
      0.59249227	      2.64535191	      0.49250946	      0.00000000
      0.59391653	      2.66764485	      0.47782661	      0.00000000
      0.59534079	      2.68988103	      0.46291933	      0.00000000
      0.59676505	      2.71205603	      0.44779495	      0.00000000
      0.59818931	      2.73416547	      0.43246076	      0.00000000
      0.59961357	      2.75620857	      0.41692410	      0.00000000
      0.60103783	      2.77818456	      0.40119221	      0.00000000
      0.60246209	      2.80009486	      0.38527253	      0.00000000
      0.60388635	      2.82194061	      0.36917237	      0.00000000
      0.60531061	      2.84372363	      0.35289940	      0.00000000
      0.60673487	      2.86544554	      0.33646112	      0.00000000
      0.60815913	      2.88710841	      0.31986554	      0.00000000
      0.60958339	      2.90871449	      0.30312044	      0.00000000
      0.61100765	      2.93026661	      0.28623426	      0.00000000
      0.61243191	      2.95176786	      0.26921521	      0.00000000
      0.61385617	      2.97322147	      0.25207223	      0.00000000
      0.61528043	      2.99463083	      0.23481407	      0.00000000
      0.61670469	      3.01599897	      0.21745027	      0.00000000
      0.61812895	      3.03732909	      0.19999019	      0.00000000
      0.61955321	      3.05862412	      0.18244402	      0.00000000
      0.62097747	      3.07988715	      0.16482179	      0.00000000
      0.62240173	      3.10112134	      0.14713430	      0.00000000
      0.62382599	      3.12232999	      0.12939227	      0.00000000
      0.62525025	      3.14351660	      0.11160715	      0.00000000
      0.62667451	      3.16468474	      0.09379034	      0.00000000
      0.62809877	      3.18583814	      0.07595385	      0.00000000
      0.62952303	      3.20698054	      0.05810975	      0.00000000
      0.63094729	      3.22811569	      0.04027055	      0.00000000
      0.63237155	      3.24924731	      0.02244890	      0.00000000
      0.63379581	      3.27037911	      0.00465760	      0.00000000
      0.63522007	      3.29151475	     -0.01309036	      0.00000000
      0.63664433	      3.31265787	     -0.03078190	      0.00000000
      0.63806859	      3.33381203	     -0.04840369	      0.00000000
      0.63949285	      3.35498066	     -0.06594242	      0.00000000
      0.64091711	      3.37616714	     -0.08338450	      0.00000000
      0.64234137	      3.39737462	     -0.10071657	      0.00000000
      0.64376563	      3.41860619	     -0.11792492	      0.00000000
      0.64518990	      3.43986460	     -0.13499628	      0.00000000
      0.64661416	      3.46115253	     -0.15191696	      0.00000000
      0.64803842	      3.48247211	     -0.16867393	      0.00000000
      0.64946268	      3.50382540	     -0.18525370	      0.00000000
      0.65088694	      3.52521365	     -0.20164356	      0.00000000
      0.65231120	      3.54663803	     -0.21783038	      0.00000000
      0.65373546	      3.56809878	     -0.23380190	      0.00000000
      0.65515972	      3.58959598	     -0.24954542	      0.00000000
      0.65658398	      3.61112888	     -0.26504922	      0.00000000
      0.65800824	      3.63269656	     -0.28030117	      0.00000000
      0.65943250	      3.65429751	     -0.29529012	      0.00000000
      0.66085676	      3.67593001	     -0.31000456	      0.00000000
      0.66228102	      3.69759210	     -0.32443398	      0.00000000
      0.66370528	      3.71928149	     -0.33856754	      0.00000000
      0.66512954	      3.74099578	     -0.35239539	      0.00000000
      0.66655380	      3.76273225	     -0.36590736	      0.00000000
      0.66797806	      3.78448794	     -0.37909428	      0.00000000
      0.66940232	      3.80625956	     -0.39194672	      0.00000000
      0.67082658	      3.82804342	     -0.40445623	      0.00000000
      0.67225084	      3.84983554	     -0.41661415	      0.00000000
      0.67367510	      3.87163149	     -0.42841277	      0.00000000
      0.67509936	      3.89342655	     -0.43984423	      0.00000000
      0.67652362	      3.91521557	     -0.45090161	      0.00000000
      0.67794788	      3.93699312	     -0.46157786	      0.00000000
      0.67937214	      3.95875336	     -0.47186688	      0.00000000
      0.68079640	      3.98049014	     -0.48176249	      0.00000000
      0.68222066	      4.00219697	     -0.49125939	      0.00000000
      0.68364492	      4.02386706	     -0.50035229	      0.00000000
      0.68506918	      4.04549333	     -0.50903669	      0.00000000
      0.68649344	      4.06706846	     -0.51730817	      0.00000000
      0.68791770	      4.08858485	     -0.52516305	      0.00000000
      0.68934196	      4.11003468	     -0.53259780	      0.00000000
      0.69076622	      4.13140986	     -0.53960960	      0.00000000
      0.69219048	      4.15270206	     -0.54619582	      0.00000000
      0.69361474	      4.17390278	     -0.55235454	      0.00000000
      0.69503900	      4.19500328	     -0.55808403	      0.00000000
      0.69646326	      4.21599482	     -0.56338323	      0.00000000
      0.69788752	      4.23686845	     -0.56825128	      0.00000000
      0.69931178	      4.25761529	     -0.57268795	      0.00000000
      0.70073604	      4.27822625	     -0.57669326	      0.00000000
      0.70216031	      4.29869231	     -0.58026785	      0.00000000
      0.70358457	      4.31900423	     -0.58341267	      0.00000000
      0.70500883	      4.33915289	     -0.58612925	      0.00000000
      0.70643309	      4.35912900	     -0.58841944	      0.00000000
      0.70785735	      4.37892353	     -0.59028565	      0.00000000
      0.70928161	      4.39852730	     -0.59173061	      0.00000000
      0.71070587	      4.41793145	     -0.59275753	      0.00000000
      0.71213013	      4.43712698	     -0.59337002	      0.00000000
      0.71355439	      4.45610521	     -0.59357214	      0.00000000
      0.71497865	      4.47485733	     -0.59336831	      0.00000000
      0.71640291	      4.49337492	     -0.59276343	      0.00000000
      0.71782717	      4.51164949	     -0.59176272	      0.00000000
      0.71925143	      4.52967295	     -0.59037181	      0.00000000
      0.72067569	      4.54743723	     -0.58859670	      0.00000000
      0.72209995	      4.56493464	     -0.58644373	      0.00000000
      0.72352421	      4.58215753	     -0.58391961	      0.00000000
      0.72494847	      4.59909854	     -0.58103140	      0.00000000
      0.72637273	      4.61575042	     -0.57778651	      0.00000000
      0.72779699	      4.63210610	     -0.57419272	      0.00000000
      0.72922125	      4.64815869	     -0.57025814	      0.00000000
      0.73064551	      4.66390131	     -0.56599125	      0.00000000
      0.73206977	      4.67932740	     -0.56140086	      0.00000000
      0.73349403	      4.69443015	     -0.55649622	      0.00000000
      0.73491829	      4.70920320	     -0.55128687	      0.00000000
      0.73634255	      4.72363971	     -0.54578288	      0.00000000
      0.73776681	      4.73773335	     -0.53999459	      0.00000000
      0.73919107	      4.75147708	     -0.53393300	      0.00000000
      0.74061533	      4.76486449	     -0.52760937	      0.00000000
      0.74203959	      4.77788810	     -0.52103574	      0.00000000
      0.74346385	      4.79054128	     -0.51422444	      0.00000000
      0.74488811	      4.80281594	     -0.50718876	      0.00000000
      0.74631237	      4.81470498	     -0.49994224	      0.00000000
      0.74773663	      4.82619962	     -0.49249941	      0.00000000
      0.74916089	      4.83729213	     -0.48487517	      0.00000000
      0.75058515	      4.84797310	     -0.47708548	      0.00000000
      0.75200941	      4.85823428	     -0.46914679	      0.00000000
      0.75343367	      4.86806579	     -0.46107655	      0.00000000
      0.75485793	      4.87745901	     -0.45289280	      0.00000000
      0.75628219	      4.88640394	     -0.44461439	      0.00000000
      0.75770646	      4.89489188	     -0.43626084	      0.00000000
      0.75913072	      4.90291321	     -0.42785210	      0.00000000
      0.76055498	      4.91045955	     -0.41940893	      0.00000000
      0.76197924	      4.91752220	     -0.41095194	      0.00000000
      0.76340350	      4.92409359	     -0.40250269	      0.00000000
      0.76482776	      4.93016650	     -0.39408183	      0.00000000
      0.76625202	      4.93573466	     -0.38571111	      0.00000000
      0.76767628	      4.94079292	     -0.37741044	      0.00000000
      0.76910054	      4.94533684	     -0.36920091	      0.00000000
      0.77052480	      4.94936384	     -0.36110073	      0.00000000
      0.77194906	      4.95287177	     -0.35312934	      0.00000000
      0.77337332	      4.95586112	     -0.34530213	      0.00000000
      0.77479758	      4.95833237	     -0.33763574	      0.00000000
      0.77622184	      4.96028942	     -0.33014149	      0.00000000
      0.77764610	      4.96173568	     -0.32283196	      0.00000000
      0.77907036	      4.96267859	     -0.31571313	      0.00000000
      0.78049462	      4.96312466	     -0.30879213	      0.00000000
      0.78191888	      4.96308457	     -0.30206861	      0.00000000
      0.78334314	      4.96256764	     -0.29554322	      0.00000000
      0.78476740	      4.96158693	     -0.28920880	      0.00000000
      0.78619166	      4.96015408	     -0.28305867	      0.00000000
      0.78761592	      4.95828266	     -0.27707963	      0.00000000
      0.78904018	      4.95598402	     -0.27125947	      0.00000000
      0.79046444	      4.95327095	     -0.26557959	      0.00000000
      0.79188870	      4.95015490	     -0.26002100	      0.00000000
      0.79331296	      4.94664590	     -0.25456148	      0.00000000
      0.79473722	      4.94274737	     -0.24918496	      0.00000000
      0.79616148	      4.93847476	     -0.24385533	      0.00000000
      0.79758574	      4.93385308	     -0.23851924	      0.00000000
      0.79901000	      4.92888202	     -0.23315229	      0.00000000
      0.80043426	      4.92351700	     -0.22778983	      0.00000000
      0.80185852	      4.91778096	     -0.22237545	      0.00000000
      0.80328278	      4.91162769	     -0.21692671	      0.00000000
      0.80470704	      4.90475110	     -0.21165162	      0.00000000
      0.80613130	      4.89726532	     -0.20627829	      0.00000000
      0.80755556	      4.88952458	     -0.20040314	      0.00000000
      0.80897982	      4.88140197	     -0.19418737	      0.00000000
      0.81040408	      4.87276044	     -0.18777914	      0.00000000
      0.81182834	      4.86361747	     -0.18112063	      0.00000000
      0.81325261	      4.85396352	     -0.17418804	      0.00000000
      0.81467687	      4.84378414	     -0.16696871	      0.00000000
      0.81610113	      4.83306693	     -0.15945792	      0.00000000
      0.81752539	      4.82180243	     -0.15164174	      0.00000000
      0.81894965	      4.80998937	     -0.14351150	      0.00000000
      0.82037391	      4.79762156	     -0.13506213	      0.00000000
      0.82179817	      4.78470619	     -0.12628652	      0.00000000
      0.82322243	      4.77124763	     -0.11717539	      0.00000000
      0.82464669	      4.75726355	     -0.10771682	      0.00000000
      0.82607095	      4.74276818	     -0.09789808	      0.00000000
      0.82749521	      4.72778530	     -0.08770809	      0.00000000
      0.82891947	      4.71233648	     -0.07713381	      0.00000000
      0.83034373	      4.69644804	     -0.06616855	      0.00000000
      0.83176799	      4.68014549	     -0.05480376	      0.00000000
      0.83319225	      4.66345241	     -0.04303699	      0.00000000
      0.83461651	      4.64639560	     -0.03086085	      0.00000000
      0.83604077	      4.62898788	     -0.01827880	      0.00000000
      0.83746503	      4.61125044	     -0.00528932	      0.00000000
      0.83888929	      4.59317342	      0.00808961	      0.00000000
      0.84031355	      4.57476477	      0.02184508	      0.00000000
      0.84173781	      4.55596637	      0.03593826	      0.00000000
      0.84316207	      4.53675673	      0.05034251	      0.00000000
      0.84458633	      4.51698678	      0.06498152	      0.00000000
      0.84601059	      4.49659526	      0.07982509	      0.00000000
      0.84743485	      4.47522674	      0.09465483	      0.00000000
      0.84885911	      4.45267741	      0.10929908	      0.00000000
      0.85028337	      4.42822752	      0.12339063	      0.00000000
      0.85170763	      4.40193752	      0.13759471	      0.00000000
      0.85313189	      4.37170589	      0.14954031	      0.00000000
      0.85455615	      4.33757924	      0.15804951	      0.00000000
