PointPosition
version=1
nRows=601
nColumns=4
inDegrees=no
No description.
endheader
time	state_0	state_1	state_2
      0.00000000	     -0.40231595	     -0.00769404	     -0.09478690
      0.00142426	     -0.40240161	     -0.00757907	     -0.09478690
      0.00284852	     -0.40248773	     -0.00745961	     -0.09478690
      0.00427278	     -0.40257456	     -0.00733561	     -0.09478690
      0.00569704	     -0.40266208	     -0.00720688	     -0.09478690
      0.00712130	     -0.40275021	     -0.00707319	     -0.09478690
      0.00854556	     -0.40283888	     -0.00693430	     -0.09478690
      0.00996982	     -0.40292800	     -0.00678996	     -0.09478690
      0.01139408	     -0.40301751	     -0.00663990	     -0.09478690
      0.01281834	     -0.40310733	     -0.00648383	     -0.09478690
      0.01424260	     -0.40319737	     -0.00632143	     -0.09478690
      0.01566686	     -0.40328754	     -0.00615234	     -0.09478690
      0.01709112	     -0.40337778	     -0.00597616	     -0.09478690
      0.01851538	     -0.40346798	     -0.00579249	     -0.09478690
      0.01993964	     -0.40355805	     -0.00560086	     -0.09478690
      0.02136390	     -0.40364787	     -0.00540080	     -0.09478690
      0.02278816	     -0.40373729	     -0.00519181	     -0.09478690
      0.02421242	     -0.40382616	     -0.00497335	     -0.09478690
      0.02563668	     -0.40391428	     -0.00474487	     -0.09478690
      0.02706094	     -0.40400145	     -0.00450572	     -0.09478690
      0.02848521	     -0.40408740	     -0.00425523	     -0.09478690
      0.02990947	     -0.40417185	     -0.00399264	     -0.09478690
      0.03133373	     -0.40425439	     -0.00371711	     -0.09478690
      0.03275799	     -0.40433445	     -0.00342775	     -0.09478690
      0.03418225	     -0.40441135	     -0.00312279	     -0.09478690
      0.03560651	     -0.40448381	     -0.00279993	     -0.09478690
      0.03703077	     -0.40454489	     -0.00245468	     -0.09478690
      0.03845503	     -0.40458398	     -0.00208116	     -0.09478690
      0.03987929	     -0.40457405	     -0.00167059	     -0.09478690
      0.04130355	     -0.40446758	     -0.00121509	     -0.09478690
      0.04272781	     -0.40420579	     -0.00070977	     -0.09478690
      0.04415207	     -0.40375328	     -0.00015213	     -0.09478690
      0.04557633	     -0.40311903	      0.00045449	     -0.09478690
      0.04700059	     -0.40232313	      0.00110412	     -0.09478690
      0.04842485	     -0.40139199	      0.00179001	     -0.09478690
      0.04984911	     -0.40034935	      0.00250678	     -0.09478690
      0.05127337	     -0.39921221	      0.00325055	     -0.09478690
      0.05269763	     -0.39799384	      0.00401842	     -0.09478690
      0.05412189	     -0.39670278	      0.00480836	     -0.09478690
      0.05554615	     -0.39534614	      0.00561868	     -0.09478690
      0.05697041	     -0.39392895	      0.00644803	     -0.09478690
      0.05839467	     -0.39245560	      0.00729522	     -0.09478690
      0.05981893	     -0.39092940	      0.00815923	     -0.09478690
      0.06124319	     -0.38935335	      0.00903910	     -0.09478690
      0.06266745	     -0.38772982	      0.00993400	     -0.09478690
      0.06409171	     -0.38606104	      0.01084314	     -0.09478690
      0.06551597	     -0.38434887	      0.01176580	     -0.09478690
      0.06694023	     -0.38259508	      0.01270128	     -0.09478690
      0.06836449	     -0.38080124	      0.01364895	     -0.09478690
      0.06978875	     -0.37896888	      0.01460821	     -0.09478690
      0.07121301	     -0.37709936	      0.01557847	     -0.09478690
      0.07263727	     -0.37519402	      0.01655920	     -0.09478690
      0.07406153	     -0.37325411	      0.01754985	     -0.09478690
      0.07548579	     -0.37128079	      0.01854995	     -0.09478690
      0.07691005	     -0.36927514	      0.01955900	     -0.09478690
      0.07833431	     -0.36723820	      0.02057655	     -0.09478690
      0.07975857	     -0.36517087	      0.02160215	     -0.09478690
      0.08118283	     -0.36307400	      0.02263538	     -0.09478690
      0.08260709	     -0.36094836	      0.02367582	     -0.09478690
      0.08403135	     -0.35879464	      0.02472308	     -0.09478690
      0.08545562	     -0.35661341	      0.02577675	     -0.09478690
      0.08687988	     -0.35440524	      0.02683644	     -0.09478690
      0.08830414	     -0.35217056	      0.02790178	     -0.09478690
      0.08972840	     -0.34990981	      0.02897238	     -0.09478690
      0.09115266	     -0.34762332	      0.03004786	     -0.09478690
      0.09257692	     -0.34531138	      0.03112784	     -0.09478690
      0.09400118	     -0.34297423	      0.03221193	     -0.09478690
      0.09542544	     -0.34061206	      0.03329975	     -0.09478690
      0.09684970	     -0.33822502	      0.03439090	     -0.09478690
      0.09827396	     -0.33581320	      0.03548497	     -0.09478690
      0.09969822	     -0.33337666	      0.03658153	     -0.09478690
      0.10112248	     -0.33091544	      0.03768015	     -0.09478690
      0.10254674	     -0.32842953	      0.03878039	     -0.09478690
      0.10397100	     -0.32591890	      0.03988178	     -0.09478690
      0.10539526	     -0.32338352	      0.04098387	     -0.09478690
      0.10681952	     -0.32082330	      0.04208615	     -0.09478690
      0.10824378	     -0.31823817	      0.04318815	     -0.09478690
      0.10966804	     -0.31562803	      0.04428937	     -0.09478690
      0.11109230	     -0.31299276	      0.04538928	     -0.09478690
      0.11251656	     -0.31033224	      0.04648737	     -0.09478690
      0.11394082	     -0.30764633	      0.04758311	     -0.09478690
      0.11536508	     -0.30493490	      0.04867596	     -0.09478690
      0.11678934	     -0.30219779	      0.04976538	     -0.09478690
      0.11821360	     -0.29943486	      0.05085081	     -0.09478690
      0.11963786	     -0.29664594	      0.05193169	     -0.09478690
      0.12106212	     -0.29383089	      0.05300747	     -0.09478690
      0.12248638	     -0.29098953	      0.05407756	     -0.09478690
      0.12391064	     -0.28812171	      0.05514141	     -0.09478690
      0.12533490	     -0.28522727	      0.05619843	     -0.09478690
      0.12675916	     -0.28230605	      0.05724804	     -0.09478690
      0.12818342	     -0.27935787	      0.05828967	     -0.09478690
      0.12960768	     -0.27638260	      0.05932273	     -0.09478690
      0.13103194	     -0.27338006	      0.06034663	     -0.09478690
      0.13245620	     -0.27035011	      0.06136080	     -0.09478690
      0.13388046	     -0.26729261	      0.06236466	     -0.09478690
      0.13530472	     -0.26420741	      0.06335764	     -0.09478690
      0.13672898	     -0.26109439	      0.06433915	     -0.09478690
      0.13815324	     -0.25795341	      0.06530864	     -0.09478690
      0.13957750	     -0.25478430	      0.06626554	     -0.09478690
      0.14100177	     -0.25158688	      0.06720931	     -0.09478690
      0.14242603	     -0.24836098	      0.06813941	     -0.09478690
      0.14385029	     -0.24510643	      0.06905530	     -0.09478690
      0.14527455	     -0.24182317	      0.06995646	     -0.09478690
      0.14669881	     -0.23851114	      0.07084237	     -0.09478690
      0.14812307	     -0.23517045	      0.07171251	     -0.09478690
      0.14954733	     -0.23180067	      0.07256635	     -0.09478690
      0.15097159	     -0.22840094	      0.07340335	     -0.09478690
      0.15239585	     -0.22497128	      0.07422302	     -0.09478690
      0.15382011	     -0.22151195	      0.07502497	     -0.09478690
      0.15524437	     -0.21802275	      0.07580881	     -0.09478690
      0.15666863	     -0.21450345	      0.07657418	     -0.09478690
      0.15809289	     -0.21095392	      0.07732071	     -0.09478690
      0.15951715	     -0.20737413	      0.07804804	     -0.09478690
      0.16094141	     -0.20376409	      0.07875583	     -0.09478690
      0.16236567	     -0.20012385	      0.07944372	     -0.09478690
      0.16378993	     -0.19645342	      0.08011139	     -0.09478690
      0.16521419	     -0.19275282	      0.08075852	     -0.09478690
      0.16663845	     -0.18902202	      0.08138481	     -0.09478690
      0.16806271	     -0.18526101	      0.08198996	     -0.09478690
      0.16948697	     -0.18146977	      0.08257369	     -0.09478690
      0.17091123	     -0.17764828	      0.08313574	     -0.09478690
      0.17233549	     -0.17379652	      0.08367584	     -0.09478690
      0.17375975	     -0.16991447	      0.08419377	     -0.09478690
      0.17518401	     -0.16600210	      0.08468929	     -0.09478690
      0.17660827	     -0.16205941	      0.08516218	     -0.09478690
      0.17803253	     -0.15808639	      0.08561224	     -0.09478690
      0.17945679	     -0.15408305	      0.08603929	     -0.09478690
      0.18088105	     -0.15004940	      0.08644316	     -0.09478690
      0.18230531	     -0.14598544	      0.08682368	     -0.09478690
      0.18372957	     -0.14189120	      0.08718070	     -0.09478690
      0.18515383	     -0.13776665	      0.08751412	     -0.09478690
      0.18657809	     -0.13361181	      0.08782380	     -0.09478690
      0.18800235	     -0.12942666	      0.08810965	     -0.09478690
      0.18942661	     -0.12521118	      0.08837160	     -0.09478690
      0.19085087	     -0.12096537	      0.08860958	     -0.09478690
      0.19227513	     -0.11668922	      0.08882354	     -0.09478690
      0.19369939	     -0.11238273	      0.08901345	     -0.09478690
      0.19512365	     -0.10804587	      0.08917929	     -0.09478690
      0.19654792	     -0.10367867	      0.08932106	     -0.09478690
      0.19797218	     -0.09928111	      0.08943877	     -0.09478690
      0.19939644	     -0.09485320	      0.08953245	     -0.09478690
      0.20082070	     -0.09039496	      0.08960215	     -0.09478690
      0.20224496	     -0.08590639	      0.08964793	     -0.09478690
      0.20366922	     -0.08138751	      0.08966986	     -0.09478690
      0.20509348	     -0.07683833	      0.08966803	     -0.09478690
      0.20651774	     -0.07225887	      0.08964256	     -0.09478690
      0.20794200	     -0.06764916	      0.08959356	     -0.09478690
      0.20936626	     -0.06300922	      0.08952116	     -0.09478690
      0.21079052	     -0.05833907	      0.08942552	     -0.09478690
      0.21221478	     -0.05363873	      0.08930681	     -0.09478690
      0.21363904	     -0.04890826	      0.08916519	     -0.09478690
      0.21506330	     -0.04414767	      0.08900087	     -0.09478690
      0.21648756	     -0.03935700	      0.08881405	     -0.09478690
      0.21791182	     -0.03453629	      0.08860495	     -0.09478690
      0.21933608	     -0.02968559	      0.08837380	     -0.09478690
      0.22076034	     -0.02480494	      0.08812084	     -0.09478690
      0.22218460	     -0.01989439	      0.08784634	     -0.09478690
      0.22360886	     -0.01495398	      0.08755056	     -0.09478690
      0.22503312	     -0.00998377	      0.08723378	     -0.09478690
      0.22645738	     -0.00498381	      0.08689631	     -0.09478690
      0.22788164	      0.00004583	      0.08653843	     -0.09478690
      0.22930590	      0.00510510	      0.08616048	     -0.09478690
      0.23073016	      0.01019393	      0.08576277	     -0.09478690
      0.23215442	      0.01531226	      0.08534565	     -0.09478690
      0.23357868	      0.02046002	      0.08490945	     -0.09478690
      0.23500294	      0.02563714	      0.08445454	     -0.09478690
      0.23642720	      0.03084354	      0.08398129	     -0.09478690
      0.23785146	      0.03607916	      0.08349007	     -0.09478690
      0.23927572	      0.04134391	      0.08298126	     -0.09478690
      0.24069998	      0.04663770	      0.08245527	     -0.09478690
      0.24212424	      0.05196047	      0.08191249	     -0.09478690
      0.24354850	      0.05731213	      0.08135333	     -0.09478690
      0.24497276	      0.06269258	      0.08077822	     -0.09478690
      0.24639702	      0.06810174	      0.08018759	     -0.09478690
      0.24782128	      0.07353952	      0.07958186	     -0.09478690
      0.24924554	      0.07900582	      0.07896148	     -0.09478690
      0.25066980	      0.08450056	      0.07832690	     -0.09478690
      0.25209406	      0.09002363	      0.07767858	     -0.09478690
      0.25351833	      0.09557494	      0.07701697	     -0.09478690
      0.25494259	      0.10115438	      0.07634255	     -0.09478690
      0.25636685	      0.10676186	      0.07565580	     -0.09478690
      0.25779111	      0.11239727	      0.07495718	     -0.09478690
      0.25921537	      0.11806051	      0.07424719	     -0.09478690
      0.26063963	      0.12375147	      0.07352632	     -0.09478690
      0.26206389	      0.12947005	      0.07279506	     -0.09478690
      0.26348815	      0.13521614	      0.07205393	     -0.09478690
      0.26491241	      0.14098963	      0.07130341	     -0.09478690
      0.26633667	      0.14679041	      0.07054403	     -0.09478690
      0.26776093	      0.15261836	      0.06977629	     -0.09478690
      0.26918519	      0.15847338	      0.06900072	     -0.09478690
      0.27060945	      0.16435535	      0.06821783	     -0.09478690
      0.27203371	      0.17026414	      0.06742816	     -0.09478690
      0.27345797	      0.17619966	      0.06663223	     -0.09478690
      0.27488223	      0.18216177	      0.06583056	     -0.09478690
      0.27630649	      0.18815036	      0.06502370	     -0.09478690
      0.27773075	      0.19416530	      0.06421219	     -0.09478690
      0.27915501	      0.20020647	      0.06339655	     -0.09478690
      0.28057927	      0.20627374	      0.06257734	     -0.09478690
      0.28200353	      0.21236698	      0.06175510	     -0.09478690
      0.28342779	      0.21848605	      0.06093036	     -0.09478690
      0.28485205	      0.22463083	      0.06010368	     -0.09478690
      0.28627631	      0.23080117	      0.05927560	     -0.09478690
      0.28770057	      0.23699692	      0.05844668	     -0.09478690
      0.28912483	      0.24321795	      0.05761745	     -0.09478690
      0.29054909	      0.24946409	      0.05678848	     -0.09478690
      0.29197335	      0.25573519	      0.05596030	     -0.09478690
      0.29339761	      0.26203109	      0.05513347	     -0.09478690
      0.29482187	      0.26835161	      0.05430853	     -0.09478690
      0.29624613	      0.27469658	      0.05348603	     -0.09478690
      0.29767039	      0.28106582	      0.05266652	     -0.09478690
      0.29909465	      0.28745914	      0.05185053	     -0.09478690
      0.30051891	      0.29387633	      0.05103861	     -0.09478690
      0.30194317	      0.30031719	      0.05023129	     -0.09478690
      0.30336743	      0.30678151	      0.04942911	     -0.09478690
      0.30479169	      0.31326905	      0.04863259	     -0.09478690
      0.30621595	      0.31977958	      0.04784226	     -0.09478690
      0.30764021	      0.32631284	      0.04705864	     -0.09478690
      0.30906448	      0.33286859	      0.04628224	     -0.09478690
      0.31048874	      0.33944655	      0.04551356	     -0.09478690
      0.31191300	      0.34604642	      0.04475311	     -0.09478690
      0.31333726	      0.35266792	      0.04400137	     -0.09478690
      0.31476152	      0.35931072	      0.04325881	     -0.09478690
      0.31618578	      0.36597450	      0.04252592	     -0.09478690
      0.31761004	      0.37265891	      0.04180313	     -0.09478690
      0.31903430	      0.37936359	      0.04109091	     -0.09478690
      0.32045856	      0.38608816	      0.04038968	     -0.09478690
      0.32188282	      0.39283222	      0.03969985	     -0.09478690
      0.32330708	      0.39959536	      0.03902183	     -0.09478690
      0.32473134	      0.40637714	      0.03835600	     -0.09478690
      0.32615560	      0.41317710	      0.03770271	     -0.09478690
      0.32757986	      0.41999477	      0.03706233	     -0.09478690
      0.32900412	      0.42682965	      0.03643516	     -0.09478690
      0.33042838	      0.43368121	      0.03582150	     -0.09478690
      0.33185264	      0.44054892	      0.03522164	     -0.09478690
      0.33327690	      0.44743220	      0.03463582	     -0.09478690
      0.33470116	      0.45433045	      0.03406426	     -0.09478690
      0.33612542	      0.46124307	      0.03350716	     -0.09478690
      0.33754968	      0.46816940	      0.03296466	     -0.09478690
      0.33897394	      0.47510877	      0.03243691	     -0.09478690
      0.34039820	      0.48206049	      0.03192400	     -0.09478690
      0.34182246	      0.48902383	      0.03142599	     -0.09478690
      0.34324672	      0.49599804	      0.03094290	     -0.09478690
      0.34467098	      0.50298234	      0.03047473	     -0.09478690
      0.34609524	      0.50997594	      0.03002142	     -0.09478690
      0.34751950	      0.51697800	      0.02958289	     -0.09478690
      0.34894376	      0.52398768	      0.02915903	     -0.09478690
      0.35036802	      0.53100411	      0.02874967	     -0.09478690
      0.35179228	      0.53802643	      0.02835466	     -0.09478690
      0.35321654	      0.54505372	      0.02797377	     -0.09478690
      0.35464080	      0.55208508	      0.02760677	     -0.09478690
      0.35606506	      0.55911962	      0.02725341	     -0.09478690
      0.35748932	      0.56615640	      0.02691342	     -0.09478690
      0.35891358	      0.57319450	      0.02658650	     -0.09478690
      0.36033784	      0.58023295	      0.02627227	     -0.09478690
      0.36176210	      0.58727086	      0.02597049	     -0.09478690
      0.36318636	      0.59430754	      0.02568106	     -0.09478690
      0.36461063	      0.60134185	      0.02540349	     -0.09478690
      0.36603489	      0.60837231	      0.02513698	     -0.09478690
      0.36745915	      0.61539786	      0.02488119	     -0.09478690
      0.36888341	      0.62241757	      0.02463583	     -0.09478690
      0.37030767	      0.62943046	      0.02440058	     -0.09478690
      0.37173193	      0.63643569	      0.02417526	     -0.09478690
      0.37315619	      0.64343249	      0.02395982	     -0.09478690
      0.37458045	      0.65042012	      0.02375426	     -0.09478690
      0.37600471	      0.65739785	      0.02355858	     -0.09478690
      0.37742897	      0.66436491	      0.02337272	     -0.09478690
      0.37885323	      0.67132055	      0.02319667	     -0.09478690
      0.38027749	      0.67826402	      0.02303038	     -0.09478690
      0.38170175	      0.68519464	      0.02287391	     -0.09478690
      0.38312601	      0.69211174	      0.02272729	     -0.09478690
      0.38455027	      0.69901469	      0.02259068	     -0.09478690
      0.38597453	      0.70590290	      0.02246419	     -0.09478690
      0.38739879	      0.71277581	      0.02234802	     -0.09478690
      0.38882305	      0.71963288	      0.02224238	     -0.09478690
      0.39024731	      0.72647363	      0.02214752	     -0.09478690
      0.39167157	      0.73329758	      0.02206370	     -0.09478690
      0.39309583	      0.74010429	      0.02199122	     -0.09478690
      0.39452009	      0.74689336	      0.02193043	     -0.09478690
      0.39594435	      0.75366440	      0.02188169	     -0.09478690
      0.39736861	      0.76041708	      0.02184541	     -0.09478690
      0.39879287	      0.76715107	      0.02182202	     -0.09478690
      0.40021713	      0.77386606	      0.02181199	     -0.09478690
      0.40164139	      0.78056177	      0.02181580	     -0.09478690
      0.40306565	      0.78723792	      0.02183398	     -0.09478690
      0.40448991	      0.79389425	      0.02186707	     -0.09478690
      0.40591417	      0.80053049	      0.02191566	     -0.09478690
      0.40733843	      0.80714638	      0.02198035	     -0.09478690
      0.40876269	      0.81374161	      0.02206176	     -0.09478690
      0.41018695	      0.82031586	      0.02216054	     -0.09478690
      0.41161121	      0.82686875	      0.02227735	     -0.09478690
      0.41303547	      0.83339982	      0.02241283	     -0.09478690
      0.41445973	      0.83990854	      0.02256764	     -0.09478690
      0.41588399	      0.84639420	      0.02274236	     -0.09478690
      0.41730825	      0.85285594	      0.02293752	     -0.09478690
      0.41873251	      0.85929254	      0.02315352	     -0.09478690
      0.42015677	      0.86570253	      0.02339059	     -0.09478690
      0.42158104	      0.87208374	      0.02364865	     -0.09478690
      0.42300530	      0.87843355	      0.02392731	     -0.09478690
      0.42442956	      0.88474813	      0.02422551	     -0.09478690
      0.42585382	      0.89102294	      0.02454169	     -0.09478690
      0.42727808	      0.89725167	      0.02487329	     -0.09478690
      0.42870234	      0.90342703	      0.02521699	     -0.09478690
      0.43012660	      0.90953973	      0.02556834	     -0.09478690
      0.43155086	      0.91557956	      0.02592212	     -0.09478690
      0.43297512	      0.92153491	      0.02627236	     -0.09478690
      0.43439938	      0.92739388	      0.02661269	     -0.09478690
      0.43582364	      0.93314455	      0.02693678	     -0.09478690
      0.43724790	      0.93877547	      0.02723825	     -0.09478690
      0.43867216	      0.94427539	      0.02751033	     -0.09478690
      0.44009642	      0.94963282	      0.02774540	     -0.09478690
      0.44152068	      0.95483330	      0.02793268	     -0.09478690
      0.44294494	      0.95985968	      0.02805879	     -0.09478690
      0.44436920	      0.96468818	      0.02810559	     -0.09478690
      0.44579346	      0.96929144	      0.02805254	     -0.09478690
      0.44721772	      0.97363667	      0.02787692	     -0.09478690
      0.44864198	      0.97768938	      0.02755578	     -0.09478690
      0.45006624	      0.98141433	      0.02706803	     -0.09478690
      0.45149050	      0.98477704	      0.02639451	     -0.09478690
      0.45291476	      0.98774733	      0.02552132	     -0.09478690
      0.45433902	      0.99029802	      0.02443823	     -0.09478690
      0.45576328	      0.99241084	      0.02314300	     -0.09478690
      0.45718754	      0.99407269	      0.02163879	     -0.09478690
      0.45861180	      0.99528287	      0.01994245	     -0.09478690
      0.46003606	      0.99602181	      0.01805778	     -0.09478690
      0.46146032	      0.99639675	      0.01611772	     -0.09478690
      0.46288458	      0.99662618	      0.01432951	     -0.09478690
      0.46430884	      0.99680703	      0.01272641	     -0.09478690
      0.46573310	      0.99695350	      0.01128407	     -0.09478690
      0.46715736	      0.99707384	      0.01000612	     -0.09478690
      0.46858162	      0.99717195	      0.00888730	     -0.09478690
      0.47000588	      0.99725172	      0.00791532	     -0.09478690
      0.47143014	      0.99731651	      0.00707440	     -0.09478690
      0.47285440	      0.99736952	      0.00634757	     -0.09478690
      0.47427866	      0.99741345	      0.00571851	     -0.09478690
      0.47570292	      0.99745048	      0.00517322	     -0.09478690
      0.47712719	      0.99748243	      0.00469920	     -0.09478690
      0.47855145	      0.99751061	      0.00428675	     -0.09478690
      0.47997571	      0.99753614	      0.00392734	     -0.09478690
      0.48139997	      0.99755980	      0.00361441	     -0.09478690
      0.48282423	      0.99758227	      0.00334210	     -0.09478690
      0.48424849	      0.99760402	      0.00310573	     -0.09478690
      0.48567275	      0.99762547	      0.00290105	     -0.09478690
      0.48709701	      0.99764690	      0.00272452	     -0.09478690
      0.48852127	      0.99766857	      0.00257289	     -0.09478690
      0.48994553	      0.99769068	      0.00244340	     -0.09478690
      0.49136979	      0.99771336	      0.00233348	     -0.09478690
      0.49279405	      0.99773673	      0.00224093	     -0.09478690
      0.49421831	      0.99776086	      0.00216370	     -0.09478690
      0.49564257	      0.99778580	      0.00210003	     -0.09478690
      0.49706683	      0.99781159	      0.00204829	     -0.09478690
      0.49849109	      0.99783823	      0.00200704	     -0.09478690
      0.49991535	      0.99786570	      0.00197498	     -0.09478690
      0.50133961	      0.99789399	      0.00195097	     -0.09478690
      0.50276387	      0.99792306	      0.00193394	     -0.09478690
      0.50418813	      0.99795286	      0.00192297	     -0.09478690
      0.50561239	      0.99798335	      0.00191720	     -0.09478690
      0.50703665	      0.99801447	      0.00191588	     -0.09478690
      0.50846091	      0.99804615	      0.00191829	     -0.09478690
      0.50988517	      0.99807833	      0.00192383	     -0.09478690
      0.51130943	      0.99811096	      0.00193190	     -0.09478690
      0.51273369	      0.99814395	      0.00194198	     -0.09478690
      0.51415795	      0.99817725	      0.00195359	     -0.09478690
      0.51558221	      0.99821081	      0.00196628	     -0.09478690
      0.51700647	      0.99824455	      0.00197963	     -0.09478690
      0.51843073	      0.99827842	      0.00199326	     -0.09478690
      0.51985499	      0.99831237	      0.00200680	     -0.09478690
      0.52127925	      0.99834635	      0.00201992	     -0.09478690
      0.52270351	      0.99838031	      0.00203229	     -0.09478690
      0.52412777	      0.99841422	      0.00204361	     -0.09478690
      0.52555203	      0.99844802	      0.00205359	     -0.09478690
      0.52697629	      0.99848169	      0.00206196	     -0.09478690
      0.52840055	      0.99851520	      0.00206845	     -0.09478690
      0.52982481	      0.99854852	      0.00207282	     -0.09478690
      0.53124907	      0.99858162	      0.00207483	     -0.09478690
      0.53267333	      0.99861450	      0.00207425	     -0.09478690
      0.53409760	      0.99864712	      0.00207086	     -0.09478690
      0.53552186	      0.99867949	      0.00206446	     -0.09478690
      0.53694612	      0.99871158	      0.00205485	     -0.09478690
      0.53837038	      0.99874339	      0.00204184	     -0.09478690
      0.53979464	      0.99877491	      0.00202527	     -0.09478690
      0.54121890	      0.99880615	      0.00200497	     -0.09478690
      0.54264316	      0.99883709	      0.00198080	     -0.09478690
      0.54406742	      0.99886775	      0.00195261	     -0.09478690
      0.54549168	      0.99889811	      0.00192029	     -0.09478690
      0.54691594	      0.99892819	      0.00188372	     -0.09478690
      0.54834020	      0.99895797	      0.00184281	     -0.09478690
      0.54976446	      0.99898748	      0.00179747	     -0.09478690
      0.55118872	      0.99901670	      0.00174766	     -0.09478690
      0.55261298	      0.99904564	      0.00169331	     -0.09478690
      0.55403724	      0.99907431	      0.00163439	     -0.09478690
      0.55546150	      0.99910270	      0.00157089	     -0.09478690
      0.55688576	      0.99913081	      0.00150281	     -0.09478690
      0.55831002	      0.99915865	      0.00143016	     -0.09478690
      0.55973428	      0.99918622	      0.00135299	     -0.09478690
      0.56115854	      0.99921351	      0.00127135	     -0.09478690
      0.56258280	      0.99924052	      0.00118529	     -0.09478690
      0.56400706	      0.99926725	      0.00109490	     -0.09478690
      0.56543132	      0.99929369	      0.00100029	     -0.09478690
      0.56685558	      0.99931984	      0.00090156	     -0.09478690
      0.56827984	      0.99934569	      0.00079883	     -0.09478690
      0.56970410	      0.99937123	      0.00069224	     -0.09478690
      0.57112836	      0.99939645	      0.00058193	     -0.09478690
      0.57255262	      0.99942136	      0.00046806	     -0.09478690
      0.57397688	      0.99944593	      0.00035079	     -0.09478690
      0.57540114	      0.99947017	      0.00023027	     -0.09478690
      0.57682540	      0.99949405	      0.00010668	     -0.09478690
      0.57824966	      0.99951758	     -0.00001981	     -0.09478690
      0.57967392	      0.99954075	     -0.00014904	     -0.09478690
      0.58109818	      0.99956354	     -0.00028083	     -0.09478690
      0.58252244	      0.99958595	     -0.00041500	     -0.09478690
      0.58394670	      0.99960798	     -0.00055139	     -0.09478690
      0.58537096	      0.99962961	     -0.00068982	     -0.09478690
      0.58679522	      0.99965084	     -0.00083014	     -0.09478690
      0.58821948	      0.99967166	     -0.00097217	     -0.09478690
      0.58964375	      0.99969208	     -0.00111575	     -0.09478690
      0.59106801	      0.99971209	     -0.00126073	     -0.09478690
      0.59249227	      0.99973168	     -0.00140695	     -0.09478690
      0.59391653	      0.99975086	     -0.00155425	     -0.09478690
      0.59534079	      0.99976962	     -0.00170250	     -0.09478690
      0.59676505	      0.99978797	     -0.00185153	     -0.09478690
      0.59818931	      0.99980591	     -0.00200123	     -0.09478690
      0.59961357	      0.99982344	     -0.00215144	     -0.09478690
      0.60103783	      0.99984057	     -0.00230202	     -0.09478690
      0.60246209	      0.99985729	     -0.00245286	     -0.09478690
      0.60388635	      0.99987363	     -0.00260382	     -0.09478690
      0.60531061	      0.99988957	     -0.00275476	     -0.09478690
      0.60673487	      0.99990514	     -0.00290559	     -0.09478690
      0.60815913	      0.99992033	     -0.00305616	     -0.09478690
      0.60958339	      0.99993515	     -0.00320636	     -0.09478690
      0.61100765	      0.99994962	     -0.00335609	     -0.09478690
      0.61243191	      0.99996375	     -0.00350523	     -0.09478690
      0.61385617	      0.99997753	     -0.00365367	     -0.09478690
      0.61528043	      0.99999099	     -0.00380130	     -0.09478690
      0.61670469	      1.00000412	     -0.00394803	     -0.09478690
      0.61812895	      1.00001695	     -0.00409376	     -0.09478690
      0.61955321	      1.00002947	     -0.00423839	     -0.09478690
      0.62097747	      1.00004171	     -0.00438183	     -0.09478690
      0.62240173	      1.00005366	     -0.00452398	     -0.09478690
      0.62382599	      1.00006534	     -0.00466477	     -0.09478690
      0.62525025	      1.00007675	     -0.00480411	     -0.09478690
      0.62667451	      1.00008791	     -0.00494193	     -0.09478690
      0.62809877	      1.00009882	     -0.00507813	     -0.09478690
      0.62952303	      1.00010949	     -0.00521266	     -0.09478690
      0.63094729	      1.00011991	     -0.00534545	     -0.09478690
      0.63237155	      1.00013011	     -0.00547642	     -0.09478690
      0.63379581	      1.00014008	     -0.00560553	     -0.09478690
      0.63522007	      1.00014982	     -0.00573270	     -0.09478690
      0.63664433	      1.00015934	     -0.00585790	     -0.09478690
      0.63806859	      1.00016863	     -0.00598107	     -0.09478690
      0.63949285	      1.00017769	     -0.00610216	     -0.09478690
      0.64091711	      1.00018653	     -0.00622114	     -0.09478690
      0.64234137	      1.00019513	     -0.00633796	     -0.09478690
      0.64376563	      1.00020348	     -0.00645260	     -0.09478690
      0.64518990	      1.00021158	     -0.00656502	     -0.09478690
      0.64661416	      1.00021942	     -0.00667519	     -0.09478690
      0.64803842	      1.00022698	     -0.00678311	     -0.09478690
      0.64946268	      1.00023425	     -0.00688873	     -0.09478690
      0.65088694	      1.00024123	     -0.00699206	     -0.09478690
      0.65231120	      1.00024790	     -0.00709308	     -0.09478690
      0.65373546	      1.00025426	     -0.00719178	     -0.09478690
      0.65515972	      1.00026029	     -0.00728815	     -0.09478690
      0.65658398	      1.00026601	     -0.00738221	     -0.09478690
      0.65800824	      1.00027142	     -0.00747395	     -0.09478690
      0.65943250	      1.00027651	     -0.00756339	     -0.09478690
      0.66085676	      1.00028130	     -0.00765054	     -0.09478690
      0.66228102	      1.00028578	     -0.00773542	     -0.09478690
      0.66370528	      1.00028996	     -0.00781804	     -0.09478690
      0.66512954	      1.00029385	     -0.00789845	     -0.09478690
      0.66655380	      1.00029744	     -0.00797665	     -0.09478690
      0.66797806	      1.00030073	     -0.00805268	     -0.09478690
      0.66940232	      1.00030373	     -0.00812657	     -0.09478690
      0.67082658	      1.00030643	     -0.00819836	     -0.09478690
      0.67225084	      1.00030884	     -0.00826807	     -0.09478690
      0.67367510	      1.00031095	     -0.00833575	     -0.09478690
      0.67509936	      1.00031276	     -0.00840144	     -0.09478690
      0.67652362	      1.00031427	     -0.00846517	     -0.09478690
      0.67794788	      1.00031547	     -0.00852698	     -0.09478690
      0.67937214	      1.00031637	     -0.00858691	     -0.09478690
      0.68079640	      1.00031696	     -0.00864502	     -0.09478690
      0.68222066	      1.00031723	     -0.00870133	     -0.09478690
      0.68364492	      1.00031718	     -0.00875590	     -0.09478690
      0.68506918	      1.00031680	     -0.00880877	     -0.09478690
      0.68649344	      1.00031609	     -0.00885998	     -0.09478690
      0.68791770	      1.00031504	     -0.00890957	     -0.09478690
      0.68934196	      1.00031365	     -0.00895760	     -0.09478690
      0.69076622	      1.00031189	     -0.00900409	     -0.09478690
      0.69219048	      1.00030978	     -0.00904910	     -0.09478690
      0.69361474	      1.00030729	     -0.00909266	     -0.09478690
      0.69503900	      1.00030441	     -0.00913482	     -0.09478690
      0.69646326	      1.00030115	     -0.00917562	     -0.09478690
      0.69788752	      1.00029748	     -0.00921510	     -0.09478690
      0.69931178	      1.00029340	     -0.00925329	     -0.09478690
      0.70073604	      1.00028889	     -0.00929023	     -0.09478690
      0.70216031	      1.00028396	     -0.00932596	     -0.09478690
      0.70358457	      1.00027858	     -0.00936051	     -0.09478690
      0.70500883	      1.00027275	     -0.00939393	     -0.09478690
      0.70643309	      1.00026646	     -0.00942624	     -0.09478690
      0.70785735	      1.00025970	     -0.00945748	     -0.09478690
      0.70928161	      1.00025246	     -0.00948767	     -0.09478690
      0.71070587	      1.00024473	     -0.00951686	     -0.09478690
      0.71213013	      1.00023649	     -0.00954506	     -0.09478690
      0.71355439	      1.00022776	     -0.00957231	     -0.09478690
      0.71497865	      1.00021850	     -0.00959863	     -0.09478690
      0.71640291	      1.00020872	     -0.00962405	     -0.09478690
      0.71782717	      1.00019841	     -0.00964859	     -0.09478690
      0.71925143	      1.00018756	     -0.00967229	     -0.09478690
      0.72067569	      1.00017617	     -0.00969515	     -0.09478690
      0.72209995	      1.00016422	     -0.00971721	     -0.09478690
      0.72352421	      1.00015172	     -0.00973849	     -0.09478690
      0.72494847	      1.00013865	     -0.00975900	     -0.09478690
      0.72637273	      1.00012501	     -0.00977876	     -0.09478690
      0.72779699	      1.00011080	     -0.00979780	     -0.09478690
      0.72922125	      1.00009601	     -0.00981613	     -0.09478690
      0.73064551	      1.00008063	     -0.00983376	     -0.09478690
      0.73206977	      1.00006466	     -0.00985071	     -0.09478690
      0.73349403	      1.00004810	     -0.00986700	     -0.09478690
      0.73491829	      1.00003094	     -0.00988264	     -0.09478690
      0.73634255	      1.00001318	     -0.00989763	     -0.09478690
      0.73776681	      0.99999481	     -0.00991200	     -0.09478690
      0.73919107	      0.99997584	     -0.00992575	     -0.09478690
      0.74061533	      0.99995625	     -0.00993890	     -0.09478690
      0.74203959	      0.99993604	     -0.00995144	     -0.09478690
      0.74346385	      0.99991521	     -0.00996339	     -0.09478690
      0.74488811	      0.99989376	     -0.00997476	     -0.09478690
      0.74631237	      0.99987167	     -0.00998554	     -0.09478690
      0.74773663	      0.99984896	     -0.00999575	     -0.09478690
      0.74916089	      0.99982561	     -0.01000539	     -0.09478690
      0.75058515	      0.99980161	     -0.01001446	     -0.09478690
      0.75200941	      0.99977697	     -0.01002295	     -0.09478690
      0.75343367	      0.99975168	     -0.01003087	     -0.09478690
      0.75485793	      0.99972574	     -0.01003823	     -0.09478690
      0.75628219	      0.99969913	     -0.01004500	     -0.09478690
      0.75770646	      0.99967186	     -0.01005120	     -0.09478690
      0.75913072	      0.99964392	     -0.01005681	     -0.09478690
      0.76055498	      0.99961530	     -0.01006183	     -0.09478690
      0.76197924	      0.99958600	     -0.01006624	     -0.09478690
      0.76340350	      0.99955601	     -0.01007005	     -0.09478690
      0.76482776	      0.99952533	     -0.01007323	     -0.09478690
      0.76625202	      0.99949395	     -0.01007578	     -0.09478690
      0.76767628	      0.99946185	     -0.01007768	     -0.09478690
      0.76910054	      0.99942904	     -0.01007891	     -0.09478690
      0.77052480	      0.99939552	     -0.01007947	     -0.09478690
      0.77194906	      0.99936126	     -0.01007932	     -0.09478690
      0.77337332	      0.99932626	     -0.01007845	     -0.09478690
      0.77479758	      0.99929052	     -0.01007684	     -0.09478690
      0.77622184	      0.99925404	     -0.01007446	     -0.09478690
      0.77764610	      0.99921679	     -0.01007130	     -0.09478690
      0.77907036	      0.99917877	     -0.01006732	     -0.09478690
      0.78049462	      0.99913999	     -0.01006251	     -0.09478690
      0.78191888	      0.99910042	     -0.01005683	     -0.09478690
      0.78334314	      0.99906006	     -0.01005025	     -0.09478690
      0.78476740	      0.99901890	     -0.01004275	     -0.09478690
      0.78619166	      0.99897694	     -0.01003429	     -0.09478690
      0.78761592	      0.99893417	     -0.01002485	     -0.09478690
      0.78904018	      0.99889057	     -0.01001440	     -0.09478690
      0.79046444	      0.99884615	     -0.01000289	     -0.09478690
      0.79188870	      0.99880089	     -0.00999029	     -0.09478690
      0.79331296	      0.99875479	     -0.00997657	     -0.09478690
      0.79473722	      0.99870784	     -0.00996170	     -0.09478690
      0.79616148	      0.99866002	     -0.00994564	     -0.09478690
      0.79758574	      0.99861135	     -0.00992835	     -0.09478690
      0.79901000	      0.99856180	     -0.00990979	     -0.09478690
      0.80043426	      0.99851137	     -0.00988993	     -0.09478690
      0.80185852	      0.99846005	     -0.00986873	     -0.09478690
      0.80328278	      0.99840784	     -0.00984615	     -0.09478690
      0.80470704	      0.99835473	     -0.00982215	     -0.09478690
      0.80613130	      0.99830071	     -0.00979669	     -0.09478690
      0.80755556	      0.99824578	     -0.00976974	     -0.09478690
      0.80897982	      0.99818993	     -0.00974127	     -0.09478690
      0.81040408	      0.99813315	     -0.00971123	     -0.09478690
      0.81182834	      0.99807544	     -0.00967958	     -0.09478690
      0.81325261	      0.99801679	     -0.00964628	     -0.09478690
      0.81467687	      0.99795719	     -0.00961128	     -0.09478690
      0.81610113	      0.99789665	     -0.00957455	     -0.09478690
      0.81752539	      0.99783516	     -0.00953603	     -0.09478690
      0.81894965	      0.99777271	     -0.00949567	     -0.09478690
      0.82037391	      0.99770929	     -0.00945343	     -0.09478690
      0.82179817	      0.99764492	     -0.00940926	     -0.09478690
      0.82322243	      0.99757957	     -0.00936309	     -0.09478690
      0.82464669	      0.99751325	     -0.00931487	     -0.09478690
      0.82607095	      0.99744597	     -0.00926455	     -0.09478690
      0.82749521	      0.99737770	     -0.00921205	     -0.09478690
      0.82891947	      0.99730847	     -0.00915732	     -0.09478690
      0.83034373	      0.99723825	     -0.00910029	     -0.09478690
      0.83176799	      0.99716707	     -0.00904088	     -0.09478690
      0.83319225	      0.99709490	     -0.00897902	     -0.09478690
      0.83461651	      0.99702177	     -0.00891463	     -0.09478690
      0.83604077	      0.99694767	     -0.00884763	     -0.09478690
      0.83746503	      0.99687261	     -0.00877794	     -0.09478690
      0.83888929	      0.99679659	     -0.00870547	     -0.09478690
      0.84031355	      0.99671963	     -0.00863011	     -0.09478690
      0.84173781	      0.99664172	     -0.00855179	     -0.09478690
      0.84316207	      0.99656289	     -0.00847038	     -0.09478690
      0.84458633	      0.99648315	     -0.00838579	     -0.09478690
      0.84601059	      0.99640250	     -0.00829790	     -0.09478690
      0.84743485	      0.99632098	     -0.00820659	     -0.09478690
      0.84885911	      0.99623861	     -0.00811173	     -0.09478690
      0.85028337	      0.99615541	     -0.00801320	     -0.09478690
      0.85170763	      0.99607138	     -0.00791086	     -0.09478690
      0.85313189	      0.99598654	     -0.00780456	     -0.09478690
      0.85455615	      0.99590117	     -0.00769404	     -0.09478690
