PointAcceleration
version=1
nRows=601
nColumns=4
inDegrees=no
No description.
endheader
time	state_0	state_1	state_2
      0.00000000	    458.96743083	    266.95658992	      0.00000000
      0.00142426	    451.49795370	    257.78348509	      0.00000000
      0.00284852	    444.30171987	    248.76307994	      0.00000000
      0.00427278	    437.26948735	    239.88533185	      0.00000000
      0.00569704	    429.69808872	    230.91175323	      0.00000000
      0.00712130	    421.64379923	    221.87922064	      0.00000000
      0.00854556	    413.13427708	    212.80477194	      0.00000000
      0.00996982	    404.17820386	    203.70419073	      0.00000000
      0.01139408	    394.74462954	    194.58757384	      0.00000000
      0.01281834	    384.82279357	    185.47508449	      0.00000000
      0.01424260	    374.40410822	    176.38993276	      0.00000000
      0.01566686	    363.47198421	    167.34874832	      0.00000000
      0.01709112	    352.02774909	    158.36582044	      0.00000000
      0.01851538	    340.05937247	    149.44947191	      0.00000000
      0.01993964	    327.57750544	    140.61144726	      0.00000000
      0.02136390	    314.57722385	    131.86352749	      0.00000000
      0.02278816	    301.07958078	    123.22557536	      0.00000000
      0.02421242	    287.07503790	    114.71160180	      0.00000000
      0.02563668	    272.59899358	    106.34462981	      0.00000000
      0.02706094	    257.60339269	     98.13256735	      0.00000000
      0.02848521	    242.19420221	     90.10983358	      0.00000000
      0.02990947	    226.15491092	     82.25782711	      0.00000000
      0.03133373	    209.88409145	     74.58545446	      0.00000000
      0.03275799	    192.38786479	     66.85485053	      0.00000000
      0.03418225	    174.39119339	     59.66078246	      0.00000000
      0.03560651	    151.82908346	     51.92409130	      0.00000000
      0.03703077	    123.35995514	     43.44722282	      0.00000000
      0.03845503	     88.43381066	     33.94345122	      0.00000000
      0.03987929	     53.26639830	     23.22516940	      0.00000000
      0.04130355	     45.65209593	     14.25671561	      0.00000000
      0.04272781	     43.78081557	     12.18434402	      0.00000000
      0.04415207	     39.94071740	     10.11996325	      0.00000000
      0.04557633	     37.17321958	      8.35522385	      0.00000000
      0.04700059	     34.71476004	      6.97132924	      0.00000000
      0.04842485	     32.73320733	      5.93921774	      0.00000000
      0.04984911	     31.13249831	      5.12705349	      0.00000000
      0.05127337	     29.84911692	      4.45906662	      0.00000000
      0.05269763	     28.79177732	      3.87763333	      0.00000000
      0.05412189	     27.88854922	      3.34787693	      0.00000000
      0.05554615	     27.11103244	      2.85490036	      0.00000000
      0.05697041	     26.41808757	      2.38542864	      0.00000000
      0.05839467	     25.79687683	      1.93526508	      0.00000000
      0.05981893	     25.22508719	      1.49983927	      0.00000000
      0.06124319	     24.69539873	      1.07814285	      0.00000000
      0.06266745	     24.19564708	      0.66884868	      0.00000000
      0.06409171	     23.72192513	      0.27194727	      0.00000000
      0.06551597	     23.26784403	     -0.11284832	      0.00000000
      0.06694023	     22.83169712	     -0.48539110	      0.00000000
      0.06836449	     22.41047568	     -0.84578686	      0.00000000
      0.06978875	     22.00364234	     -1.19405255	      0.00000000
      0.07121301	     21.60999029	     -1.53041414	      0.00000000
      0.07263727	     21.22936048	     -1.85511858	      0.00000000
      0.07406153	     20.86123298	     -2.16857518	      0.00000000
      0.07548579	     20.50537711	     -2.47120837	      0.00000000
      0.07691005	     20.16137034	     -2.76355945	      0.00000000
      0.07833431	     19.82880636	     -3.04613884	      0.00000000
      0.07975857	     19.50715146	     -3.31954091	      0.00000000
      0.08118283	     19.19585606	     -3.58428420	      0.00000000
      0.08260709	     18.89419225	     -3.84095848	      0.00000000
      0.08403135	     18.60160502	     -4.09003147	      0.00000000
      0.08545562	     18.31742713	     -4.33201769	      0.00000000
      0.08687988	     18.04124326	     -4.56730122	      0.00000000
      0.08830414	     17.77250616	     -4.79630492	      0.00000000
      0.08972840	     17.51081662	     -5.01934664	      0.00000000
      0.09115266	     17.25559095	     -5.23677785	      0.00000000
      0.09257692	     17.00638323	     -5.44888733	      0.00000000
      0.09400118	     16.76269667	     -5.65673897	      0.00000000
      0.09542544	     16.52423644	     -5.86097901	      0.00000000
      0.09684970	     16.29053762	     -6.06193021	      0.00000000
      0.09827396	     16.06130998	     -6.25983613	      0.00000000
      0.09969822	     15.83616885	     -6.45494870	      0.00000000
      0.10112248	     15.61491167	     -6.64744182	      0.00000000
      0.10254674	     15.39726072	     -6.83749538	      0.00000000
      0.10397100	     15.18304531	     -7.02522595	      0.00000000
      0.10539526	     14.97201749	     -7.21075530	      0.00000000
      0.10681952	     14.76398895	     -7.39415367	      0.00000000
      0.10824378	     14.55871119	     -7.57549360	      0.00000000
      0.10966804	     14.35599849	     -7.75480196	      0.00000000
      0.11109230	     14.15562116	     -7.93210602	      0.00000000
      0.11251656	     13.95741672	     -8.10739328	      0.00000000
      0.11394082	     13.76118531	     -8.28065169	      0.00000000
      0.11536508	     13.56678191	     -8.45183705	      0.00000000
      0.11678934	     13.37402859	     -8.62090633	      0.00000000
      0.11821360	     13.18278816	     -8.78779161	      0.00000000
      0.11963786	     12.99289802	     -8.95242675	      0.00000000
      0.12106212	     12.80422564	     -9.11472699	      0.00000000
      0.12248638	     12.61661725	     -9.27461056	      0.00000000
      0.12391064	     12.42994250	     -9.43198211	      0.00000000
      0.12533490	     12.24404060	     -9.58675187	      0.00000000
      0.12675916	     12.05880940	     -9.73881654	      0.00000000
      0.12818342	     11.87413741	     -9.88807859	      0.00000000
      0.12960768	     11.68998828	    -10.03442688	      0.00000000
      0.13103194	     11.50631985	    -10.17761088	      0.00000000
      0.13245620	     11.32310887	    -10.31742264	      0.00000000
      0.13388046	     11.14040792	    -10.45375319	      0.00000000
      0.13530472	     10.95807207	    -10.58651210	      0.00000000
      0.13672898	     10.77602722	    -10.71561264	      0.00000000
      0.13815324	     10.59359541	    -10.84101976	      0.00000000
      0.13957750	     10.40945883	    -10.96275404	      0.00000000
      0.14100177	     10.22332090	    -11.08075101	      0.00000000
      0.14242603	     10.03475721	    -11.19496638	      0.00000000
      0.14385029	      9.84571827	    -11.30518302	      0.00000000
      0.14527455	      9.65723707	    -11.41128299	      0.00000000
      0.14669881	      9.47394295	    -11.51290431	      0.00000000
      0.14812307	      9.29295100	    -11.61027101	      0.00000000
      0.14954733	      9.22213107	    -11.70528876	      0.00000000
      0.15097159	      9.01451991	    -11.79422931	      0.00000000
      0.15239585	      8.81952525	    -11.87801521	      0.00000000
      0.15382011	      8.62470844	    -11.95748562	      0.00000000
      0.15524437	      8.41990842	    -12.03328441	      0.00000000
      0.15666863	      8.20857347	    -12.10519174	      0.00000000
      0.15809289	      7.99338217	    -12.17307575	      0.00000000
      0.15951715	      7.77746402	    -12.23680760	      0.00000000
      0.16094141	      7.56147288	    -12.29641314	      0.00000000
      0.16236567	      7.34572095	    -12.35194419	      0.00000000
      0.16378993	      7.12917755	    -12.40352059	      0.00000000
      0.16521419	      6.91123115	    -12.45123975	      0.00000000
      0.16663845	      6.69135728	    -12.49519403	      0.00000000
      0.16806271	      6.46922140	    -12.53546789	      0.00000000
      0.16948697	      6.24469347	    -12.57213833	      0.00000000
      0.17091123	      6.01753497	    -12.60528884	      0.00000000
      0.17233549	      5.78764211	    -12.63499983	      0.00000000
      0.17375975	      5.55483762	    -12.66135639	      0.00000000
      0.17518401	      5.31919134	    -12.68443780	      0.00000000
      0.17660827	      5.08084955	    -12.70432372	      0.00000000
      0.17803253	      4.83997787	    -12.72109824	      0.00000000
      0.17945679	      4.59674918	    -12.73484978	      0.00000000
      0.18088105	      4.35107204	    -12.74568099	      0.00000000
      0.18230531	      4.10282128	    -12.75370204	      0.00000000
      0.18372957	      3.85168267	    -12.75903501	      0.00000000
      0.18515383	      3.59734700	    -12.76181073	      0.00000000
      0.18657809	      3.33954362	    -12.76216456	      0.00000000
      0.18800235	      3.07801158	    -12.76023897	      0.00000000
      0.18942661	      2.81262646	    -12.75617414	      0.00000000
      0.19085087	      2.54325030	    -12.75010980	      0.00000000
      0.19227513	      2.26984585	    -12.74217938	      0.00000000
      0.19369939	      1.99235284	    -12.73251001	      0.00000000
      0.19512365	      1.71075199	    -12.72122549	      0.00000000
      0.19654792	      1.42500964	    -12.70844635	      0.00000000
      0.19797218	      1.13510218	    -12.69429580	      0.00000000
      0.19939644	      0.84100297	    -12.67889957	      0.00000000
      0.20082070	      0.54268658	    -12.66238849	      0.00000000
      0.20224496	      0.24012999	    -12.64489851	      0.00000000
      0.20366922	     -0.06668966	    -12.62657006	      0.00000000
      0.20509348	     -0.37779191	    -12.60754878	      0.00000000
      0.20651774	     -0.69319489	    -12.58798372	      0.00000000
      0.20794200	     -1.01291354	    -12.56802866	      0.00000000
      0.20936626	     -1.33695968	    -12.54784017	      0.00000000
      0.21079052	     -1.66534166	    -12.52757923	      0.00000000
      0.21221478	     -1.99806444	    -12.50740929	      0.00000000
      0.21363904	     -2.33512901	    -12.48749808	      0.00000000
      0.21506330	     -2.67653496	    -12.46801552	      0.00000000
      0.21648756	     -3.02227720	    -12.44913574	      0.00000000
      0.21791182	     -3.37235301	    -12.43103481	      0.00000000
      0.21933608	     -3.72675402	    -12.41389294	      0.00000000
      0.22076034	     -4.08547879	    -12.39789221	      0.00000000
      0.22218460	     -4.44851982	    -12.38321866	      0.00000000
      0.22360886	     -4.81587992	    -12.37006024	      0.00000000
      0.22503312	     -5.18755593	    -12.35860872	      0.00000000
      0.22645738	     -5.56355557	    -12.34905769	      0.00000000
      0.22788164	     -5.94387999	    -12.34160447	      0.00000000
      0.22930590	     -6.32854155	    -12.33644822	      0.00000000
      0.23073016	     -6.71754666	    -12.33379177	      0.00000000
      0.23215442	     -7.11091307	    -12.33383991	      0.00000000
      0.23357868	     -7.50865329	    -12.33680114	      0.00000000
      0.23500294	     -7.91078985	    -12.34288596	      0.00000000
      0.23642720	     -8.31734005	    -12.35230863	      0.00000000
      0.23785146	     -8.72833009	    -12.36528544	      0.00000000
      0.23927572	     -9.14378123	    -12.38203661	      0.00000000
      0.24069998	     -9.56372371	    -12.40278454	      0.00000000
      0.24212424	     -9.98818338	    -12.42775573	      0.00000000
      0.24354850	    -10.41719526	    -12.45717911	      0.00000000
      0.24497276	    -10.85079044	    -12.49128791	      0.00000000
      0.24639702	    -11.28900857	    -12.53031792	      0.00000000
      0.24782128	    -11.73188540	    -12.57450956	      0.00000000
      0.24924554	    -12.17946431	    -12.62410589	      0.00000000
      0.25066980	    -12.63178501	    -12.67935517	      0.00000000
      0.25209406	    -13.08889411	    -12.74050834	      0.00000000
      0.25351833	    -13.55083523	    -12.80782144	      0.00000000
      0.25494259	    -14.01765745	    -12.88155348	      0.00000000
      0.25636685	    -14.48940742	    -12.96196945	      0.00000000
      0.25779111	    -14.96613476	    -13.04933738	      0.00000000
      0.25921537	    -15.44788694	    -13.14393171	      0.00000000
      0.26063963	    -15.93471210	    -13.24603003	      0.00000000
      0.26206389	    -16.42665626	    -13.35591674	      0.00000000
      0.26348815	    -16.92376346	    -13.47387945	      0.00000000
      0.26491241	    -17.42607663	    -13.60021312	      0.00000000
      0.26633667	    -17.93363333	    -13.73521583	      0.00000000
      0.26776093	    -18.44647089	    -13.87919348	      0.00000000
      0.26918519	    -18.96461689	    -14.03245458	      0.00000000
      0.27060945	    -19.48809868	    -14.19531554	      0.00000000
      0.27203371	    -20.01692886	    -14.36809546	      0.00000000
      0.27345797	    -20.55111994	    -14.55112172	      0.00000000
      0.27488223	    -21.09066596	    -14.74472376	      0.00000000
      0.27630649	    -21.63556170	    -14.94923948	      0.00000000
      0.27773075	    -22.18577848	    -15.16500808	      0.00000000
      0.27915501	    -22.74128919	    -15.39237731	      0.00000000
      0.28057927	    -23.30203690	    -15.63169504	      0.00000000
      0.28200353	    -23.86796624	    -15.88331739	      0.00000000
      0.28342779	    -24.43898651	    -16.14759926	      0.00000000
      0.28485205	    -25.01500806	    -16.42490323	      0.00000000
      0.28627631	    -25.59590071	    -16.71558906	      0.00000000
      0.28770057	    -26.18153601	    -17.02002349	      0.00000000
      0.28912483	    -26.77173998	    -17.33856859	      0.00000000
      0.29054909	    -27.36634079	    -17.67159239	      0.00000000
      0.29197335	    -27.96511565	    -18.01945594	      0.00000000
      0.29339761	    -28.56784338	    -18.38252473	      0.00000000
      0.29482187	    -29.17424605	    -18.76115444	      0.00000000
      0.29624613	    -29.78404684	    -19.15570322	      0.00000000
      0.29767039	    -30.39690782	    -19.56651635	      0.00000000
      0.29909465	    -31.01249232	    -19.99393935	      0.00000000
      0.30051891	    -31.63039801	    -20.43830135	      0.00000000
      0.30194317	    -32.25022361	    -20.89992885	      0.00000000
      0.30336743	    -32.87149710	    -21.37912778	      0.00000000
      0.30479169	    -33.49374705	    -21.87619790	      0.00000000
      0.30621595	    -34.11642660	    -22.39141377	      0.00000000
      0.30764021	    -34.73898940	    -22.92503959	      0.00000000
      0.30906448	    -35.36080943	    -23.47730916	      0.00000000
      0.31048874	    -35.98126190	    -24.04844120	      0.00000000
      0.31191300	    -36.59963855	    -24.63861827	      0.00000000
      0.31333726	    -37.21523372	    -25.24800248	      0.00000000
      0.31476152	    -37.82725539	    -25.87671356	      0.00000000
      0.31618578	    -38.43491661	    -26.52484484	      0.00000000
      0.31761004	    -39.03734260	    -27.19244074	      0.00000000
      0.31903430	    -39.63366828	    -27.87951304	      0.00000000
      0.32045856	    -40.22294205	    -28.58601819	      0.00000000
      0.32188282	    -40.80422942	    -29.31187384	      0.00000000
      0.32330708	    -41.37651441	    -30.05693651	      0.00000000
      0.32473134	    -41.93880887	    -30.82101810	      0.00000000
      0.32615560	    -42.49005148	    -31.60386428	      0.00000000
      0.32757986	    -43.02922224	    -32.40517054	      0.00000000
      0.32900412	    -43.55524037	    -33.22456232	      0.00000000
      0.33042838	    -44.06708084	    -34.06160907	      0.00000000
      0.33185264	    -44.56367395	    -34.91580748	      0.00000000
      0.33327690	    -45.04401859	    -35.78659129	      0.00000000
      0.33470116	    -45.50708846	    -36.67332019	      0.00000000
      0.33612542	    -45.95193020	    -37.57527983	      0.00000000
      0.33754968	    -46.37758662	    -38.49168117	      0.00000000
      0.33897394	    -46.78316330	    -39.42164288	      0.00000000
      0.34039820	    -47.16778824	    -40.36421039	      0.00000000
      0.34182246	    -47.53062169	    -41.31830837	      0.00000000
      0.34324672	    -47.87088734	    -42.28279753	      0.00000000
      0.34467098	    -48.18779405	    -43.25638172	      0.00000000
      0.34609524	    -48.48066587	    -44.23771836	      0.00000000
      0.34751950	    -48.74874752	    -45.22526500	      0.00000000
      0.34894376	    -48.99147306	    -46.21746829	      0.00000000
      0.35036802	    -49.20817959	    -47.21256461	      0.00000000
      0.35179228	    -49.39834279	    -48.20875566	      0.00000000
      0.35321654	    -49.56123767	    -49.20396964	      0.00000000
      0.35464080	    -49.69635454	    -50.19614857	      0.00000000
      0.35606506	    -49.80341817	    -51.18324828	      0.00000000
      0.35748932	    -49.88122657	    -52.16254627	      0.00000000
      0.35891358	    -49.92785105	    -53.13056138	      0.00000000
      0.36033784	    -49.94258578	    -54.08452313	      0.00000000
      0.36176210	    -49.93282212	    -55.02732706	      0.00000000
      0.36318636	    -49.89533292	    -55.95512573	      0.00000000
      0.36461063	    -50.04598417	    -57.11251833	      0.00000000
      0.36603489	    -49.93210234	    -57.99071454	      0.00000000
      0.36745915	    -49.78811150	    -58.84389013	      0.00000000
      0.36888341	    -49.60970268	    -59.66574497	      0.00000000
      0.37030767	    -49.39809916	    -60.45452431	      0.00000000
      0.37173193	    -49.15866977	    -61.21263993	      0.00000000
      0.37315619	    -48.89228239	    -61.93925287	      0.00000000
      0.37458045	    -48.59783563	    -62.63177970	      0.00000000
      0.37600471	    -48.27386972	    -63.28727305	      0.00000000
      0.37742897	    -47.91913053	    -63.90281136	      0.00000000
      0.37885323	    -47.53296217	    -64.47607390	      0.00000000
      0.38027749	    -47.11582530	    -65.00600013	      0.00000000
      0.38170175	    -46.66824703	    -65.49200791	      0.00000000
      0.38312601	    -46.19102139	    -65.93391549	      0.00000000
      0.38455027	    -45.68477168	    -66.33166263	      0.00000000
      0.38597453	    -45.15011552	    -66.68529528	      0.00000000
      0.38739879	    -44.58783957	    -66.99533893	      0.00000000
      0.38882305	    -43.99886899	    -67.26257811	      0.00000000
      0.39024731	    -43.38433792	    -67.48829513	      0.00000000
      0.39167157	    -42.74562613	    -67.67417081	      0.00000000
      0.39309583	    -42.08436335	    -67.82242666	      0.00000000
      0.39452009	    -41.40242124	    -67.93567461	      0.00000000
      0.39594435	    -40.70193606	    -68.01704867	      0.00000000
      0.39736861	    -39.98523394	    -68.06995188	      0.00000000
      0.39879287	    -39.25493676	    -68.09826534	      0.00000000
      0.40021713	    -38.51387646	    -68.10611218	      0.00000000
      0.40164139	    -37.76525751	    -68.09810525	      0.00000000
      0.40306565	    -37.01257976	    -68.07917569	      0.00000000
      0.40448991	    -36.25988311	    -68.05484213	      0.00000000
      0.40591417	    -35.51175484	    -68.03109432	      0.00000000
      0.40733843	    -34.77377919	    -68.01489475	      0.00000000
      0.40876269	    -34.05244550	    -68.01432286	      0.00000000
      0.41018695	    -33.35642673	    -68.03963692	      0.00000000
      0.41161121	    -32.69708580	    -68.10375275	      0.00000000
      0.41303547	    -32.09061249	    -68.22466264	      0.00000000
      0.41445973	    -31.55903459	    -68.42648763	      0.00000000
      0.41588399	    -31.13411378	    -68.74415038	      0.00000000
      0.41730825	    -30.85850184	    -69.22464479	      0.00000000
      0.41873251	    -30.79148238	    -69.93447256	      0.00000000
      0.42015677	    -31.00851052	    -70.95941174	      0.00000000
      0.42158104	    -31.60654947	    -72.41250265	      0.00000000
      0.42300530	    -32.69763349	    -74.42803283	      0.00000000
      0.42442956	    -34.40680384	    -77.16133044	      0.00000000
      0.42585382	    -36.85312910	    -80.76995577	      0.00000000
      0.42727808	    -40.12942569	    -85.38943339	      0.00000000
      0.42870234	    -44.27004094	    -91.09952938	      0.00000000
      0.43012660	    -49.21309369	    -97.87123851	      0.00000000
      0.43155086	    -54.78582276	   -105.54827072	      0.00000000
      0.43297512	    -60.70098302	   -113.82713679	      0.00000000
      0.43439938	    -66.63592826	   -122.34267117	      0.00000000
      0.43582364	    -72.36521210	   -130.82679811	      0.00000000
      0.43724790	    -77.93855358	   -139.31461400	      0.00000000
      0.43867216	    -83.86324729	   -148.40840691	      0.00000000
      0.44009642	    -91.03225464	   -159.19336095	      0.00000000
      0.44152068	   -100.50848950	   -173.00350709	      0.00000000
      0.44294494	   -113.04741634	   -190.82754966	      0.00000000
      0.44436920	   -128.80516881	   -212.87663664	      0.00000000
      0.44579346	   -147.37863319	   -238.64055140	      0.00000000
      0.44721772	   -167.94536832	   -266.97464905	      0.00000000
      0.44864198	   -189.65857394	   -296.65194585	      0.00000000
      0.45006624	   -211.58432684	   -326.24902380	      0.00000000
      0.45149050	   -232.95383521	   -354.53218545	      0.00000000
      0.45291476	   -252.78514711	   -379.92634690	      0.00000000
      0.45433902	   -270.32937044	   -401.14493706	      0.00000000
      0.45576328	   -284.16903153	   -415.61492012	      0.00000000
      0.45718754	   -294.35002779	   -422.43948270	      0.00000000
      0.45861180	   -297.02870670	   -413.97592659	      0.00000000
      0.46003606	   -293.33032277	   -390.23096864	      0.00000000
      0.46146032	   -130.45449436	   -188.79360972	      0.00000000
      0.46288458	    -99.38750666	   -136.13105392	      0.00000000
      0.46430884	    -85.50521601	    -77.19600241	      0.00000000
      0.46573310	    -69.64240732	     -4.67293064	      0.00000000
      0.46715736	    -59.07944909	     54.76965797	      0.00000000
      0.46858162	    -48.05969362	    102.19137686	      0.00000000
      0.47000588	    -40.28350654	    133.62967417	      0.00000000
      0.47143014	    -33.97708470	    153.89539288	      0.00000000
      0.47285440	    -29.82040483	    165.33455752	      0.00000000
      0.47427866	    -26.89201954	    171.22972490	      0.00000000
      0.47570292	    -25.13078749	    173.44440029	      0.00000000
      0.47712719	    -24.09480471	    173.52509498	      0.00000000
      0.47855145	    -23.64029798	    172.18998505	      0.00000000
      0.47997571	    -23.55125682	    170.15561482	      0.00000000
      0.48139997	    -23.72452805	    167.62809215	      0.00000000
      0.48282423	    -24.05276314	    164.98434537	      0.00000000
      0.48424849	    -24.47876915	    162.27022143	      0.00000000
      0.48567275	    -24.94353304	    159.69430597	      0.00000000
      0.48709701	    -25.42018287	    157.25278377	      0.00000000
      0.48852127	    -25.87270477	    155.05734237	      0.00000000
      0.48994553	    -26.29118214	    153.08406681	      0.00000000
      0.49136979	    -26.65200386	    151.38903188	      0.00000000
      0.49279405	    -26.95364460	    149.93905119	      0.00000000
      0.49421831	    -27.18059830	    148.76002205	      0.00000000
      0.49564257	    -27.33422500	    147.81769310	      0.00000000
      0.49706683	    -27.40497740	    147.12301157	      0.00000000
      0.49849109	    -27.39453700	    146.64602506	      0.00000000
      0.49991535	    -27.29782120	    146.39111837	      0.00000000
      0.50133961	    -27.11620072	    146.33469368	      0.00000000
      0.50276387	    -26.84779545	    146.47884757	      0.00000000
      0.50418813	    -26.49349540	    146.80671569	      0.00000000
      0.50561239	    -26.05337356	    147.32018572	      0.00000000
      0.50703665	    -25.52793663	    148.00835403	      0.00000000
      0.50846091	    -24.91849894	    148.87352836	      0.00000000
      0.50988517	    -24.22551077	    149.90948340	      0.00000000
      0.51130943	    -23.45101634	    151.11901632	      0.00000000
      0.51273369	    -22.59570523	    152.49916294	      0.00000000
      0.51415795	    -21.66166147	    154.05348125	      0.00000000
      0.51558221	    -20.64967165	    155.78154629	      0.00000000
      0.51700647	    -19.56141594	    157.68788608	      0.00000000
      0.51843073	    -18.39738856	    159.77435541	      0.00000000
      0.51985499	    -17.15877609	    162.04612248	      0.00000000
      0.52127925	    -15.84590636	    164.50650023	      0.00000000
      0.52270351	    -14.45946848	    167.16115492	      0.00000000
      0.52412777	    -12.99954840	    170.01452574	      0.00000000
      0.52555203	    -11.46626824	    173.07267453	      0.00000000
      0.52697629	     -9.85931048	    176.34093674	      0.00000000
      0.52840055	     -8.17821585	    179.82556861	      0.00000000
      0.52982481	     -6.42220437	    183.53252656	      0.00000000
      0.53124907	     -4.59037580	    187.46785588	      0.00000000
      0.53267333	     -2.68159180	    191.63759071	      0.00000000
      0.53409760	     -0.69462767	    196.04720827	      0.00000000
      0.53552186	      1.37191994	    200.70237280	      0.00000000
      0.53694612	      3.51951064	    205.60773954	      0.00000000
      0.53837038	      5.74973181	    210.76823824	      0.00000000
      0.53979464	      8.06422404	    216.18755692	      0.00000000
      0.54121890	     10.46470390	    221.86967839	      0.00000000
      0.54264316	     12.95292111	    227.81714281	      0.00000000
      0.54406742	     15.53064670	    234.03271740	      0.00000000
      0.54549168	     18.19964320	    240.51750296	      0.00000000
      0.54691594	     20.96162688	    247.27265417	      0.00000000
      0.54834020	     23.81828497	    254.29757201	      0.00000000
      0.54976446	     26.77117863	    261.59148660	      0.00000000
      0.55118872	     29.82178593	    269.15183668	      0.00000000
      0.55261298	     32.97134539	    276.97557491	      0.00000000
      0.55403724	     36.22099815	    285.05798380	      0.00000000
      0.55546150	     39.57150938	    293.39344245	      0.00000000
      0.55688576	     43.02368427	    301.97517338	      0.00000000
      0.55831002	     46.57775972	    310.79503784	      0.00000000
      0.55973428	     50.23440446	    319.84477492	      0.00000000
      0.56115854	     53.99354672	    329.11458457	      0.00000000
      0.56258280	     57.85538509	    338.59400665	      0.00000000
      0.56400706	     61.81861523	    348.26995333	      0.00000000
      0.56543132	     65.88225860	    358.13045358	      0.00000000
      0.56685558	     70.04651574	    368.16292013	      0.00000000
      0.56827984	     74.31109547	    378.35397424	      0.00000000
      0.56970410	     78.67242274	    388.68780026	      0.00000000
      0.57112836	     83.12926114	    399.15240852	      0.00000000
      0.57255262	     87.67964052	    409.73302398	      0.00000000
      0.57397688	     92.32179306	    420.41684037	      0.00000000
      0.57540114	     97.05343230	    431.18949291	      0.00000000
      0.57682540	    101.87220142	    442.03795026	      0.00000000
      0.57824966	    106.77532849	    452.94788277	      0.00000000
      0.57967392	    111.76006380	    463.90645044	      0.00000000
      0.58109818	    116.82328562	    474.89978809	      0.00000000
      0.58252244	    121.96180352	    485.91525417	      0.00000000
      0.58394670	    127.17212759	    496.93944903	      0.00000000
      0.58537096	    132.45053212	    507.95979496	      0.00000000
      0.58679522	    137.79311629	    518.96324466	      0.00000000
      0.58821948	    143.19567941	    529.93720581	      0.00000000
      0.58964375	    148.65387302	    540.86877280	      0.00000000
      0.59106801	    154.16300554	    551.74528630	      0.00000000
      0.59249227	    159.71828141	    562.55387744	      0.00000000
      0.59391653	    165.31460147	    573.28183288	      0.00000000
      0.59534079	    170.94673981	    583.91624398	      0.00000000
      0.59676505	    176.60922719	    594.44441000	      0.00000000
      0.59818931	    182.29644963	    604.85341838	      0.00000000
      0.59961357	    188.00266262	    615.13072944	      0.00000000
      0.60103783	    193.72194080	    625.26355235	      0.00000000
      0.60246209	    199.44835147	    635.23967249	      0.00000000
      0.60388635	    205.17575248	    645.04659792	      0.00000000
      0.60531061	    210.89807933	    654.67254589	      0.00000000
      0.60673487	    216.60904060	    664.10543653	      0.00000000
      0.60815913	    222.30253248	    673.33408084	      0.00000000
      0.60958339	    227.97221285	    682.34699938	      0.00000000
      0.61100765	    233.61204391	    691.13382728	      0.00000000
      0.61243191	    239.21576617	    699.68397798	      0.00000000
      0.61385617	    244.77747686	    707.98806052	      0.00000000
      0.61528043	    250.29108915	    716.03656417	      0.00000000
      0.61670469	    255.75089314	    723.82117647	      0.00000000
      0.61812895	    261.15105119	    731.33359336	      0.00000000
      0.61955321	    266.48614415	    738.56672566	      0.00000000
      0.62097747	    271.75069114	    745.51365003	      0.00000000
      0.62240173	    276.93964923	    752.16862384	      0.00000000
      0.62382599	    282.04799119	    758.52623867	      0.00000000
      0.62525025	    287.07114102	    764.58220488	      0.00000000
      0.62667451	    292.00461481	    770.33272719	      0.00000000
      0.62809877	    296.84442667	    775.77511930	      0.00000000
      0.62952303	    301.58675768	    780.90735611	      0.00000000
      0.63094729	    306.22831225	    785.72845229	      0.00000000
      0.63237155	    310.76603988	    790.23825257	      0.00000000
      0.63379581	    315.19738193	    794.43743001	      0.00000000
      0.63522007	    319.52010388	    798.32762696	      0.00000000
      0.63664433	    323.73244348	    801.91112013	      0.00000000
      0.63806859	    327.83308997	    805.19131079	      0.00000000
      0.63949285	    331.82110902	    808.17198427	      0.00000000
      0.64091711	    335.69630635	    810.85829609	      0.00000000
      0.64234137	    339.45852520	    813.25529476	      0.00000000
      0.64376563	    343.10893730	    815.36980757	      0.00000000
      0.64518990	    346.64808126	    817.20781135	      0.00000000
      0.64661416	    350.07869973	    818.77760825	      0.00000000
      0.64803842	    353.40202498	    820.08585132	      0.00000000
      0.64946268	    356.62215739	    821.14187757	      0.00000000
      0.65088694	    359.74117260	    821.95308650	      0.00000000
      0.65231120	    362.76353868	    822.52919007	      0.00000000
      0.65373546	    365.69226750	    822.87869230	      0.00000000
      0.65515972	    368.53102710	    823.01129579	      0.00000000
      0.65658398	    371.28352077	    822.93664234	      0.00000000
      0.65800824	    373.95261512	    822.66460436	      0.00000000
      0.65943250	    376.54228672	    822.20528926	      0.00000000
      0.66085676	    379.05555725	    821.56888358	      0.00000000
      0.66228102	    381.49634025	    820.76517410	      0.00000000
      0.66370528	    383.86829465	    819.80438601	      0.00000000
      0.66512954	    386.17514584	    818.69570487	      0.00000000
      0.66655380	    388.42096497	    817.44902856	      0.00000000
      0.66797806	    390.60936673	    816.07303977	      0.00000000
      0.66940232	    392.74447581	    814.57709898	      0.00000000
      0.67082658	    394.82992307	    812.96951669	      0.00000000
      0.67225084	    396.86968910	    811.25904197	      0.00000000
      0.67367510	    398.86747631	    809.45365105	      0.00000000
      0.67509936	    400.82708381	    807.56148889	      0.00000000
      0.67652362	    402.75221527	    805.59011878	      0.00000000
      0.67794788	    404.64650832	    803.54708158	      0.00000000
      0.67937214	    406.51349827	    801.43931377	      0.00000000
      0.68079640	    408.35660512	    799.27360091	      0.00000000
      0.68222066	    410.17908077	    797.05611396	      0.00000000
      0.68364492	    411.98404894	    794.79277961	      0.00000000
      0.68506918	    413.77442274	    792.48898403	      0.00000000
      0.68649344	    415.55297870	    790.14979687	      0.00000000
      0.68791770	    417.32228110	    787.77985118	      0.00000000
      0.68934196	    419.08475529	    785.38340876	      0.00000000
      0.69076622	    420.84259389	    782.96436046	      0.00000000
      0.69219048	    422.59785743	    780.52618082	      0.00000000
      0.69361474	    424.35235106	    778.07204314	      0.00000000
      0.69503900	    426.10773399	    775.60466776	      0.00000000
      0.69646326	    427.86545346	    773.12658560	      0.00000000
      0.69788752	    429.62677924	    770.63986069	      0.00000000
      0.69931178	    431.39281430	    768.14643965	      0.00000000
      0.70073604	    433.16448435	    765.64780975	      0.00000000
      0.70216031	    434.94255839	    763.14537666	      0.00000000
      0.70358457	    436.72764728	    760.64010508	      0.00000000
      0.70500883	    438.52021763	    758.13291578	      0.00000000
      0.70643309	    440.32057917	    755.62431273	      0.00000000
      0.70785735	    442.12892361	    753.11479345	      0.00000000
      0.70928161	    443.94528412	    750.60446866	      0.00000000
      0.71070587	    445.76962057	    748.09348662	      0.00000000
      0.71213013	    447.60174828	    745.58165024	      0.00000000
      0.71355439	    449.44142201	    743.06879659	      0.00000000
      0.71497865	    451.28827070	    740.55445521	      0.00000000
      0.71640291	    453.14188699	    738.03820642	      0.00000000
      0.71782717	    455.00174369	    735.51935695	      0.00000000
      0.71925143	    456.86732296	    732.99729817	      0.00000000
      0.72067569	    458.73799235	    730.47118412	      0.00000000
      0.72209995	    460.61315679	    727.94025695	      0.00000000
      0.72352421	    462.49212008	    725.40355684	      0.00000000
      0.72494847	    464.37422742	    722.86019382	      0.00000000
      0.72637273	    466.25873483	    720.30910268	      0.00000000
      0.72779699	    468.14496223	    717.74929552	      0.00000000
      0.72922125	    470.03214151	    715.17962951	      0.00000000
      0.73064551	    471.91960625	    712.59906523	      0.00000000
      0.73206977	    473.80660568	    710.00643127	      0.00000000
      0.73349403	    475.69249834	    707.40064743	      0.00000000
      0.73491829	    477.57657409	    704.78052720	      0.00000000
      0.73634255	    479.45819466	    702.14490995	      0.00000000
      0.73776681	    481.33666524	    699.49254225	      0.00000000
      0.73919107	    483.21136143	    696.82219125	      0.00000000
      0.74061533	    485.08160563	    694.13254524	      0.00000000
      0.74203959	    486.94677333	    691.42230091	      0.00000000
      0.74346385	    488.80619983	    688.69009245	      0.00000000
      0.74488811	    490.65923257	    685.93452206	      0.00000000
      0.74631237	    492.50520047	    683.15414920	      0.00000000
      0.74773663	    494.34339454	    680.34745529	      0.00000000
      0.74916089	    496.17310692	    677.51289777	      0.00000000
      0.75058515	    497.99353497	    674.64881116	      0.00000000
      0.75200941	    499.80389862	    671.75352506	      0.00000000
      0.75343367	    501.60326398	    668.82520783	      0.00000000
      0.75485793	    503.39074404	    665.86204168	      0.00000000
      0.75628219	    505.16524902	    662.86203554	      0.00000000
      0.75770646	    506.92575858	    659.82323005	      0.00000000
      0.75913072	    508.67102630	    656.74350788	      0.00000000
      0.76055498	    510.39990407	    653.62081203	      0.00000000
      0.76197924	    512.11094113	    650.45288492	      0.00000000
      0.76340350	    513.80282442	    647.23755687	      0.00000000
      0.76482776	    515.47387835	    643.97242724	      0.00000000
      0.76625202	    517.12259252	    640.65520756	      0.00000000
      0.76767628	    518.74705615	    637.28338070	      0.00000000
      0.76910054	    520.34554317	    633.85455567	      0.00000000
      0.77052480	    521.91596128	    630.36618124	      0.00000000
      0.77194906	    523.45641666	    626.81584381	      0.00000000
      0.77337332	    524.96468759	    623.20104488	      0.00000000
      0.77479758	    526.43876786	    619.51943163	      0.00000000
      0.77622184	    527.87639754	    615.76866628	      0.00000000
      0.77764610	    529.27556714	    611.94658756	      0.00000000
      0.77907036	    530.63393170	    608.05099298	      0.00000000
      0.78049462	    531.94945428	    604.07990279	      0.00000000
      0.78191888	    533.21952481	    600.03109156	      0.00000000
      0.78334314	    534.44185489	    595.90255957	      0.00000000
      0.78476740	    535.61367322	    591.69214627	      0.00000000
      0.78619166	    536.73250093	    587.39790334	      0.00000000
      0.78761592	    537.79555419	    583.01789934	      0.00000000
      0.78904018	    538.80032131	    578.55040472	      0.00000000
      0.79046444	    539.74400691	    573.99375260	      0.00000000
      0.79188870	    540.62408459	    569.34647102	      0.00000000
      0.79331296	    541.43772467	    564.60712767	      0.00000000
      0.79473722	    542.18233301	    559.77444072	      0.00000000
      0.79616148	    542.85507615	    554.84725312	      0.00000000
      0.79758574	    543.45336216	    549.82458190	      0.00000000
      0.79901000	    543.97447008	    544.70553514	      0.00000000
      0.80043426	    544.41570812	    539.48908277	      0.00000000
      0.80185852	    544.77449345	    534.17489211	      0.00000000
      0.80328278	    545.04852645	    528.76254074	      0.00000000
      0.80470704	    545.23867226	    523.25675009	      0.00000000
      0.80613130	    545.34775052	    517.65831946	      0.00000000
      0.80755556	    545.36694477	    511.96501678	      0.00000000
      0.80897982	    545.29196985	    506.17429091	      0.00000000
      0.81040408	    545.11991955	    500.28581290	      0.00000000
      0.81182834	    544.84654905	    494.29871373	      0.00000000
      0.81325261	    544.46803277	    488.21251179	      0.00000000
      0.81467687	    543.98019260	    482.02647894	      0.00000000
      0.81610113	    543.37844520	    475.73991713	      0.00000000
      0.81752539	    542.65797648	    469.35198386	      0.00000000
      0.81894965	    541.81392010	    462.86210631	      0.00000000
      0.82037391	    540.84097104	    456.26945040	      0.00000000
      0.82179817	    539.73388680	    449.57362420	      0.00000000
      0.82322243	    538.48681674	    442.77391343	      0.00000000
      0.82464669	    537.09427122	    435.87017223	      0.00000000
      0.82607095	    535.54988135	    428.86185961	      0.00000000
      0.82749521	    533.84765807	    421.74892587	      0.00000000
      0.82891947	    531.98060160	    414.53093213	      0.00000000
      0.83034373	    529.94131849	    407.20768556	      0.00000000
      0.83176799	    527.72097870	    399.77829165	      0.00000000
      0.83319225	    525.31272470	    392.24343292	      0.00000000
      0.83461651	    522.70776761	    384.60310311	      0.00000000
      0.83604077	    519.89922177	    376.85875445	      0.00000000
      0.83746503	    516.87844925	    369.01137435	      0.00000000
      0.83888929	    513.63599052	    361.06199232	      0.00000000
      0.84031355	    510.16047553	    353.01089146	      0.00000000
      0.84173781	    506.44275814	    344.85982058	      0.00000000
      0.84316207	    502.47199949	    336.61031695	      0.00000000
      0.84458633	    498.23777508	    328.26461846	      0.00000000
      0.84601059	    493.73202621	    319.82595987	      0.00000000
      0.84743485	    488.93094510	    311.29303077	      0.00000000
      0.84885911	    483.82312877	    302.66977385	      0.00000000
      0.85028337	    478.41335693	    293.96821662	      0.00000000
      0.85170763	    472.85829044	    285.24643242	      0.00000000
      0.85313189	    466.58440562	    276.31881908	      0.00000000
      0.85455615	    459.27269322	    267.06467845	      0.00000000
