PointPosition
version=1
nRows=601
nColumns=4
inDegrees=no
No description.
endheader
time	state_0	state_1	state_2
      0.00000000	     -0.06827021	      1.08383218	      0.00000000
      0.00059724	     -0.06754102	      1.08398928	      0.00000000
      0.00119448	     -0.06681305	      1.08414240	      0.00000000
      0.00179172	     -0.06608625	      1.08429153	      0.00000000
      0.00238896	     -0.06536053	      1.08443665	      0.00000000
      0.00298620	     -0.06463585	      1.08457774	      0.00000000
      0.00358344	     -0.06391212	      1.08471480	      0.00000000
      0.00418068	     -0.06318929	      1.08484782	      0.00000000
      0.00477793	     -0.06246730	      1.08497678	      0.00000000
      0.00537517	     -0.06174608	      1.08510169	      0.00000000
      0.00597241	     -0.06102560	      1.08522255	      0.00000000
      0.00656965	     -0.06030578	      1.08533935	      0.00000000
      0.00716689	     -0.05958660	      1.08545210	      0.00000000
      0.00776413	     -0.05886800	      1.08556080	      0.00000000
      0.00836137	     -0.05814995	      1.08566544	      0.00000000
      0.00895861	     -0.05743242	      1.08576605	      0.00000000
      0.00955585	     -0.05671537	      1.08586261	      0.00000000
      0.01015309	     -0.05599877	      1.08595515	      0.00000000
      0.01075033	     -0.05528260	      1.08604366	      0.00000000
      0.01134757	     -0.05456683	      1.08612810	      0.00000000
      0.01194481	     -0.05385140	      1.08620842	      0.00000000
      0.01254205	     -0.05313626	      1.08628455	      0.00000000
      0.01313929	     -0.05242136	      1.08635645	      0.00000000
      0.01373654	     -0.05170665	      1.08642409	      0.00000000
      0.01433378	     -0.05099210	      1.08648746	      0.00000000
      0.01493102	     -0.05027768	      1.08654657	      0.00000000
      0.01552826	     -0.04956338	      1.08660146	      0.00000000
      0.01612550	     -0.04884915	      1.08665221	      0.00000000
      0.01672274	     -0.04813496	      1.08669893	      0.00000000
      0.01731998	     -0.04742075	      1.08674182	      0.00000000
      0.01791722	     -0.04670646	      1.08678113	      0.00000000
      0.01851446	     -0.04599202	      1.08681715	      0.00000000
      0.01911170	     -0.04527735	      1.08685021	      0.00000000
      0.01970894	     -0.04456237	      1.08688065	      0.00000000
      0.02030618	     -0.04384700	      1.08690882	      0.00000000
      0.02090342	     -0.04313118	      1.08693504	      0.00000000
      0.02150066	     -0.04241491	      1.08695942	      0.00000000
      0.02209791	     -0.04169825	      1.08698180	      0.00000000
      0.02269515	     -0.04098125	      1.08700208	      0.00000000
      0.02329239	     -0.04026389	      1.08702030	      0.00000000
      0.02388963	     -0.03954617	      1.08703642	      0.00000000
      0.02448687	     -0.03882810	      1.08705038	      0.00000000
      0.02508411	     -0.03810971	      1.08706207	      0.00000000
      0.02568135	     -0.03739099	      1.08707141	      0.00000000
      0.02627859	     -0.03667196	      1.08707829	      0.00000000
      0.02687583	     -0.03595262	      1.08708261	      0.00000000
      0.02747307	     -0.03523297	      1.08708432	      0.00000000
      0.02807031	     -0.03451299	      1.08708335	      0.00000000
      0.02866755	     -0.03379268	      1.08707967	      0.00000000
      0.02926479	     -0.03307200	      1.08707323	      0.00000000
      0.02986203	     -0.03235094	      1.08706403	      0.00000000
      0.03045927	     -0.03162949	      1.08705205	      0.00000000
      0.03105652	     -0.03090763	      1.08703729	      0.00000000
      0.03165376	     -0.03018534	      1.08701974	      0.00000000
      0.03225100	     -0.02946261	      1.08699942	      0.00000000
      0.03284824	     -0.02873942	      1.08697633	      0.00000000
      0.03344548	     -0.02801576	      1.08695049	      0.00000000
      0.03404272	     -0.02729161	      1.08692190	      0.00000000
      0.03463996	     -0.02656697	      1.08689059	      0.00000000
      0.03523720	     -0.02584182	      1.08685657	      0.00000000
      0.03583444	     -0.02511615	      1.08681987	      0.00000000
      0.03643168	     -0.02438994	      1.08678050	      0.00000000
      0.03702892	     -0.02366318	      1.08673849	      0.00000000
      0.03762616	     -0.02293585	      1.08669386	      0.00000000
      0.03822340	     -0.02220795	      1.08664664	      0.00000000
      0.03882064	     -0.02147947	      1.08659684	      0.00000000
      0.03941788	     -0.02075038	      1.08654450	      0.00000000
      0.04001513	     -0.02002068	      1.08648964	      0.00000000
      0.04061237	     -0.01929036	      1.08643229	      0.00000000
      0.04120961	     -0.01855939	      1.08637247	      0.00000000
      0.04180685	     -0.01782778	      1.08631020	      0.00000000
      0.04240409	     -0.01709550	      1.08624552	      0.00000000
      0.04300133	     -0.01636255	      1.08617844	      0.00000000
      0.04359857	     -0.01562891	      1.08610899	      0.00000000
      0.04419581	     -0.01489456	      1.08603720	      0.00000000
      0.04479305	     -0.01415951	      1.08596309	      0.00000000
      0.04539029	     -0.01342373	      1.08588668	      0.00000000
      0.04598753	     -0.01268721	      1.08580800	      0.00000000
      0.04658477	     -0.01194993	      1.08572707	      0.00000000
      0.04718201	     -0.01121190	      1.08564392	      0.00000000
      0.04777925	     -0.01047308	      1.08555857	      0.00000000
      0.04837649	     -0.00973348	      1.08547104	      0.00000000
      0.04897374	     -0.00899307	      1.08538135	      0.00000000
      0.04957098	     -0.00825184	      1.08528953	      0.00000000
      0.05016822	     -0.00750978	      1.08519560	      0.00000000
      0.05076546	     -0.00676688	      1.08509957	      0.00000000
      0.05136270	     -0.00602311	      1.08500148	      0.00000000
      0.05195994	     -0.00527848	      1.08490135	      0.00000000
      0.05255718	     -0.00453295	      1.08479918	      0.00000000
      0.05315442	     -0.00378652	      1.08469502	      0.00000000
      0.05375166	     -0.00303916	      1.08458887	      0.00000000
      0.05434890	     -0.00229087	      1.08448077	      0.00000000
      0.05494614	     -0.00154163	      1.08437073	      0.00000000
      0.05554338	     -0.00079142	      1.08425877	      0.00000000
      0.05614062	     -0.00004022	      1.08414492	      0.00000000
      0.05673786	      0.00071198	      1.08402919	      0.00000000
      0.05733511	      0.00146521	      1.08391163	      0.00000000
      0.05793235	      0.00221948	      1.08379224	      0.00000000
      0.05852959	      0.00297482	      1.08367105	      0.00000000
      0.05912683	      0.00373124	      1.08354808	      0.00000000
      0.05972407	      0.00448876	      1.08342337	      0.00000000
      0.06032131	      0.00524741	      1.08329693	      0.00000000
      0.06091855	      0.00600720	      1.08316879	      0.00000000
      0.06151579	      0.00676816	      1.08303896	      0.00000000
      0.06211303	      0.00753031	      1.08290749	      0.00000000
      0.06271027	      0.00829366	      1.08277438	      0.00000000
      0.06330751	      0.00905824	      1.08263966	      0.00000000
      0.06390475	      0.00982407	      1.08250335	      0.00000000
      0.06450199	      0.01059116	      1.08236547	      0.00000000
      0.06509923	      0.01135954	      1.08222604	      0.00000000
      0.06569647	      0.01212921	      1.08208507	      0.00000000
      0.06629372	      0.01290021	      1.08194259	      0.00000000
      0.06689096	      0.01367253	      1.08179861	      0.00000000
      0.06748820	      0.01444620	      1.08165315	      0.00000000
      0.06808544	      0.01522124	      1.08150621	      0.00000000
      0.06868268	      0.01599764	      1.08135781	      0.00000000
      0.06927992	      0.01677544	      1.08120796	      0.00000000
      0.06987716	      0.01755463	      1.08105668	      0.00000000
      0.07047440	      0.01833523	      1.08090396	      0.00000000
      0.07107164	      0.01911724	      1.08074983	      0.00000000
      0.07166888	      0.01990069	      1.08059428	      0.00000000
      0.07226612	      0.02068557	      1.08043732	      0.00000000
      0.07286336	      0.02147189	      1.08027896	      0.00000000
      0.07346060	      0.02225966	      1.08011921	      0.00000000
      0.07405784	      0.02304889	      1.07995805	      0.00000000
      0.07465508	      0.02383958	      1.07979551	      0.00000000
      0.07525233	      0.02463174	      1.07963157	      0.00000000
      0.07584957	      0.02542537	      1.07946624	      0.00000000
      0.07644681	      0.02622048	      1.07929952	      0.00000000
      0.07704405	      0.02701706	      1.07913140	      0.00000000
      0.07764129	      0.02781513	      1.07896189	      0.00000000
      0.07823853	      0.02861469	      1.07879097	      0.00000000
      0.07883577	      0.02941574	      1.07861866	      0.00000000
      0.07943301	      0.03021828	      1.07844494	      0.00000000
      0.08003025	      0.03102232	      1.07826980	      0.00000000
      0.08062749	      0.03182785	      1.07809325	      0.00000000
      0.08122473	      0.03263488	      1.07791528	      0.00000000
      0.08182197	      0.03344341	      1.07773587	      0.00000000
      0.08241921	      0.03425345	      1.07755502	      0.00000000
      0.08301645	      0.03506498	      1.07737272	      0.00000000
      0.08361369	      0.03587803	      1.07718897	      0.00000000
      0.08421094	      0.03669258	      1.07700375	      0.00000000
      0.08480818	      0.03750863	      1.07681705	      0.00000000
      0.08540542	      0.03832620	      1.07662886	      0.00000000
      0.08600266	      0.03914528	      1.07643917	      0.00000000
      0.08659990	      0.03996587	      1.07624798	      0.00000000
      0.08719714	      0.04078797	      1.07605526	      0.00000000
      0.08779438	      0.04161158	      1.07586100	      0.00000000
      0.08839162	      0.04243670	      1.07566519	      0.00000000
      0.08898886	      0.04326334	      1.07546782	      0.00000000
      0.08958610	      0.04409150	      1.07526887	      0.00000000
      0.09018334	      0.04492117	      1.07506833	      0.00000000
      0.09078058	      0.04575236	      1.07486618	      0.00000000
      0.09137782	      0.04658507	      1.07466240	      0.00000000
      0.09197506	      0.04741930	      1.07445699	      0.00000000
      0.09257231	      0.04825505	      1.07424992	      0.00000000
      0.09316955	      0.04909233	      1.07404118	      0.00000000
      0.09376679	      0.04993114	      1.07383076	      0.00000000
      0.09436403	      0.05077147	      1.07361863	      0.00000000
      0.09496127	      0.05161335	      1.07340479	      0.00000000
      0.09555851	      0.05245677	      1.07318921	      0.00000000
      0.09615575	      0.05330173	      1.07297188	      0.00000000
      0.09675299	      0.05414825	      1.07275278	      0.00000000
      0.09735023	      0.05499633	      1.07253190	      0.00000000
      0.09794747	      0.05584598	      1.07230922	      0.00000000
      0.09854471	      0.05669720	      1.07208472	      0.00000000
      0.09914195	      0.05755001	      1.07185839	      0.00000000
      0.09973919	      0.05840441	      1.07163022	      0.00000000
      0.10033643	      0.05926042	      1.07140017	      0.00000000
      0.10093367	      0.06011804	      1.07116825	      0.00000000
      0.10153092	      0.06097727	      1.07093442	      0.00000000
      0.10212816	      0.06183814	      1.07069867	      0.00000000
      0.10272540	      0.06270064	      1.07046099	      0.00000000
      0.10332264	      0.06356479	      1.07022135	      0.00000000
      0.10391988	      0.06443059	      1.06997973	      0.00000000
      0.10451712	      0.06529805	      1.06973612	      0.00000000
      0.10511436	      0.06616718	      1.06949050	      0.00000000
      0.10571160	      0.06703798	      1.06924283	      0.00000000
      0.10630884	      0.06791045	      1.06899311	      0.00000000
      0.10690608	      0.06878461	      1.06874131	      0.00000000
      0.10750332	      0.06966046	      1.06848741	      0.00000000
      0.10810056	      0.07053799	      1.06823138	      0.00000000
      0.10869780	      0.07141721	      1.06797320	      0.00000000
      0.10929504	      0.07229813	      1.06771285	      0.00000000
      0.10989228	      0.07318074	      1.06745030	      0.00000000
      0.11048953	      0.07406504	      1.06718553	      0.00000000
      0.11108677	      0.07495103	      1.06691851	      0.00000000
      0.11168401	      0.07583871	      1.06664922	      0.00000000
      0.11228125	      0.07672807	      1.06637763	      0.00000000
      0.11287849	      0.07761911	      1.06610371	      0.00000000
      0.11347573	      0.07851183	      1.06582744	      0.00000000
      0.11407297	      0.07940622	      1.06554878	      0.00000000
      0.11467021	      0.08030226	      1.06526772	      0.00000000
      0.11526745	      0.08119997	      1.06498422	      0.00000000
      0.11586469	      0.08209931	      1.06469825	      0.00000000
      0.11646193	      0.08300029	      1.06440979	      0.00000000
      0.11705917	      0.08390290	      1.06411881	      0.00000000
      0.11765641	      0.08480712	      1.06382528	      0.00000000
      0.11825365	      0.08571293	      1.06352917	      0.00000000
      0.11885089	      0.08662033	      1.06323045	      0.00000000
      0.11944814	      0.08752931	      1.06292909	      0.00000000
      0.12004538	      0.08843983	      1.06262507	      0.00000000
      0.12064262	      0.08935189	      1.06231835	      0.00000000
      0.12123986	      0.09026548	      1.06200891	      0.00000000
      0.12183710	      0.09118056	      1.06169673	      0.00000000
      0.12243434	      0.09209712	      1.06138177	      0.00000000
      0.12303158	      0.09301514	      1.06106401	      0.00000000
      0.12362882	      0.09393459	      1.06074343	      0.00000000
      0.12422606	      0.09485545	      1.06042000	      0.00000000
      0.12482330	      0.09577769	      1.06009372	      0.00000000
      0.12542054	      0.09670129	      1.05976456	      0.00000000
      0.12601778	      0.09762620	      1.05943253	      0.00000000
      0.12661502	      0.09855238	      1.05909760	      0.00000000
      0.12721226	      0.09947981	      1.05875980	      0.00000000
      0.12780951	      0.10040841	      1.05841913	      0.00000000
      0.12840675	      0.10133815	      1.05807560	      0.00000000
      0.12900399	      0.10226895	      1.05772924	      0.00000000
      0.12960123	      0.10320075	      1.05738008	      0.00000000
      0.13019847	      0.10413348	      1.05702816	      0.00000000
      0.13079571	      0.10506706	      1.05667351	      0.00000000
      0.13139295	      0.10600143	      1.05631617	      0.00000000
      0.13199019	      0.10693651	      1.05595619	      0.00000000
      0.13258743	      0.10787224	      1.05559362	      0.00000000
      0.13318467	      0.10880854	      1.05522853	      0.00000000
      0.13378191	      0.10974530	      1.05486100	      0.00000000
      0.13437915	      0.11068241	      1.05449112	      0.00000000
      0.13497639	      0.11161974	      1.05411905	      0.00000000
      0.13557363	      0.11255714	      1.05374493	      0.00000000
      0.13617087	      0.11349445	      1.05336894	      0.00000000
      0.13676812	      0.11443150	      1.05299128	      0.00000000
      0.13736536	      0.11536812	      1.05261215	      0.00000000
      0.13796260	      0.11630418	      1.05223174	      0.00000000
      0.13855984	      0.11723952	      1.05185028	      0.00000000
      0.13915708	      0.11817403	      1.05146795	      0.00000000
      0.13975432	      0.11910760	      1.05108496	      0.00000000
      0.14035156	      0.12004013	      1.05070149	      0.00000000
      0.14094880	      0.12097156	      1.05031773	      0.00000000
      0.14154604	      0.12190181	      1.04993384	      0.00000000
      0.14214328	      0.12283085	      1.04955000	      0.00000000
      0.14274052	      0.12375862	      1.04916636	      0.00000000
      0.14333776	      0.12468511	      1.04878307	      0.00000000
      0.14393500	      0.12561030	      1.04840029	      0.00000000
      0.14453224	      0.12653417	      1.04801816	      0.00000000
      0.14512948	      0.12745671	      1.04763682	      0.00000000
      0.14572673	      0.12837796	      1.04725636	      0.00000000
      0.14632397	      0.12929818	      1.04687670	      0.00000000
      0.14692121	      0.13021772	      1.04649765	      0.00000000
      0.14751845	      0.13113675	      1.04611927	      0.00000000
      0.14811569	      0.13205523	      1.04574180	      0.00000000
      0.14871293	      0.13297313	      1.04536548	      0.00000000
      0.14931017	      0.13389042	      1.04499059	      0.00000000
      0.14990741	      0.13480704	      1.04461741	      0.00000000
      0.15050465	      0.13572297	      1.04424619	      0.00000000
      0.15110189	      0.13663816	      1.04387720	      0.00000000
      0.15169913	      0.13755257	      1.04351070	      0.00000000
      0.15229637	      0.13846616	      1.04314694	      0.00000000
      0.15289361	      0.13937890	      1.04278615	      0.00000000
      0.15349085	      0.14029074	      1.04242858	      0.00000000
      0.15408809	      0.14120166	      1.04207444	      0.00000000
      0.15468534	      0.14211162	      1.04172394	      0.00000000
      0.15528258	      0.14302058	      1.04137729	      0.00000000
      0.15587982	      0.14392853	      1.04103468	      0.00000000
      0.15647706	      0.14483542	      1.04069628	      0.00000000
      0.15707430	      0.14574124	      1.04036228	      0.00000000
      0.15767154	      0.14664597	      1.04003283	      0.00000000
      0.15826878	      0.14754959	      1.03970810	      0.00000000
      0.15886602	      0.14845208	      1.03938822	      0.00000000
      0.15946326	      0.14935342	      1.03907335	      0.00000000
      0.16006050	      0.15025362	      1.03876359	      0.00000000
      0.16065774	      0.15115267	      1.03845908	      0.00000000
      0.16125498	      0.15205055	      1.03815993	      0.00000000
      0.16185222	      0.15294728	      1.03786624	      0.00000000
      0.16244946	      0.15384284	      1.03757809	      0.00000000
      0.16304671	      0.15473726	      1.03729559	      0.00000000
      0.16364395	      0.15563053	      1.03701881	      0.00000000
      0.16424119	      0.15652266	      1.03674782	      0.00000000
      0.16483843	      0.15741366	      1.03648270	      0.00000000
      0.16543567	      0.15830353	      1.03622351	      0.00000000
      0.16603291	      0.15919229	      1.03597033	      0.00000000
      0.16663015	      0.16007993	      1.03572321	      0.00000000
      0.16722739	      0.16096647	      1.03548223	      0.00000000
      0.16782463	      0.16185191	      1.03524744	      0.00000000
      0.16842187	      0.16273627	      1.03501890	      0.00000000
      0.16901911	      0.16361955	      1.03479666	      0.00000000
      0.16961635	      0.16450179	      1.03458077	      0.00000000
      0.17021359	      0.16538301	      1.03437127	      0.00000000
      0.17081083	      0.16626322	      1.03416817	      0.00000000
      0.17140807	      0.16714246	      1.03397150	      0.00000000
      0.17200532	      0.16802077	      1.03378126	      0.00000000
      0.17260256	      0.16889817	      1.03359745	      0.00000000
      0.17319980	      0.16977470	      1.03342005	      0.00000000
      0.17379704	      0.17065040	      1.03324905	      0.00000000
      0.17439428	      0.17152530	      1.03308441	      0.00000000
      0.17499152	      0.17239945	      1.03292610	      0.00000000
      0.17558876	      0.17327287	      1.03277405	      0.00000000
      0.17618600	      0.17414561	      1.03262823	      0.00000000
      0.17678324	      0.17501770	      1.03248857	      0.00000000
      0.17738048	      0.17588917	      1.03235501	      0.00000000
      0.17797772	      0.17676006	      1.03222746	      0.00000000
      0.17857496	      0.17763040	      1.03210586	      0.00000000
      0.17917220	      0.17850021	      1.03199011	      0.00000000
      0.17976944	      0.17936953	      1.03188012	      0.00000000
      0.18036668	      0.18023837	      1.03177580	      0.00000000
      0.18096393	      0.18110677	      1.03167704	      0.00000000
      0.18156117	      0.18197474	      1.03158374	      0.00000000
      0.18215841	      0.18284231	      1.03149580	      0.00000000
      0.18275565	      0.18370950	      1.03141312	      0.00000000
      0.18335289	      0.18457634	      1.03133559	      0.00000000
      0.18395013	      0.18544283	      1.03126311	      0.00000000
      0.18454737	      0.18630901	      1.03119557	      0.00000000
      0.18514461	      0.18717489	      1.03113287	      0.00000000
      0.18574185	      0.18804050	      1.03107491	      0.00000000
      0.18633909	      0.18890584	      1.03102159	      0.00000000
      0.18693633	      0.18977095	      1.03097281	      0.00000000
      0.18753357	      0.19063583	      1.03092847	      0.00000000
      0.18813081	      0.19150050	      1.03088847	      0.00000000
      0.18872805	      0.19236499	      1.03085273	      0.00000000
      0.18932529	      0.19322929	      1.03082115	      0.00000000
      0.18992254	      0.19409344	      1.03079363	      0.00000000
      0.19051978	      0.19495744	      1.03077009	      0.00000000
      0.19111702	      0.19582130	      1.03075044	      0.00000000
      0.19171426	      0.19668505	      1.03073459	      0.00000000
      0.19231150	      0.19754869	      1.03072245	      0.00000000
      0.19290874	      0.19841224	      1.03071395	      0.00000000
      0.19350598	      0.19927572	      1.03070901	      0.00000000
      0.19410322	      0.20013913	      1.03070754	      0.00000000
      0.19470046	      0.20100250	      1.03070947	      0.00000000
      0.19529770	      0.20186585	      1.03071472	      0.00000000
      0.19589494	      0.20272917	      1.03072322	      0.00000000
      0.19649218	      0.20359250	      1.03073491	      0.00000000
      0.19708942	      0.20445585	      1.03074972	      0.00000000
      0.19768666	      0.20531922	      1.03076758	      0.00000000
      0.19828391	      0.20618264	      1.03078842	      0.00000000
      0.19888115	      0.20704613	      1.03081220	      0.00000000
      0.19947839	      0.20790968	      1.03083884	      0.00000000
      0.20007563	      0.20877332	      1.03086830	      0.00000000
      0.20067287	      0.20963706	      1.03090051	      0.00000000
      0.20127011	      0.21050092	      1.03093542	      0.00000000
      0.20186735	      0.21136489	      1.03097299	      0.00000000
      0.20246459	      0.21222899	      1.03101316	      0.00000000
      0.20306183	      0.21309323	      1.03105589	      0.00000000
      0.20365907	      0.21395761	      1.03110113	      0.00000000
      0.20425631	      0.21482215	      1.03114882	      0.00000000
      0.20485355	      0.21568685	      1.03119894	      0.00000000
      0.20545079	      0.21655171	      1.03125144	      0.00000000
      0.20604803	      0.21741675	      1.03130627	      0.00000000
      0.20664527	      0.21828195	      1.03136339	      0.00000000
      0.20724252	      0.21914733	      1.03142278	      0.00000000
      0.20783976	      0.22001289	      1.03148438	      0.00000000
      0.20843700	      0.22087862	      1.03154816	      0.00000000
      0.20903424	      0.22174453	      1.03161409	      0.00000000
      0.20963148	      0.22261061	      1.03168214	      0.00000000
      0.21022872	      0.22347686	      1.03175226	      0.00000000
      0.21082596	      0.22434328	      1.03182442	      0.00000000
      0.21142320	      0.22520985	      1.03189859	      0.00000000
      0.21202044	      0.22607658	      1.03197474	      0.00000000
      0.21261768	      0.22694345	      1.03205284	      0.00000000
      0.21321492	      0.22781045	      1.03213285	      0.00000000
      0.21381216	      0.22867757	      1.03221474	      0.00000000
      0.21440940	      0.22954480	      1.03229849	      0.00000000
      0.21500664	      0.23041212	      1.03238405	      0.00000000
      0.21560388	      0.23127951	      1.03247141	      0.00000000
      0.21620113	      0.23214696	      1.03256052	      0.00000000
      0.21679837	      0.23301444	      1.03265136	      0.00000000
      0.21739561	      0.23388192	      1.03274390	      0.00000000
      0.21799285	      0.23474940	      1.03283810	      0.00000000
      0.21859009	      0.23561684	      1.03293394	      0.00000000
      0.21918733	      0.23648421	      1.03303139	      0.00000000
      0.21978457	      0.23735149	      1.03313041	      0.00000000
      0.22038181	      0.23821865	      1.03323098	      0.00000000
      0.22097905	      0.23908566	      1.03333306	      0.00000000
      0.22157629	      0.23995249	      1.03343662	      0.00000000
      0.22217353	      0.24081912	      1.03354164	      0.00000000
      0.22277077	      0.24168550	      1.03364808	      0.00000000
      0.22336801	      0.24255160	      1.03375591	      0.00000000
      0.22396525	      0.24341741	      1.03386511	      0.00000000
      0.22456249	      0.24428287	      1.03397564	      0.00000000
      0.22515974	      0.24514797	      1.03408747	      0.00000000
      0.22575698	      0.24601267	      1.03420058	      0.00000000
      0.22635422	      0.24687695	      1.03431494	      0.00000000
      0.22695146	      0.24774076	      1.03443051	      0.00000000
      0.22754870	      0.24860409	      1.03454727	      0.00000000
      0.22814594	      0.24946691	      1.03466519	      0.00000000
      0.22874318	      0.25032918	      1.03478425	      0.00000000
      0.22934042	      0.25119090	      1.03490442	      0.00000000
      0.22993766	      0.25205202	      1.03502568	      0.00000000
      0.23053490	      0.25291254	      1.03514802	      0.00000000
      0.23113214	      0.25377244	      1.03527142	      0.00000000
      0.23172938	      0.25463169	      1.03539588	      0.00000000
      0.23232662	      0.25549028	      1.03552140	      0.00000000
      0.23292386	      0.25634819	      1.03564798	      0.00000000
      0.23352111	      0.25720542	      1.03577564	      0.00000000
      0.23411835	      0.25806196	      1.03590439	      0.00000000
      0.23471559	      0.25891779	      1.03603425	      0.00000000
      0.23531283	      0.25977291	      1.03616524	      0.00000000
      0.23591007	      0.26062733	      1.03629737	      0.00000000
      0.23650731	      0.26148104	      1.03643066	      0.00000000
      0.23710455	      0.26233404	      1.03656513	      0.00000000
      0.23770179	      0.26318634	      1.03670080	      0.00000000
      0.23829903	      0.26403794	      1.03683768	      0.00000000
      0.23889627	      0.26488885	      1.03697579	      0.00000000
      0.23949351	      0.26573907	      1.03711515	      0.00000000
      0.24009075	      0.26658862	      1.03725577	      0.00000000
      0.24068799	      0.26743750	      1.03739766	      0.00000000
      0.24128523	      0.26828573	      1.03754084	      0.00000000
      0.24188247	      0.26913331	      1.03768532	      0.00000000
      0.24247972	      0.26998026	      1.03783112	      0.00000000
      0.24307696	      0.27082659	      1.03797824	      0.00000000
      0.24367420	      0.27167231	      1.03812670	      0.00000000
      0.24427144	      0.27251744	      1.03827652	      0.00000000
      0.24486868	      0.27336199	      1.03842769	      0.00000000
      0.24546592	      0.27420596	      1.03858024	      0.00000000
      0.24606316	      0.27504939	      1.03873417	      0.00000000
      0.24666040	      0.27589227	      1.03888949	      0.00000000
      0.24725764	      0.27673462	      1.03904622	      0.00000000
      0.24785488	      0.27757647	      1.03920436	      0.00000000
      0.24845212	      0.27841781	      1.03936391	      0.00000000
      0.24904936	      0.27925866	      1.03952490	      0.00000000
      0.24964660	      0.28009904	      1.03968732	      0.00000000
      0.25024384	      0.28093896	      1.03985118	      0.00000000
      0.25084108	      0.28177843	      1.04001649	      0.00000000
      0.25143833	      0.28261747	      1.04018326	      0.00000000
      0.25203557	      0.28345609	      1.04035149	      0.00000000
      0.25263281	      0.28429429	      1.04052119	      0.00000000
      0.25323005	      0.28513210	      1.04069235	      0.00000000
      0.25382729	      0.28596953	      1.04086500	      0.00000000
      0.25442453	      0.28680658	      1.04103912	      0.00000000
      0.25502177	      0.28764327	      1.04121473	      0.00000000
      0.25561901	      0.28847961	      1.04139182	      0.00000000
      0.25621625	      0.28931561	      1.04157040	      0.00000000
      0.25681349	      0.29015129	      1.04175048	      0.00000000
      0.25741073	      0.29098664	      1.04193205	      0.00000000
      0.25800797	      0.29182169	      1.04211511	      0.00000000
      0.25860521	      0.29265644	      1.04229968	      0.00000000
      0.25920245	      0.29349091	      1.04248574	      0.00000000
      0.25979970	      0.29432510	      1.04267330	      0.00000000
      0.26039694	      0.29515902	      1.04286235	      0.00000000
      0.26099418	      0.29599269	      1.04305291	      0.00000000
      0.26159142	      0.29682610	      1.04324496	      0.00000000
      0.26218866	      0.29765928	      1.04343851	      0.00000000
      0.26278590	      0.29849223	      1.04363356	      0.00000000
      0.26338314	      0.29932496	      1.04383010	      0.00000000
      0.26398038	      0.30015748	      1.04402814	      0.00000000
      0.26457762	      0.30098980	      1.04422767	      0.00000000
      0.26517486	      0.30182192	      1.04442868	      0.00000000
      0.26577210	      0.30265386	      1.04463119	      0.00000000
      0.26636934	      0.30348562	      1.04483517	      0.00000000
      0.26696658	      0.30431721	      1.04504064	      0.00000000
      0.26756382	      0.30514864	      1.04524758	      0.00000000
      0.26816106	      0.30597991	      1.04545600	      0.00000000
      0.26875831	      0.30681105	      1.04566589	      0.00000000
      0.26935555	      0.30764204	      1.04587724	      0.00000000
      0.26995279	      0.30847291	      1.04609006	      0.00000000
      0.27055003	      0.30930365	      1.04630433	      0.00000000
      0.27114727	      0.31013428	      1.04652005	      0.00000000
      0.27174451	      0.31096481	      1.04673722	      0.00000000
      0.27234175	      0.31179524	      1.04695584	      0.00000000
      0.27293899	      0.31262557	      1.04717589	      0.00000000
      0.27353623	      0.31345583	      1.04739737	      0.00000000
      0.27413347	      0.31428600	      1.04762027	      0.00000000
      0.27473071	      0.31511611	      1.04784460	      0.00000000
      0.27532795	      0.31594615	      1.04807033	      0.00000000
      0.27592519	      0.31677614	      1.04829747	      0.00000000
      0.27652243	      0.31760608	      1.04852601	      0.00000000
      0.27711967	      0.31843598	      1.04875595	      0.00000000
      0.27771692	      0.31926584	      1.04898726	      0.00000000
      0.27831416	      0.32009567	      1.04921996	      0.00000000
      0.27891140	      0.32092548	      1.04945402	      0.00000000
      0.27950864	      0.32175527	      1.04968944	      0.00000000
      0.28010588	      0.32258506	      1.04992622	      0.00000000
      0.28070312	      0.32341483	      1.05016434	      0.00000000
      0.28130036	      0.32424461	      1.05040380	      0.00000000
      0.28189760	      0.32507439	      1.05064459	      0.00000000
      0.28249484	      0.32590419	      1.05088669	      0.00000000
      0.28309208	      0.32673399	      1.05113010	      0.00000000
      0.28368932	      0.32756382	      1.05137481	      0.00000000
      0.28428656	      0.32839368	      1.05162081	      0.00000000
      0.28488380	      0.32922356	      1.05186809	      0.00000000
      0.28548104	      0.33005347	      1.05211664	      0.00000000
      0.28607828	      0.33088342	      1.05236644	      0.00000000
      0.28667553	      0.33171341	      1.05261749	      0.00000000
      0.28727277	      0.33254343	      1.05286977	      0.00000000
      0.28787001	      0.33337351	      1.05312328	      0.00000000
      0.28846725	      0.33420362	      1.05337799	      0.00000000
      0.28906449	      0.33503379	      1.05363390	      0.00000000
      0.28966173	      0.33586400	      1.05389100	      0.00000000
      0.29025897	      0.33669426	      1.05414927	      0.00000000
      0.29085621	      0.33752457	      1.05440870	      0.00000000
      0.29145345	      0.33835493	      1.05466928	      0.00000000
      0.29205069	      0.33918534	      1.05493098	      0.00000000
      0.29264793	      0.34001579	      1.05519380	      0.00000000
      0.29324517	      0.34084629	      1.05545772	      0.00000000
      0.29384241	      0.34167683	      1.05572273	      0.00000000
      0.29443965	      0.34250742	      1.05598881	      0.00000000
      0.29503690	      0.34333804	      1.05625594	      0.00000000
      0.29563414	      0.34416869	      1.05652411	      0.00000000
      0.29623138	      0.34499937	      1.05679330	      0.00000000
      0.29682862	      0.34583007	      1.05706349	      0.00000000
      0.29742586	      0.34666080	      1.05733466	      0.00000000
      0.29802310	      0.34749153	      1.05760680	      0.00000000
      0.29862034	      0.34832227	      1.05787989	      0.00000000
      0.29921758	      0.34915300	      1.05815391	      0.00000000
      0.29981482	      0.34998373	      1.05842883	      0.00000000
      0.30041206	      0.35081443	      1.05870464	      0.00000000
      0.30100930	      0.35164511	      1.05898132	      0.00000000
      0.30160654	      0.35247574	      1.05925884	      0.00000000
      0.30220378	      0.35330633	      1.05953719	      0.00000000
      0.30280102	      0.35413685	      1.05981634	      0.00000000
      0.30339826	      0.35496730	      1.06009626	      0.00000000
      0.30399551	      0.35579766	      1.06037693	      0.00000000
      0.30459275	      0.35662793	      1.06065834	      0.00000000
      0.30518999	      0.35745807	      1.06094045	      0.00000000
      0.30578723	      0.35828809	      1.06122323	      0.00000000
      0.30638447	      0.35911797	      1.06150667	      0.00000000
      0.30698171	      0.35994768	      1.06179074	      0.00000000
      0.30757895	      0.36077722	      1.06207540	      0.00000000
      0.30817619	      0.36160656	      1.06236063	      0.00000000
      0.30877343	      0.36243569	      1.06264641	      0.00000000
      0.30937067	      0.36326459	      1.06293270	      0.00000000
      0.30996791	      0.36409323	      1.06321946	      0.00000000
      0.31056515	      0.36492161	      1.06350668	      0.00000000
      0.31116239	      0.36574968	      1.06379432	      0.00000000
      0.31175963	      0.36657745	      1.06408234	      0.00000000
      0.31235687	      0.36740487	      1.06437072	      0.00000000
      0.31295412	      0.36823193	      1.06465942	      0.00000000
      0.31355136	      0.36905861	      1.06494840	      0.00000000
      0.31414860	      0.36988488	      1.06523763	      0.00000000
      0.31474584	      0.37071072	      1.06552707	      0.00000000
      0.31534308	      0.37153609	      1.06581669	      0.00000000
      0.31594032	      0.37236098	      1.06610645	      0.00000000
      0.31653756	      0.37318535	      1.06639631	      0.00000000
      0.31713480	      0.37400919	      1.06668624	      0.00000000
      0.31773204	      0.37483245	      1.06697618	      0.00000000
      0.31832928	      0.37565512	      1.06726610	      0.00000000
      0.31892652	      0.37647716	      1.06755595	      0.00000000
      0.31952376	      0.37729854	      1.06784571	      0.00000000
      0.32012100	      0.37811924	      1.06813531	      0.00000000
      0.32071824	      0.37893922	      1.06842472	      0.00000000
      0.32131548	      0.37975845	      1.06871389	      0.00000000
      0.32191273	      0.38057691	      1.06900278	      0.00000000
      0.32250997	      0.38139456	      1.06929133	      0.00000000
      0.32310721	      0.38221136	      1.06957951	      0.00000000
      0.32370445	      0.38302729	      1.06986725	      0.00000000
      0.32430169	      0.38384232	      1.07015451	      0.00000000
      0.32489893	      0.38465641	      1.07044125	      0.00000000
      0.32549617	      0.38546953	      1.07072740	      0.00000000
      0.32609341	      0.38628165	      1.07101291	      0.00000000
      0.32669065	      0.38709273	      1.07129773	      0.00000000
      0.32728789	      0.38790274	      1.07158181	      0.00000000
      0.32788513	      0.38871166	      1.07186509	      0.00000000
      0.32848237	      0.38951945	      1.07214752	      0.00000000
      0.32907961	      0.39032607	      1.07242903	      0.00000000
      0.32967685	      0.39113150	      1.07270958	      0.00000000
      0.33027410	      0.39193571	      1.07298910	      0.00000000
      0.33087134	      0.39273866	      1.07326753	      0.00000000
      0.33146858	      0.39354032	      1.07354482	      0.00000000
      0.33206582	      0.39434068	      1.07382090	      0.00000000
      0.33266306	      0.39513968	      1.07409573	      0.00000000
      0.33326030	      0.39593732	      1.07436923	      0.00000000
      0.33385754	      0.39673356	      1.07464135	      0.00000000
      0.33445478	      0.39752838	      1.07491203	      0.00000000
      0.33505202	      0.39832174	      1.07518122	      0.00000000
      0.33564926	      0.39911363	      1.07544884	      0.00000000
      0.33624650	      0.39990402	      1.07571483	      0.00000000
      0.33684374	      0.40069288	      1.07597915	      0.00000000
      0.33744098	      0.40148020	      1.07624171	      0.00000000
      0.33803822	      0.40226595	      1.07650247	      0.00000000
      0.33863546	      0.40305012	      1.07676136	      0.00000000
      0.33923271	      0.40383267	      1.07701831	      0.00000000
      0.33982995	      0.40461360	      1.07727326	      0.00000000
      0.34042719	      0.40539289	      1.07752615	      0.00000000
      0.34102443	      0.40617053	      1.07777691	      0.00000000
      0.34162167	      0.40694649	      1.07802548	      0.00000000
      0.34221891	      0.40772077	      1.07827180	      0.00000000
      0.34281615	      0.40849336	      1.07851579	      0.00000000
      0.34341339	      0.40926425	      1.07875739	      0.00000000
      0.34401063	      0.41003343	      1.07899655	      0.00000000
      0.34460787	      0.41080091	      1.07923318	      0.00000000
      0.34520511	      0.41156667	      1.07946724	      0.00000000
      0.34580235	      0.41233072	      1.07969865	      0.00000000
      0.34639959	      0.41309306	      1.07992735	      0.00000000
      0.34699683	      0.41385368	      1.08015327	      0.00000000
      0.34759407	      0.41461261	      1.08037634	      0.00000000
      0.34819132	      0.41536983	      1.08059652	      0.00000000
      0.34878856	      0.41612536	      1.08081372	      0.00000000
      0.34938580	      0.41687921	      1.08102788	      0.00000000
      0.34998304	      0.41763139	      1.08123895	      0.00000000
      0.35058028	      0.41838191	      1.08144684	      0.00000000
      0.35117752	      0.41913077	      1.08165150	      0.00000000
      0.35177476	      0.41987800	      1.08185287	      0.00000000
      0.35237200	      0.42062360	      1.08205087	      0.00000000
      0.35296924	      0.42136759	      1.08224544	      0.00000000
      0.35356648	      0.42210999	      1.08243652	      0.00000000
      0.35416372	      0.42285080	      1.08262404	      0.00000000
      0.35476096	      0.42359005	      1.08280795	      0.00000000
      0.35535820	      0.42432776	      1.08298817	      0.00000000
      0.35595544	      0.42506394	      1.08316465	      0.00000000
      0.35655268	      0.42579863	      1.08333733	      0.00000000
      0.35714993	      0.42653186	      1.08350618	      0.00000000
      0.35774717	      0.42726369	      1.08367114	      0.00000000
      0.35834441	      0.42799416	      1.08383218	      0.00000000
