PointAcceleration
version=1
nRows=601
nColumns=4
inDegrees=no
No description.
endheader
time	state_0	state_1	state_2
      0.00000000	    457.09421693	    559.37330921	      0.00000000
      0.00124138	    449.78332543	    542.07966842	      0.00000000
      0.00248276	    441.96181682	    524.34894779	      0.00000000
      0.00372415	    433.84772433	    506.59889137	      0.00000000
      0.00496553	    425.36087623	    488.71539934	      0.00000000
      0.00620691	    416.54180668	    470.78342739	      0.00000000
      0.00744829	    407.38847200	    452.81448318	      0.00000000
      0.00868967	    397.91543333	    434.84952225	      0.00000000
      0.00993105	    388.12924048	    416.92164268	      0.00000000
      0.01117244	    378.04408283	    399.06193524	      0.00000000
      0.01241382	    367.68055547	    381.30360465	      0.00000000
      0.01365520	    357.05966682	    363.67331387	      0.00000000
      0.01489658	    346.20439777	    346.20349911	      0.00000000
      0.01613796	    335.12472606	    328.91539868	      0.00000000
      0.01737934	    323.83260154	    311.83527104	      0.00000000
      0.01862073	    312.34181672	    294.99011723	      0.00000000
      0.01986211	    300.67565926	    278.41448929	      0.00000000
      0.02110349	    288.84631124	    262.13556570	      0.00000000
      0.02234487	    276.88851906	    246.19121375	      0.00000000
      0.02358625	    264.78613364	    230.60228630	      0.00000000
      0.02482764	    252.54355541	    215.41710198	      0.00000000
      0.02606902	    240.13867305	    200.64655051	      0.00000000
      0.02731040	    227.58233016	    186.30931073	      0.00000000
      0.02855178	    214.91681901	    172.42748619	      0.00000000
      0.02979316	    202.21338755	    159.04841749	      0.00000000
      0.03103454	    189.46486828	    146.16098535	      0.00000000
      0.03227593	    176.64319949	    133.73069511	      0.00000000
      0.03351731	    163.86763821	    121.83317327	      0.00000000
      0.03475869	    151.31792159	    110.53603506	      0.00000000
      0.03600007	    139.24353370	    100.06235664	      0.00000000
      0.03724145	    128.28989684	     90.88544583	      0.00000000
      0.03848284	    118.35476610	     82.97628424	      0.00000000
      0.03972422	    109.72229868	     76.46762633	      0.00000000
      0.04096560	    101.65934391	     70.83924581	      0.00000000
      0.04220698	     95.10435884	     66.57315977	      0.00000000
      0.04344836	     85.34481314	     60.98385919	      0.00000000
      0.04468974	     67.38481978	     50.80374431	      0.00000000
      0.04593113	     48.15302774	     38.51554699	      0.00000000
      0.04717251	     38.58404761	     28.29964717	      0.00000000
      0.04841389	     42.33184599	     23.74039487	      0.00000000
      0.04965527	     44.42360196	     21.57230534	      0.00000000
      0.05089665	     44.39664443	     19.59366213	      0.00000000
      0.05213803	     44.42088183	     17.73577087	      0.00000000
      0.05337942	     44.11576370	     15.75440588	      0.00000000
      0.05462080	     43.41738212	     13.63161251	      0.00000000
      0.05586218	     42.36225926	     11.45447040	      0.00000000
      0.05710356	     40.92959372	      9.25995914	      0.00000000
      0.05834494	     39.09067325	      7.08848980	      0.00000000
      0.05958633	     36.79602591	      4.95598469	      0.00000000
      0.06082771	     33.99353318	      2.87667201	      0.00000000
      0.06206909	     30.66686824	      0.86307113	      0.00000000
      0.06331047	     26.92419866	     -1.04289164	      0.00000000
      0.06455185	     23.00472072	     -2.76548519	      0.00000000
      0.06579323	     19.08169261	     -4.26273688	      0.00000000
      0.06703462	     15.25232185	     -5.52841753	      0.00000000
      0.06827600	     11.53292405	     -6.58978242	      0.00000000
      0.06951738	      7.92212851	     -7.48312354	      0.00000000
      0.07075876	      4.39460518	     -8.25227525	      0.00000000
      0.07200014	      0.93264533	     -8.93712031	      0.00000000
      0.07324153	     -2.47882753	     -9.57322928	      0.00000000
      0.07448291	     -5.84852038	    -10.19022733	      0.00000000
      0.07572429	     -9.18055803	    -10.81248325	      0.00000000
      0.07696567	    -12.47538649	    -11.45938129	      0.00000000
      0.07820705	    -15.72806380	    -12.14543118	      0.00000000
      0.07944843	    -18.93210987	    -12.88118406	      0.00000000
      0.08068982	    -22.07789785	    -13.67335970	      0.00000000
      0.08193120	    -25.15598941	    -14.52586280	      0.00000000
      0.08317258	    -28.15600846	    -15.44003949	      0.00000000
      0.08441396	    -31.06865355	    -16.41540415	      0.00000000
      0.08565534	    -33.88473513	    -17.45001631	      0.00000000
      0.08689672	    -36.59676242	    -18.54096645	      0.00000000
      0.08813811	    -39.19787291	    -19.68486029	      0.00000000
      0.08937949	    -41.68358259	    -20.87810625	      0.00000000
      0.09062087	    -44.05050617	    -22.11749201	      0.00000000
      0.09186225	    -46.29815780	    -23.40022101	      0.00000000
      0.09310363	    -48.42736083	    -24.72449576	      0.00000000
      0.09434502	    -50.44158802	    -26.08921075	      0.00000000
      0.09558640	    -52.34495607	    -27.49435133	      0.00000000
      0.09682778	    -54.14288771	    -28.94035774	      0.00000000
      0.09806916	    -55.84016450	    -30.42827750	      0.00000000
      0.09931054	    -57.44138477	    -31.95908458	      0.00000000
      0.10055192	    -58.94980572	    -33.53373545	      0.00000000
      0.10179331	    -60.36788958	    -35.15271699	      0.00000000
      0.10303469	    -61.69695224	    -36.81608462	      0.00000000
      0.10427607	    -62.93758071	    -38.52326086	      0.00000000
      0.10551745	    -64.08969400	    -40.27301367	      0.00000000
      0.10675883	    -65.15258913	    -42.06340547	      0.00000000
      0.10800021	    -66.12509370	    -43.89161921	      0.00000000
      0.10924160	    -67.00511283	    -45.75396237	      0.00000000
      0.11048298	    -67.78987766	    -47.64552519	      0.00000000
      0.11172436	    -68.47542534	    -49.56038670	      0.00000000
      0.11296574	    -69.05777961	    -51.49157058	      0.00000000
      0.11420712	    -69.53332422	    -53.43186548	      0.00000000
      0.11544851	    -69.90072722	    -55.37430260	      0.00000000
      0.11668989	    -70.16088576	    -57.31286842	      0.00000000
      0.11793127	    -70.31718255	    -59.24246376	      0.00000000
      0.11917265	    -70.37432990	    -61.15885303	      0.00000000
      0.12041403	    -70.33764077	    -63.05820533	      0.00000000
      0.12165541	    -70.21253284	    -64.93706441	      0.00000000
      0.12289680	    -70.00405342	    -66.79200560	      0.00000000
      0.12413818	    -69.71711086	    -68.61985683	      0.00000000
      0.12537956	    -69.35615922	    -70.41742624	      0.00000000
      0.12662094	    -68.92557931	    -72.18180780	      0.00000000
      0.12786232	    -68.42943882	    -73.91013019	      0.00000000
      0.12910371	    -67.87179298	    -75.59983930	      0.00000000
      0.13034509	    -67.25658352	    -77.24851603	      0.00000000
      0.13158647	    -66.58774613	    -78.85409113	      0.00000000
      0.13282785	    -65.86932823	    -80.41478792	      0.00000000
      0.13406923	    -65.10538499	    -81.92924358	      0.00000000
      0.13531061	    -64.30030495	    -83.39653157	      0.00000000
      0.13655200	    -63.45834800	    -84.81627625	      0.00000000
      0.13779338	    -62.58392214	    -86.18877069	      0.00000000
      0.13903476	    -61.68139506	    -87.51493408	      0.00000000
      0.14027614	    -60.75531244	    -88.79638389	      0.00000000
      0.14151752	    -59.81018425	    -90.03552773	      0.00000000
      0.14275890	    -58.85045285	    -91.23542030	      0.00000000
      0.14400029	    -57.88054491	    -92.40005583	      0.00000000
      0.14524167	    -56.90442809	    -93.53381650	      0.00000000
      0.14648305	    -55.92607276	    -94.64209767	      0.00000000
      0.14772443	    -54.94856601	    -95.73023783	      0.00000000
      0.14896581	    -53.97504782	    -96.80457118	      0.00000000
      0.15020720	    -53.00744756	    -97.87086939	      0.00000000
      0.15144858	    -52.04785570	    -98.93581892	      0.00000000
      0.15268996	    -51.09712290	   -100.00524777	      0.00000000
      0.15393134	    -50.15683729	   -101.08611645	      0.00000000
      0.15517272	    -49.22838693	   -102.18516814	      0.00000000
      0.15641410	    -48.31334275	   -103.31091572	      0.00000000
      0.15765549	    -47.41524966	   -104.47393638	      0.00000000
      0.15889687	    -46.54393044	   -105.69137775	      0.00000000
      0.16013825	    -45.71612955	   -106.98872040	      0.00000000
      0.16137963	    -44.96259278	   -108.40861427	      0.00000000
      0.16262101	    -44.32964124	   -110.01432056	      0.00000000
      0.16386239	    -43.89128462	   -111.90537379	      0.00000000
      0.16510378	    -43.74831041	   -114.22092131	      0.00000000
      0.16634516	    -44.04171084	   -117.15809739	      0.00000000
      0.16758654	    -44.93938196	   -120.96425807	      0.00000000
      0.16882792	    -46.63222825	   -125.93109604	      0.00000000
      0.17006930	    -49.29414712	   -132.35636155	      0.00000000
      0.17131069	    -53.03438205	   -140.47029337	      0.00000000
      0.17255207	    -57.83595659	   -150.35306409	      0.00000000
      0.17379345	    -63.48477266	   -161.80218950	      0.00000000
      0.17503483	    -69.58261129	   -174.33679780	      0.00000000
      0.17627621	    -75.61957126	   -187.26935123	      0.00000000
      0.17751759	    -81.23071750	   -200.06433325	      0.00000000
      0.17875898	    -86.55351955	   -212.91543565	      0.00000000
      0.18000036	    -92.40709158	   -227.04917342	      0.00000000
      0.18124174	   -100.24273766	   -244.77472642	      0.00000000
      0.18248312	   -111.39910924	   -268.31937261	      0.00000000
      0.18372450	   -126.51148264	   -298.83041673	      0.00000000
      0.18496589	   -145.27323569	   -335.88604489	      0.00000000
      0.18620727	   -166.70764535	   -377.75783053	      0.00000000
      0.18744865	   -189.72366664	   -422.41376877	      0.00000000
      0.18869003	   -213.02776379	   -467.29437256	      0.00000000
      0.18993141	   -235.42286095	   -509.94257708	      0.00000000
      0.19117279	   -254.97252115	   -546.46961281	      0.00000000
      0.19241418	   -270.00552513	   -573.85265129	      0.00000000
      0.19365556	   -276.92337885	   -586.05913880	      0.00000000
      0.19489694	   -273.74919116	   -580.80211196	      0.00000000
      0.19613832	   -204.64587675	   -476.25515423	      0.00000000
      0.19737970	    -39.28637103	   -235.55611067	      0.00000000
      0.19862108	    -41.00261722	   -260.66128481	      0.00000000
      0.19986247	    -32.54799292	   -269.25101545	      0.00000000
      0.20110385	    -18.01140760	   -267.26670575	      0.00000000
      0.20234523	    -15.50415295	   -281.18390094	      0.00000000
      0.20358661	     -7.31127027	   -284.33947202	      0.00000000
      0.20482799	     -5.63144257	   -294.38194119	      0.00000000
      0.20606938	     -2.26021221	   -299.45070029	      0.00000000
      0.20731076	     -1.78508599	   -305.98031864	      0.00000000
      0.20855214	     -1.08989029	   -309.48479404	      0.00000000
      0.20979352	     -1.83759303	   -311.90025377	      0.00000000
      0.21103490	     -2.87808260	   -310.96726384	      0.00000000
      0.21227628	     -4.97321108	   -306.65611196	      0.00000000
      0.21351767	     -7.64598639	   -297.25129293	      0.00000000
      0.21475905	    -11.14865550	   -283.32778808	      0.00000000
      0.21600043	    -14.58999075	   -264.91794124	      0.00000000
      0.21724181	    -18.77624653	   -236.89868230	      0.00000000
      0.21848319	    -25.30673413	   -188.84612591	      0.00000000
      0.21972458	    -31.36667004	   -128.20955905	      0.00000000
      0.22096596	    -33.84265060	    -82.67497278	      0.00000000
      0.22220734	    -31.94115957	    -63.69711243	      0.00000000
      0.22344872	    -26.22606990	    -62.02753629	      0.00000000
      0.22469010	    -20.19734946	    -69.19103535	      0.00000000
      0.22593148	    -15.31265397	    -76.21183857	      0.00000000
      0.22717287	    -11.63427232	    -82.25430918	      0.00000000
      0.22841425	     -9.15714186	    -86.59017387	      0.00000000
      0.22965563	     -7.39481936	    -89.31448641	      0.00000000
      0.23089701	     -6.17400664	    -91.24206076	      0.00000000
      0.23213839	     -5.28527620	    -92.29259201	      0.00000000
      0.23337977	     -4.62839733	    -93.07247858	      0.00000000
      0.23462116	     -4.12299723	    -93.46962791	      0.00000000
      0.23586254	     -3.73168852	    -93.78298392	      0.00000000
      0.23710392	     -3.40465109	    -93.94669491	      0.00000000
      0.23834530	     -3.15990445	    -94.07155098	      0.00000000
      0.23958668	     -2.95016102	    -94.12712967	      0.00000000
      0.24082807	     -2.78300170	    -94.18762086	      0.00000000
      0.24206945	     -2.64447525	    -94.22178272	      0.00000000
      0.24331083	     -2.53260225	    -94.25666319	      0.00000000
      0.24455221	     -2.44080095	    -94.27763632	      0.00000000
      0.24579359	     -2.36812113	    -94.29747021	      0.00000000
      0.24703497	     -2.31038338	    -94.30730837	      0.00000000
      0.24827636	     -2.26577085	    -94.31306449	      0.00000000
      0.24951774	     -2.23174255	    -94.30988171	      0.00000000
      0.25075912	     -2.20836089	    -94.30144857	      0.00000000
      0.25200050	     -2.19281796	    -94.28395375	      0.00000000
      0.25324188	     -2.18499889	    -94.25943921	      0.00000000
      0.25448326	     -2.18348212	    -94.22716680	      0.00000000
      0.25572465	     -2.18822046	    -94.18908068	      0.00000000
      0.25696603	     -2.19844997	    -94.14648730	      0.00000000
      0.25820741	     -2.21422933	    -94.10186415	      0.00000000
      0.25944879	     -2.23516690	    -94.05771280	      0.00000000
      0.26069017	     -2.26134995	    -94.01689055	      0.00000000
      0.26193156	     -2.29252248	    -93.98201661	      0.00000000
      0.26317294	     -2.32869709	    -93.95574352	      0.00000000
      0.26441432	     -2.36953610	    -93.93967909	      0.00000000
      0.26565570	     -2.41484831	    -93.93543680	      0.00000000
      0.26689708	     -2.46407128	    -93.94266705	      0.00000000
      0.26813846	     -2.51671078	    -93.96109866	      0.00000000
      0.26937985	     -2.57196355	    -93.98795254	      0.00000000
      0.27062123	     -2.62901079	    -94.02052783	      0.00000000
      0.27186261	     -2.68695986	    -94.05391592	      0.00000000
      0.27310399	     -2.74480240	    -94.08313713	      0.00000000
      0.27434537	     -2.80182789	    -94.10225715	      0.00000000
      0.27558676	     -2.85711129	    -94.10497329	      0.00000000
      0.27682814	     -2.91039616	    -94.08591048	      0.00000000
      0.27806952	     -2.96115450	    -94.03899715	      0.00000000
      0.27931090	     -3.00970598	    -93.96091504	      0.00000000
      0.28055228	     -3.05613532	    -93.84747938	      0.00000000
      0.28179366	     -3.10120069	    -93.69820275	      0.00000000
      0.28303505	     -3.14571950	    -93.51202066	      0.00000000
      0.28427643	     -3.19103974	    -93.29183088	      0.00000000
      0.28551781	     -3.23674362	    -93.03855203	      0.00000000
      0.28675919	     -3.28529785	    -92.75626270	      0.00000000
      0.28800057	     -3.33735807	    -92.44997130	      0.00000000
      0.28924195	     -3.39341321	    -92.12481131	      0.00000000
      0.29048334	     -3.45420565	    -91.78638463	      0.00000000
      0.29172472	     -3.51959272	    -91.43891729	      0.00000000
      0.29296610	     -3.58979201	    -91.08768728	      0.00000000
      0.29420748	     -3.66403395	    -90.73497080	      0.00000000
      0.29544886	     -3.74191221	    -90.38432537	      0.00000000
      0.29669025	     -3.82232261	    -90.03590978	      0.00000000
      0.29793163	     -3.90441659	    -89.69103836	      0.00000000
      0.29917301	     -3.98712924	    -89.34836506	      0.00000000
      0.30041439	     -4.06950560	    -89.00735523	      0.00000000
      0.30165577	     -4.15079588	    -88.66611055	      0.00000000
      0.30289715	     -4.23023474	    -88.32313676	      0.00000000
      0.30413854	     -4.30747118	    -87.97678546	      0.00000000
      0.30537992	     -4.38206634	    -87.62547736	      0.00000000
      0.30662130	     -4.45397636	    -87.26821315	      0.00000000
      0.30786268	     -4.52304574	    -86.90386018	      0.00000000
      0.30910406	     -4.58937528	    -86.53210272	      0.00000000
      0.31034545	     -4.65296216	    -86.15241880	      0.00000000
      0.31158683	     -4.71393076	    -85.76502896	      0.00000000
      0.31282821	     -4.77232460	    -85.36996463	      0.00000000
      0.31406959	     -4.82824908	    -84.96779977	      0.00000000
      0.31531097	     -4.88174893	    -84.55896994	      0.00000000
      0.31655235	     -4.93291946	    -84.14424544	      0.00000000
      0.31779374	     -4.98181177	    -83.72431241	      0.00000000
      0.31903512	     -5.02850546	    -83.29998756	      0.00000000
      0.32027650	     -5.07303331	    -82.87203242	      0.00000000
      0.32151788	     -5.11543133	    -82.44116118	      0.00000000
      0.32275926	     -5.15568667	    -82.00803807	      0.00000000
      0.32400064	     -5.19377046	    -81.57312919	      0.00000000
      0.32524203	     -5.22960126	    -81.13670888	      0.00000000
      0.32648341	     -5.26311289	    -80.69906362	      0.00000000
      0.32772479	     -5.29414910	    -80.25983591	      0.00000000
      0.32896617	     -5.32284461	    -79.82058379	      0.00000000
      0.33020755	     -5.34902877	    -79.38397034	      0.00000000
      0.33144894	     -5.37181969	    -78.94976460	      0.00000000
      0.33269032	     -5.39007686	    -78.51561384	      0.00000000
      0.33393170	     -5.40402428	    -78.07847486	      0.00000000
      0.33517308	     -5.41391843	    -77.63571922	      0.00000000
      0.33641446	     -5.42032381	    -77.18522002	      0.00000000
      0.33765584	     -5.42392828	    -76.72496708	      0.00000000
      0.33889723	     -5.42514900	    -76.25391587	      0.00000000
      0.34013861	     -5.42463254	    -75.77115857	      0.00000000
      0.34137999	     -5.42266247	    -75.27704227	      0.00000000
      0.34262137	     -5.41973574	    -74.77224541	      0.00000000
      0.34386275	     -5.41626378	    -74.25853715	      0.00000000
      0.34510413	     -5.41266760	    -73.73797559	      0.00000000
      0.34634552	     -5.40915381	    -73.21323970	      0.00000000
      0.34758690	     -5.40602158	    -72.68727893	      0.00000000
      0.34882828	     -5.40319357	    -72.16234048	      0.00000000
      0.35006966	     -5.40063541	    -71.64080505	      0.00000000
      0.35131104	     -5.39820852	    -71.12414705	      0.00000000
      0.35255243	     -5.39576603	    -70.61401883	      0.00000000
      0.35379381	     -5.39312607	    -70.11114801	      0.00000000
      0.35503519	     -5.39001148	    -69.61627104	      0.00000000
      0.35627657	     -5.38615846	    -69.12919853	      0.00000000
      0.35751795	     -5.38111929	    -68.64942288	      0.00000000
      0.35875933	     -5.37469485	    -68.17600753	      0.00000000
      0.36000072	     -5.36647199	    -67.70753540	      0.00000000
      0.36124210	     -5.35649349	    -67.24299855	      0.00000000
      0.36248348	     -5.34462426	    -66.78092300	      0.00000000
      0.36372486	     -5.33115313	    -66.32082795	      0.00000000
      0.36496624	     -5.31625949	    -65.86188898	      0.00000000
      0.36620763	     -5.30031164	    -65.40427001	      0.00000000
      0.36744901	     -5.28364453	    -64.94795881	      0.00000000
      0.36869039	     -5.26653166	    -64.49346279	      0.00000000
      0.36993177	     -5.24926495	    -64.04127005	      0.00000000
      0.37117315	     -5.23191351	    -63.59182311	      0.00000000
      0.37241453	     -5.21459710	    -63.14565467	      0.00000000
      0.37365592	     -5.19720048	    -62.70281109	      0.00000000
      0.37489730	     -5.17964282	    -62.26343334	      0.00000000
      0.37613868	     -5.16170115	    -61.82706057	      0.00000000
      0.37738006	     -5.14315227	    -61.39325534	      0.00000000
      0.37862144	     -5.12378310	    -60.96119226	      0.00000000
      0.37986282	     -5.10334309	    -60.52996595	      0.00000000
      0.38110421	     -5.08173634	    -60.09870555	      0.00000000
      0.38234559	     -5.05880791	    -59.66638122	      0.00000000
      0.38358697	     -5.03463372	    -59.23242885	      0.00000000
      0.38482835	     -5.00923221	    -58.79610543	      0.00000000
      0.38606973	     -4.98283722	    -58.35739525	      0.00000000
      0.38731112	     -4.95564620	    -57.91614777	      0.00000000
      0.38855250	     -4.92798607	    -57.47295502	      0.00000000
      0.38979388	     -4.90017806	    -57.02836361	      0.00000000
      0.39103526	     -4.87256303	    -56.58346823	      0.00000000
      0.39227664	     -4.84550596	    -56.13942393	      0.00000000
      0.39351802	     -4.81929895	    -55.69762744	      0.00000000
      0.39475941	     -4.79427924	    -55.25962916	      0.00000000
      0.39600079	     -4.77065527	    -54.82690173	      0.00000000
      0.39724217	     -4.74868895	    -54.40113203	      0.00000000
      0.39848355	     -4.72849296	    -53.98366006	      0.00000000
      0.39972493	     -4.71022893	    -53.57605877	      0.00000000
      0.40096632	     -4.69391343	    -53.17935643	      0.00000000
      0.40220770	     -4.67959544	    -52.79478674	      0.00000000
      0.40344908	     -4.66720157	    -52.42291901	      0.00000000
      0.40469046	     -4.65666388	    -52.06445764	      0.00000000
      0.40593184	     -4.64783140	    -51.71941057	      0.00000000
      0.40717322	     -4.64051713	    -51.38782161	      0.00000000
      0.40841461	     -4.63450997	    -51.06912494	      0.00000000
      0.40965599	     -4.62955835	    -50.76265461	      0.00000000
      0.41089737	     -4.62545582	    -50.46733321	      0.00000000
      0.41213875	     -4.62191098	    -50.18187834	      0.00000000
      0.41338013	     -4.61876708	    -49.90492197	      0.00000000
      0.41462151	     -4.61576605	    -49.63480012	      0.00000000
      0.41586290	     -4.61283694	    -49.37011113	      0.00000000
      0.41710428	     -4.60980834	    -49.10911908	      0.00000000
      0.41834566	     -4.60670994	    -48.85065895	      0.00000000
      0.41958704	     -4.60349137	    -48.59325572	      0.00000000
      0.42082842	     -4.60027811	    -48.33619815	      0.00000000
      0.42206981	     -4.59715480	    -48.07855327	      0.00000000
      0.42331119	     -4.59430869	    -47.82015343	      0.00000000
      0.42455257	     -4.59193279	    -47.56073755	      0.00000000
      0.42579395	     -4.59021673	    -47.30060929	      0.00000000
      0.42703533	     -4.58939812	    -47.04011621	      0.00000000
      0.42827671	     -4.58960814	    -46.77982982	      0.00000000
      0.42951810	     -4.59105658	    -46.52048225	      0.00000000
      0.43075948	     -4.59377325	    -46.26263960	      0.00000000
      0.43200086	     -4.59787935	    -46.00709620	      0.00000000
      0.43324224	     -4.60328460	    -45.75414101	      0.00000000
      0.43448362	     -4.60998007	    -45.50428870	      0.00000000
      0.43572500	     -4.61776949	    -45.25736746	      0.00000000
      0.43696639	     -4.62650615	    -45.01335171	      0.00000000
      0.43820777	     -4.63595174	    -44.77161149	      0.00000000
      0.43944915	     -4.64587321	    -44.53152661	      0.00000000
      0.44069053	     -4.65609606	    -44.29227522	      0.00000000
      0.44193191	     -4.66642638	    -44.05288944	      0.00000000
      0.44317330	     -4.67690948	    -43.81287054	      0.00000000
      0.44441468	     -4.68753966	    -43.57147117	      0.00000000
      0.44565606	     -4.69870187	    -43.32922919	      0.00000000
      0.44689744	     -4.71074859	    -43.08643244	      0.00000000
      0.44813882	     -4.72448256	    -42.84534263	      0.00000000
      0.44938020	     -4.74074807	    -42.60814971	      0.00000000
      0.45062159	     -4.76070498	    -42.37919987	      0.00000000
      0.45186297	     -4.78566543	    -42.16310244	      0.00000000
      0.45310435	     -4.81692938	    -41.96603334	      0.00000000
      0.45434573	     -4.85605755	    -41.79483044	      0.00000000
      0.45558711	     -4.90420285	    -41.65656985	      0.00000000
      0.45682850	     -4.96283346	    -41.55930284	      0.00000000
      0.45806988	     -5.03274615	    -41.50964131	      0.00000000
      0.45931126	     -5.11501999	    -41.51528103	      0.00000000
      0.46055264	     -5.21010352	    -41.58102386	      0.00000000
      0.46179402	     -5.31870788	    -41.71272342	      0.00000000
      0.46303540	     -5.44104889	    -41.91224041	      0.00000000
      0.46427679	     -5.57809652	    -42.18249046	      0.00000000
      0.46551817	     -5.72798014	    -42.51987890	      0.00000000
      0.46675955	     -5.88889613	    -42.92100253	      0.00000000
      0.46800093	     -6.05632081	    -43.37737362	      0.00000000
      0.46924231	     -6.22493353	    -43.87983798	      0.00000000
      0.47048369	     -6.39150663	    -44.41971240	      0.00000000
      0.47172508	     -6.55317393	    -44.98793472	      0.00000000
      0.47296646	     -6.70823811	    -45.57523359	      0.00000000
      0.47420784	     -6.85452344	    -46.17109136	      0.00000000
      0.47544922	     -6.99074114	    -46.76623677	      0.00000000
      0.47669060	     -7.11489828	    -47.34979708	      0.00000000
      0.47793199	     -7.22671663	    -47.91461763	      0.00000000
      0.47917337	     -7.32558291	    -48.45220195	      0.00000000
      0.48041475	     -7.41232194	    -48.95846774	      0.00000000
      0.48165613	     -7.48758888	    -49.42839261	      0.00000000
      0.48289751	     -7.55258870	    -49.86070777	      0.00000000
      0.48413889	     -7.60845164	    -50.25360627	      0.00000000
      0.48538028	     -7.65628024	    -50.60784554	      0.00000000
      0.48662166	     -7.69716677	    -50.92415526	      0.00000000
      0.48786304	     -7.73220028	    -51.20421188	      0.00000000
      0.48910442	     -7.76210893	    -51.45009919	      0.00000000
      0.49034580	     -7.78744713	    -51.66388694	      0.00000000
      0.49158718	     -7.80893681	    -51.84811757	      0.00000000
      0.49282857	     -7.82673401	    -52.00431744	      0.00000000
      0.49406995	     -7.84121720	    -52.13464893	      0.00000000
      0.49531133	     -7.85230050	    -52.23983678	      0.00000000
      0.49655271	     -7.86004793	    -52.32115423	      0.00000000
      0.49779409	     -7.86424870	    -52.37849451	      0.00000000
      0.49903548	     -7.86477590	    -52.41216692	      0.00000000
      0.50027686	     -7.86136927	    -52.42137607	      0.00000000
      0.50151824	     -7.85378195	    -52.40554118	      0.00000000
      0.50275962	     -7.84177377	    -52.36342417	      0.00000000
      0.50400100	     -7.82505900	    -52.29379315	      0.00000000
      0.50524238	     -7.80353180	    -52.19539918	      0.00000000
      0.50648377	     -7.77704975	    -52.06698467	      0.00000000
      0.50772515	     -7.74556424	    -51.90749881	      0.00000000
      0.50896653	     -7.70897631	    -51.71580375	      0.00000000
      0.51020791	     -7.66723873	    -51.49102186	      0.00000000
      0.51144929	     -7.62027442	    -51.23221388	      0.00000000
      0.51269068	     -7.56802977	    -50.93863184	      0.00000000
      0.51393206	     -7.51049166	    -50.60967611	      0.00000000
      0.51517344	     -7.44735893	    -50.24421011	      0.00000000
      0.51641482	     -7.37833831	    -49.84118049	      0.00000000
      0.51765620	     -7.30282680	    -49.39848366	      0.00000000
      0.51889758	     -7.22020389	    -48.91406805	      0.00000000
      0.52013897	     -7.12962085	    -48.38463413	      0.00000000
      0.52138035	     -7.03013855	    -47.80677335	      0.00000000
      0.52262173	     -6.92079929	    -47.17609136	      0.00000000
      0.52386311	     -6.80050035	    -46.48795652	      0.00000000
      0.52510449	     -6.66824708	    -45.73711094	      0.00000000
      0.52634587	     -6.52289601	    -44.91806180	      0.00000000
      0.52758726	     -6.36325606	    -44.02451189	      0.00000000
      0.52882864	     -6.18805542	    -43.05013455	      0.00000000
      0.53007002	     -5.99532923	    -41.98628041	      0.00000000
      0.53131140	     -5.78301881	    -40.82416681	      0.00000000
      0.53255278	     -5.54813587	    -39.55121917	      0.00000000
      0.53379417	     -5.28812050	    -38.15588095	      0.00000000
      0.53503555	     -4.99720164	    -36.61765076	      0.00000000
      0.53627693	     -4.67082571	    -34.91786940	      0.00000000
      0.53751831	     -4.29061913	    -33.01076692	      0.00000000
      0.53875969	     -3.82927412	    -30.82530205	      0.00000000
      0.54000107	     -3.29356197	    -28.34908909	      0.00000000
      0.54124246	     -2.70119535	    -25.60454749	      0.00000000
      0.54248384	     -2.05165131	    -22.59558474	      0.00000000
      0.54372522	     -1.36194312	    -19.38468391	      0.00000000
      0.54496660	     -0.50318655	    -15.71060006	      0.00000000
      0.54620798	      0.72799790	    -11.08624263	      0.00000000
      0.54744937	      2.26554974	     -5.38664759	      0.00000000
      0.54869075	      4.00171400	      1.39528644	      0.00000000
      0.54993213	      5.86839163	      9.13510013	      0.00000000
      0.55117351	      7.81713549	     17.75915116	      0.00000000
      0.55241489	      9.82649506	     27.14953503	      0.00000000
      0.55365627	     11.86275179	     37.16351601	      0.00000000
      0.55489766	     13.93273672	     47.70901802	      0.00000000
      0.55613904	     16.02783837	     58.64853152	      0.00000000
      0.55738042	     18.16609713	     69.92555331	      0.00000000
      0.55862180	     20.35241525	     81.43748637	      0.00000000
      0.55986318	     22.60310104	     93.15560752	      0.00000000
      0.56110456	     24.92782448	    105.02246827	      0.00000000
      0.56234595	     27.33511757	    117.02571601	      0.00000000
      0.56358733	     29.83289160	    129.14388527	      0.00000000
      0.56482871	     32.42205365	    141.36991259	      0.00000000
      0.56607009	     35.10649214	    153.70142023	      0.00000000
      0.56731147	     37.88282800	    166.13030632	      0.00000000
      0.56855286	     40.75170491	    178.65938322	      0.00000000
      0.56979424	     43.70874286	    191.27832804	      0.00000000
      0.57103562	     46.75311359	    203.98854867	      0.00000000
      0.57227700	     49.88112208	    216.77882028	      0.00000000
      0.57351838	     53.09163861	    229.64786127	      0.00000000
      0.57475976	     56.38209863	    242.58499247	      0.00000000
      0.57600115	     59.75144148	    255.58701877	      0.00000000
      0.57724253	     63.19877362	    268.64478609	      0.00000000
      0.57848391	     66.72394597	    281.75441997	      0.00000000
      0.57972529	     70.32928557	    294.90886613	      0.00000000
      0.58096667	     74.01936820	    308.10523351	      0.00000000
      0.58220805	     77.79555272	    321.33471917	      0.00000000
      0.58344944	     81.65999994	    334.59166750	      0.00000000
      0.58469082	     85.61047536	    347.86664770	      0.00000000
      0.58593220	     89.64543060	    361.15289245	      0.00000000
      0.58717358	     93.76193208	    374.44255433	      0.00000000
      0.58841496	     97.95842220	    387.73025395	      0.00000000
      0.58965635	    102.23253407	    401.00933415	      0.00000000
      0.59089773	    106.58260509	    414.27514782	      0.00000000
      0.59213911	    111.00651250	    427.52203525	      0.00000000
      0.59338049	    115.50252637	    440.74585310	      0.00000000
      0.59462187	    120.06870451	    453.94170844	      0.00000000
      0.59586325	    124.70325669	    467.10577395	      0.00000000
      0.59710464	    129.40439282	    480.23374872	      0.00000000
      0.59834602	    134.17027322	    493.32199099	      0.00000000
      0.59958740	    138.99918273	    506.36662219	      0.00000000
      0.60082878	    143.88917643	    519.36406712	      0.00000000
      0.60207016	    148.83848323	    532.31068510	      0.00000000
      0.60331155	    153.84493651	    545.20283762	      0.00000000
      0.60455293	    158.90663944	    558.03697518	      0.00000000
      0.60579431	    164.02115712	    570.80931220	      0.00000000
      0.60703569	    169.18658783	    583.51635705	      0.00000000
      0.60827707	    174.40041087	    596.15420164	      0.00000000
      0.60951845	    179.66089792	    608.71938037	      0.00000000
      0.61075984	    184.96566047	    621.20786574	      0.00000000
      0.61200122	    190.31314597	    633.61609528	      0.00000000
      0.61324260	    195.70110845	    645.93984249	      0.00000000
      0.61448398	    201.12803306	    658.17531653	      0.00000000
      0.61572536	    206.59171638	    670.31802520	      0.00000000
      0.61696674	    212.09052971	    682.36379265	      0.00000000
      0.61820813	    217.62219742	    694.30774024	      0.00000000
      0.61944951	    223.18488236	    706.14514256	      0.00000000
      0.62069089	    228.77614608	    717.87055650	      0.00000000
      0.62193227	    234.39395713	    729.47872385	      0.00000000
      0.62317365	    240.03572222	    740.96365473	      0.00000000
      0.62441504	    245.69930617	    752.31980882	      0.00000000
      0.62565642	    251.38207825	    763.54098596	      0.00000000
      0.62689780	    257.08186385	    774.62161625	      0.00000000
      0.62813918	    262.79609948	    785.55563535	      0.00000000
      0.62938056	    268.52255693	    796.33744084	      0.00000000
      0.63062194	    274.25873006	    806.96109588	      0.00000000
      0.63186333	    280.00229125	    817.42074008	      0.00000000
      0.63310471	    285.75084016	    827.71058137	      0.00000000
      0.63434609	    291.50186672	    837.82415529	      0.00000000
      0.63558747	    297.25266679	    847.75463378	      0.00000000
      0.63682885	    303.00012730	    857.49377519	      0.00000000
      0.63807024	    308.74105449	    867.03297517	      0.00000000
      0.63931162	    314.47213635	    876.36355201	      0.00000000
      0.64055300	    320.19012809	    885.47685639	      0.00000000
      0.64179438	    325.89196606	    894.36553195	      0.00000000
      0.64303576	    331.57450795	    903.02190767	      0.00000000
      0.64427714	    337.23463151	    911.43936446	      0.00000000
      0.64551853	    342.86928489	    919.61118335	      0.00000000
      0.64675991	    348.47528200	    927.53142652	      0.00000000
      0.64800129	    354.04954226	    935.19415177	      0.00000000
      0.64924267	    359.58872736	    942.59395323	      0.00000000
      0.65048405	    365.08959306	    949.72545382	      0.00000000
      0.65172543	    370.54880342	    956.58405760	      0.00000000
      0.65296682	    375.96304667	    963.16534827	      0.00000000
      0.65420820	    381.32962465	    969.46609222	      0.00000000
      0.65544958	    386.64601096	    975.48333380	      0.00000000
      0.65669096	    391.91001164	    981.21448199	      0.00000000
      0.65793234	    397.11955323	    986.65716743	      0.00000000
      0.65917373	    402.27264338	    991.80909018	      0.00000000
      0.66041511	    407.36724071	    996.66791916	      0.00000000
      0.66165649	    412.40205786	   1001.23276011	      0.00000000
      0.66289787	    417.37572438	   1005.50271692	      0.00000000
      0.66413925	    422.28786766	   1009.47863839	      0.00000000
      0.66538063	    427.13837639	   1013.16169733	      0.00000000
      0.66662202	    431.92694543	   1016.55290905	      0.00000000
      0.66786340	    436.65377285	   1019.65371125	      0.00000000
      0.66910478	    441.31816598	   1022.46443079	      0.00000000
      0.67034616	    445.92007468	   1024.98569359	      0.00000000
      0.67158754	    450.45909313	   1027.21838185	      0.00000000
      0.67282892	    454.93575365	   1029.16382784	      0.00000000
      0.67407031	    459.35056762	   1030.82442110	      0.00000000
      0.67531169	    463.70569583	   1032.20334326	      0.00000000
      0.67655307	    468.00151056	   1033.30426779	      0.00000000
      0.67779445	    472.23853593	   1034.13086781	      0.00000000
      0.67903583	    476.41567873	   1034.68693118	      0.00000000
      0.68027722	    480.53062619	   1034.97540933	      0.00000000
      0.68151860	    484.58109590	   1034.99916252	      0.00000000
      0.68275998	    488.56602033	   1034.76158751	      0.00000000
      0.68400136	    492.48456656	   1034.26538833	      0.00000000
      0.68524274	    496.33620711	   1033.51391252	      0.00000000
      0.68648412	    500.12111619	   1032.51191535	      0.00000000
      0.68772551	    503.83495643	   1031.26339851	      0.00000000
      0.68896689	    507.47753132	   1029.76952052	      0.00000000
      0.69020827	    511.04215065	   1028.03472778	      0.00000000
      0.69144965	    514.50653139	   1026.05868275	      0.00000000
      0.69269103	    517.85929012	   1023.83982689	      0.00000000
      0.69393242	    521.09792034	   1021.27971937	      0.00000000
      0.69517380	    524.14725307	   1018.29877638	      0.00000000
      0.69641518	    527.38743584	   1014.79438011	      0.00000000
      0.69765656	    529.94488289	   1010.91575834	      0.00000000
      0.69889794	    532.41332751	   1006.19728380	      0.00000000
      0.70013932	    534.47064345	   1000.81022834	      0.00000000
      0.70138071	    536.30381359	    994.86724259	      0.00000000
      0.70262209	    537.89090093	    988.42635592	      0.00000000
      0.70386347	    539.27224813	    981.55685558	      0.00000000
      0.70510485	    540.46353878	    974.27334438	      0.00000000
      0.70634623	    541.45745870	    966.60307629	      0.00000000
      0.70758761	    542.26927515	    958.55226017	      0.00000000
      0.70882900	    542.88591023	    950.12896975	      0.00000000
      0.71007038	    543.31527494	    941.34051287	      0.00000000
      0.71131176	    543.54724620	    932.18766711	      0.00000000
      0.71255314	    543.58399797	    922.67652590	      0.00000000
      0.71379452	    543.41746189	    912.80659744	      0.00000000
      0.71503591	    543.04660851	    902.58207045	      0.00000000
      0.71627729	    542.46407041	    892.00284434	      0.00000000
      0.71751867	    541.66702173	    881.07192062	      0.00000000
      0.71876005	    540.64804941	    869.78975085	      0.00000000
      0.72000143	    539.40306310	    858.15870742	      0.00000000
      0.72124281	    537.92465374	    846.18028084	      0.00000000
      0.72248420	    536.20811472	    833.85722642	      0.00000000
      0.72372558	    534.24630723	    821.19266753	      0.00000000
      0.72496696	    532.03459656	    808.19088212	      0.00000000
      0.72620834	    529.56518607	    794.85553627	      0.00000000
      0.72744972	    526.83252238	    781.19113134	      0.00000000
      0.72869111	    523.82851762	    767.20216357	      0.00000000
      0.72993249	    520.54685524	    752.89352595	      0.00000000
      0.73117387	    516.98108969	    738.27306719	      0.00000000
      0.73241525	    513.12676073	    723.34975337	      0.00000000
      0.73365663	    508.97559807	    708.13107899	      0.00000000
      0.73489801	    504.52110439	    692.62524831	      0.00000000
      0.73613940	    499.75364432	    676.83943402	      0.00000000
      0.73738078	    494.66315771	    660.77802227	      0.00000000
      0.73862216	    489.24860073	    644.46037977	      0.00000000
      0.73986354	    483.50389714	    627.89349763	      0.00000000
      0.74110492	    477.43660007	    611.11670756	      0.00000000
      0.74234630	    471.01928751	    594.09711473	      0.00000000
      0.74358769	    464.30979935	    576.97163308	      0.00000000
      0.74482907	    457.09689287	    559.38708461	      0.00000000
