PointPosition
version=1
nRows=601
nColumns=4
inDegrees=no
No description.
endheader
time	state_0	state_1	state_2
      0.00000000	     -0.10931979	      0.00202356	      0.09478690
      0.00124138	     -0.10929259	      0.00199161	      0.09478690
      0.00248276	     -0.10926741	      0.00195737	      0.09478690
      0.00372415	     -0.10924417	      0.00192105	      0.09478690
      0.00496553	     -0.10922293	      0.00188276	      0.09478690
      0.00620691	     -0.10920376	      0.00184258	      0.09478690
      0.00744829	     -0.10918645	      0.00180071	      0.09478690
      0.00868967	     -0.10917089	      0.00175737	      0.09478690
      0.00993105	     -0.10915706	      0.00171269	      0.09478690
      0.01117244	     -0.10914493	      0.00166683	      0.09478690
      0.01241382	     -0.10913445	      0.00161990	      0.09478690
      0.01365520	     -0.10912559	      0.00157201	      0.09478690
      0.01489658	     -0.10911831	      0.00152325	      0.09478690
      0.01613796	     -0.10911256	      0.00147368	      0.09478690
      0.01737934	     -0.10910831	      0.00142336	      0.09478690
      0.01862073	     -0.10910552	      0.00137232	      0.09478690
      0.01986211	     -0.10910414	      0.00132059	      0.09478690
      0.02110349	     -0.10910415	      0.00126818	      0.09478690
      0.02234487	     -0.10910550	      0.00121512	      0.09478690
      0.02358625	     -0.10910815	      0.00116142	      0.09478690
      0.02482764	     -0.10911208	      0.00110710	      0.09478690
      0.02606902	     -0.10911726	      0.00105221	      0.09478690
      0.02731040	     -0.10912366	      0.00099679	      0.09478690
      0.02855178	     -0.10913125	      0.00094087	      0.09478690
      0.02979316	     -0.10914002	      0.00088450	      0.09478690
      0.03103454	     -0.10914992	      0.00082774	      0.09478690
      0.03227593	     -0.10916095	      0.00077061	      0.09478690
      0.03351731	     -0.10917307	      0.00071316	      0.09478690
      0.03475869	     -0.10918626	      0.00065543	      0.09478690
      0.03600007	     -0.10920051	      0.00059746	      0.09478690
      0.03724145	     -0.10921578	      0.00053928	      0.09478690
      0.03848284	     -0.10923205	      0.00048091	      0.09478690
      0.03972422	     -0.10924929	      0.00042237	      0.09478690
      0.04096560	     -0.10926750	      0.00036372	      0.09478690
      0.04220698	     -0.10928664	      0.00030503	      0.09478690
      0.04344836	     -0.10930672	      0.00024639	      0.09478690
      0.04468974	     -0.10932771	      0.00018789	      0.09478690
      0.04593113	     -0.10934962	      0.00012961	      0.09478690
      0.04717251	     -0.10937244	      0.00007157	      0.09478690
      0.04841389	     -0.10939620	      0.00001385	      0.09478690
      0.04965527	     -0.10942089	     -0.00004344	      0.09478690
      0.05089665	     -0.10944652	     -0.00010010	      0.09478690
      0.05213803	     -0.10947308	     -0.00015593	      0.09478690
      0.05337942	     -0.10950056	     -0.00021075	      0.09478690
      0.05462080	     -0.10952893	     -0.00026442	      0.09478690
      0.05586218	     -0.10955820	     -0.00031683	      0.09478690
      0.05710356	     -0.10958832	     -0.00036785	      0.09478690
      0.05834494	     -0.10961930	     -0.00041741	      0.09478690
      0.05958633	     -0.10965110	     -0.00046543	      0.09478690
      0.06082771	     -0.10968370	     -0.00051182	      0.09478690
      0.06206909	     -0.10971709	     -0.00055652	      0.09478690
      0.06331047	     -0.10975124	     -0.00059946	      0.09478690
      0.06455185	     -0.10978612	     -0.00064058	      0.09478690
      0.06579323	     -0.10982172	     -0.00067983	      0.09478690
      0.06703462	     -0.10985802	     -0.00071718	      0.09478690
      0.06827600	     -0.10989497	     -0.00075258	      0.09478690
      0.06951738	     -0.10993255	     -0.00078604	      0.09478690
      0.07075876	     -0.10997074	     -0.00081753	      0.09478690
      0.07200014	     -0.11000951	     -0.00084706	      0.09478690
      0.07324153	     -0.11004884	     -0.00087459	      0.09478690
      0.07448291	     -0.11008870	     -0.00090011	      0.09478690
      0.07572429	     -0.11012909	     -0.00092355	      0.09478690
      0.07696567	     -0.11017000	     -0.00094488	      0.09478690
      0.07820705	     -0.11021142	     -0.00096404	      0.09478690
      0.07944843	     -0.11025336	     -0.00098099	      0.09478690
      0.08068982	     -0.11029580	     -0.00099570	      0.09478690
      0.08193120	     -0.11033873	     -0.00100813	      0.09478690
      0.08317258	     -0.11038215	     -0.00101827	      0.09478690
      0.08441396	     -0.11042605	     -0.00102610	      0.09478690
      0.08565534	     -0.11047041	     -0.00103160	      0.09478690
      0.08689672	     -0.11051524	     -0.00103477	      0.09478690
      0.08813811	     -0.11056051	     -0.00103559	      0.09478690
      0.08937949	     -0.11060622	     -0.00103406	      0.09478690
      0.09062087	     -0.11065237	     -0.00103018	      0.09478690
      0.09186225	     -0.11069895	     -0.00102394	      0.09478690
      0.09310363	     -0.11074595	     -0.00101535	      0.09478690
      0.09434502	     -0.11079337	     -0.00100440	      0.09478690
      0.09558640	     -0.11084120	     -0.00099112	      0.09478690
      0.09682778	     -0.11088944	     -0.00097550	      0.09478690
      0.09806916	     -0.11093809	     -0.00095756	      0.09478690
      0.09931054	     -0.11098714	     -0.00093731	      0.09478690
      0.10055192	     -0.11103659	     -0.00091475	      0.09478690
      0.10179331	     -0.11108645	     -0.00088991	      0.09478690
      0.10303469	     -0.11113671	     -0.00086279	      0.09478690
      0.10427607	     -0.11118738	     -0.00083342	      0.09478690
      0.10551745	     -0.11123846	     -0.00080179	      0.09478690
      0.10675883	     -0.11128996	     -0.00076794	      0.09478690
      0.10800021	     -0.11134188	     -0.00073188	      0.09478690
      0.10924160	     -0.11139423	     -0.00069363	      0.09478690
      0.11048298	     -0.11144702	     -0.00065320	      0.09478690
      0.11172436	     -0.11150024	     -0.00061062	      0.09478690
      0.11296574	     -0.11155393	     -0.00056590	      0.09478690
      0.11420712	     -0.11160807	     -0.00051907	      0.09478690
      0.11544851	     -0.11166270	     -0.00047015	      0.09478690
      0.11668989	     -0.11171780	     -0.00041917	      0.09478690
      0.11793127	     -0.11177341	     -0.00036615	      0.09478690
      0.11917265	     -0.11182953	     -0.00031111	      0.09478690
      0.12041403	     -0.11188617	     -0.00025408	      0.09478690
      0.12165541	     -0.11194335	     -0.00019509	      0.09478690
      0.12289680	     -0.11200108	     -0.00013417	      0.09478690
      0.12413818	     -0.11205937	     -0.00007134	      0.09478690
      0.12537956	     -0.11211824	     -0.00000663	      0.09478690
      0.12662094	     -0.11217770	      0.00005993	      0.09478690
      0.12786232	     -0.11223777	      0.00012832	      0.09478690
      0.12910371	     -0.11229848	      0.00019851	      0.09478690
      0.13034509	     -0.11235983	      0.00027048	      0.09478690
      0.13158647	     -0.11242186	      0.00034420	      0.09478690
      0.13282785	     -0.11248457	      0.00041965	      0.09478690
      0.13406923	     -0.11254799	      0.00049679	      0.09478690
      0.13531061	     -0.11261210	      0.00057557	      0.09478690
      0.13655200	     -0.11267690	      0.00065592	      0.09478690
      0.13779338	     -0.11274236	      0.00073777	      0.09478690
      0.13903476	     -0.11280846	      0.00082104	      0.09478690
      0.14027614	     -0.11287516	      0.00090564	      0.09478690
      0.14151752	     -0.11294243	      0.00099151	      0.09478690
      0.14275890	     -0.11301025	      0.00107856	      0.09478690
      0.14400029	     -0.11307858	      0.00116675	      0.09478690
      0.14524167	     -0.11314740	      0.00125599	      0.09478690
      0.14648305	     -0.11321667	      0.00134623	      0.09478690
      0.14772443	     -0.11328636	      0.00143742	      0.09478690
      0.14896581	     -0.11335644	      0.00152950	      0.09478690
      0.15020720	     -0.11342690	      0.00162242	      0.09478690
      0.15144858	     -0.11349769	      0.00171614	      0.09478690
      0.15268996	     -0.11356879	      0.00181062	      0.09478690
      0.15393134	     -0.11364017	      0.00190582	      0.09478690
      0.15517272	     -0.11371182	      0.00200171	      0.09478690
      0.15641410	     -0.11378372	      0.00209826	      0.09478690
      0.15765549	     -0.11385584	      0.00219546	      0.09478690
      0.15889687	     -0.11392818	      0.00229330	      0.09478690
      0.16013825	     -0.11400074	      0.00239177	      0.09478690
      0.16137963	     -0.11407358	      0.00249095	      0.09478690
      0.16262101	     -0.11414678	      0.00259092	      0.09478690
      0.16386239	     -0.11422048	      0.00269181	      0.09478690
      0.16510378	     -0.11429481	      0.00279375	      0.09478690
      0.16634516	     -0.11436989	      0.00289686	      0.09478690
      0.16758654	     -0.11444586	      0.00300126	      0.09478690
      0.16882792	     -0.11452283	      0.00310704	      0.09478690
      0.17006930	     -0.11460092	      0.00321430	      0.09478690
      0.17131069	     -0.11468022	      0.00332310	      0.09478690
      0.17255207	     -0.11476079	      0.00343347	      0.09478690
      0.17379345	     -0.11484267	      0.00354542	      0.09478690
      0.17503483	     -0.11492589	      0.00365895	      0.09478690
      0.17627621	     -0.11501047	      0.00377405	      0.09478690
      0.17751759	     -0.11509640	      0.00389069	      0.09478690
      0.17875898	     -0.11518366	      0.00400883	      0.09478690
      0.18000036	     -0.11527223	      0.00412842	      0.09478690
      0.18124174	     -0.11536207	      0.00424942	      0.09478690
      0.18248312	     -0.11545317	      0.00437180	      0.09478690
      0.18372450	     -0.11554556	      0.00449557	      0.09478690
      0.18496589	     -0.11563925	      0.00462075	      0.09478690
      0.18620727	     -0.11573432	      0.00474744	      0.09478690
      0.18744865	     -0.11583085	      0.00487571	      0.09478690
      0.18869003	     -0.11592894	      0.00500570	      0.09478690
      0.18993141	     -0.11602871	      0.00513753	      0.09478690
      0.19117279	     -0.11613028	      0.00527134	      0.09478690
      0.19241418	     -0.11623376	      0.00540725	      0.09478690
      0.19365556	     -0.11633928	      0.00554539	      0.09478690
      0.19489694	     -0.11644698	      0.00568589	      0.09478690
      0.19613832	     -0.11655676	      0.00582870	      0.09478690
      0.19737970	     -0.11666813	      0.00597348	      0.09478690
      0.19862108	     -0.11678087	      0.00611992	      0.09478690
      0.19986247	     -0.11689526	      0.00626811	      0.09478690
      0.20110385	     -0.11701163	      0.00641834	      0.09478690
      0.20234523	     -0.11713019	      0.00657083	      0.09478690
      0.20358661	     -0.11725108	      0.00672577	      0.09478690
      0.20482799	     -0.11737438	      0.00688328	      0.09478690
      0.20606938	     -0.11750016	      0.00704343	      0.09478690
      0.20731076	     -0.11762843	      0.00720623	      0.09478690
      0.20855214	     -0.11775917	      0.00737165	      0.09478690
      0.20979352	     -0.11789235	      0.00753961	      0.09478690
      0.21103490	     -0.11802791	      0.00770999	      0.09478690
      0.21227628	     -0.11816576	      0.00788264	      0.09478690
      0.21351767	     -0.11830581	      0.00805740	      0.09478690
      0.21475905	     -0.11844797	      0.00823407	      0.09478690
      0.21600043	     -0.11859214	      0.00841247	      0.09478690
      0.21724181	     -0.11873824	      0.00859241	      0.09478690
      0.21848319	     -0.11888622	      0.00877370	      0.09478690
      0.21972458	     -0.11903614	      0.00895623	      0.09478690
      0.22096596	     -0.11918812	      0.00913993	      0.09478690
      0.22220734	     -0.11934234	      0.00932480	      0.09478690
      0.22344872	     -0.11949893	      0.00951084	      0.09478690
      0.22469010	     -0.11965795	      0.00969801	      0.09478690
      0.22593148	     -0.11981932	      0.00988619	      0.09478690
      0.22717287	     -0.11998294	      0.01007524	      0.09478690
      0.22841425	     -0.12014867	      0.01026492	      0.09478690
      0.22965563	     -0.12031633	      0.01045497	      0.09478690
      0.23089701	     -0.12048579	      0.01064509	      0.09478690
      0.23213839	     -0.12065691	      0.01083495	      0.09478690
      0.23337977	     -0.12082955	      0.01102421	      0.09478690
      0.23462116	     -0.12100362	      0.01121255	      0.09478690
      0.23586254	     -0.12117901	      0.01139961	      0.09478690
      0.23710392	     -0.12135564	      0.01158506	      0.09478690
      0.23834530	     -0.12153345	      0.01176857	      0.09478690
      0.23958668	     -0.12171237	      0.01194984	      0.09478690
      0.24082807	     -0.12189234	      0.01212858	      0.09478690
      0.24206945	     -0.12207332	      0.01230449	      0.09478690
      0.24331083	     -0.12225526	      0.01247734	      0.09478690
      0.24455221	     -0.12243812	      0.01264690	      0.09478690
      0.24579359	     -0.12262183	      0.01281297	      0.09478690
      0.24703497	     -0.12280634	      0.01297537	      0.09478690
      0.24827636	     -0.12299161	      0.01313397	      0.09478690
      0.24951774	     -0.12317757	      0.01328866	      0.09478690
      0.25075912	     -0.12336415	      0.01343938	      0.09478690
      0.25200050	     -0.12355127	      0.01358606	      0.09478690
      0.25324188	     -0.12373883	      0.01372868	      0.09478690
      0.25448326	     -0.12392672	      0.01386723	      0.09478690
      0.25572465	     -0.12411483	      0.01400173	      0.09478690
      0.25696603	     -0.12430303	      0.01413222	      0.09478690
      0.25820741	     -0.12449118	      0.01425875	      0.09478690
      0.25944879	     -0.12467915	      0.01438140	      0.09478690
      0.26069017	     -0.12486679	      0.01450026	      0.09478690
      0.26193156	     -0.12505396	      0.01461540	      0.09478690
      0.26317294	     -0.12524051	      0.01472695	      0.09478690
      0.26441432	     -0.12542628	      0.01483498	      0.09478690
      0.26565570	     -0.12561114	      0.01493961	      0.09478690
      0.26689708	     -0.12579494	      0.01504095	      0.09478690
      0.26813846	     -0.12597755	      0.01513908	      0.09478690
      0.26937985	     -0.12615883	      0.01523411	      0.09478690
      0.27062123	     -0.12633867	      0.01532613	      0.09478690
      0.27186261	     -0.12651695	      0.01541521	      0.09478690
      0.27310399	     -0.12669356	      0.01550144	      0.09478690
      0.27434537	     -0.12686841	      0.01558488	      0.09478690
      0.27558676	     -0.12704141	      0.01566559	      0.09478690
      0.27682814	     -0.12721247	      0.01574362	      0.09478690
      0.27806952	     -0.12738152	      0.01581902	      0.09478690
      0.27931090	     -0.12754849	      0.01589182	      0.09478690
      0.28055228	     -0.12771333	      0.01596207	      0.09478690
      0.28179366	     -0.12787597	      0.01602978	      0.09478690
      0.28303505	     -0.12803636	      0.01609497	      0.09478690
      0.28427643	     -0.12819446	      0.01615764	      0.09478690
      0.28551781	     -0.12835021	      0.01621780	      0.09478690
      0.28675919	     -0.12850357	      0.01627544	      0.09478690
      0.28800057	     -0.12865450	      0.01633055	      0.09478690
      0.28924195	     -0.12880298	      0.01638316	      0.09478690
      0.29048334	     -0.12894898	      0.01643325	      0.09478690
      0.29172472	     -0.12909247	      0.01648083	      0.09478690
      0.29296610	     -0.12923343	      0.01652590	      0.09478690
      0.29420748	     -0.12937182	      0.01656848	      0.09478690
      0.29544886	     -0.12950761	      0.01660858	      0.09478690
      0.29669025	     -0.12964077	      0.01664621	      0.09478690
      0.29793163	     -0.12977125	      0.01668141	      0.09478690
      0.29917301	     -0.12989900	      0.01671423	      0.09478690
      0.30041439	     -0.13002396	      0.01674471	      0.09478690
      0.30165577	     -0.13014606	      0.01677292	      0.09478690
      0.30289715	     -0.13026523	      0.01679894	      0.09478690
      0.30413854	     -0.13038138	      0.01682288	      0.09478690
      0.30537992	     -0.13049441	      0.01684484	      0.09478690
      0.30662130	     -0.13060421	      0.01686495	      0.09478690
      0.30786268	     -0.13071064	      0.01688338	      0.09478690
      0.30910406	     -0.13081357	      0.01690028	      0.09478690
      0.31034545	     -0.13091284	      0.01691585	      0.09478690
      0.31158683	     -0.13100827	      0.01693032	      0.09478690
      0.31282821	     -0.13109967	      0.01694392	      0.09478690
      0.31406959	     -0.13118682	      0.01695692	      0.09478690
      0.31531097	     -0.13126947	      0.01696963	      0.09478690
      0.31655235	     -0.13134738	      0.01698239	      0.09478690
      0.31779374	     -0.13142022	      0.01699555	      0.09478690
      0.31903512	     -0.13148769	      0.01700952	      0.09478690
      0.32027650	     -0.13154943	      0.01702476	      0.09478690
      0.32151788	     -0.13160503	      0.01704174	      0.09478690
      0.32275926	     -0.13165406	      0.01706099	      0.09478690
      0.32400064	     -0.13169611	      0.01708305	      0.09478690
      0.32524203	     -0.13173076	      0.01710839	      0.09478690
      0.32648341	     -0.13175771	      0.01713746	      0.09478690
      0.32772479	     -0.13177668	      0.01717061	      0.09478690
      0.32896617	     -0.13178740	      0.01720821	      0.09478690
      0.33020755	     -0.13178766	      0.01725251	      0.09478690
      0.33144894	     -0.13177348	      0.01730747	      0.09478690
      0.33269032	     -0.13173946	      0.01737839	      0.09478690
      0.33393170	     -0.13168046	      0.01747034	      0.09478690
      0.33517308	     -0.13159237	      0.01758729	      0.09478690
      0.33641446	     -0.13147188	      0.01773240	      0.09478690
      0.33765584	     -0.13131745	      0.01790702	      0.09478690
      0.33889723	     -0.13112845	      0.01811156	      0.09478690
      0.34013861	     -0.13090586	      0.01834476	      0.09478690
      0.34137999	     -0.13065144	      0.01860469	      0.09478690
      0.34262137	     -0.13036786	      0.01888846	      0.09478690
      0.34386275	     -0.13005801	      0.01919295	      0.09478690
      0.34510413	     -0.12972512	      0.01951481	      0.09478690
      0.34634552	     -0.12937252	      0.01985073	      0.09478690
      0.34758690	     -0.12900334	      0.02019770	      0.09478690
      0.34882828	     -0.12862045	      0.02055299	      0.09478690
      0.35006966	     -0.12822630	      0.02091436	      0.09478690
      0.35131104	     -0.12782313	      0.02127977	      0.09478690
      0.35255243	     -0.12741277	      0.02164758	      0.09478690
      0.35379381	     -0.12699687	      0.02201637	      0.09478690
      0.35503519	     -0.12657663	      0.02238509	      0.09478690
      0.35627657	     -0.12615303	      0.02275294	      0.09478690
      0.35751795	     -0.12572661	      0.02311952	      0.09478690
      0.35875933	     -0.12529772	      0.02348458	      0.09478690
      0.36000072	     -0.12486641	      0.02384816	      0.09478690
      0.36124210	     -0.12443261	      0.02421040	      0.09478690
      0.36248348	     -0.12399610	      0.02457157	      0.09478690
      0.36372486	     -0.12355661	      0.02493200	      0.09478690
      0.36496624	     -0.12311382	      0.02529203	      0.09478690
      0.36620763	     -0.12266740	      0.02565206	      0.09478690
      0.36744901	     -0.12221700	      0.02601245	      0.09478690
      0.36869039	     -0.12176224	      0.02637360	      0.09478690
      0.36993177	     -0.12130277	      0.02673591	      0.09478690
      0.37117315	     -0.12083818	      0.02709978	      0.09478690
      0.37241453	     -0.12036811	      0.02746560	      0.09478690
      0.37365592	     -0.11989217	      0.02783376	      0.09478690
      0.37489730	     -0.11941001	      0.02820463	      0.09478690
      0.37613868	     -0.11892128	      0.02857856	      0.09478690
      0.37738006	     -0.11842570	      0.02895583	      0.09478690
      0.37862144	     -0.11792303	      0.02933671	      0.09478690
      0.37986282	     -0.11741309	      0.02972137	      0.09478690
      0.38110421	     -0.11689576	      0.03010994	      0.09478690
      0.38234559	     -0.11637100	      0.03050250	      0.09478690
      0.38358697	     -0.11583881	      0.03089907	      0.09478690
      0.38482835	     -0.11529924	      0.03129962	      0.09478690
      0.38606973	     -0.11475238	      0.03170408	      0.09478690
      0.38731112	     -0.11419832	      0.03211236	      0.09478690
      0.38855250	     -0.11363718	      0.03252438	      0.09478690
      0.38979388	     -0.11306906	      0.03294006	      0.09478690
      0.39103526	     -0.11249402	      0.03335930	      0.09478690
      0.39227664	     -0.11191210	      0.03378207	      0.09478690
      0.39351802	     -0.11132331	      0.03420833	      0.09478690
      0.39475941	     -0.11072760	      0.03463809	      0.09478690
      0.39600079	     -0.11012488	      0.03507138	      0.09478690
      0.39724217	     -0.10951504	      0.03550827	      0.09478690
      0.39848355	     -0.10889792	      0.03594883	      0.09478690
      0.39972493	     -0.10827334	      0.03639314	      0.09478690
      0.40096632	     -0.10764112	      0.03684131	      0.09478690
      0.40220770	     -0.10700103	      0.03729343	      0.09478690
      0.40344908	     -0.10635289	      0.03774961	      0.09478690
      0.40469046	     -0.10569648	      0.03820993	      0.09478690
      0.40593184	     -0.10503160	      0.03867447	      0.09478690
      0.40717322	     -0.10435805	      0.03914330	      0.09478690
      0.40841461	     -0.10367566	      0.03961647	      0.09478690
      0.40965599	     -0.10298424	      0.04009402	      0.09478690
      0.41089737	     -0.10228361	      0.04057600	      0.09478690
      0.41213875	     -0.10157359	      0.04106241	      0.09478690
      0.41338013	     -0.10085399	      0.04155329	      0.09478690
      0.41462151	     -0.10012464	      0.04204863	      0.09478690
      0.41586290	     -0.09938535	      0.04254843	      0.09478690
      0.41710428	     -0.09863592	      0.04305271	      0.09478690
      0.41834566	     -0.09787616	      0.04356145	      0.09478690
      0.41958704	     -0.09710588	      0.04407463	      0.09478690
      0.42082842	     -0.09632487	      0.04459225	      0.09478690
      0.42206981	     -0.09553293	      0.04511427	      0.09478690
      0.42331119	     -0.09472985	      0.04564067	      0.09478690
      0.42455257	     -0.09391545	      0.04617140	      0.09478690
      0.42579395	     -0.09308951	      0.04670642	      0.09478690
      0.42703533	     -0.09225184	      0.04724566	      0.09478690
      0.42827671	     -0.09140226	      0.04778907	      0.09478690
      0.42951810	     -0.09054058	      0.04833657	      0.09478690
      0.43075948	     -0.08966660	      0.04888808	      0.09478690
      0.43200086	     -0.08878014	      0.04944352	      0.09478690
      0.43324224	     -0.08788104	      0.05000278	      0.09478690
      0.43448362	     -0.08696910	      0.05056577	      0.09478690
      0.43572500	     -0.08604416	      0.05113238	      0.09478690
      0.43696639	     -0.08510604	      0.05170250	      0.09478690
      0.43820777	     -0.08415458	      0.05227602	      0.09478690
      0.43944915	     -0.08318960	      0.05285282	      0.09478690
      0.44069053	     -0.08221094	      0.05343278	      0.09478690
      0.44193191	     -0.08121845	      0.05401576	      0.09478690
      0.44317330	     -0.08021196	      0.05460164	      0.09478690
      0.44441468	     -0.07919131	      0.05519027	      0.09478690
      0.44565606	     -0.07815636	      0.05578151	      0.09478690
      0.44689744	     -0.07710695	      0.05637520	      0.09478690
      0.44813882	     -0.07604294	      0.05697120	      0.09478690
      0.44938020	     -0.07496419	      0.05756934	      0.09478690
      0.45062159	     -0.07387055	      0.05816945	      0.09478690
      0.45186297	     -0.07276191	      0.05877137	      0.09478690
      0.45310435	     -0.07163813	      0.05937491	      0.09478690
      0.45434573	     -0.07049909	      0.05997990	      0.09478690
      0.45558711	     -0.06934469	      0.06058615	      0.09478690
      0.45682850	     -0.06817480	      0.06119346	      0.09478690
      0.45806988	     -0.06698934	      0.06180166	      0.09478690
      0.45931126	     -0.06578821	      0.06241052	      0.09478690
      0.46055264	     -0.06457132	      0.06301986	      0.09478690
      0.46179402	     -0.06333860	      0.06362945	      0.09478690
      0.46303540	     -0.06208998	      0.06423910	      0.09478690
      0.46427679	     -0.06082539	      0.06484858	      0.09478690
      0.46551817	     -0.05954479	      0.06545768	      0.09478690
      0.46675955	     -0.05824813	      0.06606617	      0.09478690
      0.46800093	     -0.05693536	      0.06667383	      0.09478690
      0.46924231	     -0.05560644	      0.06728044	      0.09478690
      0.47048369	     -0.05426133	      0.06788578	      0.09478690
      0.47172508	     -0.05290002	      0.06848960	      0.09478690
      0.47296646	     -0.05152245	      0.06909170	      0.09478690
      0.47420784	     -0.05012862	      0.06969183	      0.09478690
      0.47544922	     -0.04871849	      0.07028977	      0.09478690
      0.47669060	     -0.04729205	      0.07088530	      0.09478690
      0.47793199	     -0.04584928	      0.07147818	      0.09478690
      0.47917337	     -0.04439019	      0.07206819	      0.09478690
      0.48041475	     -0.04291476	      0.07265511	      0.09478690
      0.48165613	     -0.04142302	      0.07323870	      0.09478690
      0.48289751	     -0.03991496	      0.07381875	      0.09478690
      0.48413889	     -0.03839060	      0.07439503	      0.09478690
      0.48538028	     -0.03684998	      0.07496731	      0.09478690
      0.48662166	     -0.03529311	      0.07553539	      0.09478690
      0.48786304	     -0.03371997	      0.07609906	      0.09478690
      0.48910442	     -0.03213055	      0.07665814	      0.09478690
      0.49034580	     -0.03052493	      0.07721239	      0.09478690
      0.49158718	     -0.02890313	      0.07776162	      0.09478690
      0.49282857	     -0.02726521	      0.07830563	      0.09478690
      0.49406995	     -0.02561122	      0.07884420	      0.09478690
      0.49531133	     -0.02394118	      0.07937716	      0.09478690
      0.49655271	     -0.02225514	      0.07990431	      0.09478690
      0.49779409	     -0.02055314	      0.08042547	      0.09478690
      0.49903548	     -0.01883521	      0.08094048	      0.09478690
      0.50027686	     -0.01710139	      0.08144915	      0.09478690
      0.50151824	     -0.01535174	      0.08195131	      0.09478690
      0.50275962	     -0.01358629	      0.08244679	      0.09478690
      0.50400100	     -0.01180510	      0.08293542	      0.09478690
      0.50524238	     -0.01000823	      0.08341703	      0.09478690
      0.50648377	     -0.00819574	      0.08389145	      0.09478690
      0.50772515	     -0.00636770	      0.08435851	      0.09478690
      0.50896653	     -0.00452420	      0.08481803	      0.09478690
      0.51020791	     -0.00266531	      0.08526985	      0.09478690
      0.51144929	     -0.00079112	      0.08571378	      0.09478690
      0.51269068	      0.00109828	      0.08614964	      0.09478690
      0.51393206	      0.00300280	      0.08657727	      0.09478690
      0.51517344	      0.00492234	      0.08699650	      0.09478690
      0.51641482	      0.00685682	      0.08740713	      0.09478690
      0.51765620	      0.00880615	      0.08780902	      0.09478690
      0.51889758	      0.01077026	      0.08820201	      0.09478690
      0.52013897	      0.01274907	      0.08858593	      0.09478690
      0.52138035	      0.01474254	      0.08896065	      0.09478690
      0.52262173	      0.01675062	      0.08932603	      0.09478690
      0.52386311	      0.01877329	      0.08968196	      0.09478690
      0.52510449	      0.02081053	      0.09002832	      0.09478690
      0.52634587	      0.02286234	      0.09036501	      0.09478690
      0.52758726	      0.02492873	      0.09069195	      0.09478690
      0.52882864	      0.02700972	      0.09100905	      0.09478690
      0.53007002	      0.02910533	      0.09131623	      0.09478690
      0.53131140	      0.03121558	      0.09161342	      0.09478690
      0.53255278	      0.03334048	      0.09190054	      0.09478690
      0.53379417	      0.03548005	      0.09217752	      0.09478690
      0.53503555	      0.03763429	      0.09244428	      0.09478690
      0.53627693	      0.03980317	      0.09270074	      0.09478690
      0.53751831	      0.04198668	      0.09294682	      0.09478690
      0.53875969	      0.04418477	      0.09318241	      0.09478690
      0.54000107	      0.04639737	      0.09340744	      0.09478690
      0.54124246	      0.04862440	      0.09362179	      0.09478690
      0.54248384	      0.05086579	      0.09382536	      0.09478690
      0.54372522	      0.05312140	      0.09401804	      0.09478690
      0.54496660	      0.05539112	      0.09419972	      0.09478690
      0.54620798	      0.05767480	      0.09437027	      0.09478690
      0.54744937	      0.05997229	      0.09452958	      0.09478690
      0.54869075	      0.06228342	      0.09467751	      0.09478690
      0.54993213	      0.06460801	      0.09481392	      0.09478690
      0.55117351	      0.06694585	      0.09493867	      0.09478690
      0.55241489	      0.06929674	      0.09505162	      0.09478690
      0.55365627	      0.07166043	      0.09515261	      0.09478690
      0.55489766	      0.07403670	      0.09524148	      0.09478690
      0.55613904	      0.07642527	      0.09531808	      0.09478690
      0.55738042	      0.07882588	      0.09538225	      0.09478690
      0.55862180	      0.08123824	      0.09543381	      0.09478690
      0.55986318	      0.08366208	      0.09547261	      0.09478690
      0.56110456	      0.08609708	      0.09549848	      0.09478690
      0.56234595	      0.08854294	      0.09551124	      0.09478690
      0.56358733	      0.09099935	      0.09551074	      0.09478690
      0.56482871	      0.09346601	      0.09549681	      0.09478690
      0.56607009	      0.09594258	      0.09546929	      0.09478690
      0.56731147	      0.09842877	      0.09542803	      0.09478690
      0.56855286	      0.10092428	      0.09537289	      0.09478690
      0.56979424	      0.10342880	      0.09530374	      0.09478690
      0.57103562	      0.10594205	      0.09522044	      0.09478690
      0.57227700	      0.10846371	      0.09512287	      0.09478690
      0.57351838	      0.11099341	      0.09501089	      0.09478690
      0.57475976	      0.11353081	      0.09488433	      0.09478690
      0.57600115	      0.11607552	      0.09474308	      0.09478690
      0.57724253	      0.11862723	      0.09458700	      0.09478690
      0.57848391	      0.12118565	      0.09441602	      0.09478690
      0.57972529	      0.12375053	      0.09423007	      0.09478690
      0.58096667	      0.12632168	      0.09402913	      0.09478690
      0.58220805	      0.12889891	      0.09381316	      0.09478690
      0.58344944	      0.13148208	      0.09358215	      0.09478690
      0.58469082	      0.13407103	      0.09333611	      0.09478690
      0.58593220	      0.13666565	      0.09307503	      0.09478690
      0.58717358	      0.13926583	      0.09279892	      0.09478690
      0.58841496	      0.14187146	      0.09250778	      0.09478690
      0.58965635	      0.14448246	      0.09220162	      0.09478690
      0.59089773	      0.14709874	      0.09188046	      0.09478690
      0.59213911	      0.14972025	      0.09154432	      0.09478690
      0.59338049	      0.15234694	      0.09119321	      0.09478690
      0.59462187	      0.15497878	      0.09082718	      0.09478690
      0.59586325	      0.15761576	      0.09044625	      0.09478690
      0.59710464	      0.16025789	      0.09005047	      0.09478690
      0.59834602	      0.16290519	      0.08963988	      0.09478690
      0.59958740	      0.16555768	      0.08921453	      0.09478690
      0.60082878	      0.16821544	      0.08877447	      0.09478690
      0.60207016	      0.17087852	      0.08831974	      0.09478690
      0.60331155	      0.17354700	      0.08785042	      0.09478690
      0.60455293	      0.17622097	      0.08736654	      0.09478690
      0.60579431	      0.17890054	      0.08686817	      0.09478690
      0.60703569	      0.18158581	      0.08635537	      0.09478690
      0.60827707	      0.18427690	      0.08582818	      0.09478690
      0.60951845	      0.18697392	      0.08528668	      0.09478690
      0.61075984	      0.18967700	      0.08473091	      0.09478690
      0.61200122	      0.19238625	      0.08416095	      0.09478690
      0.61324260	      0.19510178	      0.08357686	      0.09478690
      0.61448398	      0.19782372	      0.08297868	      0.09478690
      0.61572536	      0.20055215	      0.08236649	      0.09478690
      0.61696674	      0.20328718	      0.08174033	      0.09478690
      0.61820813	      0.20602890	      0.08110024	      0.09478690
      0.61944951	      0.20877739	      0.08044627	      0.09478690
      0.62069089	      0.21153272	      0.07977845	      0.09478690
      0.62193227	      0.21429494	      0.07909681	      0.09478690
      0.62317365	      0.21706411	      0.07840136	      0.09478690
      0.62441504	      0.21984025	      0.07769212	      0.09478690
      0.62565642	      0.22262339	      0.07696910	      0.09478690
      0.62689780	      0.22541355	      0.07623229	      0.09478690
      0.62813918	      0.22821073	      0.07548168	      0.09478690
      0.62938056	      0.23101491	      0.07471728	      0.09478690
      0.63062194	      0.23382608	      0.07393907	      0.09478690
      0.63186333	      0.23664422	      0.07314706	      0.09478690
      0.63310471	      0.23946930	      0.07234125	      0.09478690
      0.63434609	      0.24230130	      0.07152164	      0.09478690
      0.63558747	      0.24514020	      0.07068820	      0.09478690
      0.63682885	      0.24798603	      0.06984091	      0.09478690
      0.63807024	      0.25083888	      0.06897965	      0.09478690
      0.63931162	      0.25369888	      0.06810427	      0.09478690
      0.64055300	      0.25656622	      0.06721457	      0.09478690
      0.64179438	      0.25944115	      0.06631031	      0.09478690
      0.64303576	      0.26232395	      0.06539120	      0.09478690
      0.64427714	      0.26521495	      0.06445697	      0.09478690
      0.64551853	      0.26811452	      0.06350727	      0.09478690
      0.64675991	      0.27102305	      0.06254177	      0.09478690
      0.64800129	      0.27394098	      0.06156013	      0.09478690
      0.64924267	      0.27686875	      0.06056196	      0.09478690
      0.65048405	      0.27980685	      0.05954690	      0.09478690
      0.65172543	      0.28275575	      0.05851456	      0.09478690
      0.65296682	      0.28571596	      0.05746456	      0.09478690
      0.65420820	      0.28868798	      0.05639651	      0.09478690
      0.65544958	      0.29167233	      0.05530999	      0.09478690
      0.65669096	      0.29466954	      0.05420463	      0.09478690
      0.65793234	      0.29768012	      0.05308001	      0.09478690
      0.65917373	      0.30070459	      0.05193573	      0.09478690
      0.66041511	      0.30374348	      0.05077141	      0.09478690
      0.66165649	      0.30679730	      0.04958664	      0.09478690
      0.66289787	      0.30986657	      0.04838104	      0.09478690
      0.66413925	      0.31295182	      0.04715423	      0.09478690
      0.66538063	      0.31605357	      0.04590585	      0.09478690
      0.66662202	      0.31917233	      0.04463555	      0.09478690
      0.66786340	      0.32230863	      0.04334299	      0.09478690
      0.66910478	      0.32546299	      0.04202785	      0.09478690
      0.67034616	      0.32863595	      0.04068983	      0.09478690
      0.67158754	      0.33182804	      0.03932867	      0.09478690
      0.67282892	      0.33503981	      0.03794412	      0.09478690
      0.67407031	      0.33827182	      0.03653596	      0.09478690
      0.67531169	      0.34152463	      0.03510399	      0.09478690
      0.67655307	      0.34479881	      0.03364805	      0.09478690
      0.67779445	      0.34809488	      0.03216800	      0.09478690
      0.67903583	      0.35141336	      0.03066372	      0.09478690
      0.68027722	      0.35475451	      0.02913505	      0.09478690
      0.68151860	      0.35811840	      0.02758182	      0.09478690
      0.68275998	      0.36150393	      0.02600362	      0.09478690
      0.68400136	      0.36490907	      0.02439981	      0.09478690
      0.68524274	      0.36832666	      0.02276851	      0.09478690
      0.68648412	      0.37174527	      0.02110678	      0.09478690
      0.68772551	      0.37513694	      0.01940768	      0.09478690
      0.68896689	      0.37846133	      0.01766129	      0.09478690
      0.69020827	      0.38165149	      0.01585241	      0.09478690
      0.69144965	      0.38462625	      0.01396269	      0.09478690
      0.69269103	      0.38718286	      0.01195601	      0.09478690
      0.69393242	      0.38898542	      0.00978296	      0.09478690
      0.69517380	      0.38986475	      0.00753032	      0.09478690
      0.69641518	      0.39017683	      0.00548902	      0.09478690
      0.69765656	      0.39041467	      0.00388981	      0.09478690
      0.69889794	      0.39063033	      0.00272884	      0.09478690
      0.70013932	      0.39081103	      0.00192564	      0.09478690
      0.70138071	      0.39097977	      0.00140656	      0.09478690
      0.70262209	      0.39112871	      0.00109376	      0.09478690
      0.70386347	      0.39127344	      0.00092865	      0.09478690
      0.70510485	      0.39140680	      0.00086413	      0.09478690
      0.70634623	      0.39153661	      0.00086709	      0.09478690
      0.70758761	      0.39166002	      0.00091402	      0.09478690
      0.70882900	      0.39177910	      0.00098795	      0.09478690
      0.71007038	      0.39189346	      0.00107801	      0.09478690
      0.71131176	      0.39200349	      0.00117599	      0.09478690
      0.71255314	      0.39210925	      0.00127693	      0.09478690
      0.71379452	      0.39221092	      0.00137700	      0.09478690
      0.71503591	      0.39230864	      0.00147397	      0.09478690
      0.71627729	      0.39240253	      0.00156613	      0.09478690
      0.71751867	      0.39249274	      0.00165250	      0.09478690
      0.71876005	      0.39257938	      0.00173240	      0.09478690
      0.72000143	      0.39266255	      0.00180549	      0.09478690
      0.72124281	      0.39274235	      0.00187155	      0.09478690
      0.72248420	      0.39281888	      0.00193058	      0.09478690
      0.72372558	      0.39289221	      0.00198261	      0.09478690
      0.72496696	      0.39296243	      0.00202780	      0.09478690
      0.72620834	      0.39302960	      0.00206632	      0.09478690
      0.72744972	      0.39309381	      0.00209841	      0.09478690
      0.72869111	      0.39315511	      0.00212430	      0.09478690
      0.72993249	      0.39321357	      0.00214427	      0.09478690
      0.73117387	      0.39326925	      0.00215857	      0.09478690
      0.73241525	      0.39332222	      0.00216750	      0.09478690
      0.73365663	      0.39337254	      0.00217134	      0.09478690
      0.73489801	      0.39342028	      0.00217037	      0.09478690
      0.73613940	      0.39346551	      0.00216488	      0.09478690
      0.73738078	      0.39350828	      0.00215519	      0.09478690
      0.73862216	      0.39354867	      0.00214157	      0.09478690
      0.73986354	      0.39358673	      0.00212429	      0.09478690
      0.74110492	      0.39362251	      0.00210361	      0.09478690
      0.74234630	      0.39365607	      0.00207978	      0.09478690
      0.74358769	      0.39368745	      0.00205303	      0.09478690
      0.74482907	      0.39371671	      0.00202356	      0.09478690
