PointVelocity
version=1
nRows=601
nColumns=4
inDegrees=no
No description.
endheader
time	state_0	state_1	state_2
      0.00000000	     -0.02139687	     -0.05721161	      0.00000000
      0.00130884	     -0.02155428	     -0.05472107	      0.00000000
      0.00261768	     -0.02170272	     -0.05225022	      0.00000000
      0.00392652	     -0.02184841	     -0.04978688	      0.00000000
      0.00523537	     -0.02198574	     -0.04733443	      0.00000000
      0.00654421	     -0.02211905	     -0.04488942	      0.00000000
      0.00785305	     -0.02225022	     -0.04245400	      0.00000000
      0.00916189	     -0.02238035	     -0.04003042	      0.00000000
      0.01047073	     -0.02251006	     -0.03762159	      0.00000000
      0.01177957	     -0.02263967	     -0.03522973	      0.00000000
      0.01308841	     -0.02276962	     -0.03285646	      0.00000000
      0.01439726	     -0.02290046	     -0.03050303	      0.00000000
      0.01570610	     -0.02303261	     -0.02817094	      0.00000000
      0.01701494	     -0.02316653	     -0.02586148	      0.00000000
      0.01832378	     -0.02330262	     -0.02357602	      0.00000000
      0.01963262	     -0.02344128	     -0.02131560	      0.00000000
      0.02094146	     -0.02358286	     -0.01908119	      0.00000000
      0.02225031	     -0.02372765	     -0.01687351	      0.00000000
      0.02355915	     -0.02387588	     -0.01469332	      0.00000000
      0.02486799	     -0.02402764	     -0.01254121	      0.00000000
      0.02617683	     -0.02418297	     -0.01041796	      0.00000000
      0.02748567	     -0.02434191	     -0.00832387	      0.00000000
      0.02879451	     -0.02450446	     -0.00625932	      0.00000000
      0.03010335	     -0.02467077	     -0.00422399	      0.00000000
      0.03141220	     -0.02484096	     -0.00221752	      0.00000000
      0.03272104	     -0.02501508	     -0.00023950	      0.00000000
      0.03402988	     -0.02519304	      0.00171027	      0.00000000
      0.03533872	     -0.02537468	      0.00363171	      0.00000000
      0.03664756	     -0.02555972	      0.00552462	      0.00000000
      0.03795640	     -0.02574798	      0.00738879	      0.00000000
      0.03926524	     -0.02593924	      0.00922409	      0.00000000
      0.04057409	     -0.02613341	      0.01103045	      0.00000000
      0.04188293	     -0.02633041	      0.01280796	      0.00000000
      0.04319177	     -0.02653012	      0.01455658	      0.00000000
      0.04450061	     -0.02673252	      0.01627647	      0.00000000
      0.04580945	     -0.02693746	      0.01796754	      0.00000000
      0.04711829	     -0.02714494	      0.01962992	      0.00000000
      0.04842714	     -0.02735479	      0.02126359	      0.00000000
      0.04973598	     -0.02756709	      0.02286873	      0.00000000
      0.05104482	     -0.02778172	      0.02444552	      0.00000000
      0.05235366	     -0.02799887	      0.02599434	      0.00000000
      0.05366250	     -0.02821856	      0.02751570	      0.00000000
      0.05497134	     -0.02844112	      0.02901027	      0.00000000
      0.05628018	     -0.02866668	      0.03047888	      0.00000000
      0.05758903	     -0.02889569	      0.03192245	      0.00000000
      0.05889787	     -0.02912835	      0.03334205	      0.00000000
      0.06020671	     -0.02936515	      0.03473870	      0.00000000
      0.06151555	     -0.02960630	      0.03611355	      0.00000000
      0.06282439	     -0.02985227	      0.03746763	      0.00000000
      0.06413323	     -0.03010322	      0.03880200	      0.00000000
      0.06544207	     -0.03035957	      0.04011761	      0.00000000
      0.06675092	     -0.03062142	      0.04141539	      0.00000000
      0.06805976	     -0.03088910	      0.04269613	      0.00000000
      0.06936860	     -0.03116267	      0.04396062	      0.00000000
      0.07067744	     -0.03144239	      0.04520948	      0.00000000
      0.07198628	     -0.03172828	      0.04644338	      0.00000000
      0.07329512	     -0.03202056	      0.04766279	      0.00000000
      0.07460397	     -0.03231922	      0.04886826	      0.00000000
      0.07591281	     -0.03262450	      0.05006016	      0.00000000
      0.07722165	     -0.03293635	      0.05123895	      0.00000000
      0.07853049	     -0.03325502	      0.05240487	      0.00000000
      0.07983933	     -0.03358051	      0.05355835	      0.00000000
      0.08114817	     -0.03391305	      0.05469953	      0.00000000
      0.08245701	     -0.03425274	      0.05582891	      0.00000000
      0.08376586	     -0.03460022	      0.05694707	      0.00000000
      0.08507470	     -0.03495581	      0.05805481	      0.00000000
      0.08638354	     -0.03532010	      0.05915251	      0.00000000
      0.08769238	     -0.03569315	      0.06024044	      0.00000000
      0.08900122	     -0.03607548	      0.06131879	      0.00000000
      0.09031006	     -0.03646724	      0.06238779	      0.00000000
      0.09161890	     -0.03686898	      0.06344761	      0.00000000
      0.09292775	     -0.03728092	      0.06449847	      0.00000000
      0.09423659	     -0.03770359	      0.06554037	      0.00000000
      0.09554543	     -0.03813726	      0.06657346	      0.00000000
      0.09685427	     -0.03858281	      0.06759819	      0.00000000
      0.09816311	     -0.03904009	      0.06861389	      0.00000000
      0.09947195	     -0.03950929	      0.06961955	      0.00000000
      0.10078079	     -0.03999074	      0.07061491	      0.00000000
      0.10208964	     -0.04048501	      0.07159960	      0.00000000
      0.10339848	     -0.04099229	      0.07257317	      0.00000000
      0.10470732	     -0.04151320	      0.07353521	      0.00000000
      0.10601616	     -0.04204797	      0.07448529	      0.00000000
      0.10732500	     -0.04259721	      0.07542312	      0.00000000
      0.10863384	     -0.04316099	      0.07634801	      0.00000000
      0.10994269	     -0.04373971	      0.07725943	      0.00000000
      0.11125153	     -0.04433309	      0.07815613	      0.00000000
      0.11256037	     -0.04494121	      0.07903704	      0.00000000
      0.11386921	     -0.04556378	      0.07990062	      0.00000000
      0.11517805	     -0.04620087	      0.08074562	      0.00000000
      0.11648689	     -0.04685268	      0.08157102	      0.00000000
      0.11779573	     -0.04751968	      0.08237615	      0.00000000
      0.11910458	     -0.04820294	      0.08316112	      0.00000000
      0.12041342	     -0.04890365	      0.08392652	      0.00000000
      0.12172226	     -0.04962386	      0.08467359	      0.00000000
      0.12303110	     -0.05036563	      0.08540428	      0.00000000
      0.12433994	     -0.05113132	      0.08611975	      0.00000000
      0.12564878	     -0.05192294	      0.08682190	      0.00000000
      0.12695762	     -0.05274177	      0.08751010	      0.00000000
      0.12826647	     -0.05358872	      0.08818471	      0.00000000
      0.12957531	     -0.05446278	      0.08884242	      0.00000000
      0.13088415	     -0.05536251	      0.08948100	      0.00000000
      0.13219299	     -0.05628349	      0.09009445	      0.00000000
      0.13350183	     -0.05722003	      0.09067696	      0.00000000
      0.13481067	     -0.05816499	      0.09122234	      0.00000000
      0.13611952	     -0.05911045	      0.09172518	      0.00000000
      0.13742836	     -0.06004982	      0.09218312	      0.00000000
      0.13873720	     -0.06097493	      0.09259403	      0.00000000
      0.14004604	     -0.06188244	      0.09296134	      0.00000000
      0.14135488	     -0.06276719	      0.09329009	      0.00000000
      0.14266372	     -0.06362870	      0.09358815	      0.00000000
      0.14397256	     -0.06446234	      0.09386275	      0.00000000
      0.14528141	     -0.06526893	      0.09412355	      0.00000000
      0.14659025	     -0.06604500	      0.09437942	      0.00000000
      0.14789909	     -0.06679288	      0.09464503	      0.00000000
      0.14920793	     -0.06751143	      0.09493283	      0.00000000
      0.15051677	     -0.06820290	      0.09526292	      0.00000000
      0.15182561	     -0.06886764	      0.09564984	      0.00000000
      0.15313445	     -0.06950580	      0.09611582	      0.00000000
      0.15444330	     -0.07011882	      0.09667423	      0.00000000
      0.15575214	     -0.07070474	      0.09734698	      0.00000000
      0.15706098	     -0.07126690	      0.09814373	      0.00000000
      0.15836982	     -0.07180227	      0.09908615	      0.00000000
      0.15967866	     -0.07231738	      0.10017987	      0.00000000
      0.16098750	     -0.07280924	      0.10144988	      0.00000000
      0.16229634	     -0.07328891	      0.10290069	      0.00000000
      0.16360519	     -0.07375397	      0.10456542	      0.00000000
      0.16491403	     -0.07422032	      0.10645204	      0.00000000
      0.16622287	     -0.07468570	      0.10860485	      0.00000000
      0.16753171	     -0.07516901	      0.11104236	      0.00000000
      0.16884055	     -0.07566801	      0.11381923	      0.00000000
      0.17014939	     -0.07619643	      0.11697003	      0.00000000
      0.17145824	     -0.07675114	      0.12054477	      0.00000000
      0.17276708	     -0.07730304	      0.12455995	      0.00000000
      0.17407592	     -0.07787728	      0.12906128	      0.00000000
      0.17538476	     -0.07825007	      0.13385944	      0.00000000
      0.17669360	     -0.07802188	      0.13826891	      0.00000000
      0.17800244	     -0.07757923	      0.14263368	      0.00000000
      0.17931128	     -0.07738889	      0.14771567	      0.00000000
      0.18062013	     -0.07722993	      0.15341766	      0.00000000
      0.18192897	     -0.07704959	      0.15957163	      0.00000000
      0.18323781	     -0.07682497	      0.16613165	      0.00000000
      0.18454665	     -0.07657995	      0.17308746	      0.00000000
      0.18585549	     -0.07647948	      0.18063019	      0.00000000
      0.18716433	     -0.07656255	      0.18880225	      0.00000000
      0.18847317	     -0.07676428	      0.19755885	      0.00000000
      0.18978202	     -0.07685960	      0.20649617	      0.00000000
      0.19109086	     -0.07670860	      0.21529139	      0.00000000
      0.19239970	     -0.07618864	      0.22369265	      0.00000000
      0.19370854	     -0.07517208	      0.23146050	      0.00000000
      0.19501738	     -0.07346475	      0.23851748	      0.00000000
      0.19632622	     -0.07087409	      0.24473353	      0.00000000
      0.19763507	     -0.06719288	      0.25012554	      0.00000000
      0.19894391	     -0.06222331	      0.25465180	      0.00000000
      0.20025275	     -0.05582000	      0.25837065	      0.00000000
      0.20156159	     -0.04787895	      0.26125578	      0.00000000
      0.20287043	     -0.03828641	      0.26340608	      0.00000000
      0.20417927	     -0.02724845	      0.26467440	      0.00000000
      0.20548811	     -0.01422868	      0.26548697	      0.00000000
      0.20679696	      0.00006567	      0.26549155	      0.00000000
      0.20810580	      0.01957183	      0.26722014	      0.00000000
      0.20941464	      0.05260832	      0.27599114	      0.00000000
      0.21072348	      0.10234036	      0.29267152	      0.00000000
      0.21203232	      0.16851482	      0.31445109	      0.00000000
      0.21334116	      0.24809382	      0.33785120	      0.00000000
      0.21465000	      0.33755337	      0.36200022	      0.00000000
      0.21595885	      0.43051021	      0.38575224	      0.00000000
      0.21726769	      0.52350453	      0.40773599	      0.00000000
      0.21857653	      0.61562423	      0.42734899	      0.00000000
      0.21988537	      0.70461703	      0.44382487	      0.00000000
      0.22119421	      0.78973649	      0.45708585	      0.00000000
      0.22250305	      0.87014014	      0.46703104	      0.00000000
      0.22381190	      0.94609771	      0.47410614	      0.00000000
      0.22512074	      1.01766561	      0.47861701	      0.00000000
      0.22642958	      1.08523483	      0.48099983	      0.00000000
      0.22773842	      1.14907355	      0.48160489	      0.00000000
      0.22904726	      1.20942965	      0.48072273	      0.00000000
      0.23035610	      1.26651669	      0.47861531	      0.00000000
      0.23166494	      1.32049327	      0.47546919	      0.00000000
      0.23297379	      1.37153307	      0.47147519	      0.00000000
      0.23428263	      1.41979841	      0.46677874	      0.00000000
      0.23559147	      1.46546330	      0.46153149	      0.00000000
      0.23690031	      1.50869510	      0.45585114	      0.00000000
      0.23820915	      1.54966404	      0.44985965	      0.00000000
      0.23951799	      1.58851844	      0.44364427	      0.00000000
      0.24082683	      1.62541064	      0.43729747	      0.00000000
      0.24213568	      1.66046045	      0.43087674	      0.00000000
      0.24344452	      1.69379309	      0.42444553	      0.00000000
      0.24475336	      1.72549886	      0.41803613	      0.00000000
      0.24606220	      1.75567286	      0.41168626	      0.00000000
      0.24737104	      1.78438205	      0.40540977	      0.00000000
      0.24867988	      1.81169726	      0.39922476	      0.00000000
      0.24998872	      1.83767422	      0.39313416	      0.00000000
      0.25129757	      1.86237128	      0.38714410	      0.00000000
      0.25260641	      1.88584351	      0.38125282	      0.00000000
      0.25391525	      1.90814713	      0.37546107	      0.00000000
      0.25522409	      1.92934040	      0.36976580	      0.00000000
      0.25653293	      1.94948185	      0.36416623	      0.00000000
      0.25784177	      1.96863085	      0.35865890	      0.00000000
      0.25915062	      1.98684711	      0.35324280	      0.00000000
      0.26045946	      2.00418650	      0.34791366	      0.00000000
      0.26176830	      2.02070590	      0.34266984	      0.00000000
      0.26307714	      2.03645379	      0.33750572	      0.00000000
      0.26438598	      2.05148043	      0.33241831	      0.00000000
      0.26569482	      2.06582541	      0.32740078	      0.00000000
      0.26700366	      2.07953091	      0.32244890	      0.00000000
      0.26831251	      2.09262797	      0.31755532	      0.00000000
      0.26962135	      2.10515041	      0.31271497	      0.00000000
      0.27093019	      2.11712141	      0.30792036	      0.00000000
      0.27223903	      2.12856656	      0.30316568	      0.00000000
      0.27354787	      2.13950258	      0.29844360	      0.00000000
      0.27485671	      2.14994821	      0.29374797	      0.00000000
      0.27616555	      2.15991616	      0.28907248	      0.00000000
      0.27747440	      2.16942081	      0.28441184	      0.00000000
      0.27878324	      2.17847309	      0.27976159	      0.00000000
      0.28009208	      2.18708540	      0.27511786	      0.00000000
      0.28140092	      2.19526797	      0.27047727	      0.00000000
      0.28270976	      2.20303200	      0.26583711	      0.00000000
      0.28401860	      2.21038542	      0.26119504	      0.00000000
      0.28532745	      2.21733676	      0.25654918	      0.00000000
      0.28663629	      2.22389092	      0.25189710	      0.00000000
      0.28794513	      2.23005304	      0.24723656	      0.00000000
      0.28925397	      2.23582630	      0.24256476	      0.00000000
      0.29056281	      2.24121570	      0.23788081	      0.00000000
      0.29187165	      2.24622337	      0.23318039	      0.00000000
      0.29318049	      2.25084854	      0.22845689	      0.00000000
      0.29448934	      2.25509238	      0.22370292	      0.00000000
      0.29579818	      2.25895769	      0.21891368	      0.00000000
      0.29710702	      2.26245374	      0.21408660	      0.00000000
      0.29841586	      2.26559082	      0.20922095	      0.00000000
      0.29972470	      2.26837873	      0.20431155	      0.00000000
      0.30103354	      2.27082284	      0.19934952	      0.00000000
      0.30234238	      2.27293015	      0.19432560	      0.00000000
      0.30365123	      2.27471264	      0.18923626	      0.00000000
      0.30496007	      2.27618181	      0.18407872	      0.00000000
      0.30626891	      2.27734560	      0.17884710	      0.00000000
      0.30757775	      2.27820950	      0.17353457	      0.00000000
      0.30888659	      2.27877986	      0.16813515	      0.00000000
      0.31019543	      2.27906624	      0.16264744	      0.00000000
      0.31150428	      2.27907947	      0.15707148	      0.00000000
      0.31281312	      2.27883212	      0.15141035	      0.00000000
      0.31412196	      2.27833519	      0.14566580	      0.00000000
      0.31543080	      2.27759998	      0.13984062	      0.00000000
      0.31673964	      2.27663908	      0.13393929	      0.00000000
      0.31804848	      2.27546387	      0.12796570	      0.00000000
      0.31935732	      2.27408769	      0.12192604	      0.00000000
      0.32066617	      2.27251602	      0.11581924	      0.00000000
      0.32197501	      2.27075411	      0.10964399	      0.00000000
      0.32328385	      2.26879793	      0.10339013	      0.00000000
      0.32459269	      2.26664448	      0.09704836	      0.00000000
      0.32590153	      2.26428742	      0.09060637	      0.00000000
      0.32721037	      2.26171606	      0.08404652	      0.00000000
      0.32851921	      2.25893377	      0.07736648	      0.00000000
      0.32982806	      2.25594487	      0.07056513	      0.00000000
      0.33113690	      2.25277772	      0.06366901	      0.00000000
      0.33244574	      2.24946524	      0.05671134	      0.00000000
      0.33375458	      2.24603940	      0.04972602	      0.00000000
      0.33506342	      2.24253293	      0.04274934	      0.00000000
      0.33637226	      2.23894309	      0.03577689	      0.00000000
      0.33768110	      2.23526144	      0.02879693	      0.00000000
      0.33898995	      2.23145405	      0.02176583	      0.00000000
      0.34029879	      2.22748000	      0.01462968	      0.00000000
      0.34160763	      2.22333442	      0.00737587	      0.00000000
      0.34291647	      2.21902607	      0.00000838	      0.00000000
      0.34422531	      2.21461063	     -0.00741033	      0.00000000
      0.34553415	      2.21014960	     -0.01480800	      0.00000000
      0.34684300	      2.20567952	     -0.02213989	      0.00000000
      0.34815184	      2.20122438	     -0.02937527	      0.00000000
      0.34946068	      2.19675012	     -0.03655488	      0.00000000
      0.35076952	      2.19221301	     -0.04373369	      0.00000000
      0.35207836	      2.18757752	     -0.05095778	      0.00000000
      0.35338720	      2.18282437	     -0.05825407	      0.00000000
      0.35469604	      2.17798375	     -0.06558634	      0.00000000
      0.35600489	      2.17309029	     -0.07291164	      0.00000000
      0.35731373	      2.16818368	     -0.08017901	      0.00000000
      0.35862257	      2.16329234	     -0.08735076	      0.00000000
      0.35993141	      2.15841702	     -0.09442460	      0.00000000
      0.36124025	      2.15355604	     -0.10140135	      0.00000000
      0.36254909	      2.14869830	     -0.10829461	      0.00000000
      0.36385793	      2.14383820	     -0.11511119	      0.00000000
      0.36516678	      2.13897961	     -0.12184523	      0.00000000
      0.36647562	      2.13412890	     -0.12848753	      0.00000000
      0.36778446	      2.12929692	     -0.13502190	      0.00000000
      0.36909330	      2.12449396	     -0.14143243	      0.00000000
      0.37040214	      2.11972270	     -0.14771276	      0.00000000
      0.37171098	      2.11498408	     -0.15385882	      0.00000000
      0.37301983	      2.11027120	     -0.15987780	      0.00000000
      0.37432867	      2.10557423	     -0.16578132	      0.00000000
      0.37563751	      2.10089188	     -0.17157015	      0.00000000
      0.37694635	      2.09622205	     -0.17724667	      0.00000000
      0.37825519	      2.09158672	     -0.18277851	      0.00000000
      0.37956403	      2.08701749	     -0.18811890	      0.00000000
      0.38087287	      2.08254292	     -0.19322206	      0.00000000
      0.38218172	      2.07819108	     -0.19804167	      0.00000000
      0.38349056	      2.07394527	     -0.20259425	      0.00000000
      0.38479940	      2.06977286	     -0.20691954	      0.00000000
      0.38610824	      2.06563307	     -0.21107403	      0.00000000
      0.38741708	      2.06149218	     -0.21510765	      0.00000000
      0.38872592	      2.05736629	     -0.21899964	      0.00000000
      0.39003476	      2.05328545	     -0.22270726	      0.00000000
      0.39134361	      2.04929688	     -0.22615609	      0.00000000
      0.39265245	      2.04544334	     -0.22927716	      0.00000000
      0.39396129	      2.04172149	     -0.23206264	      0.00000000
      0.39527013	      2.03811804	     -0.23452298	      0.00000000
      0.39657897	      2.03458478	     -0.23671260	      0.00000000
      0.39788781	      2.03107622	     -0.23868366	      0.00000000
      0.39919665	      2.02756739	     -0.24044774	      0.00000000
      0.40050550	      2.02404327	     -0.24200057	      0.00000000
      0.40181434	      2.02051762	     -0.24329371	      0.00000000
      0.40312318	      2.01700057	     -0.24428340	      0.00000000
      0.40443202	      2.01350241	     -0.24493884	      0.00000000
      0.40574086	      2.01003004	     -0.24523400	      0.00000000
      0.40704970	      2.00657582	     -0.24518032	      0.00000000
      0.40835855	      2.00313029	     -0.24478986	      0.00000000
      0.40966739	      1.99967855	     -0.24409022	      0.00000000
      0.41097623	      1.99620861	     -0.24310315	      0.00000000
      0.41228507	      1.99271427	     -0.24184047	      0.00000000
      0.41359391	      1.98918945	     -0.24031240	      0.00000000
      0.41490275	      1.98563436	     -0.23851697	      0.00000000
      0.41621159	      1.98204821	     -0.23645343	      0.00000000
      0.41752044	      1.97843294	     -0.23411855	      0.00000000
      0.41882928	      1.97478973	     -0.23151037	      0.00000000
      0.42013812	      1.97111901	     -0.22863261	      0.00000000
      0.42144696	      1.96741956	     -0.22549046	      0.00000000
      0.42275580	      1.96369066	     -0.22209353	      0.00000000
      0.42406464	      1.95993226	     -0.21845016	      0.00000000
      0.42537348	      1.95614592	     -0.21456983	      0.00000000
      0.42668233	      1.95233185	     -0.21046252	      0.00000000
      0.42799117	      1.94849219	     -0.20613811	      0.00000000
      0.42930001	      1.94462869	     -0.20160673	      0.00000000
      0.43060885	      1.94074539	     -0.19687757	      0.00000000
      0.43191769	      1.93684485	     -0.19196127	      0.00000000
      0.43322653	      1.93293244	     -0.18686621	      0.00000000
      0.43453538	      1.92901262	     -0.18160178	      0.00000000
      0.43584422	      1.92509321	     -0.17617396	      0.00000000
      0.43715306	      1.92118076	     -0.17059034	      0.00000000
      0.43846190	      1.91728479	     -0.16485491	      0.00000000
      0.43977074	      1.91341363	     -0.15897331	      0.00000000
      0.44107958	      1.90957811	     -0.15294771	      0.00000000
      0.44238842	      1.90578784	     -0.14678213	      0.00000000
      0.44369727	      1.90205451	     -0.14047727	      0.00000000
      0.44500611	      1.89838869	     -0.13403568	      0.00000000
      0.44631495	      1.89480284	     -0.12745642	      0.00000000
      0.44762379	      1.89130844	     -0.12074047	      0.00000000
      0.44893263	      1.88791882	     -0.11388504	      0.00000000
      0.45024147	      1.88464666	     -0.10688894	      0.00000000
      0.45155031	      1.88150608	     -0.09974760	      0.00000000
      0.45285916	      1.87851063	     -0.09245787	      0.00000000
      0.45416800	      1.87567440	     -0.08501472	      0.00000000
      0.45547684	      1.87301000	     -0.07741508	      0.00000000
      0.45678568	      1.87053170	     -0.06965387	      0.00000000
      0.45809452	      1.86825489	     -0.06172705	      0.00000000
      0.45940336	      1.86619775	     -0.05362924	      0.00000000
      0.46071221	      1.86437860	     -0.04535572	      0.00000000
      0.46202105	      1.86281204	     -0.03690194	      0.00000000
      0.46332989	      1.86151128	     -0.02826641	      0.00000000
      0.46463873	      1.86048655	     -0.01944650	      0.00000000
      0.46594757	      1.85975006	     -0.01043945	      0.00000000
      0.46725641	      1.85931297	     -0.00124077	      0.00000000
      0.46856525	      1.85918761	      0.00815395	      0.00000000
      0.46987410	      1.85938268	      0.01774580	      0.00000000
      0.47118294	      1.85990742	      0.02753505	      0.00000000
      0.47249178	      1.86076642	      0.03751635	      0.00000000
      0.47380062	      1.86196505	      0.04768343	      0.00000000
      0.47510946	      1.86350612	      0.05802911	      0.00000000
      0.47641830	      1.86539419	      0.06854641	      0.00000000
      0.47772714	      1.86763161	      0.07923174	      0.00000000
      0.47903599	      1.87022322	      0.09008336	      0.00000000
      0.48034483	      1.87316638	      0.10109659	      0.00000000
      0.48165367	      1.87645900	      0.11226619	      0.00000000
      0.48296251	      1.88008900	      0.12357723	      0.00000000
      0.48427135	      1.88404543	      0.13501448	      0.00000000
      0.48558019	      1.88831370	      0.14655602	      0.00000000
      0.48688903	      1.89288080	      0.15818151	      0.00000000
      0.48819788	      1.89773368	      0.16987060	      0.00000000
      0.48950672	      1.90286009	      0.18160402	      0.00000000
      0.49081556	      1.90824853	      0.19336324	      0.00000000
      0.49212440	      1.91388761	      0.20512991	      0.00000000
      0.49343324	      1.91976590	      0.21688476	      0.00000000
      0.49474208	      1.92587195	      0.22860878	      0.00000000
      0.49605093	      1.93219428	      0.24028170	      0.00000000
      0.49735977	      1.93872147	      0.25188377	      0.00000000
      0.49866861	      1.94544317	      0.26339507	      0.00000000
      0.49997745	      1.95234911	      0.27479634	      0.00000000
      0.50128629	      1.95943087	      0.28606914	      0.00000000
      0.50259513	      1.96668020	      0.29719567	      0.00000000
      0.50390397	      1.97409030	      0.30815891	      0.00000000
      0.50521282	      1.98165454	      0.31894245	      0.00000000
      0.50652166	      1.98936640	      0.32952981	      0.00000000
      0.50783050	      1.99721923	      0.33990487	      0.00000000
      0.50913934	      2.00520625	      0.35005152	      0.00000000
      0.51044818	      2.01332098	      0.35995447	      0.00000000
      0.51175702	      2.02155734	      0.36959875	      0.00000000
      0.51306586	      2.02990937	      0.37897004	      0.00000000
      0.51437471	      2.03837150	      0.38805417	      0.00000000
      0.51568355	      2.04693760	      0.39683752	      0.00000000
      0.51699239	      2.05560300	      0.40530648	      0.00000000
      0.51830123	      2.06435682	      0.41344475	      0.00000000
      0.51961007	      2.07319496	      0.42123882	      0.00000000
      0.52091891	      2.08213621	      0.42868625	      0.00000000
      0.52222776	      2.09117899	      0.43578258	      0.00000000
      0.52353660	      2.10030074	      0.44251365	      0.00000000
      0.52484544	      2.10948594	      0.44885934	      0.00000000
      0.52615428	      2.11872484	      0.45480400	      0.00000000
      0.52746312	      2.12800880	      0.46033505	      0.00000000
      0.52877196	      2.13732961	      0.46544057	      0.00000000
      0.53008080	      2.14668293	      0.47011394	      0.00000000
      0.53138965	      2.15606400	      0.47434832	      0.00000000
      0.53269849	      2.16547184	      0.47814119	      0.00000000
      0.53400733	      2.17490488	      0.48148955	      0.00000000
      0.53531617	      2.18436446	      0.48439304	      0.00000000
      0.53662501	      2.19385188	      0.48685119	      0.00000000
      0.53793385	      2.20336993	      0.48886478	      0.00000000
      0.53924269	      2.21292164	      0.49043457	      0.00000000
      0.54055154	      2.22250928	      0.49156185	      0.00000000
      0.54186038	      2.23213546	      0.49224779	      0.00000000
      0.54316922	      2.24180015	      0.49249472	      0.00000000
      0.54447806	      2.25150392	      0.49230480	      0.00000000
      0.54578690	      2.26124430	      0.49168281	      0.00000000
      0.54709574	      2.27101972	      0.49063344	      0.00000000
      0.54840459	      2.28082607	      0.48916455	      0.00000000
      0.54971343	      2.29066016	      0.48728389	      0.00000000
      0.55102227	      2.30051651	      0.48500127	      0.00000000
      0.55233111	      2.31039030	      0.48232632	      0.00000000
      0.55363995	      2.32027467	      0.47926909	      0.00000000
      0.55494879	      2.33016310	      0.47583957	      0.00000000
      0.55625763	      2.34004807	      0.47204764	      0.00000000
      0.55756648	      2.34992222	      0.46790338	      0.00000000
      0.55887532	      2.35977866	      0.46341724	      0.00000000
      0.56018416	      2.36961059	      0.45860002	      0.00000000
      0.56149300	      2.37941245	      0.45346316	      0.00000000
      0.56280184	      2.38917863	      0.44801831	      0.00000000
      0.56411068	      2.39890465	      0.44227733	      0.00000000
      0.56541952	      2.40858579	      0.43625218	      0.00000000
      0.56672837	      2.41821817	      0.42995447	      0.00000000
      0.56803721	      2.42779783	      0.42339601	      0.00000000
      0.56934605	      2.43732116	      0.41658773	      0.00000000
      0.57065489	      2.44678503	      0.40954120	      0.00000000
      0.57196373	      2.45618505	      0.40226563	      0.00000000
      0.57327257	      2.46551779	      0.39477134	      0.00000000
      0.57458141	      2.47477511	      0.38706352	      0.00000000
      0.57589026	      2.48394957	      0.37914837	      0.00000000
      0.57719910	      2.49302629	      0.37102480	      0.00000000
      0.57850794	      2.50198981	      0.36269189	      0.00000000
      0.57981678	      2.51082048	      0.35414406	      0.00000000
      0.58112562	      2.51949725	      0.34537523	      0.00000000
      0.58243446	      2.52800499	      0.33638256	      0.00000000
      0.58374331	      2.53632778	      0.32716282	      0.00000000
      0.58505215	      2.54446326	      0.31772269	      0.00000000
      0.58636099	      2.55240753	      0.30806816	      0.00000000
      0.58766983	      2.56016849	      0.29821469	      0.00000000
      0.58897867	      2.56775145	      0.28817643	      0.00000000
      0.59028751	      2.57516879	      0.27797116	      0.00000000
      0.59159635	      2.58243163	      0.26761623	      0.00000000
      0.59290520	      2.58955397	      0.25712700	      0.00000000
      0.59421404	      2.59655019	      0.24652004	      0.00000000
      0.59552288	      2.60343200	      0.23580527	      0.00000000
      0.59683172	      2.61021222	      0.22499437	      0.00000000
      0.59814056	      2.61689498	      0.21408960	      0.00000000
      0.59944940	      2.62348551	      0.20309483	      0.00000000
      0.60075824	      2.62997802	      0.19200641	      0.00000000
      0.60206709	      2.63636753	      0.18082293	      0.00000000
      0.60337593	      2.64264176	      0.16953961	      0.00000000
      0.60468477	      2.64879000	      0.15815412	      0.00000000
      0.60599361	      2.65479930	      0.14666132	      0.00000000
      0.60730245	      2.66065952	      0.13505770	      0.00000000
      0.60861129	      2.66635564	      0.12333407	      0.00000000
      0.60992014	      2.67186834	      0.11148429	      0.00000000
      0.61122898	      2.67716659	      0.09949844	      0.00000000
      0.61253782	      2.68222686	      0.08736634	      0.00000000
      0.61384666	      2.68704084	      0.07505516	      0.00000000
      0.61515550	      2.69159157	      0.06253653	      0.00000000
      0.61646434	      2.69587003	      0.04977282	      0.00000000
      0.61777318	      2.69986707	      0.03672600	      0.00000000
      0.61908203	      2.70358363	      0.02335616	      0.00000000
      0.62039087	      2.70701728	      0.00962375	      0.00000000
      0.62169971	      2.71018224	     -0.00450791	      0.00000000
      0.62300855	      2.71309692	     -0.01908249	      0.00000000
      0.62431739	      2.71578815	     -0.03412739	      0.00000000
      0.62562623	      2.71828076	     -0.04966858	      0.00000000
      0.62693507	      2.72059242	     -0.06570972	      0.00000000
      0.62824392	      2.72274146	     -0.08225454	      0.00000000
      0.62955276	      2.72473640	     -0.09930246	      0.00000000
      0.63086160	      2.72658753	     -0.11685290	      0.00000000
      0.63217044	      2.72829932	     -0.13492002	      0.00000000
      0.63347928	      2.72987731	     -0.15351528	      0.00000000
      0.63478812	      2.73132639	     -0.17266984	      0.00000000
      0.63609696	      2.73265144	     -0.19241025	      0.00000000
      0.63740581	      2.73386081	     -0.21277548	      0.00000000
      0.63871465	      2.73496160	     -0.23380002	      0.00000000
      0.64002349	      2.73596744	     -0.25551963	      0.00000000
      0.64133233	      2.73688985	     -0.27796743	      0.00000000
      0.64264117	      2.73774944	     -0.30116891	      0.00000000
      0.64395001	      2.73856407	     -0.32514910	      0.00000000
      0.64525886	      2.73936297	     -0.34991987	      0.00000000
      0.64656770	      2.74017231	     -0.37549414	      0.00000000
      0.64787654	      2.74103138	     -0.40186846	      0.00000000
      0.64918538	      2.74197675	     -0.42904087	      0.00000000
      0.65049422	      2.74305763	     -0.45699255	      0.00000000
      0.65180306	      2.74432137	     -0.48570595	      0.00000000
      0.65311190	      2.74582341	     -0.51515002	      0.00000000
      0.65442075	      2.74761818	     -0.54529480	      0.00000000
      0.65572959	      2.74976074	     -0.57610222	      0.00000000
      0.65703843	      2.75230612	     -0.60753434	      0.00000000
      0.65834727	      2.75530311	     -0.63954999	      0.00000000
      0.65965611	      2.75880154	     -0.67210562	      0.00000000
      0.66096495	      2.76284110	     -0.70516143	      0.00000000
      0.66227379	      2.76746088	     -0.73867076	      0.00000000
      0.66358264	      2.77268941	     -0.77260047	      0.00000000
      0.66489148	      2.77857312	     -0.80693003	      0.00000000
      0.66620032	      2.78512097	     -0.84163579	      0.00000000
      0.66750916	      2.79233292	     -0.87667528	      0.00000000
      0.66881800	      2.80020500	     -0.91202093	      0.00000000
      0.67012684	      2.80873853	     -0.94764504	      0.00000000
      0.67143569	      2.81791706	     -0.98352946	      0.00000000
      0.67274453	      2.82772715	     -1.01965297	      0.00000000
      0.67405337	      2.83814408	     -1.05600180	      0.00000000
      0.67536221	      2.84914523	     -1.09255765	      0.00000000
      0.67667105	      2.86070303	     -1.12930568	      0.00000000
      0.67797989	      2.87279192	     -1.16622601	      0.00000000
      0.67928873	      2.88538487	     -1.20330241	      0.00000000
      0.68059758	      2.89846455	     -1.24051415	      0.00000000
      0.68190642	      2.91199783	     -1.27784472	      0.00000000
      0.68321526	      2.92600277	     -1.31526635	      0.00000000
      0.68452410	      2.94038072	     -1.35276302	      0.00000000
      0.68583294	      2.95527125	     -1.39025972	      0.00000000
      0.68714178	      2.97021922	     -1.42779160	      0.00000000
      0.68845062	      2.98575498	     -1.46517555	      0.00000000
      0.68975947	      2.99981067	     -1.50280688	      0.00000000
      0.69106831	      3.01330302	     -1.54054966	      0.00000000
      0.69237715	      3.01782024	     -1.58020187	      0.00000000
      0.69368599	      3.00795754	     -1.62419660	      0.00000000
      0.69499483	      2.95558881	     -1.67783585	      0.00000000
      0.69630367	      2.83880999	     -1.75069860	      0.00000000
      0.69761252	      2.62711074	     -1.84002180	      0.00000000
      0.69892136	      2.07091171	     -2.01472563	      0.00000000
      0.70023020	      1.12181883	     -2.21615025	      0.00000000
      0.70153904	      0.37938010	     -2.12846975	      0.00000000
      0.70284788	      0.19601448	     -1.72238462	      0.00000000
      0.70415672	      0.18637512	     -1.26425497	      0.00000000
      0.70546556	      0.14341209	     -0.88929758	      0.00000000
      0.70677441	      0.12741677	     -0.60770744	      0.00000000
      0.70808325	      0.10959348	     -0.40848128	      0.00000000
      0.70939209	      0.09875046	     -0.27749782	      0.00000000
      0.71070093	      0.08923229	     -0.19393647	      0.00000000
      0.71200977	      0.08010513	     -0.14282361	      0.00000000
      0.71331861	      0.07379647	     -0.11315933	      0.00000000
      0.71462745	      0.06661577	     -0.09652700	      0.00000000
      0.71593630	      0.06177311	     -0.08829303	      0.00000000
      0.71724514	      0.05641525	     -0.08473625	      0.00000000
      0.71855398	      0.05228083	     -0.08416925	      0.00000000
      0.71986282	      0.04800760	     -0.08506229	      0.00000000
      0.72117166	      0.04428941	     -0.08685634	      0.00000000
      0.72248050	      0.04060437	     -0.08894689	      0.00000000
      0.72378934	      0.03719013	     -0.09116905	      0.00000000
      0.72509819	      0.03386541	     -0.09330199	      0.00000000
      0.72640703	      0.03070535	     -0.09531073	      0.00000000
      0.72771587	      0.02764938	     -0.09712935	      0.00000000
      0.72902471	      0.02472013	     -0.09876293	      0.00000000
      0.73033355	      0.02189775	     -0.10020510	      0.00000000
      0.73164239	      0.01918907	     -0.10146971	      0.00000000
      0.73295124	      0.01658864	     -0.10256746	      0.00000000
      0.73426008	      0.01409673	     -0.10351131	      0.00000000
      0.73556892	      0.01171235	     -0.10431515	      0.00000000
      0.73687776	      0.00943070	     -0.10499183	      0.00000000
      0.73818660	      0.00725712	     -0.10555090	      0.00000000
      0.73949544	      0.00517427	     -0.10600867	      0.00000000
      0.74080428	      0.00322790	     -0.10633262	      0.00000000
      0.74211313	      0.00134170	     -0.10656251	      0.00000000
      0.74342197	     -0.00061230	     -0.10686222	      0.00000000
      0.74473081	     -0.00235136	     -0.10706273	      0.00000000
      0.74603965	     -0.00383795	     -0.10699988	      0.00000000
      0.74734849	     -0.00528012	     -0.10678042	      0.00000000
      0.74865733	     -0.00662639	     -0.10641793	      0.00000000
      0.74996617	     -0.00788296	     -0.10592055	      0.00000000
      0.75127502	     -0.00905921	     -0.10530166	      0.00000000
      0.75258386	     -0.01014871	     -0.10455918	      0.00000000
      0.75389270	     -0.01116284	     -0.10369815	      0.00000000
      0.75520154	     -0.01209931	     -0.10271856	      0.00000000
      0.75651038	     -0.01296641	     -0.10162291	      0.00000000
      0.75781922	     -0.01376511	     -0.10041430	      0.00000000
      0.75912807	     -0.01450177	     -0.09909509	      0.00000000
      0.76043691	     -0.01517894	     -0.09767015	      0.00000000
      0.76174575	     -0.01580201	     -0.09614255	      0.00000000
      0.76305459	     -0.01637401	     -0.09451821	      0.00000000
      0.76436343	     -0.01689966	     -0.09280114	      0.00000000
      0.76567227	     -0.01738192	     -0.09099769	      0.00000000
      0.76698111	     -0.01782495	     -0.08911247	      0.00000000
      0.76828996	     -0.01823143	     -0.08715178	      0.00000000
      0.76959880	     -0.01860499	     -0.08512056	      0.00000000
      0.77090764	     -0.01894808	     -0.08302493	      0.00000000
      0.77221648	     -0.01926386	     -0.08087004	      0.00000000
      0.77352532	     -0.01955444	     -0.07866168	      0.00000000
      0.77483416	     -0.01982249	     -0.07640493	      0.00000000
      0.77614300	     -0.02006997	     -0.07410500	      0.00000000
      0.77745185	     -0.02029931	     -0.07176638	      0.00000000
      0.77876069	     -0.02051254	     -0.06939422	      0.00000000
      0.78006953	     -0.02071166	     -0.06699512	      0.00000000
      0.78137837	     -0.02089890	     -0.06457248	      0.00000000
      0.78268721	     -0.02107635	     -0.06213475	      0.00000000
      0.78399605	     -0.02124493	     -0.05967432	      0.00000000
      0.78530490	     -0.02139882	     -0.05721581	      0.00000000
