PointAcceleration
version=1
nRows=601
nColumns=4
inDegrees=no
No description.
endheader
time	state_0	state_1	state_2
      0.00000000	    -50.57374132	    -21.90604759	      0.00000000
      0.00058507	    -51.78219890	    -22.70524784	      0.00000000
      0.00117014	    -52.95874127	    -23.50894426	      0.00000000
      0.00175522	    -54.10919696	    -24.31893559	      0.00000000
      0.00234029	    -55.23148472	    -25.13471019	      0.00000000
      0.00292536	    -56.32643996	    -25.95671971	      0.00000000
      0.00351043	    -57.39378556	    -26.78508342	      0.00000000
      0.00409550	    -58.43375381	    -27.62012713	      0.00000000
      0.00468057	    -59.44647050	    -28.46215910	      0.00000000
      0.00526565	    -60.43216189	    -29.31155294	      0.00000000
      0.00585072	    -61.39111192	    -30.16871342	      0.00000000
      0.00643579	    -62.32363238	    -31.03407211	      0.00000000
      0.00702086	    -63.23009564	    -31.90808975	      0.00000000
      0.00760593	    -64.11088132	    -32.79123337	      0.00000000
      0.00819100	    -64.96639976	    -33.68398535	      0.00000000
      0.00877608	    -65.79705133	    -34.58681529	      0.00000000
      0.00936115	    -66.60322634	    -35.50018843	      0.00000000
      0.00994622	    -67.38528541	    -36.42453714	      0.00000000
      0.01053129	    -68.14354143	    -37.36026966	      0.00000000
      0.01111636	    -68.87826261	    -38.30774258	      0.00000000
      0.01170143	    -69.58964395	    -39.26727151	      0.00000000
      0.01228651	    -70.27783120	    -40.23910623	      0.00000000
      0.01287158	    -70.94288649	    -41.22344517	      0.00000000
      0.01345665	    -71.58482891	    -42.22041288	      0.00000000
      0.01404172	    -72.20359746	    -43.23007721	      0.00000000
      0.01462679	    -72.79910125	    -44.25243008	      0.00000000
      0.01521186	    -73.37117876	    -45.28740766	      0.00000000
      0.01579694	    -73.91965459	    -46.33487145	      0.00000000
      0.01638201	    -74.44429667	    -47.39463007	      0.00000000
      0.01696708	    -74.94487436	    -48.46642181	      0.00000000
      0.01755215	    -75.42111437	    -49.54993707	      0.00000000
      0.01813722	    -75.87275831	    -50.64480214	      0.00000000
      0.01872229	    -76.29951851	    -51.75060177	      0.00000000
      0.01930737	    -76.70113366	    -52.86686440	      0.00000000
      0.01989244	    -77.07732541	    -53.99308401	      0.00000000
      0.02047751	    -77.42785093	    -55.12870719	      0.00000000
      0.02106258	    -77.75246127	    -56.27315357	      0.00000000
      0.02164765	    -78.05094920	    -57.42580461	      0.00000000
      0.02223272	    -78.32311074	    -58.58602223	      0.00000000
      0.02281780	    -78.56878738	    -59.75313931	      0.00000000
      0.02340287	    -78.78783153	    -60.92647614	      0.00000000
      0.02398794	    -78.98014136	    -62.10533218	      0.00000000
      0.02457301	    -79.14563153	    -63.28900060	      0.00000000
      0.02515808	    -79.28426162	    -64.47676090	      0.00000000
      0.02574315	    -79.39601135	    -65.66789171	      0.00000000
      0.02632823	    -79.48090556	    -66.86166408	      0.00000000
      0.02691330	    -79.53899113	    -68.05735287	      0.00000000
      0.02749837	    -79.57036324	    -69.25423082	      0.00000000
      0.02808344	    -79.57513915	    -70.45157853	      0.00000000
      0.02866851	    -79.55349020	    -71.64867979	      0.00000000
      0.02925358	    -79.50560899	    -72.84482962	      0.00000000
      0.02983866	    -79.43175836	    -74.03932648	      0.00000000
      0.03042373	    -79.33223881	    -75.23147398	      0.00000000
      0.03100880	    -79.20738219	    -76.42061171	      0.00000000
      0.03159387	    -79.05753480	    -77.60609970	      0.00000000
      0.03217894	    -78.88311150	    -78.78731488	      0.00000000
      0.03276401	    -78.68454307	    -79.96365700	      0.00000000
      0.03334909	    -78.46231494	    -81.13454539	      0.00000000
      0.03393416	    -78.21692584	    -82.29942499	      0.00000000
      0.03451923	    -77.94890757	    -83.45776158	      0.00000000
      0.03510430	    -77.65880299	    -84.60904787	      0.00000000
      0.03568937	    -77.34717603	    -85.75279896	      0.00000000
      0.03627444	    -77.01460229	    -86.88855781	      0.00000000
      0.03685952	    -76.66167614	    -88.01589222	      0.00000000
      0.03744459	    -76.28900152	    -89.13439861	      0.00000000
      0.03802966	    -75.89720159	    -90.24370132	      0.00000000
      0.03861473	    -75.48690599	    -91.34345428	      0.00000000
      0.03919980	    -75.05876321	    -92.43334215	      0.00000000
      0.03978487	    -74.61342503	    -93.51308053	      0.00000000
      0.04036995	    -74.15155989	    -94.58241784	      0.00000000
      0.04095502	    -73.67383586	    -95.64113483	      0.00000000
      0.04154009	    -73.18093230	    -96.68904562	      0.00000000
      0.04212516	    -72.67352356	    -97.72599769	      0.00000000
      0.04271023	    -72.15228540	    -98.75186988	      0.00000000
      0.04329530	    -71.61788291	    -99.76657486	      0.00000000
      0.04388038	    -71.07097073	   -100.77005320	      0.00000000
      0.04446545	    -70.51218865	   -101.76228083	      0.00000000
      0.04505052	    -69.94215793	   -102.74326003	      0.00000000
      0.04563559	    -69.36148857	   -103.71303455	      0.00000000
      0.04622066	    -68.77077624	   -104.67168029	      0.00000000
      0.04680573	    -68.17061930	   -105.61932709	      0.00000000
      0.04739081	    -67.56161659	   -106.55614997	      0.00000000
      0.04797588	    -66.94438581	   -107.48239283	      0.00000000
      0.04856095	    -66.31955998	   -108.39836064	      0.00000000
      0.04914602	    -65.68780310	   -109.30444351	      0.00000000
      0.04973109	    -65.04981018	   -110.20111518	      0.00000000
      0.05031616	    -64.40624305	   -111.08898773	      0.00000000
      0.05090124	    -63.75773295	   -111.96882345	      0.00000000
      0.05148631	    -63.10515864	   -112.84153216	      0.00000000
      0.05207138	    -62.44955260	   -113.70824835	      0.00000000
      0.05265645	    -61.79219950	   -114.57044439	      0.00000000
      0.05324152	    -61.13470210	   -115.43001688	      0.00000000
      0.05382659	    -60.47919211	   -116.28950661	      0.00000000
      0.05441167	    -59.82843586	   -117.15225981	      0.00000000
      0.05499674	    -59.18624387	   -118.02284816	      0.00000000
      0.05558181	    -58.55762391	   -118.90734443	      0.00000000
      0.05616688	    -57.94952555	   -119.81408615	      0.00000000
      0.05675195	    -57.37103084	   -120.75411060	      0.00000000
      0.05733702	    -56.83461293	   -121.74244875	      0.00000000
      0.05792210	    -56.35630172	   -122.79875631	      0.00000000
      0.05850717	    -55.95764087	   -123.94933056	      0.00000000
      0.05909224	    -55.66562646	   -125.22784685	      0.00000000
      0.05967731	    -55.51545354	   -126.67822453	      0.00000000
      0.06026238	    -55.54973276	   -128.35487095	      0.00000000
      0.06084745	    -55.82178668	   -130.32614891	      0.00000000
      0.06143253	    -56.39333225	   -132.67310129	      0.00000000
      0.06201760	    -57.33735200	   -135.49241543	      0.00000000
      0.06260267	    -58.73306772	   -138.89217050	      0.00000000
      0.06318774	    -60.66619474	   -142.99145750	      0.00000000
      0.06377281	    -63.21986120	   -147.91107505	      0.00000000
      0.06435788	    -66.46895193	   -153.76506352	      0.00000000
      0.06494296	    -70.46693919	   -160.64538867	      0.00000000
      0.06552803	    -75.23197053	   -168.60145407	      0.00000000
      0.06611310	    -80.73495380	   -177.62379935	      0.00000000
      0.06669817	    -86.88090694	   -187.61664389	      0.00000000
      0.06728324	    -93.51342927	   -198.40050151	      0.00000000
      0.06786831	   -100.41415973	   -209.70600206	      0.00000000
      0.06845339	   -107.34846679	   -221.23084083	      0.00000000
      0.06903846	   -114.11510373	   -232.70466574	      0.00000000
      0.06962353	   -120.63244850	   -244.00487124	      0.00000000
      0.07020860	   -127.02708693	   -255.28631140	      0.00000000
      0.07079367	   -133.66127328	   -267.02403868	      0.00000000
      0.07137874	   -141.13444461	   -280.03483005	      0.00000000
      0.07196382	   -150.11234442	   -295.24308516	      0.00000000
      0.07254889	   -161.17282738	   -313.47240628	      0.00000000
      0.07313396	   -174.59032631	   -335.13206706	      0.00000000
      0.07371903	   -190.25762437	   -360.08281006	      0.00000000
      0.07430410	   -207.73945915	   -387.70733358	      0.00000000
      0.07488917	   -226.34983975	   -416.99300863	      0.00000000
      0.07547425	   -245.37030136	   -446.86744359	      0.00000000
      0.07605932	   -264.08062536	   -476.22605031	      0.00000000
      0.07664439	   -281.92040950	   -504.18290978	      0.00000000
      0.07722946	   -298.42058730	   -529.95720751	      0.00000000
      0.07781453	   -313.27648615	   -552.99286442	      0.00000000
      0.07839960	   -326.25413964	   -572.83521632	      0.00000000
      0.07898468	   -337.21784336	   -589.18752810	      0.00000000
      0.07956975	   -346.06195757	   -601.83400757	      0.00000000
      0.08015482	   -352.72624101	   -610.67177369	      0.00000000
      0.08073989	   -357.15741371	   -615.67401890	      0.00000000
      0.08132496	   -359.33966984	   -616.92091215	      0.00000000
      0.08191003	   -359.22303271	   -614.46437137	      0.00000000
      0.08249511	   -356.90373880	   -608.59777331	      0.00000000
      0.08308018	   -352.18752602	   -599.13506807	      0.00000000
      0.08366525	   -345.74532984	   -587.30524465	      0.00000000
      0.08425032	   -335.99218809	   -570.67903133	      0.00000000
      0.08483539	   -324.27896762	   -551.54823237	      0.00000000
      0.08542046	   -161.39883674	   -333.16050902	      0.00000000
      0.08600554	    -99.10419062	   -255.79386851	      0.00000000
      0.08659061	    -83.79384287	   -242.80769683	      0.00000000
      0.08717568	    -74.73210305	   -238.32821144	      0.00000000
      0.08776075	    -66.82255084	   -235.33717689	      0.00000000
      0.08834582	    -60.88124469	   -234.79728833	      0.00000000
      0.08893090	    -54.68659761	   -233.67666127	      0.00000000
      0.08951597	    -49.27947913	   -233.23436819	      0.00000000
      0.09010104	    -44.12181820	   -232.65466737	      0.00000000
      0.09068611	    -39.54037708	   -232.26310829	      0.00000000
      0.09127118	    -35.42644171	   -231.83511831	      0.00000000
      0.09185625	    -31.85410515	   -231.41251335	      0.00000000
      0.09244133	    -28.76713198	   -230.88829994	      0.00000000
      0.09302640	    -26.15804839	   -230.22810569	      0.00000000
      0.09361147	    -23.95880261	   -229.33174031	      0.00000000
      0.09419654	    -22.14049205	   -228.14641875	      0.00000000
      0.09478161	    -20.63168052	   -226.58322601	      0.00000000
      0.09536668	    -19.39866413	   -224.60377293	      0.00000000
      0.09595176	    -18.37326480	   -222.15804771	      0.00000000
      0.09653683	    -17.52219623	   -219.25053835	      0.00000000
      0.09712190	    -16.77715173	   -215.87139408	      0.00000000
      0.09770697	    -16.11878371	   -212.05704931	      0.00000000
      0.09829204	    -15.47772130	   -207.74015975	      0.00000000
      0.09887711	    -14.86979935	   -202.84371272	      0.00000000
      0.09946219	    -14.24905233	   -197.02764771	      0.00000000
      0.10004726	    -13.66552197	   -189.88343264	      0.00000000
      0.10063233	    -13.14664429	   -180.82676924	      0.00000000
      0.10121740	    -12.71854010	   -169.35391342	      0.00000000
      0.10180247	    -12.46492123	   -155.31961699	      0.00000000
      0.10238754	    -12.29142882	   -138.80196659	      0.00000000
      0.10297262	    -12.18284733	   -120.47816550	      0.00000000
      0.10355769	    -11.96253357	   -101.04786114	      0.00000000
      0.10414276	    -11.50672465	    -81.46820687	      0.00000000
      0.10472783	    -10.67204554	    -62.41421968	      0.00000000
      0.10531290	     -9.30240781	    -44.37923408	      0.00000000
      0.10589797	     -7.35775281	    -27.56271072	      0.00000000
      0.10648305	     -4.72919163	    -11.76472523	      0.00000000
      0.10706812	     -1.54698531	      3.14776045	      0.00000000
      0.10765319	      2.09131411	     17.56977725	      0.00000000
      0.10823826	      6.05386004	     31.76049403	      0.00000000
      0.10882333	     10.25821306	     46.18677320	      0.00000000
      0.10940840	     14.60891933	     61.08260079	      0.00000000
      0.10999348	     19.02534569	     76.76358916	      0.00000000
      0.11057855	     23.44454478	     93.33484813	      0.00000000
      0.11116362	     27.80286962	    110.90503153	      0.00000000
      0.11174869	     32.06840294	    129.44811498	      0.00000000
      0.11233376	     36.19988318	    148.88964333	      0.00000000
      0.11291883	     40.19632253	    169.12244806	      0.00000000
      0.11350391	     44.04430914	    189.96511377	      0.00000000
      0.11408898	     47.76590111	    211.28972792	      0.00000000
      0.11467405	     51.37066930	    232.88936812	      0.00000000
      0.11525912	     54.88890395	    254.65615010	      0.00000000
      0.11584419	     58.34042419	    276.41423071	      0.00000000
      0.11642926	     61.75153934	    298.09192198	      0.00000000
      0.11701434	     65.14170008	    319.57004474	      0.00000000
      0.11759941	     68.52822988	    340.81143964	      0.00000000
      0.11818448	     71.92559712	    361.75337359	      0.00000000
      0.11876955	     75.34146908	    382.38088620	      0.00000000
      0.11935462	     78.78316218	    402.67004551	      0.00000000
      0.11993969	     82.25213376	    422.61737000	      0.00000000
      0.12052477	     85.75095415	    442.22108407	      0.00000000
      0.12110984	     89.27827315	    461.48256612	      0.00000000
      0.12169491	     92.83416017	    480.40971399	      0.00000000
      0.12227998	     96.41663953	    499.00581155	      0.00000000
      0.12286505	    100.02495736	    517.28178678	      0.00000000
      0.12345012	    103.65746906	    535.24196810	      0.00000000
      0.12403520	    107.31346525	    552.89766503	      0.00000000
      0.12462027	    110.99179624	    570.25389037	      0.00000000
      0.12520534	    114.69206069	    587.32133781	      0.00000000
      0.12579041	    118.41342175	    604.10500869	      0.00000000
      0.12637548	    122.15555157	    620.61413168	      0.00000000
      0.12696055	    125.91786570	    636.85338687	      0.00000000
      0.12754563	    129.70002698	    652.83043309	      0.00000000
      0.12813070	    133.50182070	    668.54992742	      0.00000000
      0.12871577	    137.32310234	    684.01858033	      0.00000000
      0.12930084	    141.16393557	    699.24129808	      0.00000000
      0.12988591	    145.02439233	    714.22437288	      0.00000000
      0.13047098	    148.90465931	    728.97288295	      0.00000000
      0.13105606	    152.80488843	    743.49279655	      0.00000000
      0.13164113	    156.72527747	    757.78923838	      0.00000000
      0.13222620	    160.66597687	    771.86789010	      0.00000000
      0.13281127	    164.62713759	    785.73388184	      0.00000000
      0.13339634	    168.60884344	    799.39272291	      0.00000000
      0.13398141	    172.61115499	    812.84943807	      0.00000000
      0.13456649	    176.63407501	    826.10928139	      0.00000000
      0.13515156	    180.67759090	    839.17695489	      0.00000000
      0.13573663	    184.74163337	    852.05724793	      0.00000000
      0.13632170	    188.82615453	    864.75442485	      0.00000000
      0.13690677	    192.93104543	    877.27273919	      0.00000000
      0.13749184	    197.05621458	    889.61598607	      0.00000000
      0.13807692	    201.20150816	    901.78786440	      0.00000000
      0.13866199	    205.36677371	    913.79170313	      0.00000000
      0.13924706	    209.55180521	    925.63067409	      0.00000000
      0.13983213	    213.75638053	    937.30765551	      0.00000000
      0.14041720	    217.98023867	    948.82532794	      0.00000000
      0.14100227	    222.22308706	    960.18613880	      0.00000000
      0.14158735	    226.48460972	    971.39231692	      0.00000000
      0.14217242	    230.76444063	    982.44589761	      0.00000000
      0.14275749	    235.06220550	    993.34869002	      0.00000000
      0.14334256	    239.37746053	   1004.10233659	      0.00000000
      0.14392763	    243.70976978	   1014.70825800	      0.00000000
      0.14451270	    248.05860336	   1025.16772384	      0.00000000
      0.14509778	    252.42345093	   1035.48179070	      0.00000000
      0.14568285	    256.80369475	   1045.65138431	      0.00000000
      0.14626792	    261.19875349	   1055.67723087	      0.00000000
      0.14685299	    265.60792675	   1065.55994885	      0.00000000
      0.14743806	    270.03056611	   1075.29998193	      0.00000000
      0.14802313	    274.46588524	   1084.89767215	      0.00000000
      0.14860821	    278.91315872	   1094.35322462	      0.00000000
      0.14919328	    283.37150789	   1103.66670358	      0.00000000
      0.14977835	    287.84012977	   1112.83807308	      0.00000000
      0.15036342	    292.31804176	   1121.86707018	      0.00000000
      0.15094849	    296.80434938	   1130.75336166	      0.00000000
      0.15153356	    301.29796084	   1139.49634015	      0.00000000
      0.15211864	    305.79790190	   1148.09537839	      0.00000000
      0.15270371	    310.30297644	   1156.54955407	      0.00000000
      0.15328878	    314.81216011	   1164.85799896	      0.00000000
      0.15387385	    319.32416600	   1173.01952965	      0.00000000
      0.15445892	    323.83795620	   1181.03310612	      0.00000000
      0.15504399	    328.35219695	   1188.89738371	      0.00000000
      0.15562907	    332.86588622	   1196.61125015	      0.00000000
      0.15621414	    337.37772118	   1204.17334146	      0.00000000
      0.15679921	    341.88666852	   1211.58244614	      0.00000000
      0.15738428	    346.39160994	   1218.83740563	      0.00000000
      0.15796935	    350.89109230	   1225.93653916	      0.00000000
      0.15855442	    355.38443585	   1232.87921750	      0.00000000
      0.15913950	    359.86860703	   1239.66214952	      0.00000000
      0.15972457	    364.34349830	   1246.28536240	      0.00000000
      0.16030964	    368.80217615	   1252.74169555	      0.00000000
      0.16089471	    373.24425657	   1259.03059502	      0.00000000
      0.16147978	    377.65666151	   1265.13877188	      0.00000000
      0.16206485	    382.03599905	   1271.06117996	      0.00000000
      0.16264993	    386.36664940	   1276.78152910	      0.00000000
      0.16323500	    390.64023248	   1282.28595276	      0.00000000
      0.16382007	    394.85369619	   1287.56746754	      0.00000000
      0.16440514	    398.99954648	   1292.60766983	      0.00000000
      0.16499021	    403.09878232	   1297.41679778	      0.00000000
      0.16557528	    407.15233909	   1301.98428373	      0.00000000
      0.16616036	    411.18558950	   1306.32259728	      0.00000000
      0.16674543	    415.20201009	   1310.43306610	      0.00000000
      0.16733050	    419.20512880	   1314.31512356	      0.00000000
      0.16791557	    423.19571226	   1317.97773313	      0.00000000
      0.16850064	    427.16205366	   1321.41512060	      0.00000000
      0.16908571	    431.10523177	   1324.63872371	      0.00000000
      0.16967079	    435.01503820	   1327.64749154	      0.00000000
      0.17025586	    438.89351385	   1330.45133753	      0.00000000
      0.17084093	    442.73664898	   1333.05434061	      0.00000000
      0.17142600	    446.54621118	   1335.46391023	      0.00000000
      0.17201107	    450.32211330	   1337.68634300	      0.00000000
      0.17259615	    454.06545844	   1339.72729345	      0.00000000
      0.17318122	    457.77755500	   1341.59327951	      0.00000000
      0.17376629	    461.45905455	   1343.28903194	      0.00000000
      0.17435136	    465.11142002	   1344.82055281	      0.00000000
      0.17493643	    468.73508230	   1346.19209981	      0.00000000
      0.17552150	    472.33126976	   1347.40904194	      0.00000000
      0.17610658	    475.90030859	   1348.47533803	      0.00000000
      0.17669165	    479.44314583	   1349.39579611	      0.00000000
      0.17727672	    482.96004357	   1350.17412686	      0.00000000
      0.17786179	    486.45171680	   1350.81467226	      0.00000000
      0.17844686	    489.91837494	   1351.32090431	      0.00000000
      0.17903193	    493.36055533	   1351.69676875	      0.00000000
      0.17961701	    496.77841811	   1351.94549853	      0.00000000
      0.18020208	    500.17236380	   1352.07068814	      0.00000000
      0.18078715	    503.54250662	   1352.07533234	      0.00000000
      0.18137222	    506.88913710	   1351.96270305	      0.00000000
      0.18195729	    510.21232944	   1351.73556275	      0.00000000
      0.18254236	    513.51228436	   1351.39688323	      0.00000000
      0.18312744	    516.78904330	   1350.94920411	      0.00000000
      0.18371251	    520.04273281	   1350.39521663	      0.00000000
      0.18429758	    523.27336759	   1349.73724868	      0.00000000
      0.18488265	    526.48101065	   1348.97772927	      0.00000000
      0.18546772	    529.66565404	   1348.11878530	      0.00000000
      0.18605279	    532.82730649	   1347.16259990	      0.00000000
      0.18663787	    535.96594259	   1346.11111388	      0.00000000
      0.18722294	    539.08152608	   1344.96628544	      0.00000000
      0.18780801	    542.17401225	   1343.72988213	      0.00000000
      0.18839308	    545.24331720	   1342.40365356	      0.00000000
      0.18897815	    548.28937760	   1340.98920583	      0.00000000
      0.18956322	    551.31207325	   1339.48809814	      0.00000000
      0.19014830	    554.31132557	   1337.90179258	      0.00000000
      0.19073337	    557.28697391	   1336.23167838	      0.00000000
      0.19131844	    560.23891906	   1334.47908286	      0.00000000
      0.19190351	    563.16695291	   1332.64523567	      0.00000000
      0.19248858	    566.07098451	   1330.73134520	      0.00000000
      0.19307365	    568.95082365	   1328.73851107	      0.00000000
      0.19365873	    571.80639101	   1326.66784529	      0.00000000
      0.19424380	    574.63746338	   1324.52033311	      0.00000000
      0.19482887	    577.44393817	   1322.29697396	      0.00000000
      0.19541394	    580.22556263	   1319.99862984	      0.00000000
      0.19599901	    582.98224397	   1317.62615770	      0.00000000
      0.19658408	    585.71375501	   1315.18026743	      0.00000000
      0.19716916	    588.41998857	   1312.66163502	      0.00000000
      0.19775423	    591.10069304	   1310.07077227	      0.00000000
      0.19833930	    593.75564365	   1307.40815409	      0.00000000
      0.19892437	    596.38447007	   1304.67408038	      0.00000000
      0.19950944	    598.98676387	   1301.86885421	      0.00000000
      0.20009451	    601.56196707	   1298.99259525	      0.00000000
      0.20067959	    604.10950550	   1296.04549848	      0.00000000
      0.20126466	    606.62866740	   1293.02757330	      0.00000000
      0.20184973	    609.11877795	   1289.93898241	      0.00000000
      0.20243480	    611.57899662	   1286.77970460	      0.00000000
      0.20301987	    614.00859459	   1283.54987263	      0.00000000
      0.20360494	    616.40667108	   1280.24944195	      0.00000000
      0.20419002	    618.77254438	   1276.87851587	      0.00000000
      0.20477509	    621.10535531	   1273.43702843	      0.00000000
      0.20536016	    623.40450456	   1269.92501221	      0.00000000
      0.20594523	    625.66921250	   1266.34233608	      0.00000000
      0.20653030	    627.89892264	   1262.68891031	      0.00000000
      0.20711537	    630.09289580	   1258.96448743	      0.00000000
      0.20770045	    632.25056128	   1255.16884190	      0.00000000
      0.20828552	    634.37118167	   1251.30160312	      0.00000000
      0.20887059	    636.45415660	   1247.36240751	      0.00000000
      0.20945566	    638.49873521	   1243.35074766	      0.00000000
      0.21004073	    640.50425558	   1239.26613723	      0.00000000
      0.21062580	    642.46993232	   1235.10795550	      0.00000000
      0.21121088	    644.39504572	   1230.87561513	      0.00000000
      0.21179595	    646.27877371	   1226.56840444	      0.00000000
      0.21238102	    648.12033652	   1222.18565741	      0.00000000
      0.21296609	    649.91887421	   1217.72659570	      0.00000000
      0.21355116	    651.67354585	   1213.19049686	      0.00000000
      0.21413623	    653.38345350	   1208.57653990	      0.00000000
      0.21472131	    655.04769623	   1203.88396799	      0.00000000
      0.21530638	    656.66533888	   1199.11194075	      0.00000000
      0.21589145	    658.23542377	   1194.25968816	      0.00000000
      0.21647652	    659.75698119	   1189.32637238	      0.00000000
      0.21706159	    661.22900118	   1184.31122924	      0.00000000
      0.21764666	    662.65048285	   1179.21344292	      0.00000000
      0.21823174	    664.02036736	   1174.03226905	      0.00000000
      0.21881681	    665.33762334	   1168.76692566	      0.00000000
      0.21940188	    666.60115229	   1163.41670672	      0.00000000
      0.21998695	    667.80990197	   1157.98088512	      0.00000000
      0.22057202	    668.96273702	   1152.45880238	      0.00000000
      0.22115709	    670.05858429	   1146.84979285	      0.00000000
      0.22174217	    671.09627622	   1141.15325380	      0.00000000
      0.22232724	    672.07472258	   1135.36858915	      0.00000000
      0.22291231	    672.99272880	   1129.49525941	      0.00000000
      0.22349738	    673.84919189	   1123.53274551	      0.00000000
      0.22408245	    674.64289737	   1117.48058016	      0.00000000
      0.22466752	    675.37274068	   1111.33833700	      0.00000000
      0.22525260	    676.03745557	   1105.10558010	      0.00000000
      0.22583767	    676.63587770	   1098.78189275	      0.00000000
      0.22642274	    677.16679055	   1092.36699283	      0.00000000
      0.22700781	    677.62911605	   1085.86067381	      0.00000000
      0.22759288	    678.02160931	   1079.26273189	      0.00000000
      0.22817795	    678.34316748	   1072.57302500	      0.00000000
      0.22876303	    678.59253221	   1065.79141578	      0.00000000
      0.22934810	    678.76859953	   1058.91784561	      0.00000000
      0.22993317	    678.87010993	   1051.95226318	      0.00000000
      0.23051824	    678.89597474	   1044.89471202	      0.00000000
      0.23110331	    678.84493504	   1037.74523033	      0.00000000
      0.23168838	    678.71591657	   1030.50396233	      0.00000000
      0.23227346	    678.50766533	   1023.17103881	      0.00000000
      0.23285853	    678.21912609	   1015.74670871	      0.00000000
      0.23344360	    677.84905425	   1008.23119886	      0.00000000
      0.23402867	    677.39641883	   1000.62486633	      0.00000000
      0.23461374	    676.85998883	    992.92803631	      0.00000000
      0.23519881	    676.23876071	    985.14117626	      0.00000000
      0.23578389	    675.53151962	    977.26471218	      0.00000000
      0.23636896	    674.73729339	    969.29922458	      0.00000000
      0.23695403	    673.85488736	    961.24524204	      0.00000000
      0.23753910	    672.88336480	    953.10345995	      0.00000000
      0.23812417	    671.82155403	    944.87451153	      0.00000000
      0.23870924	    670.66855754	    936.55920928	      0.00000000
      0.23929432	    669.42322870	    928.15829471	      0.00000000
      0.23987939	    668.08471140	    919.67270030	      0.00000000
      0.24046446	    666.65188587	    911.10328289	      0.00000000
      0.24104953	    665.12394079	    902.45109803	      0.00000000
      0.24163460	    663.49977730	    893.71712908	      0.00000000
      0.24221967	    661.77861349	    884.90256092	      0.00000000
      0.24280475	    659.95935877	    876.00852808	      0.00000000
      0.24338982	    658.04122545	    867.03636644	      0.00000000
      0.24397489	    656.02315239	    857.98739710	      0.00000000
      0.24455996	    653.90435636	    848.86313968	      0.00000000
      0.24514503	    651.68387269	    839.66510676	      0.00000000
      0.24573010	    649.36098480	    830.39501347	      0.00000000
      0.24631518	    646.93490082	    821.05451504	      0.00000000
      0.24690025	    644.40505242	    811.64550564	      0.00000000
      0.24748532	    641.77089549	    802.16967240	      0.00000000
      0.24807039	    639.03212881	    792.62904197	      0.00000000
      0.24865546	    636.18860453	    783.02512833	      0.00000000
      0.24924053	    633.24072197	    773.35987953	      0.00000000
      0.24982561	    630.18859019	    763.63431397	      0.00000000
      0.25041068	    627.03323810	    753.84998720	      0.00000000
      0.25099575	    623.77427117	    744.00745075	      0.00000000
      0.25158082	    620.41236167	    734.10794031	      0.00000000
      0.25216589	    616.94610931	    724.15208839	      0.00000000
      0.25275096	    613.37523575	    714.14127368	      0.00000000
      0.25333604	    609.69792608	    704.07662547	      0.00000000
      0.25392111	    605.91365164	    693.95987114	      0.00000000
      0.25450618	    602.02080501	    683.79254173	      0.00000000
      0.25509125	    598.01880033	    673.57667017	      0.00000000
      0.25567632	    593.90624676	    663.31417546	      0.00000000
      0.25626139	    589.68255863	    653.00736332	      0.00000000
      0.25684647	    585.34658040	    642.65851427	      0.00000000
      0.25743154	    580.89775115	    632.27016840	      0.00000000
      0.25801661	    576.33515889	    621.84493011	      0.00000000
      0.25860168	    571.65827271	    611.38553818	      0.00000000
      0.25918675	    566.86642889	    600.89489301	      0.00000000
      0.25977183	    561.95914625	    590.37591351	      0.00000000
      0.26035690	    556.93600628	    579.83176714	      0.00000000
      0.26094197	    551.79658275	    569.26553436	      0.00000000
      0.26152704	    546.54066321	    558.68059555	      0.00000000
      0.26211211	    541.16785962	    548.08015129	      0.00000000
      0.26269718	    535.67811372	    537.46773035	      0.00000000
      0.26328226	    530.07105229	    526.84661318	      0.00000000
      0.26386733	    524.34673629	    516.22043940	      0.00000000
      0.26445240	    518.50480111	    505.59255144	      0.00000000
      0.26503747	    512.54540705	    494.96667982	      0.00000000
      0.26562254	    506.46819690	    484.34623209	      0.00000000
      0.26620761	    500.27343436	    473.73501584	      0.00000000
      0.26679269	    493.96080798	    463.13650556	      0.00000000
      0.26737776	    487.53071990	    452.55458430	      0.00000000
      0.26796283	    480.98281061	    441.99285147	      0.00000000
      0.26854790	    474.31777590	    431.45518519	      0.00000000
      0.26913297	    467.53531150	    420.94517171	      0.00000000
      0.26971804	    460.63698422	    410.46638760	      0.00000000
      0.27030312	    453.62341300	    400.02172630	      0.00000000
      0.27088819	    446.49713661	    389.61462689	      0.00000000
      0.27147326	    439.25905781	    379.24798336	      0.00000000
      0.27205833	    431.91112326	    368.92547899	      0.00000000
      0.27264340	    424.45380288	    358.65017603	      0.00000000
      0.27322847	    416.88857252	    348.42593920	      0.00000000
      0.27381355	    409.21561648	    338.25604645	      0.00000000
      0.27439862	    401.43643961	    328.14459622	      0.00000000
      0.27498369	    393.55131890	    318.09518346	      0.00000000
      0.27556876	    385.56209192	    308.11223045	      0.00000000
      0.27615383	    377.46937630	    298.19966972	      0.00000000
      0.27673890	    369.27561236	    288.36207240	      0.00000000
      0.27732398	    360.98186487	    278.60368720	      0.00000000
      0.27790905	    352.59080332	    268.92962669	      0.00000000
      0.27849412	    344.10388279	    259.34441783	      0.00000000
      0.27907919	    335.52413166	    249.85364045	      0.00000000
      0.27966426	    326.85377753	    240.46184521	      0.00000000
      0.28024933	    318.09623335	    231.17638346	      0.00000000
      0.28083441	    309.25603579	    222.00407130	      0.00000000
      0.28141948	    300.33767787	    212.95734862	      0.00000000
      0.28200455	    291.35229305	    204.05386459	      0.00000000
      0.28258962	    282.29977433	    195.30442285	      0.00000000
      0.28317469	    273.18485850	    186.71942862	      0.00000000
      0.28375976	    264.01243569	    178.30454830	      0.00000000
      0.28434484	    254.79345770	    170.06900374	      0.00000000
      0.28492991	    245.53555018	    162.01679699	      0.00000000
      0.28551498	    236.23968712	    154.14828050	      0.00000000
      0.28610005	    226.93165431	    146.47562477	      0.00000000
      0.28668512	    217.63839789	    139.00977343	      0.00000000
      0.28727019	    208.40033442	    131.77219447	      0.00000000
      0.28785527	    199.25091711	    124.77359064	      0.00000000
      0.28844034	    190.25751794	    118.05946738	      0.00000000
      0.28902541	    181.55670108	    111.71073039	      0.00000000
      0.28961048	    173.20521519	    105.76929341	      0.00000000
      0.29019555	    165.29706454	    100.28166032	      0.00000000
      0.29078062	    157.82415568	     95.23124764	      0.00000000
      0.29136570	    150.82607546	     90.62312620	      0.00000000
      0.29195077	    144.28161272	     86.42503159	      0.00000000
      0.29253584	    138.19669886	     82.62128213	      0.00000000
      0.29312091	    132.55045158	     79.18068367	      0.00000000
      0.29370598	    127.31888866	     76.07621311	      0.00000000
      0.29429105	    122.47057608	     73.27749288	      0.00000000
      0.29487613	    117.95973644	     70.75414058	      0.00000000
      0.29546120	    113.73015327	     68.47249038	      0.00000000
      0.29604627	    109.73969707	     66.41155774	      0.00000000
      0.29663134	    105.86273747	     64.51492449	      0.00000000
      0.29721641	    102.17088142	     62.81809600	      0.00000000
      0.29780148	     98.26736185	     61.15091829	      0.00000000
      0.29838656	     94.81558506	     59.81391674	      0.00000000
      0.29897163	     89.25871081	     57.66844281	      0.00000000
      0.29955670	     77.84914825	     52.81527079	      0.00000000
      0.30014177	     63.10151904	     45.66903523	      0.00000000
      0.30072684	     51.78108042	     38.11174331	      0.00000000
      0.30131191	     49.61492724	     32.62040299	      0.00000000
      0.30189699	     53.67927857	     29.80742357	      0.00000000
      0.30248206	     57.28911875	     28.25198342	      0.00000000
      0.30306713	     58.11901349	     26.78340624	      0.00000000
      0.30365220	     58.31654601	     25.36684945	      0.00000000
      0.30423727	     58.39582477	     23.97978086	      0.00000000
      0.30482234	     58.43470176	     22.58866701	      0.00000000
      0.30540742	     58.40937851	     21.17504454	      0.00000000
      0.30599249	     58.30131622	     19.73792742	      0.00000000
      0.30657756	     58.09511145	     18.27770881	      0.00000000
      0.30716263	     57.79019233	     16.80786443	      0.00000000
      0.30774770	     57.38378679	     15.33874039	      0.00000000
      0.30833277	     56.87523433	     13.88486352	      0.00000000
      0.30891785	     56.26220431	     12.45814727	      0.00000000
      0.30950292	     55.54216532	     11.07048012	      0.00000000
      0.31008799	     54.71201962	      9.73140590	      0.00000000
      0.31067306	     53.76814712	      8.44986190	      0.00000000
      0.31125813	     52.70566977	      7.23234214	      0.00000000
      0.31184320	     51.51978256	      6.08581705	      0.00000000
      0.31242828	     50.20608562	      5.01582190	      0.00000000
      0.31301335	     48.76668948	      4.03046699	      0.00000000
      0.31359842	     47.21262855	      3.13975608	      0.00000000
      0.31418349	     45.56561882	      2.35539494	      0.00000000
      0.31476856	     43.85718651	      1.68856793	      0.00000000
      0.31535363	     42.11563476	      1.14314845	      0.00000000
      0.31593871	     40.37090798	      0.71720727	      0.00000000
      0.31652378	     38.63908692	      0.39935800	      0.00000000
      0.31710885	     36.93512897	      0.17379472	      0.00000000
      0.31769392	     35.26600351	      0.02008359	      0.00000000
      0.31827899	     33.64119734	     -0.08382010	      0.00000000
      0.31886406	     32.06674947	     -0.15755531	      0.00000000
      0.31944914	     30.54439283	     -0.21925217	      0.00000000
      0.32003421	     29.22132057	     -0.56031687	      0.00000000
      0.32061928	     27.76341982	     -0.62879522	      0.00000000
      0.32120435	     26.34179830	     -0.70732268	      0.00000000
      0.32178942	     24.95052862	     -0.80138596	      0.00000000
      0.32237449	     23.56277683	     -0.88201968	      0.00000000
      0.32295957	     22.18221278	     -0.96609026	      0.00000000
      0.32354464	     20.79552085	     -1.04229528	      0.00000000
      0.32412971	     19.39997557	     -1.11477966	      0.00000000
      0.32471478	     17.99115295	     -1.18245030	      0.00000000
      0.32529985	     16.56689639	     -1.24761793	      0.00000000
      0.32588492	     15.12602929	     -1.31233265	      0.00000000
      0.32647000	     13.66776114	     -1.37944059	      0.00000000
      0.32705507	     12.19193696	     -1.45188471	      0.00000000
      0.32764014	     10.69858946	     -1.53280404	      0.00000000
      0.32822521	      9.18809319	     -1.62521942	      0.00000000
      0.32881028	      7.66099282	     -1.73208763	      0.00000000
      0.32939535	      6.11802527	     -1.85603889	      0.00000000
      0.32998043	      4.56009069	     -1.99948084	      0.00000000
      0.33056550	      2.98803837	     -2.16442310	      0.00000000
      0.33115057	      1.40277734	     -2.35264270	      0.00000000
      0.33173564	     -0.19484579	     -2.56554109	      0.00000000
      0.33232071	     -1.80377071	     -2.80428608	      0.00000000
      0.33290578	     -3.42290243	     -3.06970636	      0.00000000
      0.33349086	     -5.05096531	     -3.36242277	      0.00000000
      0.33407593	     -6.68665124	     -3.68276582	      0.00000000
      0.33466100	     -8.32849279	     -4.03087797	      0.00000000
      0.33524607	     -9.97499709	     -4.40665659	      0.00000000
      0.33583114	    -11.62454523	     -4.80983122	      0.00000000
      0.33641621	    -13.27550870	     -5.23993365	      0.00000000
      0.33700129	    -14.92618555	     -5.69635204	      0.00000000
      0.33758636	    -16.57488163	     -6.17832717	      0.00000000
      0.33817143	    -18.21987862	     -6.68498094	      0.00000000
      0.33875650	    -19.85947544	     -7.21533960	      0.00000000
      0.33934157	    -21.49199326	     -7.76833598	      0.00000000
      0.33992664	    -23.11577427	     -8.34285842	      0.00000000
      0.34051172	    -24.72922343	     -8.93772690	      0.00000000
      0.34109679	    -26.33076760	     -9.55176453	      0.00000000
      0.34168186	    -27.91892992	    -10.18374982	      0.00000000
      0.34226693	    -29.49225467	    -10.83250601	      0.00000000
      0.34285200	    -31.04940828	    -11.49683354	      0.00000000
      0.34343707	    -32.58907582	    -12.17561136	      0.00000000
      0.34402215	    -34.11008281	    -12.86771483	      0.00000000
      0.34460722	    -35.61126944	    -13.57212339	      0.00000000
      0.34519229	    -37.09162685	    -14.28782943	      0.00000000
      0.34577736	    -38.55015784	    -15.01394684	      0.00000000
      0.34636243	    -39.98601551	    -15.74961455	      0.00000000
      0.34694751	    -41.39837420	    -16.49410544	      0.00000000
      0.34753258	    -42.78653142	    -17.24672205	      0.00000000
      0.34811765	    -44.14987414	    -18.00691963	      0.00000000
      0.34870272	    -45.48772689	    -18.77414607	      0.00000000
      0.34928779	    -46.79991963	    -19.54810015	      0.00000000
      0.34987286	    -48.08518466	    -20.32821002	      0.00000000
      0.35045794	    -49.34523801	    -21.11479774	      0.00000000
      0.35104301	    -50.57363898	    -21.90608878	      0.00000000
