PointPosition
version=1
nRows=601
nColumns=4
inDegrees=no
No description.
endheader
time	state_0	state_1	state_2
      0.00000000	     -0.25509943	      0.00192960	      0.09478690
      0.00058507	     -0.25510815	      0.00192785	      0.09478690
      0.00117014	     -0.25511700	      0.00192588	      0.09478690
      0.00175522	     -0.25512598	      0.00192373	      0.09478690
      0.00234029	     -0.25513510	      0.00192142	      0.09478690
      0.00292536	     -0.25514436	      0.00191899	      0.09478690
      0.00351043	     -0.25515375	      0.00191646	      0.09478690
      0.00409550	     -0.25516327	      0.00191385	      0.09478690
      0.00468057	     -0.25517293	      0.00191120	      0.09478690
      0.00526565	     -0.25518273	      0.00190853	      0.09478690
      0.00585072	     -0.25519267	      0.00190586	      0.09478690
      0.00643579	     -0.25520274	      0.00190321	      0.09478690
      0.00702086	     -0.25521296	      0.00190061	      0.09478690
      0.00760593	     -0.25522333	      0.00189808	      0.09478690
      0.00819100	     -0.25523383	      0.00189563	      0.09478690
      0.00877608	     -0.25524448	      0.00189328	      0.09478690
      0.00936115	     -0.25525528	      0.00189106	      0.09478690
      0.00994622	     -0.25526623	      0.00188897	      0.09478690
      0.01053129	     -0.25527732	      0.00188704	      0.09478690
      0.01111636	     -0.25528857	      0.00188527	      0.09478690
      0.01170143	     -0.25529997	      0.00188368	      0.09478690
      0.01228651	     -0.25531153	      0.00188228	      0.09478690
      0.01287158	     -0.25532324	      0.00188109	      0.09478690
      0.01345665	     -0.25533510	      0.00188011	      0.09478690
      0.01404172	     -0.25534712	      0.00187935	      0.09478690
      0.01462679	     -0.25535931	      0.00187882	      0.09478690
      0.01521186	     -0.25537165	      0.00187854	      0.09478690
      0.01579694	     -0.25538415	      0.00187850	      0.09478690
      0.01638201	     -0.25539682	      0.00187872	      0.09478690
      0.01696708	     -0.25540965	      0.00187920	      0.09478690
      0.01755215	     -0.25542264	      0.00187995	      0.09478690
      0.01813722	     -0.25543580	      0.00188097	      0.09478690
      0.01872229	     -0.25544913	      0.00188226	      0.09478690
      0.01930737	     -0.25546262	      0.00188383	      0.09478690
      0.01989244	     -0.25547628	      0.00188569	      0.09478690
      0.02047751	     -0.25549012	      0.00188782	      0.09478690
      0.02106258	     -0.25550412	      0.00189025	      0.09478690
      0.02164765	     -0.25551829	      0.00189296	      0.09478690
      0.02223272	     -0.25553263	      0.00189597	      0.09478690
      0.02281780	     -0.25554715	      0.00189926	      0.09478690
      0.02340287	     -0.25556184	      0.00190284	      0.09478690
      0.02398794	     -0.25557671	      0.00190672	      0.09478690
      0.02457301	     -0.25559175	      0.00191088	      0.09478690
      0.02515808	     -0.25560697	      0.00191534	      0.09478690
      0.02574315	     -0.25562236	      0.00192008	      0.09478690
      0.02632823	     -0.25563793	      0.00192511	      0.09478690
      0.02691330	     -0.25565367	      0.00193043	      0.09478690
      0.02749837	     -0.25566960	      0.00193603	      0.09478690
      0.02808344	     -0.25568570	      0.00194191	      0.09478690
      0.02866851	     -0.25570199	      0.00194806	      0.09478690
      0.02925358	     -0.25571845	      0.00195450	      0.09478690
      0.02983866	     -0.25573510	      0.00196121	      0.09478690
      0.03042373	     -0.25575192	      0.00196819	      0.09478690
      0.03100880	     -0.25576893	      0.00197543	      0.09478690
      0.03159387	     -0.25578612	      0.00198294	      0.09478690
      0.03217894	     -0.25580349	      0.00199071	      0.09478690
      0.03276401	     -0.25582105	      0.00199873	      0.09478690
      0.03334909	     -0.25583879	      0.00200700	      0.09478690
      0.03393416	     -0.25585672	      0.00201552	      0.09478690
      0.03451923	     -0.25587482	      0.00202428	      0.09478690
      0.03510430	     -0.25589312	      0.00203328	      0.09478690
      0.03568937	     -0.25591159	      0.00204251	      0.09478690
      0.03627444	     -0.25593025	      0.00205197	      0.09478690
      0.03685952	     -0.25594910	      0.00206166	      0.09478690
      0.03744459	     -0.25596813	      0.00207156	      0.09478690
      0.03802966	     -0.25598735	      0.00208167	      0.09478690
      0.03861473	     -0.25600675	      0.00209199	      0.09478690
      0.03919980	     -0.25602634	      0.00210251	      0.09478690
      0.03978487	     -0.25604611	      0.00211323	      0.09478690
      0.04036995	     -0.25606607	      0.00212413	      0.09478690
      0.04095502	     -0.25608621	      0.00213522	      0.09478690
      0.04154009	     -0.25610654	      0.00214650	      0.09478690
      0.04212516	     -0.25612706	      0.00215794	      0.09478690
      0.04271023	     -0.25614776	      0.00216956	      0.09478690
      0.04329530	     -0.25616866	      0.00218133	      0.09478690
      0.04388038	     -0.25618974	      0.00219327	      0.09478690
      0.04446545	     -0.25621101	      0.00220536	      0.09478690
      0.04505052	     -0.25623247	      0.00221760	      0.09478690
      0.04563559	     -0.25625412	      0.00222998	      0.09478690
      0.04622066	     -0.25627596	      0.00224249	      0.09478690
      0.04680573	     -0.25629799	      0.00225514	      0.09478690
      0.04739081	     -0.25632022	      0.00226792	      0.09478690
      0.04797588	     -0.25634264	      0.00228083	      0.09478690
      0.04856095	     -0.25636526	      0.00229385	      0.09478690
      0.04914602	     -0.25638807	      0.00230699	      0.09478690
      0.04973109	     -0.25641108	      0.00232024	      0.09478690
      0.05031616	     -0.25643428	      0.00233360	      0.09478690
      0.05090124	     -0.25645769	      0.00234707	      0.09478690
      0.05148631	     -0.25648129	      0.00236064	      0.09478690
      0.05207138	     -0.25650510	      0.00237431	      0.09478690
      0.05265645	     -0.25652910	      0.00238807	      0.09478690
      0.05324152	     -0.25655331	      0.00240193	      0.09478690
      0.05382659	     -0.25657773	      0.00241589	      0.09478690
      0.05441167	     -0.25660235	      0.00242994	      0.09478690
      0.05499674	     -0.25662718	      0.00244408	      0.09478690
      0.05558181	     -0.25665221	      0.00245830	      0.09478690
      0.05616688	     -0.25667746	      0.00247262	      0.09478690
      0.05675195	     -0.25670291	      0.00248703	      0.09478690
      0.05733702	     -0.25672858	      0.00250153	      0.09478690
      0.05792210	     -0.25675446	      0.00251613	      0.09478690
      0.05850717	     -0.25678055	      0.00253081	      0.09478690
      0.05909224	     -0.25680685	      0.00254559	      0.09478690
      0.05967731	     -0.25683337	      0.00256047	      0.09478690
      0.06026238	     -0.25686011	      0.00257544	      0.09478690
      0.06084745	     -0.25688706	      0.00259051	      0.09478690
      0.06143253	     -0.25691422	      0.00260567	      0.09478690
      0.06201760	     -0.25694159	      0.00262094	      0.09478690
      0.06260267	     -0.25696918	      0.00263631	      0.09478690
      0.06318774	     -0.25699698	      0.00265178	      0.09478690
      0.06377281	     -0.25702498	      0.00266735	      0.09478690
      0.06435788	     -0.25705320	      0.00268304	      0.09478690
      0.06494296	     -0.25708162	      0.00269885	      0.09478690
      0.06552803	     -0.25711026	      0.00271479	      0.09478690
      0.06611310	     -0.25713910	      0.00273087	      0.09478690
      0.06669817	     -0.25716816	      0.00274710	      0.09478690
      0.06728324	     -0.25719742	      0.00276350	      0.09478690
      0.06786831	     -0.25722689	      0.00278009	      0.09478690
      0.06845339	     -0.25725658	      0.00279689	      0.09478690
      0.06903846	     -0.25728648	      0.00281392	      0.09478690
      0.06962353	     -0.25731659	      0.00283121	      0.09478690
      0.07020860	     -0.25734691	      0.00284877	      0.09478690
      0.07079367	     -0.25737745	      0.00286662	      0.09478690
      0.07137874	     -0.25740820	      0.00288480	      0.09478690
      0.07196382	     -0.25743916	      0.00290334	      0.09478690
      0.07254889	     -0.25747033	      0.00292226	      0.09478690
      0.07313396	     -0.25750173	      0.00294162	      0.09478690
      0.07371903	     -0.25753334	      0.00296146	      0.09478690
      0.07430410	     -0.25756519	      0.00298184	      0.09478690
      0.07488917	     -0.25759727	      0.00300284	      0.09478690
      0.07547425	     -0.25762959	      0.00302453	      0.09478690
      0.07605932	     -0.25766215	      0.00304698	      0.09478690
      0.07664439	     -0.25769495	      0.00307028	      0.09478690
      0.07722946	     -0.25772798	      0.00309450	      0.09478690
      0.07781453	     -0.25776126	      0.00311972	      0.09478690
      0.07839960	     -0.25779476	      0.00314601	      0.09478690
      0.07898468	     -0.25782849	      0.00317345	      0.09478690
      0.07956975	     -0.25786244	      0.00320211	      0.09478690
      0.08015482	     -0.25789659	      0.00323205	      0.09478690
      0.08073989	     -0.25793094	      0.00326333	      0.09478690
      0.08132496	     -0.25796547	      0.00329601	      0.09478690
      0.08191003	     -0.25800018	      0.00333014	      0.09478690
      0.08249511	     -0.25803504	      0.00336578	      0.09478690
      0.08308018	     -0.25807005	      0.00340298	      0.09478690
      0.08366525	     -0.25810519	      0.00344178	      0.09478690
      0.08425032	     -0.25814045	      0.00348222	      0.09478690
      0.08483539	     -0.25817582	      0.00352437	      0.09478690
      0.08542046	     -0.25821125	      0.00356819	      0.09478690
      0.08600554	     -0.25824665	      0.00361352	      0.09478690
      0.08659061	     -0.25828201	      0.00366029	      0.09478690
      0.08717568	     -0.25831736	      0.00370855	      0.09478690
      0.08776075	     -0.25835271	      0.00375838	      0.09478690
      0.08834582	     -0.25838806	      0.00380987	      0.09478690
      0.08893090	     -0.25842340	      0.00386310	      0.09478690
      0.08951597	     -0.25845873	      0.00391818	      0.09478690
      0.09010104	     -0.25849403	      0.00397517	      0.09478690
      0.09068611	     -0.25852929	      0.00403416	      0.09478690
      0.09127118	     -0.25856449	      0.00409523	      0.09478690
      0.09185625	     -0.25859964	      0.00415844	      0.09478690
      0.09244133	     -0.25863471	      0.00422385	      0.09478690
      0.09302640	     -0.25866970	      0.00429153	      0.09478690
      0.09361147	     -0.25870459	      0.00436154	      0.09478690
      0.09419654	     -0.25873938	      0.00443390	      0.09478690
      0.09478161	     -0.25877405	      0.00450868	      0.09478690
      0.09536668	     -0.25880862	      0.00458590	      0.09478690
      0.09595176	     -0.25884306	      0.00466559	      0.09478690
      0.09653683	     -0.25887737	      0.00474778	      0.09478690
      0.09712190	     -0.25891155	      0.00483250	      0.09478690
      0.09770697	     -0.25894560	      0.00491975	      0.09478690
      0.09829204	     -0.25897952	      0.00500955	      0.09478690
      0.09887711	     -0.25901331	      0.00510190	      0.09478690
      0.09946219	     -0.25904695	      0.00519681	      0.09478690
      0.10004726	     -0.25908047	      0.00529427	      0.09478690
      0.10063233	     -0.25911384	      0.00539428	      0.09478690
      0.10121740	     -0.25914706	      0.00549682	      0.09478690
      0.10180247	     -0.25918014	      0.00560187	      0.09478690
      0.10238754	     -0.25921305	      0.00570941	      0.09478690
      0.10297262	     -0.25924577	      0.00581941	      0.09478690
      0.10355769	     -0.25927830	      0.00593183	      0.09478690
      0.10414276	     -0.25931061	      0.00604666	      0.09478690
      0.10472783	     -0.25934266	      0.00616385	      0.09478690
      0.10531290	     -0.25937444	      0.00628337	      0.09478690
      0.10589797	     -0.25940590	      0.00640517	      0.09478690
      0.10648305	     -0.25943701	      0.00652923	      0.09478690
      0.10706812	     -0.25946773	      0.00665550	      0.09478690
      0.10765319	     -0.25949801	      0.00678395	      0.09478690
      0.10823826	     -0.25952779	      0.00691452	      0.09478690
      0.10882333	     -0.25955704	      0.00704719	      0.09478690
      0.10940840	     -0.25958569	      0.00718190	      0.09478690
      0.10999348	     -0.25961368	      0.00731861	      0.09478690
      0.11057855	     -0.25964095	      0.00745729	      0.09478690
      0.11116362	     -0.25966745	      0.00759789	      0.09478690
      0.11174869	     -0.25969312	      0.00774037	      0.09478690
      0.11233376	     -0.25971790	      0.00788469	      0.09478690
      0.11291883	     -0.25974176	      0.00803081	      0.09478690
      0.11350391	     -0.25976463	      0.00817869	      0.09478690
      0.11408898	     -0.25978649	      0.00832828	      0.09478690
      0.11467405	     -0.25980729	      0.00847956	      0.09478690
      0.11525912	     -0.25982697	      0.00863249	      0.09478690
      0.11584419	     -0.25984542	      0.00878707	      0.09478690
      0.11642926	     -0.25986241	      0.00894331	      0.09478690
      0.11701434	     -0.25987751	      0.00910129	      0.09478690
      0.11759941	     -0.25989011	      0.00926113	      0.09478690
      0.11818448	     -0.25989942	      0.00942301	      0.09478690
      0.11876955	     -0.25990459	      0.00958709	      0.09478690
      0.11935462	     -0.25990469	      0.00975355	      0.09478690
      0.11993969	     -0.25989873	      0.00992256	      0.09478690
      0.12052477	     -0.25988572	      0.01009426	      0.09478690
      0.12110984	     -0.25986463	      0.01026879	      0.09478690
      0.12169491	     -0.25983442	      0.01044623	      0.09478690
      0.12227998	     -0.25979404	      0.01062665	      0.09478690
      0.12286505	     -0.25974242	      0.01081009	      0.09478690
      0.12345012	     -0.25967845	      0.01099656	      0.09478690
      0.12403520	     -0.25960104	      0.01118601	      0.09478690
      0.12462027	     -0.25950906	      0.01137843	      0.09478690
      0.12520534	     -0.25940143	      0.01157374	      0.09478690
      0.12579041	     -0.25927709	      0.01177189	      0.09478690
      0.12637548	     -0.25913513	      0.01197277	      0.09478690
      0.12696055	     -0.25897468	      0.01217630	      0.09478690
      0.12754563	     -0.25879500	      0.01238236	      0.09478690
      0.12813070	     -0.25859542	      0.01259082	      0.09478690
      0.12871577	     -0.25837538	      0.01280153	      0.09478690
      0.12930084	     -0.25813434	      0.01301434	      0.09478690
      0.12988591	     -0.25787184	      0.01322908	      0.09478690
      0.13047098	     -0.25758745	      0.01344556	      0.09478690
      0.13105606	     -0.25728080	      0.01366360	      0.09478690
      0.13164113	     -0.25695157	      0.01388301	      0.09478690
      0.13222620	     -0.25659950	      0.01410359	      0.09478690
      0.13281127	     -0.25622435	      0.01432514	      0.09478690
      0.13339634	     -0.25582596	      0.01454746	      0.09478690
      0.13398141	     -0.25540419	      0.01477035	      0.09478690
      0.13456649	     -0.25495897	      0.01499362	      0.09478690
      0.13515156	     -0.25449025	      0.01521706	      0.09478690
      0.13573663	     -0.25399804	      0.01544050	      0.09478690
      0.13632170	     -0.25348237	      0.01566374	      0.09478690
      0.13690677	     -0.25294335	      0.01588661	      0.09478690
      0.13749184	     -0.25238109	      0.01610893	      0.09478690
      0.13807692	     -0.25179575	      0.01633053	      0.09478690
      0.13866199	     -0.25118752	      0.01655125	      0.09478690
      0.13924706	     -0.25055663	      0.01677095	      0.09478690
      0.13983213	     -0.24990333	      0.01698947	      0.09478690
      0.14041720	     -0.24922791	      0.01720668	      0.09478690
      0.14100227	     -0.24853065	      0.01742245	      0.09478690
      0.14158735	     -0.24781188	      0.01763667	      0.09478690
      0.14217242	     -0.24707194	      0.01784920	      0.09478690
      0.14275749	     -0.24631116	      0.01805996	      0.09478690
      0.14334256	     -0.24552991	      0.01826884	      0.09478690
      0.14392763	     -0.24472855	      0.01847576	      0.09478690
      0.14451270	     -0.24390745	      0.01868063	      0.09478690
      0.14509778	     -0.24306698	      0.01888338	      0.09478690
      0.14568285	     -0.24220751	      0.01908394	      0.09478690
      0.14626792	     -0.24132943	      0.01928225	      0.09478690
      0.14685299	     -0.24043311	      0.01947827	      0.09478690
      0.14743806	     -0.23951896	      0.01967194	      0.09478690
      0.14802313	     -0.23858734	      0.01986323	      0.09478690
      0.14860821	     -0.23763866	      0.02005210	      0.09478690
      0.14919328	     -0.23667328	      0.02023854	      0.09478690
      0.14977835	     -0.23569157	      0.02042252	      0.09478690
      0.15036342	     -0.23469390	      0.02060403	      0.09478690
      0.15094849	     -0.23368060	      0.02078305	      0.09478690
      0.15153356	     -0.23265200	      0.02095957	      0.09478690
      0.15211864	     -0.23160841	      0.02113359	      0.09478690
      0.15270371	     -0.23055015	      0.02130510	      0.09478690
      0.15328878	     -0.22947748	      0.02147412	      0.09478690
      0.15387385	     -0.22839071	      0.02164063	      0.09478690
      0.15445892	     -0.22729008	      0.02180466	      0.09478690
      0.15504399	     -0.22617585	      0.02196619	      0.09478690
      0.15562907	     -0.22504828	      0.02212526	      0.09478690
      0.15621414	     -0.22390760	      0.02228187	      0.09478690
      0.15679921	     -0.22275403	      0.02243604	      0.09478690
      0.15738428	     -0.22158781	      0.02258777	      0.09478690
      0.15796935	     -0.22040914	      0.02273710	      0.09478690
      0.15855442	     -0.21921823	      0.02288405	      0.09478690
      0.15913950	     -0.21801529	      0.02302862	      0.09478690
      0.15972457	     -0.21680051	      0.02317085	      0.09478690
      0.16030964	     -0.21557408	      0.02331076	      0.09478690
      0.16089471	     -0.21433618	      0.02344837	      0.09478690
      0.16147978	     -0.21308700	      0.02358371	      0.09478690
      0.16206485	     -0.21182670	      0.02371680	      0.09478690
      0.16264993	     -0.21055547	      0.02384767	      0.09478690
      0.16323500	     -0.20927345	      0.02397634	      0.09478690
      0.16382007	     -0.20798082	      0.02410285	      0.09478690
      0.16440514	     -0.20667772	      0.02422722	      0.09478690
      0.16499021	     -0.20536432	      0.02434948	      0.09478690
      0.16557528	     -0.20404075	      0.02446968	      0.09478690
      0.16616036	     -0.20270717	      0.02458783	      0.09478690
      0.16674543	     -0.20136371	      0.02470399	      0.09478690
      0.16733050	     -0.20001051	      0.02481817	      0.09478690
      0.16791557	     -0.19864769	      0.02493042	      0.09478690
      0.16850064	     -0.19727539	      0.02504078	      0.09478690
      0.16908571	     -0.19589373	      0.02514926	      0.09478690
      0.16967079	     -0.19450283	      0.02525591	      0.09478690
      0.17025586	     -0.19310280	      0.02536076	      0.09478690
      0.17084093	     -0.19169377	      0.02546383	      0.09478690
      0.17142600	     -0.19027584	      0.02556517	      0.09478690
      0.17201107	     -0.18884911	      0.02566478	      0.09478690
      0.17259615	     -0.18741370	      0.02576272	      0.09478690
      0.17318122	     -0.18596971	      0.02585900	      0.09478690
      0.17376629	     -0.18451723	      0.02595365	      0.09478690
      0.17435136	     -0.18305637	      0.02604670	      0.09478690
      0.17493643	     -0.18158722	      0.02613817	      0.09478690
      0.17552150	     -0.18010989	      0.02622810	      0.09478690
      0.17610658	     -0.17862445	      0.02631652	      0.09478690
      0.17669165	     -0.17713100	      0.02640344	      0.09478690
      0.17727672	     -0.17562964	      0.02648889	      0.09478690
      0.17786179	     -0.17412045	      0.02657291	      0.09478690
      0.17844686	     -0.17260351	      0.02665551	      0.09478690
      0.17903193	     -0.17107892	      0.02673673	      0.09478690
      0.17961701	     -0.16954675	      0.02681659	      0.09478690
      0.18020208	     -0.16800709	      0.02689512	      0.09478690
      0.18078715	     -0.16646002	      0.02697234	      0.09478690
      0.18137222	     -0.16490563	      0.02704828	      0.09478690
      0.18195729	     -0.16334398	      0.02712297	      0.09478690
      0.18254236	     -0.16177517	      0.02719643	      0.09478690
      0.18312744	     -0.16019926	      0.02726870	      0.09478690
      0.18371251	     -0.15861634	      0.02733979	      0.09478690
      0.18429758	     -0.15702648	      0.02740973	      0.09478690
      0.18488265	     -0.15542975	      0.02747855	      0.09478690
      0.18546772	     -0.15382623	      0.02754628	      0.09478690
      0.18605279	     -0.15221600	      0.02761295	      0.09478690
      0.18663787	     -0.15059912	      0.02767858	      0.09478690
      0.18722294	     -0.14897567	      0.02774320	      0.09478690
      0.18780801	     -0.14734572	      0.02780683	      0.09478690
      0.18839308	     -0.14570935	      0.02786951	      0.09478690
      0.18897815	     -0.14406661	      0.02793125	      0.09478690
      0.18956322	     -0.14241759	      0.02799210	      0.09478690
      0.19014830	     -0.14076235	      0.02805207	      0.09478690
      0.19073337	     -0.13910096	      0.02811119	      0.09478690
      0.19131844	     -0.13743350	      0.02816950	      0.09478690
      0.19190351	     -0.13576001	      0.02822701	      0.09478690
      0.19248858	     -0.13408059	      0.02828376	      0.09478690
      0.19307365	     -0.13239528	      0.02833977	      0.09478690
      0.19365873	     -0.13070417	      0.02839507	      0.09478690
      0.19424380	     -0.12900731	      0.02844969	      0.09478690
      0.19482887	     -0.12730477	      0.02850365	      0.09478690
      0.19541394	     -0.12559661	      0.02855698	      0.09478690
      0.19599901	     -0.12388291	      0.02860971	      0.09478690
      0.19658408	     -0.12216372	      0.02866187	      0.09478690
      0.19716916	     -0.12043911	      0.02871347	      0.09478690
      0.19775423	     -0.11870915	      0.02876456	      0.09478690
      0.19833930	     -0.11697389	      0.02881515	      0.09478690
      0.19892437	     -0.11523340	      0.02886527	      0.09478690
      0.19950944	     -0.11348774	      0.02891494	      0.09478690
      0.20009451	     -0.11173697	      0.02896420	      0.09478690
      0.20067959	     -0.10998116	      0.02901307	      0.09478690
      0.20126466	     -0.10822037	      0.02906158	      0.09478690
      0.20184973	     -0.10645466	      0.02910975	      0.09478690
      0.20243480	     -0.10468409	      0.02915760	      0.09478690
      0.20301987	     -0.10290871	      0.02920517	      0.09478690
      0.20360494	     -0.10112860	      0.02925247	      0.09478690
      0.20419002	     -0.09934381	      0.02929954	      0.09478690
      0.20477509	     -0.09755439	      0.02934640	      0.09478690
      0.20536016	     -0.09576041	      0.02939307	      0.09478690
      0.20594523	     -0.09396193	      0.02943957	      0.09478690
      0.20653030	     -0.09215901	      0.02948594	      0.09478690
      0.20711537	     -0.09035169	      0.02953219	      0.09478690
      0.20770045	     -0.08854005	      0.02957835	      0.09478690
      0.20828552	     -0.08672413	      0.02962444	      0.09478690
      0.20887059	     -0.08490399	      0.02967048	      0.09478690
      0.20945566	     -0.08307970	      0.02971651	      0.09478690
      0.21004073	     -0.08125130	      0.02976253	      0.09478690
      0.21062580	     -0.07941886	      0.02980858	      0.09478690
      0.21121088	     -0.07758243	      0.02985468	      0.09478690
      0.21179595	     -0.07574206	      0.02990085	      0.09478690
      0.21238102	     -0.07389781	      0.02994710	      0.09478690
      0.21296609	     -0.07204973	      0.02999347	      0.09478690
      0.21355116	     -0.07019789	      0.03003998	      0.09478690
      0.21413623	     -0.06834233	      0.03008665	      0.09478690
      0.21472131	     -0.06648311	      0.03013349	      0.09478690
      0.21530638	     -0.06462028	      0.03018053	      0.09478690
      0.21589145	     -0.06275390	      0.03022780	      0.09478690
      0.21647652	     -0.06088402	      0.03027531	      0.09478690
      0.21706159	     -0.05901070	      0.03032309	      0.09478690
      0.21764666	     -0.05713398	      0.03037115	      0.09478690
      0.21823174	     -0.05525392	      0.03041952	      0.09478690
      0.21881681	     -0.05337058	      0.03046821	      0.09478690
      0.21940188	     -0.05148401	      0.03051725	      0.09478690
      0.21998695	     -0.04959425	      0.03056666	      0.09478690
      0.22057202	     -0.04770137	      0.03061645	      0.09478690
      0.22115709	     -0.04580541	      0.03066664	      0.09478690
      0.22174217	     -0.04390643	      0.03071726	      0.09478690
      0.22232724	     -0.04200447	      0.03076833	      0.09478690
      0.22291231	     -0.04009959	      0.03081985	      0.09478690
      0.22349738	     -0.03819185	      0.03087185	      0.09478690
      0.22408245	     -0.03628128	      0.03092435	      0.09478690
      0.22466752	     -0.03436795	      0.03097736	      0.09478690
      0.22525260	     -0.03245190	      0.03103090	      0.09478690
      0.22583767	     -0.03053319	      0.03108498	      0.09478690
      0.22642274	     -0.02861185	      0.03113963	      0.09478690
      0.22700781	     -0.02668796	      0.03119486	      0.09478690
      0.22759288	     -0.02476155	      0.03125067	      0.09478690
      0.22817795	     -0.02283268	      0.03130710	      0.09478690
      0.22876303	     -0.02090139	      0.03136414	      0.09478690
      0.22934810	     -0.01896773	      0.03142182	      0.09478690
      0.22993317	     -0.01703176	      0.03148015	      0.09478690
      0.23051824	     -0.01509353	      0.03153914	      0.09478690
      0.23110331	     -0.01315308	      0.03159880	      0.09478690
      0.23168838	     -0.01121046	      0.03165914	      0.09478690
      0.23227346	     -0.00926573	      0.03172018	      0.09478690
      0.23285853	     -0.00731893	      0.03178192	      0.09478690
      0.23344360	     -0.00537011	      0.03184438	      0.09478690
      0.23402867	     -0.00341932	      0.03190757	      0.09478690
      0.23461374	     -0.00146662	      0.03197149	      0.09478690
      0.23519881	      0.00048795	      0.03203615	      0.09478690
      0.23578389	      0.00244434	      0.03210156	      0.09478690
      0.23636896	      0.00440250	      0.03216773	      0.09478690
      0.23695403	      0.00636238	      0.03223466	      0.09478690
      0.23753910	      0.00832392	      0.03230237	      0.09478690
      0.23812417	      0.01028709	      0.03237085	      0.09478690
      0.23870924	      0.01225182	      0.03244011	      0.09478690
      0.23929432	      0.01421806	      0.03251016	      0.09478690
      0.23987939	      0.01618577	      0.03258100	      0.09478690
      0.24046446	      0.01815489	      0.03265263	      0.09478690
      0.24104953	      0.02012537	      0.03272506	      0.09478690
      0.24163460	      0.02209715	      0.03279828	      0.09478690
      0.24221967	      0.02407019	      0.03287229	      0.09478690
      0.24280475	      0.02604443	      0.03294710	      0.09478690
      0.24338982	      0.02801982	      0.03302270	      0.09478690
      0.24397489	      0.02999630	      0.03309909	      0.09478690
      0.24455996	      0.03197382	      0.03317626	      0.09478690
      0.24514503	      0.03395232	      0.03325421	      0.09478690
      0.24573010	      0.03593175	      0.03333292	      0.09478690
      0.24631518	      0.03791204	      0.03341239	      0.09478690
      0.24690025	      0.03989315	      0.03349261	      0.09478690
      0.24748532	      0.04187500	      0.03357356	      0.09478690
      0.24807039	      0.04385755	      0.03365522	      0.09478690
      0.24865546	      0.04584072	      0.03373758	      0.09478690
      0.24924053	      0.04782446	      0.03382062	      0.09478690
      0.24982561	      0.04980870	      0.03390431	      0.09478690
      0.25041068	      0.05179337	      0.03398863	      0.09478690
      0.25099575	      0.05377841	      0.03407355	      0.09478690
      0.25158082	      0.05576375	      0.03415903	      0.09478690
      0.25216589	      0.05774930	      0.03424505	      0.09478690
      0.25275096	      0.05973500	      0.03433156	      0.09478690
      0.25333604	      0.06172076	      0.03441852	      0.09478690
      0.25392111	      0.06370649	      0.03450589	      0.09478690
      0.25450618	      0.06569213	      0.03459362	      0.09478690
      0.25509125	      0.06767756	      0.03468164	      0.09478690
      0.25567632	      0.06966271	      0.03476991	      0.09478690
      0.25626139	      0.07164747	      0.03485835	      0.09478690
      0.25684647	      0.07363175	      0.03494690	      0.09478690
      0.25743154	      0.07561543	      0.03503546	      0.09478690
      0.25801661	      0.07759841	      0.03512396	      0.09478690
      0.25860168	      0.07958057	      0.03521231	      0.09478690
      0.25918675	      0.08156180	      0.03530041	      0.09478690
      0.25977183	      0.08354198	      0.03538815	      0.09478690
      0.26035690	      0.08552099	      0.03547542	      0.09478690
      0.26094197	      0.08749870	      0.03556212	      0.09478690
      0.26152704	      0.08947501	      0.03564814	      0.09478690
      0.26211211	      0.09144980	      0.03573337	      0.09478690
      0.26269718	      0.09342296	      0.03581769	      0.09478690
      0.26328226	      0.09539438	      0.03590101	      0.09478690
      0.26386733	      0.09736395	      0.03598320	      0.09478690
      0.26445240	      0.09933159	      0.03606417	      0.09478690
      0.26503747	      0.10129719	      0.03614380	      0.09478690
      0.26562254	      0.10326065	      0.03622199	      0.09478690
      0.26620761	      0.10522189	      0.03629864	      0.09478690
      0.26679269	      0.10718081	      0.03637363	      0.09478690
      0.26737776	      0.10913734	      0.03644687	      0.09478690
      0.26796283	      0.11109137	      0.03651824	      0.09478690
      0.26854790	      0.11304284	      0.03658764	      0.09478690
      0.26913297	      0.11499164	      0.03665495	      0.09478690
      0.26971804	      0.11693769	      0.03672006	      0.09478690
      0.27030312	      0.11888089	      0.03678281	      0.09478690
      0.27088819	      0.12082112	      0.03684307	      0.09478690
      0.27147326	      0.12275823	      0.03690065	      0.09478690
      0.27205833	      0.12469207	      0.03695533	      0.09478690
      0.27264340	      0.12662245	      0.03700688	      0.09478690
      0.27322847	      0.12854914	      0.03705499	      0.09478690
      0.27381355	      0.13047188	      0.03709931	      0.09478690
      0.27439862	      0.13239038	      0.03713948	      0.09478690
      0.27498369	      0.13430431	      0.03717504	      0.09478690
      0.27556876	      0.13621332	      0.03720555	      0.09478690
      0.27615383	      0.13811704	      0.03723048	      0.09478690
      0.27673890	      0.14001510	      0.03724934	      0.09478690
      0.27732398	      0.14190710	      0.03726156	      0.09478690
      0.27790905	      0.14379265	      0.03726661	      0.09478690
      0.27849412	      0.14567136	      0.03726392	      0.09478690
      0.27907919	      0.14754284	      0.03725295	      0.09478690
      0.27966426	      0.14940671	      0.03723314	      0.09478690
      0.28024933	      0.15126261	      0.03720397	      0.09478690
      0.28083441	      0.15311019	      0.03716490	      0.09478690
      0.28141948	      0.15494913	      0.03711545	      0.09478690
      0.28200455	      0.15677911	      0.03705515	      0.09478690
      0.28258962	      0.15859984	      0.03698353	      0.09478690
      0.28317469	      0.16041106	      0.03690020	      0.09478690
      0.28375976	      0.16221253	      0.03680476	      0.09478690
      0.28434484	      0.16400403	      0.03669686	      0.09478690
      0.28492991	      0.16578537	      0.03657618	      0.09478690
      0.28551498	      0.16755638	      0.03644245	      0.09478690
      0.28610005	      0.16931692	      0.03629541	      0.09478690
      0.28668512	      0.17106688	      0.03613486	      0.09478690
      0.28727019	      0.17280616	      0.03596064	      0.09478690
      0.28785527	      0.17453470	      0.03577261	      0.09478690
      0.28844034	      0.17625247	      0.03557067	      0.09478690
      0.28902541	      0.17795944	      0.03535477	      0.09478690
      0.28961048	      0.17965560	      0.03512487	      0.09478690
      0.29019555	      0.18134099	      0.03488097	      0.09478690
      0.29078062	      0.18301563	      0.03462310	      0.09478690
      0.29136570	      0.18467957	      0.03435131	      0.09478690
      0.29195077	      0.18633287	      0.03406568	      0.09478690
      0.29253584	      0.18797559	      0.03376631	      0.09478690
      0.29312091	      0.18960780	      0.03345331	      0.09478690
      0.29370598	      0.19122960	      0.03312681	      0.09478690
      0.29429105	      0.19284105	      0.03278697	      0.09478690
      0.29487613	      0.19444226	      0.03243393	      0.09478690
      0.29546120	      0.19603330	      0.03206787	      0.09478690
      0.29604627	      0.19761426	      0.03168897	      0.09478690
      0.29663134	      0.19918525	      0.03129742	      0.09478690
      0.29721641	      0.20074633	      0.03089341	      0.09478690
      0.29780148	      0.20229761	      0.03047714	      0.09478690
      0.29838656	      0.20383917	      0.03004883	      0.09478690
      0.29897163	      0.20537109	      0.02960869	      0.09478690
      0.29955670	      0.20689345	      0.02915693	      0.09478690
      0.30014177	      0.20840637	      0.02869375	      0.09478690
      0.30072684	      0.20990992	      0.02821936	      0.09478690
      0.30131191	      0.21140421	      0.02773395	      0.09478690
      0.30189699	      0.21288926	      0.02723772	      0.09478690
      0.30248206	      0.21436512	      0.02673088	      0.09478690
      0.30306713	      0.21583177	      0.02621363	      0.09478690
      0.30365220	      0.21728917	      0.02568616	      0.09478690
      0.30423727	      0.21873726	      0.02514868	      0.09478690
      0.30482234	      0.22017591	      0.02460134	      0.09478690
      0.30540742	      0.22160494	      0.02404429	      0.09478690
      0.30599249	      0.22302412	      0.02347765	      0.09478690
      0.30657756	      0.22443307	      0.02290151	      0.09478690
      0.30716263	      0.22583134	      0.02231592	      0.09478690
      0.30774770	      0.22721824	      0.02172084	      0.09478690
      0.30833277	      0.22859298	      0.02111622	      0.09478690
      0.30891785	      0.22995442	      0.02050188	      0.09478690
      0.30950292	      0.23130125	      0.01987759	      0.09478690
      0.31008799	      0.23263174	      0.01924300	      0.09478690
      0.31067306	      0.23394392	      0.01859769	      0.09478690
      0.31125813	      0.23523542	      0.01794116	      0.09478690
      0.31184320	      0.23650363	      0.01727284	      0.09478690
      0.31242828	      0.23774555	      0.01659212	      0.09478690
      0.31301335	      0.23895800	      0.01589837	      0.09478690
      0.31359842	      0.24013680	      0.01519074	      0.09478690
      0.31418349	      0.24127692	      0.01446820	      0.09478690
      0.31476856	      0.24237043	      0.01372902	      0.09478690
      0.31535363	      0.24340721	      0.01297099	      0.09478690
      0.31593871	      0.24437317	      0.01219156	      0.09478690
      0.31652378	      0.24525238	      0.01138834	      0.09478690
      0.31710885	      0.24602820	      0.01056097	      0.09478690
      0.31769392	      0.24668505	      0.00971101	      0.09478690
      0.31827899	      0.24721323	      0.00884532	      0.09478690
      0.31886406	      0.24760744	      0.00797383	      0.09478690
      0.31944914	      0.24787422	      0.00711288	      0.09478690
      0.32003421	      0.24805088	      0.00629470	      0.09478690
      0.32061928	      0.24819766	      0.00555711	      0.09478690
      0.32120435	      0.24833665	      0.00491119	      0.09478690
      0.32178942	      0.24846353	      0.00434934	      0.09478690
      0.32237449	      0.24858140	      0.00386745	      0.09478690
      0.32295957	      0.24869038	      0.00345823	      0.09478690
      0.32354464	      0.24879145	      0.00311472	      0.09478690
      0.32412971	      0.24888505	      0.00282940	      0.09478690
      0.32471478	      0.24897164	      0.00259501	      0.09478690
      0.32529985	      0.24905146	      0.00240460	      0.09478690
      0.32588492	      0.24912470	      0.00225157	      0.09478690
      0.32647000	      0.24919143	      0.00213002	      0.09478690
      0.32705507	      0.24925174	      0.00203449	      0.09478690
      0.32764014	      0.24930576	      0.00196040	      0.09478690
      0.32822521	      0.24935369	      0.00190368	      0.09478690
      0.32881028	      0.24939586	      0.00186112	      0.09478690
      0.32939535	      0.24943262	      0.00182990	      0.09478690
      0.32998043	      0.24946443	      0.00180790	      0.09478690
      0.33056550	      0.24949169	      0.00179325	      0.09478690
      0.33115057	      0.24951486	      0.00178454	      0.09478690
      0.33173564	      0.24953433	      0.00178051	      0.09478690
      0.33232071	      0.24955049	      0.00178022	      0.09478690
      0.33290578	      0.24956371	      0.00178283	      0.09478690
      0.33349086	      0.24957432	      0.00178769	      0.09478690
      0.33407593	      0.24958261	      0.00179422	      0.09478690
      0.33466100	      0.24958886	      0.00180200	      0.09478690
      0.33524607	      0.24959332	      0.00181063	      0.09478690
      0.33583114	      0.24959621	      0.00181981	      0.09478690
      0.33641621	      0.24959771	      0.00182928	      0.09478690
      0.33700129	      0.24959800	      0.00183884	      0.09478690
      0.33758636	      0.24959724	      0.00184830	      0.09478690
      0.33817143	      0.24959556	      0.00185754	      0.09478690
      0.33875650	      0.24959306	      0.00186644	      0.09478690
      0.33934157	      0.24958986	      0.00187492	      0.09478690
      0.33992664	      0.24958604	      0.00188291	      0.09478690
      0.34051172	      0.24958168	      0.00189036	      0.09478690
      0.34109679	      0.24957684	      0.00189724	      0.09478690
      0.34168186	      0.24957158	      0.00190351	      0.09478690
      0.34226693	      0.24956595	      0.00190917	      0.09478690
      0.34285200	      0.24955998	      0.00191422	      0.09478690
      0.34343707	      0.24955373	      0.00191865	      0.09478690
      0.34402215	      0.24954720	      0.00192248	      0.09478690
      0.34460722	      0.24954043	      0.00192572	      0.09478690
      0.34519229	      0.24953345	      0.00192839	      0.09478690
      0.34577736	      0.24952626	      0.00193051	      0.09478690
      0.34636243	      0.24951889	      0.00193210	      0.09478690
      0.34694751	      0.24951134	      0.00193321	      0.09478690
      0.34753258	      0.24950363	      0.00193384	      0.09478690
      0.34811765	      0.24949575	      0.00193404	      0.09478690
      0.34870272	      0.24948773	      0.00193384	      0.09478690
      0.34928779	      0.24947957	      0.00193326	      0.09478690
      0.34987286	      0.24947126	      0.00193234	      0.09478690
      0.35045794	      0.24946281	      0.00193111	      0.09478690
      0.35104301	      0.24945423	      0.00192960	      0.09478690
