PointPosition
version=1
nRows=601
nColumns=4
inDegrees=no
No description.
endheader
time	state_0	state_1	state_2
      0.00000000	     -0.31527230	     -0.00654132	     -0.09478690
      0.00179217	     -0.31534542	     -0.00638075	     -0.09478690
      0.00358434	     -0.31541936	     -0.00621324	     -0.09478690
      0.00537651	     -0.31549420	     -0.00603893	     -0.09478690
      0.00716869	     -0.31556993	     -0.00585788	     -0.09478690
      0.00896086	     -0.31564654	     -0.00567012	     -0.09478690
      0.01075303	     -0.31572404	     -0.00547564	     -0.09478690
      0.01254520	     -0.31580241	     -0.00527443	     -0.09478690
      0.01433737	     -0.31588164	     -0.00506644	     -0.09478690
      0.01612954	     -0.31596169	     -0.00485157	     -0.09478690
      0.01792171	     -0.31604252	     -0.00462971	     -0.09478690
      0.01971388	     -0.31612408	     -0.00440070	     -0.09478690
      0.02150606	     -0.31620632	     -0.00416436	     -0.09478690
      0.02329823	     -0.31628916	     -0.00392048	     -0.09478690
      0.02509040	     -0.31637254	     -0.00366880	     -0.09478690
      0.02688257	     -0.31645636	     -0.00340901	     -0.09478690
      0.02867474	     -0.31654053	     -0.00314080	     -0.09478690
      0.03046691	     -0.31662491	     -0.00286378	     -0.09478690
      0.03225908	     -0.31670937	     -0.00257759	     -0.09478690
      0.03405126	     -0.31679372	     -0.00228180	     -0.09478690
      0.03584343	     -0.31687774	     -0.00197599	     -0.09478690
      0.03763560	     -0.31696117	     -0.00165971	     -0.09478690
      0.03942777	     -0.31704365	     -0.00133253	     -0.09478690
      0.04121994	     -0.31712476	     -0.00099402	     -0.09478690
      0.04301211	     -0.31720389	     -0.00064377	     -0.09478690
      0.04480428	     -0.31728035	     -0.00028139	     -0.09478690
      0.04659646	     -0.31735314	      0.00009346	     -0.09478690
      0.04838863	     -0.31742111	      0.00048110	     -0.09478690
      0.05018080	     -0.31748269	      0.00088186	     -0.09478690
      0.05197297	     -0.31753606	      0.00129607	     -0.09478690
      0.05376514	     -0.31757876	      0.00172425	     -0.09478690
      0.05555731	     -0.31760748	      0.00216719	     -0.09478690
      0.05734948	     -0.31761136	      0.00262948	     -0.09478690
      0.05914165	     -0.31757450	      0.00311810	     -0.09478690
      0.06093383	     -0.31745975	      0.00364541	     -0.09478690
      0.06272600	     -0.31720450	      0.00422512	     -0.09478690
      0.06451817	     -0.31674605	      0.00486532	     -0.09478690
      0.06631034	     -0.31605999	      0.00556600	     -0.09478690
      0.06810251	     -0.31516783	      0.00631677	     -0.09478690
      0.06989468	     -0.31409483	      0.00710588	     -0.09478690
      0.07168685	     -0.31286970	      0.00792137	     -0.09478690
      0.07347903	     -0.31151972	      0.00875265	     -0.09478690
      0.07527120	     -0.31006692	      0.00959140	     -0.09478690
      0.07706337	     -0.30852982	      0.01043090	     -0.09478690
      0.07885554	     -0.30692104	      0.01126671	     -0.09478690
      0.08064771	     -0.30525072	      0.01209546	     -0.09478690
      0.08243988	     -0.30352460	      0.01291548	     -0.09478690
      0.08423205	     -0.30174655	      0.01372582	     -0.09478690
      0.08602423	     -0.29991812	      0.01452639	     -0.09478690
      0.08781640	     -0.29804035	      0.01531731	     -0.09478690
      0.08960857	     -0.29611389	      0.01609888	     -0.09478690
      0.09140074	     -0.29413953	      0.01687133	     -0.09478690
      0.09319291	     -0.29211820	      0.01763488	     -0.09478690
      0.09498508	     -0.29005083	      0.01838971	     -0.09478690
      0.09677725	     -0.28793834	      0.01913599	     -0.09478690
      0.09856942	     -0.28578160	      0.01987389	     -0.09478690
      0.10036160	     -0.28358139	      0.02060354	     -0.09478690
      0.10215377	     -0.28133844	      0.02132508	     -0.09478690
      0.10394594	     -0.27905342	      0.02203862	     -0.09478690
      0.10573811	     -0.27672693	      0.02274425	     -0.09478690
      0.10753028	     -0.27435951	      0.02344204	     -0.09478690
      0.10932245	     -0.27195166	      0.02413204	     -0.09478690
      0.11111462	     -0.26950381	      0.02481427	     -0.09478690
      0.11290680	     -0.26701639	      0.02548874	     -0.09478690
      0.11469897	     -0.26448980	      0.02615540	     -0.09478690
      0.11649114	     -0.26192442	      0.02681421	     -0.09478690
      0.11828331	     -0.25932061	      0.02746508	     -0.09478690
      0.12007548	     -0.25667873	      0.02810790	     -0.09478690
      0.12186765	     -0.25399913	      0.02874253	     -0.09478690
      0.12365982	     -0.25128213	      0.02936882	     -0.09478690
      0.12545200	     -0.24852806	      0.02998659	     -0.09478690
      0.12724417	     -0.24573720	      0.03059566	     -0.09478690
      0.12903634	     -0.24290983	      0.03119583	     -0.09478690
      0.13082851	     -0.24004620	      0.03178688	     -0.09478690
      0.13262068	     -0.23714655	      0.03236859	     -0.09478690
      0.13441285	     -0.23421109	      0.03294073	     -0.09478690
      0.13620502	     -0.23124001	      0.03350308	     -0.09478690
      0.13799719	     -0.22823346	      0.03405540	     -0.09478690
      0.13978937	     -0.22519160	      0.03459746	     -0.09478690
      0.14158154	     -0.22211454	      0.03512901	     -0.09478690
      0.14337371	     -0.21900238	      0.03564983	     -0.09478690
      0.14516588	     -0.21585520	      0.03615968	     -0.09478690
      0.14695805	     -0.21267307	      0.03665834	     -0.09478690
      0.14875022	     -0.20945604	      0.03714557	     -0.09478690
      0.15054239	     -0.20620414	      0.03762115	     -0.09478690
      0.15233457	     -0.20291742	      0.03808487	     -0.09478690
      0.15412674	     -0.19959590	      0.03853650	     -0.09478690
      0.15591891	     -0.19623962	      0.03897582	     -0.09478690
      0.15771108	     -0.19284862	      0.03940262	     -0.09478690
      0.15950325	     -0.18942292	      0.03981669	     -0.09478690
      0.16129542	     -0.18596258	      0.04021783	     -0.09478690
      0.16308759	     -0.18246764	      0.04060582	     -0.09478690
      0.16487977	     -0.17893817	      0.04098047	     -0.09478690
      0.16667194	     -0.17537424	      0.04134158	     -0.09478690
      0.16846411	     -0.17177591	      0.04168897	     -0.09478690
      0.17025628	     -0.16814327	      0.04202245	     -0.09478690
      0.17204845	     -0.16447641	      0.04234184	     -0.09478690
      0.17384062	     -0.16077541	      0.04264699	     -0.09478690
      0.17563279	     -0.15704037	      0.04293774	     -0.09478690
      0.17742496	     -0.15327139	      0.04321396	     -0.09478690
      0.17921714	     -0.14946856	      0.04347552	     -0.09478690
      0.18100931	     -0.14563197	      0.04372231	     -0.09478690
      0.18280148	     -0.14176173	      0.04395423	     -0.09478690
      0.18459365	     -0.13785791	      0.04417121	     -0.09478690
      0.18638582	     -0.13392063	      0.04437319	     -0.09478690
      0.18817799	     -0.12994999	      0.04456012	     -0.09478690
      0.18997016	     -0.12594608	      0.04473197	     -0.09478690
      0.19176234	     -0.12190902	      0.04488874	     -0.09478690
      0.19355451	     -0.11783890	      0.04503042	     -0.09478690
      0.19534668	     -0.11373585	      0.04515705	     -0.09478690
      0.19713885	     -0.10959998	      0.04526866	     -0.09478690
      0.19893102	     -0.10543142	      0.04536530	     -0.09478690
      0.20072319	     -0.10123029	      0.04544705	     -0.09478690
      0.20251536	     -0.09699673	      0.04551398	     -0.09478690
      0.20430754	     -0.09273089	      0.04556621	     -0.09478690
      0.20609971	     -0.08843291	      0.04560383	     -0.09478690
      0.20789188	     -0.08410295	      0.04562697	     -0.09478690
      0.20968405	     -0.07974116	      0.04563576	     -0.09478690
      0.21147622	     -0.07534771	      0.04563036	     -0.09478690
      0.21326839	     -0.07092277	      0.04561092	     -0.09478690
      0.21506056	     -0.06646650	      0.04557762	     -0.09478690
      0.21685273	     -0.06197908	      0.04553063	     -0.09478690
      0.21864491	     -0.05746070	      0.04547014	     -0.09478690
      0.22043708	     -0.05291154	      0.04539635	     -0.09478690
      0.22222925	     -0.04833177	      0.04530946	     -0.09478690
      0.22402142	     -0.04372159	      0.04520970	     -0.09478690
      0.22581359	     -0.03908119	      0.04509728	     -0.09478690
      0.22760576	     -0.03441076	      0.04497243	     -0.09478690
      0.22939793	     -0.02971051	      0.04483540	     -0.09478690
      0.23119011	     -0.02498062	      0.04468643	     -0.09478690
      0.23298228	     -0.02022129	      0.04452577	     -0.09478690
      0.23477445	     -0.01543274	      0.04435369	     -0.09478690
      0.23656662	     -0.01061515	      0.04417045	     -0.09478690
      0.23835879	     -0.00576874	      0.04397633	     -0.09478690
      0.24015096	     -0.00089368	      0.04377161	     -0.09478690
      0.24194313	      0.00400980	      0.04355659	     -0.09478690
      0.24373531	      0.00894152	      0.04333156	     -0.09478690
      0.24552748	      0.01390126	      0.04309683	     -0.09478690
      0.24731965	      0.01888884	      0.04285271	     -0.09478690
      0.24911182	      0.02390404	      0.04259952	     -0.09478690
      0.25090399	      0.02894666	      0.04233758	     -0.09478690
      0.25269616	      0.03401650	      0.04206723	     -0.09478690
      0.25448833	      0.03911334	      0.04178880	     -0.09478690
      0.25628050	      0.04423699	      0.04150265	     -0.09478690
      0.25807268	      0.04938723	      0.04120913	     -0.09478690
      0.25986485	      0.05456385	      0.04090859	     -0.09478690
      0.26165702	      0.05976664	      0.04060140	     -0.09478690
      0.26344919	      0.06499538	      0.04028795	     -0.09478690
      0.26524136	      0.07024986	      0.03996861	     -0.09478690
      0.26703353	      0.07552986	      0.03964377	     -0.09478690
      0.26882570	      0.08083516	      0.03931383	     -0.09478690
      0.27061788	      0.08616554	      0.03897919	     -0.09478690
      0.27241005	      0.09152078	      0.03864027	     -0.09478690
      0.27420222	      0.09690064	      0.03829748	     -0.09478690
      0.27599439	      0.10230491	      0.03795125	     -0.09478690
      0.27778656	      0.10773336	      0.03760201	     -0.09478690
      0.27957873	      0.11318574	      0.03725020	     -0.09478690
      0.28137090	      0.11866183	      0.03689627	     -0.09478690
      0.28316308	      0.12416138	      0.03654066	     -0.09478690
      0.28495525	      0.12968415	      0.03618384	     -0.09478690
      0.28674742	      0.13522989	      0.03582626	     -0.09478690
      0.28853959	      0.14079832	      0.03546840	     -0.09478690
      0.29033176	      0.14638920	      0.03511073	     -0.09478690
      0.29212393	      0.15200226	      0.03475372	     -0.09478690
      0.29391610	      0.15763720	      0.03439787	     -0.09478690
      0.29570827	      0.16329376	      0.03404364	     -0.09478690
      0.29750045	      0.16897163	      0.03369155	     -0.09478690
      0.29929262	      0.17467053	      0.03334207	     -0.09478690
      0.30108479	      0.18039013	      0.03299572	     -0.09478690
      0.30287696	      0.18613013	      0.03265299	     -0.09478690
      0.30466913	      0.19189019	      0.03231438	     -0.09478690
      0.30646130	      0.19766997	      0.03198039	     -0.09478690
      0.30825347	      0.20346911	      0.03165153	     -0.09478690
      0.31004565	      0.20928723	      0.03132830	     -0.09478690
      0.31183782	      0.21512396	      0.03101118	     -0.09478690
      0.31362999	      0.22097887	      0.03070068	     -0.09478690
      0.31542216	      0.22685156	      0.03039728	     -0.09478690
      0.31721433	      0.23274157	      0.03010145	     -0.09478690
      0.31900650	      0.23864843	      0.02981367	     -0.09478690
      0.32079867	      0.24457167	      0.02953440	     -0.09478690
      0.32259085	      0.25051077	      0.02926408	     -0.09478690
      0.32438302	      0.25646520	      0.02900313	     -0.09478690
      0.32617519	      0.26243440	      0.02875197	     -0.09478690
      0.32796736	      0.26841778	      0.02851100	     -0.09478690
      0.32975953	      0.27441475	      0.02828056	     -0.09478690
      0.33155170	      0.28042468	      0.02806100	     -0.09478690
      0.33334387	      0.28644692	      0.02785264	     -0.09478690
      0.33513604	      0.29248080	      0.02765575	     -0.09478690
      0.33692822	      0.29852563	      0.02747061	     -0.09478690
      0.33872039	      0.30458071	      0.02729742	     -0.09478690
      0.34051256	      0.31064532	      0.02713639	     -0.09478690
      0.34230473	      0.31671871	      0.02698768	     -0.09478690
      0.34409690	      0.32280014	      0.02685142	     -0.09478690
      0.34588907	      0.32888886	      0.02672772	     -0.09478690
      0.34768124	      0.33498412	      0.02661664	     -0.09478690
      0.34947342	      0.34108517	      0.02651822	     -0.09478690
      0.35126559	      0.34719122	      0.02643248	     -0.09478690
      0.35305776	      0.35330154	      0.02635941	     -0.09478690
      0.35484993	      0.35941536	      0.02629896	     -0.09478690
      0.35664210	      0.36553190	      0.02625108	     -0.09478690
      0.35843427	      0.37165041	      0.02621568	     -0.09478690
      0.36022644	      0.37777011	      0.02619267	     -0.09478690
      0.36201862	      0.38389020	      0.02618190	     -0.09478690
      0.36381079	      0.39000992	      0.02618323	     -0.09478690
      0.36560296	      0.39612848	      0.02619648	     -0.09478690
      0.36739513	      0.40224510	      0.02622147	     -0.09478690
      0.36918730	      0.40835903	      0.02625800	     -0.09478690
      0.37097947	      0.41446951	      0.02630585	     -0.09478690
      0.37277164	      0.42057582	      0.02636481	     -0.09478690
      0.37456381	      0.42667721	      0.02643464	     -0.09478690
      0.37635599	      0.43277298	      0.02651512	     -0.09478690
      0.37814816	      0.43886241	      0.02660601	     -0.09478690
      0.37994033	      0.44494479	      0.02670710	     -0.09478690
      0.38173250	      0.45101939	      0.02681815	     -0.09478690
      0.38352467	      0.45708553	      0.02693895	     -0.09478690
      0.38531684	      0.46314250	      0.02706927	     -0.09478690
      0.38710901	      0.46918962	      0.02720889	     -0.09478690
      0.38890119	      0.47522620	      0.02735760	     -0.09478690
      0.39069336	      0.48125158	      0.02751519	     -0.09478690
      0.39248553	      0.48726512	      0.02768149	     -0.09478690
      0.39427770	      0.49326618	      0.02785632	     -0.09478690
      0.39606987	      0.49925414	      0.02803952	     -0.09478690
      0.39786204	      0.50522839	      0.02823098	     -0.09478690
      0.39965421	      0.51118833	      0.02843057	     -0.09478690
      0.40144639	      0.51713336	      0.02863823	     -0.09478690
      0.40323856	      0.52306290	      0.02885388	     -0.09478690
      0.40503073	      0.52897638	      0.02907750	     -0.09478690
      0.40682290	      0.53487323	      0.02930906	     -0.09478690
      0.40861507	      0.54075290	      0.02954860	     -0.09478690
      0.41040724	      0.54661485	      0.02979614	     -0.09478690
      0.41219941	      0.55245853	      0.03005176	     -0.09478690
      0.41399158	      0.55828341	      0.03031552	     -0.09478690
      0.41578376	      0.56408895	      0.03058752	     -0.09478690
      0.41757593	      0.56987463	      0.03086788	     -0.09478690
      0.41936810	      0.57563991	      0.03115671	     -0.09478690
      0.42116027	      0.58138427	      0.03145414	     -0.09478690
      0.42295244	      0.58710718	      0.03176030	     -0.09478690
      0.42474461	      0.59280810	      0.03207532	     -0.09478690
      0.42653678	      0.59848651	      0.03239930	     -0.09478690
      0.42832896	      0.60414185	      0.03273235	     -0.09478690
      0.43012113	      0.60977359	      0.03307455	     -0.09478690
      0.43191330	      0.61538118	      0.03342596	     -0.09478690
      0.43370547	      0.62096406	      0.03378662	     -0.09478690
      0.43549764	      0.62652167	      0.03415652	     -0.09478690
      0.43728981	      0.63205346	      0.03453564	     -0.09478690
      0.43908198	      0.63755887	      0.03492389	     -0.09478690
      0.44087416	      0.64303732	      0.03532116	     -0.09478690
      0.44266633	      0.64848825	      0.03572729	     -0.09478690
      0.44445850	      0.65391110	      0.03614205	     -0.09478690
      0.44625067	      0.65930530	      0.03656518	     -0.09478690
      0.44804284	      0.66467030	      0.03699634	     -0.09478690
      0.44983501	      0.67000555	      0.03743515	     -0.09478690
      0.45162718	      0.67531047	      0.03788114	     -0.09478690
      0.45341935	      0.68058450	      0.03833379	     -0.09478690
      0.45521153	      0.68582706	      0.03879254	     -0.09478690
      0.45700370	      0.69103761	      0.03925675	     -0.09478690
      0.45879587	      0.69621560	      0.03972574	     -0.09478690
      0.46058804	      0.70136049	      0.04019871	     -0.09478690
      0.46238021	      0.70647176	      0.04067485	     -0.09478690
      0.46417238	      0.71154891	      0.04115328	     -0.09478690
      0.46596455	      0.71659146	      0.04163319	     -0.09478690
      0.46775673	      0.72159897	      0.04211379	     -0.09478690
      0.46954890	      0.72657102	      0.04259431	     -0.09478690
      0.47134107	      0.73150720	      0.04307393	     -0.09478690
      0.47313324	      0.73640712	      0.04355166	     -0.09478690
      0.47492541	      0.74127038	      0.04402644	     -0.09478690
      0.47671758	      0.74609663	      0.04449722	     -0.09478690
      0.47850975	      0.75088554	      0.04496310	     -0.09478690
      0.48030193	      0.75563685	      0.04542329	     -0.09478690
      0.48209410	      0.76035030	      0.04587708	     -0.09478690
      0.48388627	      0.76502565	      0.04632366	     -0.09478690
      0.48567844	      0.76966266	      0.04676212	     -0.09478690
      0.48747061	      0.77426113	      0.04719152	     -0.09478690
      0.48926278	      0.77882088	      0.04761095	     -0.09478690
      0.49105495	      0.78334175	      0.04801966	     -0.09478690
      0.49284712	      0.78782363	      0.04841693	     -0.09478690
      0.49463930	      0.79226642	      0.04880202	     -0.09478690
      0.49643147	      0.79667001	      0.04917417	     -0.09478690
      0.49822364	      0.80103435	      0.04953254	     -0.09478690
      0.50001581	      0.80535936	      0.04987629	     -0.09478690
      0.50180798	      0.80964500	      0.05020463	     -0.09478690
      0.50360015	      0.81389125	      0.05051680	     -0.09478690
      0.50539232	      0.81809809	      0.05081206	     -0.09478690
      0.50718450	      0.82226551	      0.05108971	     -0.09478690
      0.50897667	      0.82639349	      0.05134900	     -0.09478690
      0.51076884	      0.83048204	      0.05158921	     -0.09478690
      0.51256101	      0.83453115	      0.05180956	     -0.09478690
      0.51435318	      0.83854080	      0.05200923	     -0.09478690
      0.51614535	      0.84251096	      0.05218732	     -0.09478690
      0.51793752	      0.84644158	      0.05234284	     -0.09478690
      0.51972970	      0.85033257	      0.05247466	     -0.09478690
      0.52152187	      0.85418383	      0.05258154	     -0.09478690
      0.52331404	      0.85799520	      0.05266200	     -0.09478690
      0.52510621	      0.86176648	      0.05271444	     -0.09478690
      0.52689838	      0.86549738	      0.05273686	     -0.09478690
      0.52869055	      0.86918761	      0.05272699	     -0.09478690
      0.53048272	      0.87283673	      0.05268208	     -0.09478690
      0.53227489	      0.87644428	      0.05259920	     -0.09478690
      0.53406707	      0.88000966	      0.05247595	     -0.09478690
      0.53585924	      0.88353222	      0.05231057	     -0.09478690
      0.53765141	      0.88701116	      0.05210346	     -0.09478690
      0.53944358	      0.89044560	      0.05185638	     -0.09478690
      0.54123575	      0.89383438	      0.05157244	     -0.09478690
      0.54302792	      0.89717621	      0.05125475	     -0.09478690
      0.54482009	      0.90046938	      0.05090462	     -0.09478690
      0.54661227	      0.90371189	      0.05052163	     -0.09478690
      0.54840444	      0.90690117	      0.05010246	     -0.09478690
      0.55019661	      0.91003429	      0.04964249	     -0.09478690
      0.55198878	      0.91310755	      0.04913623	     -0.09478690
      0.55378095	      0.91611684	      0.04857838	     -0.09478690
      0.55557312	      0.91905712	      0.04796343	     -0.09478690
      0.55736529	      0.92192292	      0.04728551	     -0.09478690
      0.55915747	      0.92470747	      0.04653627	     -0.09478690
      0.56094964	      0.92740322	      0.04570552	     -0.09478690
      0.56274181	      0.92999915	      0.04477878	     -0.09478690
      0.56453398	      0.93248132	      0.04373876	     -0.09478690
      0.56632615	      0.93482639	      0.04255845	     -0.09478690
      0.56811832	      0.93700407	      0.04120408	     -0.09478690
      0.56991049	      0.93897072	      0.03962853	     -0.09478690
      0.57170266	      0.94067544	      0.03777933	     -0.09478690
      0.57349484	      0.94206205	      0.03560529	     -0.09478690
      0.57528701	      0.94304487	      0.03301884	     -0.09478690
      0.57707918	      0.94368031	      0.03014754	     -0.09478690
      0.57887135	      0.94416695	      0.02729739	     -0.09478690
      0.58066352	      0.94460269	      0.02455260	     -0.09478690
      0.58245569	      0.94500108	      0.02186386	     -0.09478690
      0.58424786	      0.94537406	      0.01921598	     -0.09478690
      0.58604004	      0.94572574	      0.01661051	     -0.09478690
      0.58783221	      0.94605199	      0.01409746	     -0.09478690
      0.58962438	      0.94634501	      0.01178334	     -0.09478690
      0.59141655	      0.94659027	      0.00982436	     -0.09478690
      0.59320872	      0.94677782	      0.00830958	     -0.09478690
      0.59500089	      0.94691720	      0.00717716	     -0.09478690
      0.59679306	      0.94702340	      0.00633169	     -0.09478690
      0.59858524	      0.94710933	      0.00568901	     -0.09478690
      0.60037741	      0.94718386	      0.00518764	     -0.09478690
      0.60216958	      0.94725126	      0.00479418	     -0.09478690
      0.60396175	      0.94731445	      0.00448462	     -0.09478690
      0.60575392	      0.94737463	      0.00424571	     -0.09478690
      0.60754609	      0.94743268	      0.00406655	     -0.09478690
      0.60933826	      0.94748900	      0.00393949	     -0.09478690
      0.61113043	      0.94754392	      0.00385775	     -0.09478690
      0.61292261	      0.94759762	      0.00381584	     -0.09478690
      0.61471478	      0.94765023	      0.00380873	     -0.09478690
      0.61650695	      0.94770186	      0.00383213	     -0.09478690
      0.61829912	      0.94775259	      0.00388207	     -0.09478690
      0.62009129	      0.94780247	      0.00395508	     -0.09478690
      0.62188346	      0.94785158	      0.00404795	     -0.09478690
      0.62367563	      0.94789996	      0.00415783	     -0.09478690
      0.62546781	      0.94794768	      0.00428211	     -0.09478690
      0.62725998	      0.94799479	      0.00441848	     -0.09478690
      0.62905215	      0.94804137	      0.00456482	     -0.09478690
      0.63084432	      0.94808745	      0.00471931	     -0.09478690
      0.63263649	      0.94813309	      0.00488030	     -0.09478690
      0.63442866	      0.94817833	      0.00504642	     -0.09478690
      0.63622083	      0.94822322	      0.00521638	     -0.09478690
      0.63801301	      0.94826777	      0.00538911	     -0.09478690
      0.63980518	      0.94831197	      0.00556360	     -0.09478690
      0.64159735	      0.94835587	      0.00573896	     -0.09478690
      0.64338952	      0.94839947	      0.00591437	     -0.09478690
      0.64518169	      0.94844279	      0.00608912	     -0.09478690
      0.64697386	      0.94848585	      0.00626258	     -0.09478690
      0.64876603	      0.94852864	      0.00643417	     -0.09478690
      0.65055820	      0.94857118	      0.00660340	     -0.09478690
      0.65235038	      0.94861347	      0.00676983	     -0.09478690
      0.65414255	      0.94865550	      0.00693308	     -0.09478690
      0.65593472	      0.94869727	      0.00709285	     -0.09478690
      0.65772689	      0.94873877	      0.00724887	     -0.09478690
      0.65951906	      0.94877999	      0.00740098	     -0.09478690
      0.66131123	      0.94882089	      0.00754902	     -0.09478690
      0.66310340	      0.94886147	      0.00769294	     -0.09478690
      0.66489558	      0.94890167	      0.00783272	     -0.09478690
      0.66668775	      0.94894147	      0.00796837	     -0.09478690
      0.66847992	      0.94898083	      0.00809995	     -0.09478690
      0.67027209	      0.94901969	      0.00822756	     -0.09478690
      0.67206426	      0.94905802	      0.00835130	     -0.09478690
      0.67385643	      0.94909577	      0.00847128	     -0.09478690
      0.67564860	      0.94913289	      0.00858761	     -0.09478690
      0.67744078	      0.94916935	      0.00870040	     -0.09478690
      0.67923295	      0.94920510	      0.00880974	     -0.09478690
      0.68102512	      0.94924011	      0.00891570	     -0.09478690
      0.68281729	      0.94927435	      0.00901834	     -0.09478690
      0.68460946	      0.94930780	      0.00911765	     -0.09478690
      0.68640163	      0.94934045	      0.00921362	     -0.09478690
      0.68819380	      0.94937228	      0.00930619	     -0.09478690
      0.68998597	      0.94940331	      0.00939525	     -0.09478690
      0.69177815	      0.94943354	      0.00948070	     -0.09478690
      0.69357032	      0.94946298	      0.00956238	     -0.09478690
      0.69536249	      0.94949166	      0.00964013	     -0.09478690
      0.69715466	      0.94951960	      0.00971380	     -0.09478690
      0.69894683	      0.94954683	      0.00978322	     -0.09478690
      0.70073900	      0.94957337	      0.00984824	     -0.09478690
      0.70253117	      0.94959924	      0.00990875	     -0.09478690
      0.70432335	      0.94962448	      0.00996461	     -0.09478690
      0.70611552	      0.94964909	      0.01001575	     -0.09478690
      0.70790769	      0.94967311	      0.01006210	     -0.09478690
      0.70969986	      0.94969654	      0.01010360	     -0.09478690
      0.71149203	      0.94971941	      0.01014022	     -0.09478690
      0.71328420	      0.94974171	      0.01017193	     -0.09478690
      0.71507637	      0.94976348	      0.01019870	     -0.09478690
      0.71686855	      0.94978470	      0.01022052	     -0.09478690
      0.71866072	      0.94980541	      0.01023737	     -0.09478690
      0.72045289	      0.94982561	      0.01024922	     -0.09478690
      0.72224506	      0.94984531	      0.01025604	     -0.09478690
      0.72403723	      0.94986453	      0.01025778	     -0.09478690
      0.72582940	      0.94988329	      0.01025439	     -0.09478690
      0.72762157	      0.94990161	      0.01024581	     -0.09478690
      0.72941374	      0.94991951	      0.01023195	     -0.09478690
      0.73120592	      0.94993701	      0.01021273	     -0.09478690
      0.73299809	      0.94995415	      0.01018803	     -0.09478690
      0.73479026	      0.94997095	      0.01015773	     -0.09478690
      0.73658243	      0.94998746	      0.01012170	     -0.09478690
      0.73837460	      0.95000370	      0.01007975	     -0.09478690
      0.74016677	      0.95001972	      0.01003172	     -0.09478690
      0.74195894	      0.95003557	      0.00997739	     -0.09478690
      0.74375112	      0.95005129	      0.00991651	     -0.09478690
      0.74554329	      0.95006694	      0.00984881	     -0.09478690
      0.74733546	      0.95008257	      0.00977398	     -0.09478690
      0.74912763	      0.95009825	      0.00969166	     -0.09478690
      0.75091980	      0.95011404	      0.00960146	     -0.09478690
      0.75271197	      0.95013001	      0.00950295	     -0.09478690
      0.75450414	      0.95014624	      0.00939563	     -0.09478690
      0.75629632	      0.95016283	      0.00927904	     -0.09478690
      0.75808849	      0.95017986	      0.00915269	     -0.09478690
      0.75988066	      0.95019742	      0.00901613	     -0.09478690
      0.76167283	      0.95021560	      0.00886897	     -0.09478690
      0.76346500	      0.95023449	      0.00871092	     -0.09478690
      0.76525717	      0.95025415	      0.00854181	     -0.09478690
      0.76704934	      0.95027463	      0.00836164	     -0.09478690
      0.76884151	      0.95029597	      0.00817055	     -0.09478690
      0.77063369	      0.95031818	      0.00796884	     -0.09478690
      0.77242586	      0.95034124	      0.00775694	     -0.09478690
      0.77421803	      0.95036513	      0.00753531	     -0.09478690
      0.77601020	      0.95038982	      0.00730446	     -0.09478690
      0.77780237	      0.95041526	      0.00706491	     -0.09478690
      0.77959454	      0.95044142	      0.00681718	     -0.09478690
      0.78138671	      0.95046825	      0.00656170	     -0.09478690
      0.78317889	      0.95049574	      0.00629880	     -0.09478690
      0.78497106	      0.95052390	      0.00602864	     -0.09478690
      0.78676323	      0.95055271	      0.00575126	     -0.09478690
      0.78855540	      0.95058220	      0.00546687	     -0.09478690
      0.79034757	      0.95061238	      0.00517583	     -0.09478690
      0.79213974	      0.95064320	      0.00487886	     -0.09478690
      0.79393191	      0.95067461	      0.00457680	     -0.09478690
      0.79572409	      0.95070655	      0.00427067	     -0.09478690
      0.79751626	      0.95073894	      0.00396152	     -0.09478690
      0.79930843	      0.95077166	      0.00365031	     -0.09478690
      0.80110060	      0.95080463	      0.00333796	     -0.09478690
      0.80289277	      0.95083776	      0.00302515	     -0.09478690
      0.80468494	      0.95087098	      0.00271248	     -0.09478690
      0.80647711	      0.95090427	      0.00240033	     -0.09478690
      0.80826928	      0.95093758	      0.00208902	     -0.09478690
      0.81006146	      0.95097089	      0.00177879	     -0.09478690
      0.81185363	      0.95100420	      0.00146984	     -0.09478690
      0.81364580	      0.95103749	      0.00116237	     -0.09478690
      0.81543797	      0.95107075	      0.00085660	     -0.09478690
      0.81723014	      0.95110397	      0.00055276	     -0.09478690
      0.81902231	      0.95113716	      0.00025110	     -0.09478690
      0.82081448	      0.95117028	     -0.00004812	     -0.09478690
      0.82260666	      0.95120333	     -0.00034461	     -0.09478690
      0.82439883	      0.95123628	     -0.00063807	     -0.09478690
      0.82619100	      0.95126912	     -0.00092824	     -0.09478690
      0.82798317	      0.95130184	     -0.00121484	     -0.09478690
      0.82977534	      0.95133440	     -0.00149762	     -0.09478690
      0.83156751	      0.95136679	     -0.00177632	     -0.09478690
      0.83335968	      0.95139899	     -0.00205075	     -0.09478690
      0.83515185	      0.95143099	     -0.00232071	     -0.09478690
      0.83694403	      0.95146278	     -0.00258604	     -0.09478690
      0.83873620	      0.95149433	     -0.00284662	     -0.09478690
      0.84052837	      0.95152564	     -0.00310232	     -0.09478690
      0.84232054	      0.95155670	     -0.00335308	     -0.09478690
      0.84411271	      0.95158750	     -0.00359882	     -0.09478690
      0.84590488	      0.95161804	     -0.00383951	     -0.09478690
      0.84769705	      0.95164830	     -0.00407511	     -0.09478690
      0.84948923	      0.95167830	     -0.00430564	     -0.09478690
      0.85128140	      0.95170801	     -0.00453107	     -0.09478690
      0.85307357	      0.95173744	     -0.00475144	     -0.09478690
      0.85486574	      0.95176658	     -0.00496677	     -0.09478690
      0.85665791	      0.95179543	     -0.00517709	     -0.09478690
      0.85845008	      0.95182398	     -0.00538245	     -0.09478690
      0.86024225	      0.95185224	     -0.00558289	     -0.09478690
      0.86203443	      0.95188018	     -0.00577846	     -0.09478690
      0.86382660	      0.95190780	     -0.00596920	     -0.09478690
      0.86561877	      0.95193510	     -0.00615517	     -0.09478690
      0.86741094	      0.95196207	     -0.00633639	     -0.09478690
      0.86920311	      0.95198869	     -0.00651293	     -0.09478690
      0.87099528	      0.95201495	     -0.00668481	     -0.09478690
      0.87278745	      0.95204083	     -0.00685208	     -0.09478690
      0.87457962	      0.95206633	     -0.00701478	     -0.09478690
      0.87637180	      0.95209142	     -0.00717295	     -0.09478690
      0.87816397	      0.95211607	     -0.00732664	     -0.09478690
      0.87995614	      0.95214027	     -0.00747588	     -0.09478690
      0.88174831	      0.95216399	     -0.00762071	     -0.09478690
      0.88354048	      0.95218720	     -0.00776119	     -0.09478690
      0.88533265	      0.95220986	     -0.00789734	     -0.09478690
      0.88712482	      0.95223194	     -0.00802922	     -0.09478690
      0.88891700	      0.95225340	     -0.00815686	     -0.09478690
      0.89070917	      0.95227418	     -0.00828030	     -0.09478690
      0.89250134	      0.95229426	     -0.00839958	     -0.09478690
      0.89429351	      0.95231357	     -0.00851474	     -0.09478690
      0.89608568	      0.95233208	     -0.00862581	     -0.09478690
      0.89787785	      0.95234973	     -0.00873284	     -0.09478690
      0.89967002	      0.95236652	     -0.00883587	     -0.09478690
      0.90146220	      0.95238240	     -0.00893494	     -0.09478690
      0.90325437	      0.95239737	     -0.00903010	     -0.09478690
      0.90504654	      0.95241143	     -0.00912139	     -0.09478690
      0.90683871	      0.95242456	     -0.00920888	     -0.09478690
      0.90863088	      0.95243678	     -0.00929262	     -0.09478690
      0.91042305	      0.95244809	     -0.00937266	     -0.09478690
      0.91221522	      0.95245848	     -0.00944906	     -0.09478690
      0.91400739	      0.95246795	     -0.00952187	     -0.09478690
      0.91579957	      0.95247651	     -0.00959117	     -0.09478690
      0.91759174	      0.95248416	     -0.00965701	     -0.09478690
      0.91938391	      0.95249090	     -0.00971948	     -0.09478690
      0.92117608	      0.95249673	     -0.00977863	     -0.09478690
      0.92296825	      0.95250166	     -0.00983453	     -0.09478690
      0.92476042	      0.95250569	     -0.00988726	     -0.09478690
      0.92655259	      0.95250884	     -0.00993686	     -0.09478690
      0.92834477	      0.95251110	     -0.00998339	     -0.09478690
      0.93013694	      0.95251249	     -0.01002694	     -0.09478690
      0.93192911	      0.95251304	     -0.01006758	     -0.09478690
      0.93372128	      0.95251276	     -0.01010543	     -0.09478690
      0.93551345	      0.95251169	     -0.01014063	     -0.09478690
      0.93730562	      0.95250985	     -0.01017327	     -0.09478690
      0.93909779	      0.95250727	     -0.01020341	     -0.09478690
      0.94088997	      0.95250399	     -0.01023108	     -0.09478690
      0.94268214	      0.95250004	     -0.01025636	     -0.09478690
      0.94447431	      0.95249545	     -0.01027930	     -0.09478690
      0.94626648	      0.95249023	     -0.01029997	     -0.09478690
      0.94805865	      0.95248441	     -0.01031841	     -0.09478690
      0.94985082	      0.95247799	     -0.01033468	     -0.09478690
      0.95164299	      0.95247098	     -0.01034882	     -0.09478690
      0.95343516	      0.95246338	     -0.01036088	     -0.09478690
      0.95522734	      0.95245521	     -0.01037090	     -0.09478690
      0.95701951	      0.95244645	     -0.01037892	     -0.09478690
      0.95881168	      0.95243711	     -0.01038497	     -0.09478690
      0.96060385	      0.95242718	     -0.01038909	     -0.09478690
      0.96239602	      0.95241665	     -0.01039130	     -0.09478690
      0.96418819	      0.95240552	     -0.01039163	     -0.09478690
      0.96598036	      0.95239378	     -0.01039011	     -0.09478690
      0.96777254	      0.95238142	     -0.01038676	     -0.09478690
      0.96956471	      0.95236842	     -0.01038159	     -0.09478690
      0.97135688	      0.95235478	     -0.01037463	     -0.09478690
      0.97314905	      0.95234047	     -0.01036588	     -0.09478690
      0.97494122	      0.95232549	     -0.01035535	     -0.09478690
      0.97673339	      0.95230982	     -0.01034305	     -0.09478690
      0.97852556	      0.95229345	     -0.01032899	     -0.09478690
      0.98031774	      0.95227635	     -0.01031317	     -0.09478690
      0.98210991	      0.95225852	     -0.01029557	     -0.09478690
      0.98390208	      0.95223993	     -0.01027620	     -0.09478690
      0.98569425	      0.95222058	     -0.01025505	     -0.09478690
      0.98748642	      0.95220045	     -0.01023210	     -0.09478690
      0.98927859	      0.95217953	     -0.01020735	     -0.09478690
      0.99107076	      0.95215780	     -0.01018078	     -0.09478690
      0.99286293	      0.95213525	     -0.01015238	     -0.09478690
      0.99465511	      0.95211187	     -0.01012212	     -0.09478690
      0.99644728	      0.95208767	     -0.01009000	     -0.09478690
      0.99823945	      0.95206262	     -0.01005600	     -0.09478690
      1.00003162	      0.95203672	     -0.01002009	     -0.09478690
      1.00182379	      0.95200998	     -0.00998226	     -0.09478690
      1.00361596	      0.95198237	     -0.00994249	     -0.09478690
      1.00540813	      0.95195390	     -0.00990076	     -0.09478690
      1.00720031	      0.95192455	     -0.00985704	     -0.09478690
      1.00899248	      0.95189432	     -0.00981131	     -0.09478690
      1.01078465	      0.95186320	     -0.00976354	     -0.09478690
      1.01257682	      0.95183120	     -0.00971372	     -0.09478690
      1.01436899	      0.95179829	     -0.00966182	     -0.09478690
      1.01616116	      0.95176448	     -0.00960782	     -0.09478690
      1.01795333	      0.95172977	     -0.00955171	     -0.09478690
      1.01974551	      0.95169415	     -0.00949347	     -0.09478690
      1.02153768	      0.95165761	     -0.00943307	     -0.09478690
      1.02332985	      0.95162016	     -0.00937050	     -0.09478690
      1.02512202	      0.95158179	     -0.00930577	     -0.09478690
      1.02691419	      0.95154252	     -0.00923887	     -0.09478690
      1.02870636	      0.95150235	     -0.00916983	     -0.09478690
      1.03049853	      0.95146128	     -0.00909865	     -0.09478690
      1.03229070	      0.95141931	     -0.00902535	     -0.09478690
      1.03408288	      0.95137644	     -0.00894995	     -0.09478690
      1.03587505	      0.95133266	     -0.00887249	     -0.09478690
      1.03766722	      0.95128796	     -0.00879299	     -0.09478690
      1.03945939	      0.95124232	     -0.00871149	     -0.09478690
      1.04125156	      0.95119570	     -0.00862801	     -0.09478690
      1.04304373	      0.95114808	     -0.00854256	     -0.09478690
      1.04483590	      0.95109943	     -0.00845517	     -0.09478690
      1.04662808	      0.95104971	     -0.00836587	     -0.09478690
      1.04842025	      0.95099891	     -0.00827466	     -0.09478690
      1.05021242	      0.95094699	     -0.00818157	     -0.09478690
      1.05200459	      0.95089391	     -0.00808657	     -0.09478690
      1.05379676	      0.95083962	     -0.00798965	     -0.09478690
      1.05558893	      0.95078407	     -0.00789072	     -0.09478690
      1.05738110	      0.95072717	     -0.00778965	     -0.09478690
      1.05917328	      0.95066881	     -0.00768624	     -0.09478690
      1.06096545	      0.95060889	     -0.00758010	     -0.09478690
      1.06275762	      0.95054723	     -0.00747069	     -0.09478690
      1.06454979	      0.95048368	     -0.00735712	     -0.09478690
      1.06634196	      0.95041801	     -0.00723829	     -0.09478690
      1.06813413	      0.95035027	     -0.00711313	     -0.09478690
      1.06992630	      0.95028065	     -0.00698080	     -0.09478690
      1.07171847	      0.95020970	     -0.00684126	     -0.09478690
      1.07351065	      0.95013799	     -0.00669479	     -0.09478690
      1.07530282	      0.95006560	     -0.00654132	     -0.09478690
