PointVelocity
version=1
nRows=601
nColumns=4
inDegrees=no
No description.
endheader
time	state_0	state_1	state_2
      0.00000000	      1.58203766	     -0.03293106	      0.00000000
      0.00179217	      1.58247788	     -0.03115621	      0.00000000
      0.00358434	      1.58313673	     -0.02943535	      0.00000000
      0.00537651	      1.58385527	     -0.02777138	      0.00000000
      0.00716869	      1.58436058	     -0.02612540	      0.00000000
      0.00896086	      1.58455497	     -0.02445683	      0.00000000
      0.01075303	      1.58431607	     -0.02272842	      0.00000000
      0.01254520	      1.58359402	     -0.02089582	      0.00000000
      0.01433737	      1.58232192	     -0.01891695	      0.00000000
      0.01612954	      1.58047554	     -0.01675917	      0.00000000
      0.01792171	      1.57802535	     -0.01439379	      0.00000000
      0.01971388	      1.57496588	     -0.01180175	      0.00000000
      0.02150606	      1.57128299	     -0.00895895	      0.00000000
      0.02329823	      1.56697125	     -0.00584659	      0.00000000
      0.02509040	      1.56201864	     -0.00244222	      0.00000000
      0.02688257	      1.55642879	      0.00126392	      0.00000000
      0.02867474	      1.55020209	      0.00528361	      0.00000000
      0.03046691	      1.54336376	      0.00961041	      0.00000000
      0.03225908	      1.53593633	      0.01423961	      0.00000000
      0.03405126	      1.52796298	      0.01915324	      0.00000000
      0.03584343	      1.51948334	      0.02433553	      0.00000000
      0.03763560	      1.51054694	      0.02976662	      0.00000000
      0.03942777	      1.50120105	      0.03542816	      0.00000000
      0.04121994	      1.49149631	      0.04130294	      0.00000000
      0.04301211	      1.48148355	      0.04737432	      0.00000000
      0.04480428	      1.47121338	      0.05362657	      0.00000000
      0.04659646	      1.46073883	      0.06004480	      0.00000000
      0.04838863	      1.45010626	      0.06661100	      0.00000000
      0.05018080	      1.43937008	      0.07331207	      0.00000000
      0.05197297	      1.42856003	      0.08012067	      0.00000000
      0.05376514	      1.41772682	      0.08703140	      0.00000000
      0.05555731	      1.40684105	      0.09396979	      0.00000000
      0.05734948	      1.39583963	      0.10082685	      0.00000000
      0.05914165	      1.38462922	      0.10745813	      0.00000000
      0.06093383	      1.37307570	      0.11360920	      0.00000000
      0.06272600	      1.36125914	      0.11933680	      0.00000000
      0.06451817	      1.34937931	      0.12495694	      0.00000000
      0.06631034	      1.33767139	      0.13083197	      0.00000000
      0.06810251	      1.32626663	      0.13709354	      0.00000000
      0.06989468	      1.31516422	      0.14368116	      0.00000000
      0.07168685	      1.30439567	      0.15060337	      0.00000000
      0.07347903	      1.29393014	      0.15779507	      0.00000000
      0.07527120	      1.28374814	      0.16521014	      0.00000000
      0.07706337	      1.27380931	      0.17278779	      0.00000000
      0.07885554	      1.26407891	      0.18047475	      0.00000000
      0.08064771	      1.25452762	      0.18822394	      0.00000000
      0.08243988	      1.24512627	      0.19598676	      0.00000000
      0.08423205	      1.23586325	      0.20372923	      0.00000000
      0.08602423	      1.22672590	      0.21141646	      0.00000000
      0.08781640	      1.21771567	      0.21902738	      0.00000000
      0.08960857	      1.20883129	      0.22653860	      0.00000000
      0.09140074	      1.20007616	      0.23393328	      0.00000000
      0.09319291	      1.19145155	      0.24119206	      0.00000000
      0.09498508	      1.18295867	      0.24829822	      0.00000000
      0.09677725	      1.17459834	      0.25523408	      0.00000000
      0.09856942	      1.16637086	      0.26198452	      0.00000000
      0.10036160	      1.15827653	      0.26853382	      0.00000000
      0.10215377	      1.15031549	      0.27486923	      0.00000000
      0.10394594	      1.14248785	      0.28097727	      0.00000000
      0.10573811	      1.13479395	      0.28684768	      0.00000000
      0.10753028	      1.12723406	      0.29246943	      0.00000000
      0.10932245	      1.11980889	      0.29783482	      0.00000000
      0.11111462	      1.11251910	      0.30293537	      0.00000000
      0.11290680	      1.10536574	      0.30776587	      0.00000000
      0.11469897	      1.09834979	      0.31232036	      0.00000000
      0.11649114	      1.09147232	      0.31659584	      0.00000000
      0.11828331	      1.08473441	      0.32058862	      0.00000000
      0.12007548	      1.07813681	      0.32429758	      0.00000000
      0.12186765	      1.07168038	      0.32772099	      0.00000000
      0.12365982	      1.06536539	      0.33085929	      0.00000000
      0.12545200	      1.05919221	      0.33371241	      0.00000000
      0.12724417	      1.05316056	      0.33628206	      0.00000000
      0.12903634	      1.04727028	      0.33856954	      0.00000000
      0.13082851	      1.04152064	      0.34057763	      0.00000000
      0.13262068	      1.03591104	      0.34230875	      0.00000000
      0.13441285	      1.03044041	      0.34376647	      0.00000000
      0.13620502	      1.02510780	      0.34495412	      0.00000000
      0.13799719	      1.01991194	      0.34587588	      0.00000000
      0.13978937	      1.01485166	      0.34653574	      0.00000000
      0.14158154	      1.00992548	      0.34693828	      0.00000000
      0.14337371	      1.00513205	      0.34708797	      0.00000000
      0.14516588	      1.00046969	      0.34698966	      0.00000000
      0.14695805	      0.99593682	      0.34664810	      0.00000000
      0.14875022	      0.99153153	      0.34606829	      0.00000000
      0.15054239	      0.98725201	      0.34525515	      0.00000000
      0.15233457	      0.98309608	      0.34421376	      0.00000000
      0.15412674	      0.97906165	      0.34294916	      0.00000000
      0.15591891	      0.97514634	      0.34146651	      0.00000000
      0.15771108	      0.97134781	      0.33977092	      0.00000000
      0.15950325	      0.96766354	      0.33786768	      0.00000000
      0.16129542	      0.96409104	      0.33576201	      0.00000000
      0.16308759	      0.96062779	      0.33345937	      0.00000000
      0.16487977	      0.95727126	      0.33096516	      0.00000000
      0.16667194	      0.95401902	      0.32828508	      0.00000000
      0.16846411	      0.95086864	      0.32542476	      0.00000000
      0.17025628	      0.94781789	      0.32239013	      0.00000000
      0.17204845	      0.94486451	      0.31918709	      0.00000000
      0.17384062	      0.94200650	      0.31582181	      0.00000000
      0.17563279	      0.93924183	      0.31230043	      0.00000000
      0.17742496	      0.93656875	      0.30862932	      0.00000000
      0.17921714	      0.93398547	      0.30481482	      0.00000000
      0.18100931	      0.93149045	      0.30086343	      0.00000000
      0.18280148	      0.92908214	      0.29678161	      0.00000000
      0.18459365	      0.92675913	      0.29257583	      0.00000000
      0.18638582	      0.92452004	      0.28825257	      0.00000000
      0.18817799	      0.92236357	      0.28381814	      0.00000000
      0.18997016	      0.92028842	      0.27927888	      0.00000000
      0.19176234	      0.91829337	      0.27464082	      0.00000000
      0.19355451	      0.91637718	      0.26991006	      0.00000000
      0.19534668	      0.91453863	      0.26509225	      0.00000000
      0.19713885	      0.91277653	      0.26019315	      0.00000000
      0.19893102	      0.91108968	      0.25521795	      0.00000000
      0.20072319	      0.90947687	      0.25017197	      0.00000000
      0.20251536	      0.90793688	      0.24505992	      0.00000000
      0.20430754	      0.90646848	      0.23988666	      0.00000000
      0.20609971	      0.90507046	      0.23465641	      0.00000000
      0.20789188	      0.90374159	      0.22937353	      0.00000000
      0.20968405	      0.90248071	      0.22404184	      0.00000000
      0.21147622	      0.90128665	      0.21866528	      0.00000000
      0.21326839	      0.90015833	      0.21324729	      0.00000000
      0.21506056	      0.89909466	      0.20779143	      0.00000000
      0.21685273	      0.89809463	      0.20230080	      0.00000000
      0.21864491	      0.89715720	      0.19677862	      0.00000000
      0.22043708	      0.89628141	      0.19122771	      0.00000000
      0.22222925	      0.89546625	      0.18565099	      0.00000000
      0.22402142	      0.89471078	      0.18005102	      0.00000000
      0.22581359	      0.89401405	      0.17443044	      0.00000000
      0.22760576	      0.89337518	      0.16879162	      0.00000000
      0.22939793	      0.89279326	      0.16313698	      0.00000000
      0.23119011	      0.89226757	      0.15746876	      0.00000000
      0.23298228	      0.89179733	      0.15178922	      0.00000000
      0.23477445	      0.89138199	      0.14610048	      0.00000000
      0.23656662	      0.89102094	      0.14040468	      0.00000000
      0.23835879	      0.89071381	      0.13470387	      0.00000000
      0.24015096	      0.89046016	      0.12900009	      0.00000000
      0.24194313	      0.89025977	      0.12329528	      0.00000000
      0.24373531	      0.89011235	      0.11759140	      0.00000000
      0.24552748	      0.89001781	      0.11189028	      0.00000000
      0.24731965	      0.88997600	      0.10619380	      0.00000000
      0.24911182	      0.88998693	      0.10050359	      0.00000000
      0.25090399	      0.89005061	      0.09482135	      0.00000000
      0.25269616	      0.89016710	      0.08914865	      0.00000000
      0.25448833	      0.89033632	      0.08348704	      0.00000000
      0.25628050	      0.89055829	      0.07783777	      0.00000000
      0.25807268	      0.89083317	      0.07220224	      0.00000000
      0.25986485	      0.89116125	      0.06658166	      0.00000000
      0.26165702	      0.89154265	      0.06097727	      0.00000000
      0.26344919	      0.89197760	      0.05538999	      0.00000000
      0.26524136	      0.89246639	      0.04982084	      0.00000000
      0.26703353	      0.89300944	      0.04427063	      0.00000000
      0.26882570	      0.89360715	      0.03874024	      0.00000000
      0.27061788	      0.89425988	      0.03323026	      0.00000000
      0.27241005	      0.89496778	      0.02774127	      0.00000000
      0.27420222	      0.89573116	      0.02227350	      0.00000000
      0.27599439	      0.89655072	      0.01682745	      0.00000000
      0.27778656	      0.89742699	      0.01140324	      0.00000000
      0.27957873	      0.89836021	      0.00600090	      0.00000000
      0.28137090	      0.89935037	      0.00062009	      0.00000000
      0.28316308	      0.90039760	     -0.00473935	      0.00000000
      0.28495525	      0.90150206	     -0.01007805	      0.00000000
      0.28674742	      0.90266397	     -0.01539653	      0.00000000
      0.28853959	      0.90388343	     -0.02069568	      0.00000000
      0.29033176	      0.90516040	     -0.02597639	      0.00000000
      0.29212393	      0.90649480	     -0.03123988	      0.00000000
      0.29391610	      0.90788671	     -0.03648719	      0.00000000
      0.29570827	      0.90933608	     -0.04171985	      0.00000000
      0.29750045	      0.91084275	     -0.04693932	      0.00000000
      0.29929262	      0.91240637	     -0.05214740	      0.00000000
      0.30108479	      0.91402668	     -0.05734576	      0.00000000
      0.30287696	      0.91570318	     -0.06253657	      0.00000000
      0.30466913	      0.91743542	     -0.06772189	      0.00000000
      0.30646130	      0.91922255	     -0.07290421	      0.00000000
      0.30825347	      0.92106377	     -0.07808591	      0.00000000
      0.31004565	      0.92295778	     -0.08326995	      0.00000000
      0.31183782	      0.92490343	     -0.08845910	      0.00000000
      0.31362999	      0.92689903	     -0.09365681	      0.00000000
      0.31542216	      0.92894303	     -0.09886635	      0.00000000
      0.31721433	      0.93103323	     -0.10409169	      0.00000000
      0.31900650	      0.93316758	     -0.10933667	      0.00000000
      0.32079867	      0.93534327	     -0.11460582	      0.00000000
      0.32259085	      0.93755766	     -0.11990359	      0.00000000
      0.32438302	      0.93980728	     -0.12523498	      0.00000000
      0.32617519	      0.94208896	     -0.13060506	      0.00000000
      0.32796736	      0.94439874	     -0.13601883	      0.00000000
      0.32975953	      0.94673504	     -0.14148111	      0.00000000
      0.33155170	      0.94909397	     -0.14699585	      0.00000000
      0.33334387	      0.95146477	     -0.15256778	      0.00000000
      0.33513604	      0.95384346	     -0.15820022	      0.00000000
      0.33692822	      0.95623101	     -0.16389690	      0.00000000
      0.33872039	      0.95862373	     -0.16966016	      0.00000000
      0.34051256	      0.96101803	     -0.17549220	      0.00000000
      0.34230473	      0.96341269	     -0.18139200	      0.00000000
      0.34409690	      0.96580450	     -0.18736019	      0.00000000
      0.34588907	      0.96819246	     -0.19339410	      0.00000000
      0.34768124	      0.97057620	     -0.19949117	      0.00000000
      0.34947342	      0.97295740	     -0.20564473	      0.00000000
      0.35126559	      0.97533752	     -0.21184849	      0.00000000
      0.35305776	      0.97771722	     -0.21809451	      0.00000000
      0.35484993	      0.98009709	     -0.22437519	      0.00000000
      0.35664210	      0.98247516	     -0.23068385	      0.00000000
      0.35843427	      0.98484882	     -0.23701453	      0.00000000
      0.36022644	      0.98721501	     -0.24336183	      0.00000000
      0.36201862	      0.98957054	     -0.24972066	      0.00000000
      0.36381079	      0.99191582	     -0.25608328	      0.00000000
      0.36560296	      0.99425117	     -0.26244203	      0.00000000
      0.36739513	      0.99658169	     -0.26878516	      0.00000000
      0.36918730	      0.99891246	     -0.27510093	      0.00000000
      0.37097947	      1.00125014	     -0.28137578	      0.00000000
      0.37277164	      1.00360131	     -0.28759612	      0.00000000
      0.37456381	      1.00596948	     -0.29375059	      0.00000000
      0.37635599	      1.00835741	     -0.29982812	      0.00000000
      0.37814816	      1.01076481	     -0.30582128	      0.00000000
      0.37994033	      1.01319179	     -0.31172224	      0.00000000
      0.38173250	      1.01563901	     -0.31752475	      0.00000000
      0.38352467	      1.01810739	     -0.32322207	      0.00000000
      0.38531684	      1.02060031	     -0.32880740	      0.00000000
      0.38710901	      1.02312108	     -0.33427360	      0.00000000
      0.38890119	      1.02567473	     -0.33961345	      0.00000000
      0.39069336	      1.02826608	     -0.34481956	      0.00000000
      0.39248553	      1.03089977	     -0.34988539	      0.00000000
      0.39427770	      1.03358038	     -0.35480421	      0.00000000
      0.39606987	      1.03631112	     -0.35957087	      0.00000000
      0.39786204	      1.03909524	     -0.36417997	      0.00000000
      0.39965421	      1.04193475	     -0.36862779	      0.00000000
      0.40144639	      1.04483191	     -0.37291026	      0.00000000
      0.40323856	      1.04778851	     -0.37702459	      0.00000000
      0.40503073	      1.05080647	     -0.38096769	      0.00000000
      0.40682290	      1.05388770	     -0.38473734	      0.00000000
      0.40861507	      1.05703418	     -0.38833109	      0.00000000
      0.41040724	      1.06024796	     -0.39174709	      0.00000000
      0.41219941	      1.06353114	     -0.39498335	      0.00000000
      0.41399158	      1.06688575	     -0.39803837	      0.00000000
      0.41578376	      1.07031383	     -0.40091055	      0.00000000
      0.41757593	      1.07381729	     -0.40359877	      0.00000000
      0.41936810	      1.07739810	     -0.40610179	      0.00000000
      0.42116027	      1.08105803	     -0.40841894	      0.00000000
      0.42295244	      1.08479897	     -0.41054939	      0.00000000
      0.42474461	      1.08862244	     -0.41249286	      0.00000000
      0.42653678	      1.09252998	     -0.41424894	      0.00000000
      0.42832896	      1.09652283	     -0.41581782	      0.00000000
      0.43012113	      1.10060228	     -0.41719952	      0.00000000
      0.43191330	      1.10476945	     -0.41839469	      0.00000000
      0.43370547	      1.10902548	     -0.41940386	      0.00000000
      0.43549764	      1.11337146	     -0.42022797	      0.00000000
      0.43728981	      1.11780839	     -0.42086791	      0.00000000
      0.43908198	      1.12233748	     -0.42132515	      0.00000000
      0.44087416	      1.12696007	     -0.42160099	      0.00000000
      0.44266633	      1.13167764	     -0.42169700	      0.00000000
      0.44445850	      1.13649144	     -0.42161472	      0.00000000
      0.44625067	      1.14140272	     -0.42135631	      0.00000000
      0.44804284	      1.14641359	     -0.42092349	      0.00000000
      0.44983501	      1.15152522	     -0.42031887	      0.00000000
      0.45162718	      1.15673711	     -0.41954517	      0.00000000
      0.45341935	      1.16204845	     -0.41860601	      0.00000000
      0.45521153	      1.16745984	     -0.41750469	      0.00000000
      0.45700370	      1.17297114	     -0.41624526	      0.00000000
      0.45879587	      1.17858200	     -0.41483142	      0.00000000
      0.46058804	      1.18429234	     -0.41326771	      0.00000000
      0.46238021	      1.19010178	     -0.41155865	      0.00000000
      0.46417238	      1.19601057	     -0.40970933	      0.00000000
      0.46596455	      1.20201925	     -0.40772477	      0.00000000
      0.46775673	      1.20812869	     -0.40561041	      0.00000000
      0.46954890	      1.21433966	     -0.40337141	      0.00000000
      0.47134107	      1.22065236	     -0.40101304	      0.00000000
      0.47313324	      1.22706670	     -0.39854021	      0.00000000
      0.47492541	      1.23358236	     -0.39595927	      0.00000000
      0.47671758	      1.24019954	     -0.39327681	      0.00000000
      0.47850975	      1.24691807	     -0.39050044	      0.00000000
      0.48030193	      1.25373768	     -0.38763755	      0.00000000
      0.48209410	      1.26065712	     -0.38469533	      0.00000000
      0.48388627	      1.26767485	     -0.38168054	      0.00000000
      0.48567844	      1.27478948	     -0.37860043	      0.00000000
      0.48747061	      1.28200015	     -0.37546251	      0.00000000
      0.48926278	      1.28930655	     -0.37227495	      0.00000000
      0.49105495	      1.29670833	     -0.36904581	      0.00000000
      0.49284712	      1.30420474	     -0.36578302	      0.00000000
      0.49463930	      1.31179490	     -0.36249423	      0.00000000
      0.49643147	      1.31947728	     -0.35918728	      0.00000000
      0.49822364	      1.32725055	     -0.35587017	      0.00000000
      0.50001581	      1.33511306	     -0.35255103	      0.00000000
      0.50180798	      1.34306319	     -0.34923816	      0.00000000
      0.50360015	      1.35109944	     -0.34593941	      0.00000000
      0.50539232	      1.35922038	     -0.34266272	      0.00000000
      0.50718450	      1.36742500	     -0.33941502	      0.00000000
      0.50897667	      1.37571243	     -0.33620348	      0.00000000
      0.51076884	      1.38408185	     -0.33303411	      0.00000000
      0.51256101	      1.39253265	     -0.32991323	      0.00000000
      0.51435318	      1.40106351	     -0.32684614	      0.00000000
      0.51614535	      1.40967331	     -0.32383851	      0.00000000
      0.51793752	      1.41835984	     -0.32089487	      0.00000000
      0.51972970	      1.42712224	     -0.31801941	      0.00000000
      0.52152187	      1.43595683	     -0.31521588	      0.00000000
      0.52331404	      1.44486190	     -0.31248737	      0.00000000
      0.52510621	      1.45382757	     -0.30984017	      0.00000000
      0.52689838	      1.46283978	     -0.30728332	      0.00000000
      0.52869055	      1.47188345	     -0.30482623	      0.00000000
      0.53048272	      1.48094905	     -0.30247358	      0.00000000
      0.53227489	      1.49003197	     -0.30022912	      0.00000000
      0.53406707	      1.49912636	     -0.29809774	      0.00000000
      0.53585924	      1.50822323	     -0.29609246	      0.00000000
      0.53765141	      1.51731511	     -0.29422858	      0.00000000
      0.53944358	      1.52638659	     -0.29252158	      0.00000000
      0.54123575	      1.53542500	     -0.29098616	      0.00000000
      0.54302792	      1.54440947	     -0.28962763	      0.00000000
      0.54482009	      1.55331426	     -0.28844989	      0.00000000
      0.54661227	      1.56210171	     -0.28745190	      0.00000000
      0.54840444	      1.57074049	     -0.28663439	      0.00000000
      0.55019661	      1.57920166	     -0.28599913	      0.00000000
      0.55198878	      1.58745635	     -0.28555238	      0.00000000
      0.55378095	      1.59547642	     -0.28529472	      0.00000000
      0.55557312	      1.60323648	     -0.28523320	      0.00000000
      0.55736529	      1.61070300	     -0.28535003	      0.00000000
      0.55915747	      1.61785286	     -0.28564499	      0.00000000
      0.56094964	      1.62462854	     -0.28605423	      0.00000000
      0.56274181	      1.63098583	     -0.28653962	      0.00000000
      0.56453398	      1.63679619	     -0.28692083	      0.00000000
      0.56632615	      1.64191710	     -0.28700644	      0.00000000
      0.56811832	      1.64614674	     -0.28649024	      0.00000000
      0.56991049	      1.64920479	     -0.28497893	      0.00000000
      0.57170266	      1.65099205	     -0.28227696	      0.00000000
      0.57349484	      1.65096907	     -0.27765337	      0.00000000
      0.57528701	      1.64928079	     -0.27119143	      0.00000000
      0.57707918	      1.64759222	     -0.26480498	      0.00000000
      0.57887135	      1.64587735	     -0.25826545	      0.00000000
      0.58066352	      1.64281265	     -0.24978678	      0.00000000
      0.58245569	      1.63822810	     -0.23935532	      0.00000000
      0.58424786	      1.63218893	     -0.22725716	      0.00000000
      0.58604004	      1.62457665	     -0.21348222	      0.00000000
      0.58783221	      1.61527256	     -0.19801270	      0.00000000
      0.58962438	      1.60381301	     -0.18010514	      0.00000000
      0.59141655	      1.58968778	     -0.15867847	      0.00000000
      0.59320872	      1.57339531	     -0.13418074	      0.00000000
      0.59500089	      1.55566676	     -0.10745889	      0.00000000
      0.59679306	      1.53688302	     -0.08004463	      0.00000000
      0.59858524	      1.51683775	     -0.05351157	      0.00000000
      0.60037741	      1.49571814	     -0.02832075	      0.00000000
      0.60216958	      1.47430598	     -0.00448270	      0.00000000
      0.60396175	      1.45343406	      0.01835739	      0.00000000
      0.60575392	      1.43363334	      0.04020607	      0.00000000
      0.60754609	      1.41497776	      0.06100076	      0.00000000
      0.60933826	      1.39760842	      0.08066676	      0.00000000
      0.61113043	      1.38141232	      0.09911475	      0.00000000
      0.61292261	      1.36633984	      0.11626147	      0.00000000
      0.61471478	      1.35226685	      0.13208055	      0.00000000
      0.61650695	      1.33909655	      0.14653926	      0.00000000
      0.61829912	      1.32674102	      0.15967754	      0.00000000
      0.62009129	      1.31512239	      0.17152662	      0.00000000
      0.62188346	      1.30418295	      0.18216207	      0.00000000
      0.62367563	      1.29386290	      0.19164983	      0.00000000
      0.62546781	      1.28411348	      0.20006802	      0.00000000
      0.62725998	      1.27488250	      0.20748970	      0.00000000
      0.62905215	      1.26612565	      0.21398346	      0.00000000
      0.63084432	      1.25779552	      0.21961746	      0.00000000
      0.63263649	      1.24985543	      0.22445115	      0.00000000
      0.63442866	      1.24227100	      0.22854668	      0.00000000
      0.63622083	      1.23501320	      0.23195611	      0.00000000
      0.63801301	      1.22804760	      0.23473310	      0.00000000
      0.63980518	      1.22135348	      0.23692314	      0.00000000
      0.64159735	      1.21490877	      0.23857401	      0.00000000
      0.64338952	      1.20869841	      0.23972467	      0.00000000
      0.64518169	      1.20270550	      0.24041616	      0.00000000
      0.64697386	      1.19691751	      0.24068127	      0.00000000
      0.64876603	      1.19132070	      0.24055479	      0.00000000
      0.65055820	      1.18590439	      0.24006406	      0.00000000
      0.65235038	      1.18065697	      0.23923816	      0.00000000
      0.65414255	      1.17556927	      0.23809979	      0.00000000
      0.65593472	      1.17063124	      0.23667305	      0.00000000
      0.65772689	      1.16583521	      0.23497687	      0.00000000
      0.65951906	      1.16117290	      0.23303145	      0.00000000
      0.66131123	      1.15663835	      0.23085303	      0.00000000
      0.66310340	      1.15222482	      0.22845888	      0.00000000
      0.66489558	      1.14792755	      0.22586308	      0.00000000
      0.66668775	      1.14374108	      0.22308067	      0.00000000
      0.66847992	      1.13966219	      0.22012370	      0.00000000
      0.67027209	      1.13568611	      0.21700572	      0.00000000
      0.67206426	      1.13181089	      0.21373696	      0.00000000
      0.67385643	      1.12803891	      0.21032524	      0.00000000
      0.67564860	      1.12436425	      0.20677909	      0.00000000
      0.67744078	      1.12077680	      0.20311032	      0.00000000
      0.67923295	      1.11727516	      0.19932885	      0.00000000
      0.68102512	      1.11385819	      0.19544390	      0.00000000
      0.68281729	      1.11052526	      0.19146382	      0.00000000
      0.68460946	      1.10727566	      0.18739727	      0.00000000
      0.68640163	      1.10410899	      0.18325203	      0.00000000
      0.68819380	      1.10102496	      0.17903621	      0.00000000
      0.68998597	      1.09802326	      0.17475685	      0.00000000
      0.69177815	      1.09510352	      0.17042109	      0.00000000
      0.69357032	      1.09226501	      0.16603512	      0.00000000
      0.69536249	      1.08950700	      0.16160529	      0.00000000
      0.69715466	      1.08682854	      0.15713718	      0.00000000
      0.69894683	      1.08422879	      0.15263661	      0.00000000
      0.70073900	      1.08170681	      0.14810880	      0.00000000
      0.70253117	      1.07926165	      0.14355907	      0.00000000
      0.70432335	      1.07689235	      0.13899233	      0.00000000
      0.70611552	      1.07459802	      0.13441360	      0.00000000
      0.70790769	      1.07237793	      0.12982755	      0.00000000
      0.70969986	      1.07023138	      0.12523892	      0.00000000
      0.71149203	      1.06815777	      0.12065225	      0.00000000
      0.71328420	      1.06615641	      0.11607208	      0.00000000
      0.71507637	      1.06422667	      0.11150272	      0.00000000
      0.71686855	      1.06236795	      0.10694854	      0.00000000
      0.71866072	      1.06057974	      0.10241370	      0.00000000
      0.72045289	      1.05886150	      0.09790241	      0.00000000
      0.72224506	      1.05721279	      0.09341871	      0.00000000
      0.72403723	      1.05563319	      0.08896670	      0.00000000
      0.72582940	      1.05412237	      0.08455029	      0.00000000
      0.72762157	      1.05268016	      0.08017348	      0.00000000
      0.72941374	      1.05130622	      0.07584008	      0.00000000
      0.73120592	      1.05000016	      0.07155384	      0.00000000
      0.73299809	      1.04876126	      0.06731834	      0.00000000
      0.73479026	      1.04758890	      0.06313717	      0.00000000
      0.73658243	      1.04648221	      0.05901373	      0.00000000
      0.73837460	      1.04544044	      0.05495145	      0.00000000
      0.74016677	      1.04446262	      0.05095372	      0.00000000
      0.74195894	      1.04354779	      0.04702389	      0.00000000
      0.74375112	      1.04269469	      0.04316548	      0.00000000
      0.74554329	      1.04190206	      0.03938192	      0.00000000
      0.74733546	      1.04116852	      0.03567717	      0.00000000
      0.74912763	      1.04049260	      0.03205505	      0.00000000
      0.75091980	      1.03987322	      0.02852025	      0.00000000
      0.75271197	      1.03930935	      0.02507742	      0.00000000
      0.75450414	      1.03880050	      0.02173202	      0.00000000
      0.75629632	      1.03834640	      0.01848955	      0.00000000
      0.75808849	      1.03794645	      0.01535565	      0.00000000
      0.75988066	      1.03760025	      0.01233621	      0.00000000
      0.76167283	      1.03730572	      0.00943597	      0.00000000
      0.76346500	      1.03706100	      0.00665989	      0.00000000
      0.76525717	      1.03686182	      0.00401086	      0.00000000
      0.76704934	      1.03670349	      0.00149180	      0.00000000
      0.76884151	      1.03658085	     -0.00089588	      0.00000000
      0.77063369	      1.03648783	     -0.00315200	      0.00000000
      0.77242586	      1.03642194	     -0.00527369	      0.00000000
      0.77421803	      1.03637343	     -0.00726261	      0.00000000
      0.77601020	      1.03635187	     -0.00910760	      0.00000000
      0.77780237	      1.03633488	     -0.01083111	      0.00000000
      0.77959454	      1.03634775	     -0.01241047	      0.00000000
      0.78138671	      1.03653386	     -0.01370921	      0.00000000
      0.78317889	      1.03689422	     -0.01472633	      0.00000000
      0.78497106	      1.03732375	     -0.01555859	      0.00000000
      0.78676323	      1.03780305	     -0.01621592	      0.00000000
      0.78855540	      1.03834332	     -0.01669021	      0.00000000
      0.79034757	      1.03893629	     -0.01698761	      0.00000000
      0.79213974	      1.03956022	     -0.01710296	      0.00000000
      0.79393191	      1.04020939	     -0.01704912	      0.00000000
      0.79572409	      1.04089176	     -0.01684418	      0.00000000
      0.79751626	      1.04160200	     -0.01649870	      0.00000000
      0.79930843	      1.04233379	     -0.01601972	      0.00000000
      0.80110060	      1.04308673	     -0.01541255	      0.00000000
      0.80289277	      1.04385796	     -0.01468366	      0.00000000
      0.80468494	      1.04464944	     -0.01383964	      0.00000000
      0.80647711	      1.04546459	     -0.01288779	      0.00000000
      0.80826928	      1.04630643	     -0.01183300	      0.00000000
      0.81006146	      1.04717623	     -0.01067872	      0.00000000
      0.81185363	      1.04807289	     -0.00942791	      0.00000000
      0.81364580	      1.04899614	     -0.00808392	      0.00000000
      0.81543797	      1.04994391	     -0.00665338	      0.00000000
      0.81723014	      1.05091432	     -0.00514342	      0.00000000
      0.81902231	      1.05190391	     -0.00356321	      0.00000000
      0.82081448	      1.05290872	     -0.00192144	      0.00000000
      0.82260666	      1.05392620	     -0.00022602	      0.00000000
      0.82439883	      1.05495426	      0.00151520	      0.00000000
      0.82619100	      1.05599346	      0.00329615	      0.00000000
      0.82798317	      1.05704390	      0.00511053	      0.00000000
      0.82977534	      1.05810730	      0.00695358	      0.00000000
      0.83156751	      1.05918502	      0.00882027	      0.00000000
      0.83335968	      1.06027900	      0.01070648	      0.00000000
      0.83515185	      1.06139124	      0.01260788	      0.00000000
      0.83694403	      1.06252303	      0.01452047	      0.00000000
      0.83873620	      1.06367579	      0.01644025	      0.00000000
      0.84052837	      1.06484928	      0.01836303	      0.00000000
      0.84232054	      1.06604377	      0.02028489	      0.00000000
      0.84411271	      1.06725727	      0.02220091	      0.00000000
      0.84590488	      1.06848928	      0.02410706	      0.00000000
      0.84769705	      1.06973506	      0.02599652	      0.00000000
      0.84948923	      1.07099652	      0.02786796	      0.00000000
      0.85128140	      1.07226713	      0.02971388	      0.00000000
      0.85307357	      1.07351510	      0.03150409	      0.00000000
      0.85486574	      1.07474407	      0.03323998	      0.00000000
      0.85665791	      1.07598037	      0.03494313	      0.00000000
      0.85845008	      1.07723123	      0.03661901	      0.00000000
      0.86024225	      1.07849820	      0.03826789	      0.00000000
      0.86203443	      1.07978349	      0.03989116	      0.00000000
      0.86382660	      1.08108868	      0.04148969	      0.00000000
      0.86561877	      1.08241447	      0.04306396	      0.00000000
      0.86741094	      1.08376143	      0.04461425	      0.00000000
      0.86920311	      1.08512966	      0.04614055	      0.00000000
      0.87099528	      1.08651926	      0.04764269	      0.00000000
      0.87278745	      1.08793088	      0.04912133	      0.00000000
      0.87457962	      1.08936512	      0.05057710	      0.00000000
      0.87637180	      1.09082384	      0.05201211	      0.00000000
      0.87816397	      1.09230893	      0.05342827	      0.00000000
      0.87995614	      1.09382305	      0.05482870	      0.00000000
      0.88174831	      1.09536865	      0.05621627	      0.00000000
      0.88354048	      1.09694809	      0.05759455	      0.00000000
      0.88533265	      1.09856359	      0.05896700	      0.00000000
      0.88712482	      1.10021693	      0.06033743	      0.00000000
      0.88891700	      1.10190988	      0.06170967	      0.00000000
      0.89070917	      1.10364399	      0.06308745	      0.00000000
      0.89250134	      1.10542081	      0.06447477	      0.00000000
      0.89429351	      1.10724200	      0.06587450	      0.00000000
      0.89608568	      1.10910940	      0.06728992	      0.00000000
      0.89787785	      1.11102449	      0.06872220	      0.00000000
      0.89967002	      1.11298839	      0.07017272	      0.00000000
      0.90146220	      1.11500219	      0.07164053	      0.00000000
      0.90325437	      1.11706701	      0.07312510	      0.00000000
      0.90504654	      1.11918484	      0.07462413	      0.00000000
      0.90683871	      1.12135821	      0.07613590	      0.00000000
      0.90863088	      1.12358899	      0.07765783	      0.00000000
      0.91042305	      1.12587841	      0.07918745	      0.00000000
      0.91221522	      1.12822657	      0.08072173	      0.00000000
      0.91400739	      1.13063342	      0.08225771	      0.00000000
      0.91579957	      1.13309972	      0.08379244	      0.00000000
      0.91759174	      1.13562797	      0.08532264	      0.00000000
      0.91938391	      1.13821856	      0.08684598	      0.00000000
      0.92117608	      1.14086940	      0.08835558	      0.00000000
      0.92296825	      1.14357335	      0.08982759	      0.00000000
      0.92476042	      1.14632423	      0.09125627	      0.00000000
      0.92655259	      1.14912918	      0.09266474	      0.00000000
      0.92834477	      1.15199718	      0.09405306	      0.00000000
      0.93013694	      1.15493680	      0.09542142	      0.00000000
      0.93192911	      1.15794948	      0.09675848	      0.00000000
      0.93372128	      1.16102327	      0.09798288	      0.00000000
      0.93551345	      1.16415820	      0.09909183	      0.00000000
      0.93730562	      1.16737204	      0.10018257	      0.00000000
      0.93909779	      1.17067047	      0.10126562	      0.00000000
      0.94088997	      1.17405751	      0.10232045	      0.00000000
      0.94268214	      1.17754343	      0.10335105	      0.00000000
      0.94447431	      1.18113235	      0.10435165	      0.00000000
      0.94626648	      1.18482523	      0.10532069	      0.00000000
      0.94805865	      1.18861877	      0.10625490	      0.00000000
      0.94985082	      1.19251249	      0.10715167	      0.00000000
      0.95164299	      1.19650632	      0.10800813	      0.00000000
      0.95343516	      1.20060041	      0.10882152	      0.00000000
      0.95522734	      1.20479432	      0.10958936	      0.00000000
      0.95701951	      1.20908743	      0.11030910	      0.00000000
      0.95881168	      1.21347855	      0.11097828	      0.00000000
      0.96060385	      1.21796694	      0.11159453	      0.00000000
      0.96239602	      1.22255135	      0.11215528	      0.00000000
      0.96418819	      1.22723073	      0.11265801	      0.00000000
      0.96598036	      1.23200298	      0.11309986	      0.00000000
      0.96777254	      1.23686610	      0.11347798	      0.00000000
      0.96956471	      1.24181723	      0.11378907	      0.00000000
      0.97135688	      1.24685379	      0.11402990	      0.00000000
      0.97314905	      1.25197261	      0.11419663	      0.00000000
      0.97494122	      1.25717072	      0.11428542	      0.00000000
      0.97673339	      1.26244451	      0.11429228	      0.00000000
      0.97852556	      1.26779031	      0.11421325	      0.00000000
      0.98031774	      1.27320484	      0.11404411	      0.00000000
      0.98210991	      1.27868494	      0.11378065	      0.00000000
      0.98390208	      1.28422831	      0.11341915	      0.00000000
      0.98569425	      1.28983247	      0.11295562	      0.00000000
      0.98748642	      1.29549583	      0.11238671	      0.00000000
      0.98927859	      1.30121599	      0.11170911	      0.00000000
      0.99107076	      1.30699285	      0.11091996	      0.00000000
      0.99286293	      1.31282554	      0.11001650	      0.00000000
      0.99465511	      1.31871763	      0.10899593	      0.00000000
      0.99644728	      1.32467339	      0.10785495	      0.00000000
      0.99823945	      1.33069884	      0.10659054	      0.00000000
      1.00003162	      1.33680017	      0.10519958	      0.00000000
      1.00182379	      1.34297917	      0.10368052	      0.00000000
      1.00361596	      1.34923527	      0.10203208	      0.00000000
      1.00540813	      1.35556711	      0.10025350	      0.00000000
      1.00720031	      1.36197422	      0.09834386	      0.00000000
      1.00899248	      1.36846081	      0.09630169	      0.00000000
      1.01078465	      1.37503253	      0.09412489	      0.00000000
      1.01257682	      1.38169490	      0.09181222	      0.00000000
      1.01436899	      1.38845106	      0.08936287	      0.00000000
      1.01616116	      1.39530268	      0.08677734	      0.00000000
      1.01795333	      1.40224922	      0.08405676	      0.00000000
      1.01974551	      1.40929680	      0.08120096	      0.00000000
      1.02153768	      1.41645057	      0.07820993	      0.00000000
      1.02332985	      1.42372805	      0.07508039	      0.00000000
      1.02512202	      1.43114698	      0.07180948	      0.00000000
      1.02691419	      1.43873115	      0.06839125	      0.00000000
      1.02870636	      1.44649662	      0.06482349	      0.00000000
      1.03049853	      1.45441737	      0.06110599	      0.00000000
      1.03229070	      1.46250263	      0.05722873	      0.00000000
      1.03408288	      1.47079102	      0.05317508	      0.00000000
      1.03587505	      1.47928932	      0.04893767	      0.00000000
      1.03766722	      1.48797784	      0.04451248	      0.00000000
      1.03945939	      1.49684265	      0.03989377	      0.00000000
      1.04125156	      1.50585777	      0.03507778	      0.00000000
      1.04304373	      1.51500839	      0.03005561	      0.00000000
      1.04483590	      1.52427548	      0.02482649	      0.00000000
      1.04662808	      1.53364869	      0.01938625	      0.00000000
      1.04842025	      1.54309737	      0.01375119	      0.00000000
      1.05021242	      1.55261614	      0.00793049	      0.00000000
      1.05200459	      1.56212165	      0.00196312	      0.00000000
      1.05379676	      1.57157650	     -0.00412999	      0.00000000
      1.05558893	      1.58075171	     -0.01027392	      0.00000000
      1.05738110	      1.58947934	     -0.01642980	      0.00000000
      1.05917328	      1.59726687	     -0.02242620	      0.00000000
      1.06096545	      1.60353249	     -0.02808232	      0.00000000
      1.06275762	      1.60747248	     -0.03302099	      0.00000000
      1.06454979	      1.60769989	     -0.03672691	      0.00000000
      1.06634196	      1.60422306	     -0.03892604	      0.00000000
      1.06813413	      1.59728568	     -0.03931732	      0.00000000
      1.06992630	      1.58951487	     -0.03833859	      0.00000000
      1.07171847	      1.58461341	     -0.03674018	      0.00000000
      1.07351065	      1.58266303	     -0.03488491	      0.00000000
      1.07530282	      1.58193393	     -0.03297789	      0.00000000
