PointAcceleration
version=1
nRows=601
nColumns=4
inDegrees=no
No description.
endheader
time	state_0	state_1	state_2
      0.00000000	     58.56817603	     37.70451598	      0.00000000
      0.00073621	     64.01522905	     35.20933161	      0.00000000
      0.00147243	     65.55571871	     33.17113469	      0.00000000
      0.00220864	     66.03024971	     31.24778342	      0.00000000
      0.00294486	     66.46096814	     29.36511442	      0.00000000
      0.00368107	     66.83111977	     27.43223949	      0.00000000
      0.00441729	     67.06543803	     25.41030545	      0.00000000
      0.00515350	     67.16373993	     23.31838901	      0.00000000
      0.00588972	     67.11911103	     21.16758728	      0.00000000
      0.00662593	     66.93887689	     18.99067662	      0.00000000
      0.00736214	     66.62347240	     16.81319219	      0.00000000
      0.00809836	     66.17452097	     14.66199120	      0.00000000
      0.00883457	     65.59196458	     12.56001632	      0.00000000
      0.00957079	     64.87383477	     10.52609617	      0.00000000
      0.01030700	     64.01673019	      8.57718272	      0.00000000
      0.01104322	     63.01449299	      6.72744202	      0.00000000
      0.01177943	     61.85720094	      4.98839088	      0.00000000
      0.01251565	     60.53345052	      3.37299889	      0.00000000
      0.01325186	     59.02394905	      1.89054542	      0.00000000
      0.01398807	     57.31635607	      0.55470716	      0.00000000
      0.01472429	     55.40377645	     -0.62530972	      0.00000000
      0.01546050	     53.31587660	     -1.63907977	      0.00000000
      0.01619672	     51.11837642	     -2.47986922	      0.00000000
      0.01693293	     48.88797749	     -3.14596842	      0.00000000
      0.01766915	     46.70456242	     -3.63843519	      0.00000000
      0.01840536	     44.59134707	     -3.96259224	      0.00000000
      0.01914158	     42.55037058	     -4.12296474	      0.00000000
      0.01987779	     40.54336677	     -4.12693057	      0.00000000
      0.02061401	     38.53878959	     -3.99275649	      0.00000000
      0.02135022	     36.51371408	     -3.73328363	      0.00000000
      0.02208643	     34.44209558	     -3.22980893	      0.00000000
      0.02282265	     32.31757936	     -2.24355916	      0.00000000
      0.02355886	     30.27404675	     -0.88032625	      0.00000000
      0.02429508	     28.40003885	      0.39868150	      0.00000000
      0.02503129	     26.56923376	      1.44617625	      0.00000000
      0.02576751	     25.22538979	      0.81526958	      0.00000000
      0.02650372	     23.24494626	      2.12411570	      0.00000000
      0.02723994	     21.58437135	      2.48120862	      0.00000000
      0.02797615	     19.92433308	      2.74567102	      0.00000000
      0.02871236	     18.33105505	      2.72553257	      0.00000000
      0.02944858	     16.75491665	      2.56234678	      0.00000000
      0.03018479	     15.17746271	      2.31617120	      0.00000000
      0.03092101	     13.58327454	      2.02362652	      0.00000000
      0.03165722	     11.95502749	      1.72801686	      0.00000000
      0.03239344	     10.29068950	      1.42951973	      0.00000000
      0.03312965	      8.58258365	      1.14672977	      0.00000000
      0.03386587	      6.83662769	      0.86555621	      0.00000000
      0.03460208	      5.05065511	      0.59208500	      0.00000000
      0.03533829	      3.23181999	      0.31149867	      0.00000000
      0.03607451	      1.38042106	      0.02409186	      0.00000000
      0.03681072	     -0.49769719	     -0.28085809	      0.00000000
      0.03754694	     -2.40080823	     -0.60503554	      0.00000000
      0.03828315	     -4.32414672	     -0.95496952	      0.00000000
      0.03901937	     -6.26505450	     -1.33225441	      0.00000000
      0.03975558	     -8.21928162	     -1.74033741	      0.00000000
      0.04049180	    -10.18364973	     -2.17995726	      0.00000000
      0.04122801	    -12.15418655	     -2.65248358	      0.00000000
      0.04196422	    -14.12749302	     -3.15774345	      0.00000000
      0.04270044	    -16.09982860	     -3.69574075	      0.00000000
      0.04343665	    -18.06775647	     -4.26559295	      0.00000000
      0.04417287	    -20.02776802	     -4.86643520	      0.00000000
      0.04490908	    -21.97649353	     -5.49692019	      0.00000000
      0.04564530	    -23.91065584	     -6.15567011	      0.00000000
      0.04638151	    -25.82701674	     -6.84108746	      0.00000000
      0.04711773	    -27.72253219	     -7.55153996	      0.00000000
      0.04785394	    -29.59414943	     -8.28534951	      0.00000000
      0.04859015	    -31.43907658	     -9.04081809	      0.00000000
      0.04932637	    -33.25450767	     -9.81631575	      0.00000000
      0.05006258	    -35.03794593	    -10.61021630	      0.00000000
      0.05079880	    -36.78690178	    -11.42103398	      0.00000000
      0.05153501	    -38.49923255	    -12.24731415	      0.00000000
      0.05227123	    -40.17283435	    -13.08778671	      0.00000000
      0.05300744	    -41.80598374	    -13.94123948	      0.00000000
      0.05374366	    -43.39702620	    -14.80667476	      0.00000000
      0.05447987	    -44.94471680	    -15.68318274	      0.00000000
      0.05521609	    -46.44790956	    -16.57008755	      0.00000000
      0.05595230	    -47.90588193	    -17.46683899	      0.00000000
      0.05668851	    -49.31807431	    -18.37310356	      0.00000000
      0.05742473	    -50.68436556	    -19.28868440	      0.00000000
      0.05816094	    -52.00484519	    -20.21357021	      0.00000000
      0.05889716	    -53.27998354	    -21.14789463	      0.00000000
      0.05963337	    -54.51043292	    -22.09194330	      0.00000000
      0.06036959	    -55.69710258	    -23.04612562	      0.00000000
      0.06110580	    -56.84099850	    -24.01094821	      0.00000000
      0.06184202	    -57.94322496	    -24.98699486	      0.00000000
      0.06257823	    -59.00489036	    -25.97487469	      0.00000000
      0.06331444	    -60.02705643	    -26.97522136	      0.00000000
      0.06405066	    -61.01073735	    -27.98862351	      0.00000000
      0.06478687	    -61.95680957	    -29.01565180	      0.00000000
      0.06552309	    -62.86610996	    -30.05677920	      0.00000000
      0.06625930	    -63.73930566	    -31.11243662	      0.00000000
      0.06699552	    -64.57707581	    -32.18292908	      0.00000000
      0.06773173	    -65.37993951	    -33.26851216	      0.00000000
      0.06846795	    -66.14849009	    -34.36931166	      0.00000000
      0.06920416	    -66.88319017	    -35.48540866	      0.00000000
      0.06994037	    -67.58462127	    -36.61677101	      0.00000000
      0.07067659	    -68.25326920	    -37.76333309	      0.00000000
      0.07141280	    -68.88975005	    -38.92494558	      0.00000000
      0.07214902	    -69.49461024	    -40.10144106	      0.00000000
      0.07288523	    -70.06850996	    -41.29259314	      0.00000000
      0.07362145	    -70.61205525	    -42.49816761	      0.00000000
      0.07435766	    -71.12592437	    -43.71787409	      0.00000000
      0.07509388	    -71.61074303	    -44.95141240	      0.00000000
      0.07583009	    -72.06712343	    -46.19841346	      0.00000000
      0.07656630	    -72.49560636	    -47.45849262	      0.00000000
      0.07730252	    -72.89661098	    -48.73117819	      0.00000000
      0.07803873	    -73.27048374	    -50.01597553	      0.00000000
      0.07877495	    -73.61737650	    -51.31229568	      0.00000000
      0.07951116	    -73.93740486	    -52.61954593	      0.00000000
      0.08024738	    -74.23051559	    -53.93704378	      0.00000000
      0.08098359	    -74.49671380	    -55.26413634	      0.00000000
      0.08171981	    -74.73593156	    -56.60010173	      0.00000000
      0.08245602	    -74.94825637	    -57.94427245	      0.00000000
      0.08319224	    -75.13372995	    -59.29597631	      0.00000000
      0.08392845	    -75.29258564	    -60.65458583	      0.00000000
      0.08466466	    -75.42497579	    -62.01951886	      0.00000000
      0.08540088	    -75.53110808	    -63.39026796	      0.00000000
      0.08613709	    -75.61112198	    -64.76633004	      0.00000000
      0.08687331	    -75.66519521	    -66.14720934	      0.00000000
      0.08760952	    -75.69344970	    -67.53239975	      0.00000000
      0.08834574	    -75.69601044	    -68.92138636	      0.00000000
      0.08908195	    -75.67297839	    -70.31364648	      0.00000000
      0.08981817	    -75.62444892	    -71.70864723	      0.00000000
      0.09055438	    -75.55053197	    -73.10585950	      0.00000000
      0.09129059	    -75.45133542	    -74.50474955	      0.00000000
      0.09202681	    -75.32701175	    -75.90480012	      0.00000000
      0.09276302	    -75.17771506	    -77.30549662	      0.00000000
      0.09349924	    -75.00365859	    -78.70635166	      0.00000000
      0.09423545	    -74.80505875	    -80.10688681	      0.00000000
      0.09497167	    -74.58219343	    -81.50665884	      0.00000000
      0.09570788	    -74.33534283	    -82.90523990	      0.00000000
      0.09644410	    -74.06484360	    -84.30224156	      0.00000000
      0.09718031	    -73.77103480	    -85.69729485	      0.00000000
      0.09791652	    -73.45430096	    -87.09007110	      0.00000000
      0.09865274	    -73.11502439	    -88.48026337	      0.00000000
      0.09938895	    -72.75362812	    -89.86760648	      0.00000000
      0.10012517	    -72.37052653	    -91.25185816	      0.00000000
      0.10086138	    -71.96619260	    -92.63282864	      0.00000000
      0.10159760	    -71.54111339	    -94.01036873	      0.00000000
      0.10233381	    -71.09581240	    -95.38437838	      0.00000000
      0.10307003	    -70.63080756	    -96.75479618	      0.00000000
      0.10380624	    -70.14659299	    -98.12158327	      0.00000000
      0.10454245	    -69.64366260	    -99.48474165	      0.00000000
      0.10527867	    -69.12246179	   -100.84428112	      0.00000000
      0.10601488	    -68.58344166	   -102.20025274	      0.00000000
      0.10675110	    -68.02700425	   -103.55271113	      0.00000000
      0.10748731	    -67.45355667	   -104.90174934	      0.00000000
      0.10822353	    -66.86346138	   -106.24746422	      0.00000000
      0.10895974	    -66.25701497	   -107.59001074	      0.00000000
      0.10969596	    -65.63447632	   -108.92954427	      0.00000000
      0.11043217	    -64.99612950	   -110.26624551	      0.00000000
      0.11116838	    -64.34223119	   -111.60028998	      0.00000000
      0.11190460	    -63.67303867	   -112.93188761	      0.00000000
      0.11264081	    -62.98878302	   -114.26123362	      0.00000000
      0.11337703	    -62.28969383	   -115.58856203	      0.00000000
      0.11411324	    -61.57597780	   -116.91407089	      0.00000000
      0.11484946	    -60.84784397	   -118.23799734	      0.00000000
      0.11558567	    -60.10548319	   -119.56051752	      0.00000000
      0.11632189	    -59.34909874	   -120.88184114	      0.00000000
      0.11705810	    -58.57886316	   -122.20212132	      0.00000000
      0.11779432	    -57.79496445	   -123.52153998	      0.00000000
      0.11853053	    -56.99754266	   -124.84027402	      0.00000000
      0.11926674	    -56.18676234	   -126.15846318	      0.00000000
      0.12000296	    -55.36275994	   -127.47645288	      0.00000000
      0.12073917	    -54.52571432	   -128.79444235	      0.00000000
      0.12147539	    -53.67583878	   -130.11348786	      0.00000000
      0.12221160	    -52.81349240	   -131.43516913	      0.00000000
      0.12294782	    -51.93886817	   -132.76145335	      0.00000000
      0.12368403	    -51.05222449	   -134.09422007	      0.00000000
      0.12442025	    -50.15364007	   -135.43493363	      0.00000000
      0.12515646	    -49.24340390	   -136.78542264	      0.00000000
      0.12589267	    -48.32178044	   -138.14720224	      0.00000000
      0.12662889	    -47.38929447	   -139.52219522	      0.00000000
      0.12736510	    -46.44659094	   -140.91218826	      0.00000000
      0.12810132	    -45.49463035	   -142.31945889	      0.00000000
      0.12883753	    -44.53486129	   -143.74634690	      0.00000000
      0.12957375	    -43.56905660	   -145.19576599	      0.00000000
      0.13030996	    -42.59903980	   -146.67090283	      0.00000000
      0.13104618	    -41.62701548	   -148.17557432	      0.00000000
      0.13178239	    -40.65548932	   -149.71399037	      0.00000000
      0.13251860	    -39.68734549	   -151.29102876	      0.00000000
      0.13325482	    -38.72574693	   -152.91204955	      0.00000000
      0.13399103	    -37.77419510	   -154.58306639	      0.00000000
      0.13472725	    -36.83641461	   -156.31061240	      0.00000000
      0.13546346	    -35.91638911	   -158.10179260	      0.00000000
      0.13619968	    -35.01824449	   -159.96421420	      0.00000000
      0.13693589	    -34.14625283	   -161.90590360	      0.00000000
      0.13767211	    -33.30473147	   -163.93531705	      0.00000000
      0.13840832	    -32.49801226	   -166.06111813	      0.00000000
      0.13914453	    -31.73036509	   -168.29226804	      0.00000000
      0.13988075	    -31.00594874	   -170.63769837	      0.00000000
      0.14061696	    -30.32873089	   -173.10640956	      0.00000000
      0.14135318	    -29.70249514	   -175.70719296	      0.00000000
      0.14208939	    -29.13060274	   -178.44839699	      0.00000000
      0.14282561	    -28.61626596	   -181.33813066	      0.00000000
      0.14356182	    -28.16172597	   -184.38269981	      0.00000000
      0.14429804	    -27.76888769	   -187.58733855	      0.00000000
      0.14503425	    -27.43848395	   -190.95441899	      0.00000000
      0.14577046	    -27.17068888	   -194.48388111	      0.00000000
      0.14650668	    -26.96573113	   -198.17500190	      0.00000000
      0.14724289	    -26.82358073	   -202.02513361	      0.00000000
      0.14797911	    -26.74526090	   -206.03358481	      0.00000000
      0.14871532	    -26.70934926	   -210.19364416	      0.00000000
      0.14945154	    -26.75238917	   -214.50913676	      0.00000000
      0.15018775	    -26.85979510	   -218.97411757	      0.00000000
      0.15092397	    -27.03212977	   -223.58622196	      0.00000000
      0.15166018	    -27.26933084	   -228.34183313	      0.00000000
      0.15239640	    -27.57186931	   -233.23905535	      0.00000000
      0.15313261	    -27.94111833	   -238.27871352	      0.00000000
      0.15386882	    -28.38070610	   -243.46675034	      0.00000000
      0.15460504	    -28.89913025	   -248.82192148	      0.00000000
      0.15534125	    -29.51210359	   -254.37917054	      0.00000000
      0.15607747	    -30.24899076	   -260.20803412	      0.00000000
      0.15681368	    -31.15622491	   -266.41769954	      0.00000000
      0.15754990	    -32.30758542	   -273.18781573	      0.00000000
      0.15828611	    -33.80667324	   -280.76977797	      0.00000000
      0.15902233	    -35.79761475	   -289.52129997	      0.00000000
      0.15975854	    -38.45891501	   -299.88466360	      0.00000000
      0.16049475	    -42.00616908	   -312.40102255	      0.00000000
      0.16123097	    -46.66942122	   -327.64279294	      0.00000000
      0.16196718	    -52.68338890	   -346.18836062	      0.00000000
      0.16270340	    -60.25381286	   -368.52383632	      0.00000000
      0.16343961	    -69.54422023	   -394.99334994	      0.00000000
      0.16417583	    -80.64762192	   -425.72447089	      0.00000000
      0.16491204	    -93.57383706	   -460.56819356	      0.00000000
      0.16564826	   -108.23056375	   -499.07876871	      0.00000000
      0.16638447	   -124.39064991	   -540.40874761	      0.00000000
      0.16712068	   -141.68372393	   -583.37496939	      0.00000000
      0.16785690	   -159.51647315	   -626.22760958	      0.00000000
      0.16859311	   -177.12474441	   -666.91755416	      0.00000000
      0.16932933	   -193.43416822	   -702.67622742	      0.00000000
      0.17006554	   -207.30005893	   -730.80867516	      0.00000000
      0.17080176	   -217.29232183	   -748.09717797	      0.00000000
      0.17153797	   -222.37574696	   -752.78568909	      0.00000000
      0.17227419	   -221.44509952	   -743.26567281	      0.00000000
      0.17301040	   -122.98311755	   -522.54447707	      0.00000000
      0.17374661	    -18.68713052	   -306.21629799	      0.00000000
      0.17448283	    -15.63309233	   -316.32161213	      0.00000000
      0.17521904	     -4.43191126	   -308.67713121	      0.00000000
      0.17595526	      3.52399803	   -307.58667301	      0.00000000
      0.17669147	     11.98441486	   -304.72040061	      0.00000000
      0.17742769	     19.38365717	   -303.04794373	      0.00000000
      0.17816390	     25.92401623	   -301.85805697	      0.00000000
      0.17890012	     31.42336846	   -301.38451266	      0.00000000
      0.17963633	     35.92219249	   -301.48888895	      0.00000000
      0.18037255	     39.45018540	   -302.13290886	      0.00000000
      0.18110876	     42.16693702	   -303.07508530	      0.00000000
      0.18184497	     44.12254687	   -304.27983928	      0.00000000
      0.18258119	     45.49844989	   -305.49952063	      0.00000000
      0.18331740	     46.33163143	   -306.72872320	      0.00000000
      0.18405362	     46.77062711	   -307.78571636	      0.00000000
      0.18478983	     46.84234185	   -308.68211237	      0.00000000
      0.18552605	     46.65339727	   -309.30753333	      0.00000000
      0.18626226	     46.22517442	   -309.67985081	      0.00000000
      0.18699848	     45.62955255	   -309.74257983	      0.00000000
      0.18773469	     44.88440823	   -309.51497894	      0.00000000
      0.18847090	     44.03653529	   -308.97585200	      0.00000000
      0.18920712	     43.10104447	   -308.14409686	      0.00000000
      0.18994333	     42.10766013	   -307.01987285	      0.00000000
      0.19067955	     41.06903372	   -305.62129182	      0.00000000
      0.19141576	     40.00358356	   -303.96065402	      0.00000000
      0.19215198	     38.92172476	   -302.05523716	      0.00000000
      0.19288819	     37.83450130	   -299.92361877	      0.00000000
      0.19362441	     36.75035162	   -297.58212264	      0.00000000
      0.19436062	     35.67559818	   -295.05182373	      0.00000000
      0.19509683	     34.61698914	   -292.34781485	      0.00000000
      0.19583305	     33.57790910	   -289.49120955	      0.00000000
      0.19656926	     32.56367757	   -286.49555449	      0.00000000
      0.19730548	     31.57585560	   -283.38037659	      0.00000000
      0.19804169	     30.61847815	   -280.15743849	      0.00000000
      0.19877791	     29.69199722	   -276.84378837	      0.00000000
      0.19951412	     28.79922346	   -273.44945938	      0.00000000
      0.20025034	     27.93985718	   -269.98870906	      0.00000000
      0.20098655	     27.11550721	   -266.47009546	      0.00000000
      0.20172276	     26.32530622	   -262.90518682	      0.00000000
      0.20245898	     25.56973054	   -259.30152069	      0.00000000
      0.20319519	     24.84751240	   -255.66814875	      0.00000000
      0.20393141	     24.15735981	   -252.01379847	      0.00000000
      0.20466762	     23.49654152	   -248.34922001	      0.00000000
      0.20540384	     22.86453553	   -244.68203093	      0.00000000
      0.20614005	     22.25965974	   -241.02171680	      0.00000000
      0.20687627	     21.68339093	   -237.37052945	      0.00000000
      0.20761248	     21.13648152	   -233.73033552	      0.00000000
      0.20834869	     20.61784772	   -230.10341662	      0.00000000
      0.20908491	     20.12314809	   -226.49765487	      0.00000000
      0.20982112	     19.66376521	   -222.92410980	      0.00000000
      0.21055734	     19.21739122	   -219.38054136	      0.00000000
      0.21129355	     18.78810425	   -215.85745807	      0.00000000
      0.21202977	     18.38528953	   -212.36437522	      0.00000000
      0.21276598	     18.00382563	   -208.91099531	      0.00000000
      0.21350220	     17.64444947	   -205.49946836	      0.00000000
      0.21423841	     17.30704132	   -202.13279887	      0.00000000
      0.21497463	     16.99144545	   -198.81400711	      0.00000000
      0.21571084	     16.69766630	   -195.54559677	      0.00000000
      0.21644705	     16.42555080	   -192.32996321	      0.00000000
      0.21718327	     16.17488841	   -189.16915644	      0.00000000
      0.21791948	     15.94550103	   -186.06457560	      0.00000000
      0.21865570	     15.73694801	   -183.01738433	      0.00000000
      0.21939191	     15.54896770	   -180.02767054	      0.00000000
      0.22012813	     15.38090952	   -177.09537003	      0.00000000
      0.22086434	     15.23240985	   -174.21908680	      0.00000000
      0.22160056	     15.10268203	   -171.39735874	      0.00000000
      0.22233677	     14.99130002	   -168.62729247	      0.00000000
      0.22307298	     14.89746916	   -165.90597652	      0.00000000
      0.22380920	     14.82079400	   -163.22909470	      0.00000000
      0.22454541	     14.76060230	   -160.59231025	      0.00000000
      0.22528163	     14.71661861	   -157.99000297	      0.00000000
      0.22601784	     14.68840014	   -155.41645712	      0.00000000
      0.22675406	     14.67582929	   -152.86490582	      0.00000000
      0.22749027	     14.67882887	   -150.32818910	      0.00000000
      0.22822649	     14.69733781	   -147.79869481	      0.00000000
      0.22896270	     14.73236786	   -145.26673798	      0.00000000
      0.22969891	     14.78441995	   -142.72304449	      0.00000000
      0.23043513	     14.85763475	   -140.15197600	      0.00000000
      0.23117134	     14.95630775	   -137.53718021	      0.00000000
      0.23190756	     15.08712299	   -134.85642177	      0.00000000
      0.23264377	     15.25816674	   -132.08432419	      0.00000000
      0.23337999	     15.47299631	   -129.19890726	      0.00000000
      0.23411620	     15.73765336	   -126.17226923	      0.00000000
      0.23485242	     16.04555120	   -122.99358703	      0.00000000
      0.23558863	     16.39031332	   -119.64908795	      0.00000000
      0.23632484	     16.75967050	   -116.13611529	      0.00000000
      0.23706106	     17.13643517	   -112.45808247	      0.00000000
      0.23779727	     17.53226245	   -108.57545430	      0.00000000
      0.23853349	     17.96594940	   -104.43328109	      0.00000000
      0.23926970	     18.47113870	    -99.93535807	      0.00000000
      0.24000592	     19.09852150	    -94.94413701	      0.00000000
      0.24074213	     19.83312172	    -89.39549293	      0.00000000
      0.24147835	     20.65159702	    -83.22124240	      0.00000000
      0.24221456	     21.51167785	    -76.39016726	      0.00000000
      0.24295077	     22.38836680	    -68.82684574	      0.00000000
      0.24368699	     23.25830604	    -60.47020724	      0.00000000
      0.24442320	     24.10127245	    -51.24395593	      0.00000000
      0.24515942	     24.91591504	    -41.07251669	      0.00000000
      0.24589563	     25.69284480	    -29.91047126	      0.00000000
      0.24663185	     26.45561255	    -17.70908170	      0.00000000
      0.24736806	     27.20881612	     -4.50645328	      0.00000000
      0.24810428	     27.99735049	      9.67069071	      0.00000000
      0.24884049	     28.84323133	     24.68003618	      0.00000000
      0.24957671	     29.80007539	     40.41257364	      0.00000000
      0.25031292	     30.90491788	     56.67230322	      0.00000000
      0.25104913	     32.20009314	     73.31706989	      0.00000000
      0.25178535	     33.72443503	     90.18658758	      0.00000000
      0.25252156	     35.49211190	    107.16573529	      0.00000000
      0.25325778	     37.52653317	    124.18438770	      0.00000000
      0.25399399	     39.81169092	    141.17801226	      0.00000000
      0.25473021	     42.34769645	    158.15515680	      0.00000000
      0.25546642	     45.10157925	    175.08840185	      0.00000000
      0.25620264	     48.05603919	    192.01837694	      0.00000000
      0.25693885	     51.17830884	    208.93269251	      0.00000000
      0.25767506	     54.44592730	    225.86578494	      0.00000000
      0.25841128	     57.83656550	    242.80809702	      0.00000000
      0.25914749	     61.33191559	    259.77434856	      0.00000000
      0.25988371	     64.92115437	    276.75525311	      0.00000000
      0.26061992	     68.59312918	    293.74933311	      0.00000000
      0.26135614	     72.34461988	    310.74827739	      0.00000000
      0.26209235	     76.17028209	    327.74255968	      0.00000000
      0.26282857	     80.07020864	    344.72527807	      0.00000000
      0.26356478	     84.04229211	    361.68494611	      0.00000000
      0.26430099	     88.08727970	    378.61581464	      0.00000000
      0.26503721	     92.20430354	    395.50731442	      0.00000000
      0.26577342	     96.39369439	    412.35441188	      0.00000000
      0.26650964	    100.65477892	    429.14822196	      0.00000000
      0.26724585	    104.98728557	    445.88412551	      0.00000000
      0.26798207	    109.39036319	    462.55478321	      0.00000000
      0.26871828	    113.86326580	    479.15585693	      0.00000000
      0.26945450	    118.40491393	    495.68119442	      0.00000000
      0.27019071	    123.01425297	    512.12669977	      0.00000000
      0.27092692	    127.69002735	    528.48708827	      0.00000000
      0.27166314	    132.43099515	    544.75849914	      0.00000000
      0.27239935	    137.23578553	    560.93628636	      0.00000000
      0.27313557	    142.10304315	    577.01681867	      0.00000000
      0.27387178	    147.03132553	    592.99593456	      0.00000000
      0.27460800	    152.01920600	    608.87022063	      0.00000000
      0.27534421	    157.06519656	    624.63589445	      0.00000000
      0.27608043	    162.16782350	    640.28974395	      0.00000000
      0.27681664	    167.32556828	    655.82829209	      0.00000000
      0.27755286	    172.53692474	    671.24850812	      0.00000000
      0.27828907	    177.80035040	    686.54716181	      0.00000000
      0.27902528	    183.11431847	    701.72138403	      0.00000000
      0.27976150	    188.47725697	    716.76813683	      0.00000000
      0.28049771	    193.88765438	    731.68467513	      0.00000000
      0.28123393	    199.34384760	    746.46819331	      0.00000000
      0.28197014	    204.84436540	    761.11605837	      0.00000000
      0.28270636	    210.38758112	    775.62548309	      0.00000000
      0.28344257	    215.97188734	    789.99392694	      0.00000000
      0.28417879	    221.59566896	    804.21876135	      0.00000000
      0.28491500	    227.25730085	    818.29753812	      0.00000000
      0.28565121	    232.95514199	    832.22774406	      0.00000000
      0.28638743	    238.68755545	    846.00703242	      0.00000000
      0.28712364	    244.45288547	    859.63300172	      0.00000000
      0.28785986	    250.24947942	    873.10336066	      0.00000000
      0.28859607	    256.07566479	    886.41576882	      0.00000000
      0.28933229	    261.92976007	    899.56793269	      0.00000000
      0.29006850	    267.81006357	    912.55751644	      0.00000000
      0.29080472	    273.71485745	    925.38220265	      0.00000000
      0.29154093	    279.64240626	    938.03963890	      0.00000000
      0.29227714	    285.59095357	    950.52748239	      0.00000000
      0.29301336	    291.55873035	    962.84336230	      0.00000000
      0.29374957	    297.54394021	    974.98491147	      0.00000000
      0.29448579	    303.54478166	    986.94974367	      0.00000000
      0.29522200	    309.55941637	    998.73546673	      0.00000000
      0.29595822	    315.58600923	   1010.33967915	      0.00000000
      0.29669443	    321.62267653	   1021.75996159	      0.00000000
      0.29743065	    327.66754188	   1032.99388958	      0.00000000
      0.29816686	    333.71866834	   1044.03901353	      0.00000000
      0.29890307	    339.77411145	   1054.89286059	      0.00000000
      0.29963929	    345.83186123	   1065.55294654	      0.00000000
      0.30037550	    351.88983662	   1076.01668839	      0.00000000
      0.30111172	    357.94588545	   1086.28154711	      0.00000000
      0.30184793	    363.99754767	   1096.34466428	      0.00000000
      0.30258415	    370.04242925	   1106.20343296	      0.00000000
      0.30332036	    376.07718621	   1115.85441870	      0.00000000
      0.30405658	    382.09945699	   1125.29511665	      0.00000000
      0.30479279	    388.10509511	   1134.52142925	      0.00000000
      0.30552900	    394.09237004	   1143.53106943	      0.00000000
      0.30626522	    400.05705580	   1152.31936625	      0.00000000
      0.30700143	    405.99750738	   1160.88359160	      0.00000000
      0.30773765	    411.90901976	   1169.21832979	      0.00000000
      0.30847386	    417.78861936	   1177.31947668	      0.00000000
      0.30921008	    423.63197737	   1185.18193197	      0.00000000
      0.30994629	    429.43464448	   1192.79989613	      0.00000000
      0.31068251	    435.19575601	   1200.17082069	      0.00000000
      0.31141872	    440.91095782	   1207.28839826	      0.00000000
      0.31215494	    446.58420450	   1214.15339042	      0.00000000
      0.31289115	    452.21300811	   1220.76167007	      0.00000000
      0.31362736	    457.80220725	   1227.11498805	      0.00000000
      0.31436358	    463.35114001	   1233.21333054	      0.00000000
      0.31509979	    468.86037545	   1239.05712427	      0.00000000
      0.31583601	    474.33009894	   1244.65003859	      0.00000000
      0.31657222	    479.75690339	   1249.99204557	      0.00000000
      0.31730844	    485.14147545	   1255.08855830	      0.00000000
      0.31804465	    490.48008244	   1259.94087841	      0.00000000
      0.31878087	    495.77362956	   1264.55434453	      0.00000000
      0.31951708	    501.02006423	   1268.93184215	      0.00000000
      0.32025329	    506.22012646	   1273.07785795	      0.00000000
      0.32098951	    511.37331009	   1276.99611614	      0.00000000
      0.32172572	    516.48005303	   1280.69028697	      0.00000000
      0.32246194	    521.54063793	   1284.16423344	      0.00000000
      0.32319815	    526.55527739	   1287.42109041	      0.00000000
      0.32393437	    531.52448934	   1290.46451382	      0.00000000
      0.32467058	    536.44837548	   1293.29733311	      0.00000000
      0.32540680	    541.32743589	   1295.92290484	      0.00000000
      0.32614301	    546.16173460	   1298.34388019	      0.00000000
      0.32687922	    550.95167953	   1300.56333416	      0.00000000
      0.32761544	    555.69732783	   1302.58379547	      0.00000000
      0.32835165	    560.39899387	   1304.40810268	      0.00000000
      0.32908787	    565.05673408	   1306.03868066	      0.00000000
      0.32982408	    569.67078619	   1307.47817056	      0.00000000
      0.33056030	    574.24120161	   1308.72889628	      0.00000000
      0.33129651	    578.76815675	   1309.79332785	      0.00000000
      0.33203273	    583.25169018	   1310.67368501	      0.00000000
      0.33276894	    587.69192568	   1311.37228148	      0.00000000
      0.33350515	    592.08888068	   1311.89122810	      0.00000000
      0.33424137	    596.44262898	   1312.23268901	      0.00000000
      0.33497758	    600.75315939	   1312.39866197	      0.00000000
      0.33571380	    605.02049472	   1312.39116427	      0.00000000
      0.33645001	    609.24458833	   1312.21207710	      0.00000000
      0.33718623	    613.42540863	   1311.86327122	      0.00000000
      0.33792244	    617.56286739	   1311.34650872	      0.00000000
      0.33865866	    621.65687410	   1310.66351318	      0.00000000
      0.33939487	    625.70729321	   1309.81592586	      0.00000000
      0.34013108	    629.71397024	   1308.80532252	      0.00000000
      0.34086730	    633.67671636	   1307.63322180	      0.00000000
      0.34160351	    637.59530723	   1306.30105015	      0.00000000
      0.34233973	    641.46949392	   1304.81020081	      0.00000000
      0.34307594	    645.29897554	   1303.16194897	      0.00000000
      0.34381216	    649.08343600	   1301.35756060	      0.00000000
      0.34454837	    652.82249079	   1299.39815818	      0.00000000
      0.34528459	    656.51574738	   1297.28487575	      0.00000000
      0.34602080	    660.16272858	   1295.01867921	      0.00000000
      0.34675702	    663.76295461	   1292.60056437	      0.00000000
      0.34749323	    667.31584489	   1290.03133528	      0.00000000
      0.34822944	    670.82081988	   1287.31184153	      0.00000000
      0.34896566	    674.27718315	   1284.44271832	      0.00000000
      0.34970187	    677.68424141	   1281.42465947	      0.00000000
      0.35043809	    681.04116838	   1278.25812276	      0.00000000
      0.35117430	    684.34714174	   1274.94363510	      0.00000000
      0.35191052	    687.60118991	   1271.48146701	      0.00000000
      0.35264673	    690.80234414	   1267.87196405	      0.00000000
      0.35338295	    693.94946981	   1264.11519647	      0.00000000
      0.35411916	    697.04143029	   1260.21130759	      0.00000000
      0.35485537	    700.07690593	   1256.16014791	      0.00000000
      0.35559159	    703.05456480	   1251.96162784	      0.00000000
      0.35632780	    705.97287258	   1247.61534702	      0.00000000
      0.35706402	    708.83026953	   1243.12094481	      0.00000000
      0.35780023	    711.62496840	   1238.47772546	      0.00000000
      0.35853645	    714.35515583	   1233.68503151	      0.00000000
      0.35927266	    717.01875424	   1228.74182972	      0.00000000
      0.36000888	    719.61370479	   1223.64719739	      0.00000000
      0.36074509	    722.13763354	   1218.39977271	      0.00000000
      0.36148130	    724.58830664	   1212.99850345	      0.00000000
      0.36221752	    726.96311976	   1207.44182462	      0.00000000
      0.36295373	    729.25977582	   1201.72876609	      0.00000000
      0.36368995	    731.47556766	   1195.85778639	      0.00000000
      0.36442616	    733.60821448	   1189.82816686	      0.00000000
      0.36516238	    735.65501264	   1183.63858610	      0.00000000
      0.36589859	    737.61370469	   1177.28862153	      0.00000000
      0.36663481	    739.48161833	   1170.77724017	      0.00000000
      0.36737102	    741.25647423	   1164.10425497	      0.00000000
      0.36810723	    742.93559933	   1157.26888428	      0.00000000
      0.36884345	    744.51662087	   1150.27106151	      0.00000000
      0.36957966	    745.99682557	   1143.11019531	      0.00000000
      0.37031588	    747.37363279	   1135.78616190	      0.00000000
      0.37105209	    748.64429938	   1128.29856432	      0.00000000
      0.37178831	    749.80570723	   1120.64674760	      0.00000000
      0.37252452	    750.85424996	   1112.82944333	      0.00000000
      0.37326074	    751.78573927	   1104.84451180	      0.00000000
      0.37399695	    752.59582133	   1096.68937479	      0.00000000
      0.37473317	    753.28000885	   1088.36138047	      0.00000000
      0.37546938	    753.83361173	   1079.85756945	      0.00000000
      0.37620559	    754.25216498	   1071.17572983	      0.00000000
      0.37694181	    754.53083349	   1062.31311047	      0.00000000
      0.37767802	    754.66493656	   1053.26769397	      0.00000000
      0.37841424	    754.64952333	   1044.03697027	      0.00000000
      0.37915045	    754.47953781	   1034.61896213	      0.00000000
      0.37988667	    754.15010144	   1025.01125829	      0.00000000
      0.38062288	    753.65486587	   1015.21137379	      0.00000000
      0.38135910	    752.98710878	   1005.21655574	      0.00000000
      0.38209531	    752.13863740	    995.02383324	      0.00000000
      0.38283152	    751.10087066	    984.63004166	      0.00000000
      0.38356774	    749.86595466	    974.03240782	      0.00000000
      0.38430395	    748.42617962	    963.22787868	      0.00000000
      0.38504017	    746.77523105	    952.21470108	      0.00000000
      0.38577638	    744.90619211	    940.99061108	      0.00000000
      0.38651260	    742.81305311	    929.55549801	      0.00000000
      0.38724881	    740.48907827	    917.90914566	      0.00000000
      0.38798503	    737.92930272	    906.05369348	      0.00000000
      0.38872124	    735.12836736	    893.99090572	      0.00000000
      0.38945745	    732.08268677	    881.72378310	      0.00000000
      0.39019367	    728.78810640	    869.25489970	      0.00000000
      0.39092988	    725.24179434	    856.58756107	      0.00000000
      0.39166610	    721.44019031	    843.72469040	      0.00000000
      0.39240231	    717.38085393	    830.67001474	      0.00000000
      0.39313853	    713.06066216	    817.42680032	      0.00000000
      0.39387474	    708.47745994	    803.99922181	      0.00000000
      0.39461096	    703.62846486	    790.39095707	      0.00000000
      0.39534717	    698.51173309	    776.60669975	      0.00000000
      0.39608338	    693.12480921	    762.65066422	      0.00000000
      0.39681960	    687.46593725	    748.52814929	      0.00000000
      0.39755581	    681.53302159	    734.24405343	      0.00000000
      0.39829203	    675.32451430	    719.80438121	      0.00000000
      0.39902824	    668.83874807	    705.21486646	      0.00000000
      0.39976446	    662.07444568	    690.48232352	      0.00000000
      0.40050067	    655.03046264	    675.61346267	      0.00000000
      0.40123689	    647.70589157	    660.61600824	      0.00000000
      0.40197310	    640.10022216	    645.49776870	      0.00000000
      0.40270931	    632.21304546	    630.26746763	      0.00000000
      0.40344553	    624.04460941	    614.93410645	      0.00000000
      0.40418174	    615.59514866	    599.50747965	      0.00000000
      0.40491796	    606.86578029	    583.99784645	      0.00000000
      0.40565417	    597.85754447	    568.41611594	      0.00000000
      0.40639039	    588.57257510	    552.77382096	      0.00000000
      0.40712660	    579.01285875	    537.08301184	      0.00000000
      0.40786282	    569.18148974	    521.35651538	      0.00000000
      0.40859903	    559.08163236	    505.60746034	      0.00000000
      0.40933525	    548.71776923	    489.84974893	      0.00000000
      0.41007146	    538.09441856	    474.09770086	      0.00000000
      0.41080767	    527.21563881	    458.36683177	      0.00000000
      0.41154389	    516.08856887	    442.67161620	      0.00000000
      0.41228010	    504.72079372	    427.02615460	      0.00000000
      0.41301632	    493.12459568	    411.44505492	      0.00000000
      0.41375253	    481.30929331	    395.94213603	      0.00000000
      0.41448875	    469.28668829	    380.53324050	      0.00000000
      0.41522496	    457.06460041	    365.23303926	      0.00000000
      0.41596118	    444.65318208	    350.05826149	      0.00000000
      0.41669739	    432.05865912	    335.02354948	      0.00000000
      0.41743360	    419.29094114	    320.14598107	      0.00000000
      0.41816982	    406.35608289	    305.43941587	      0.00000000
      0.41890603	    393.26216664	    290.92220620	      0.00000000
      0.41964225	    380.01890322	    276.60760746	      0.00000000
      0.42037846	    366.63404403	    262.52717258	      0.00000000
      0.42111468	    353.12921822	    248.72965158	      0.00000000
      0.42185089	    339.49490203	    235.24171503	      0.00000000
      0.42258711	    325.74043974	    222.08795645	      0.00000000
      0.42332332	    311.88182473	    209.28066117	      0.00000000
      0.42405953	    297.94220714	    196.83836708	      0.00000000
      0.42479575	    283.94634219	    184.77253099	      0.00000000
      0.42553196	    269.91154352	    173.08872254	      0.00000000
      0.42626818	    255.86324598	    161.80032159	      0.00000000
      0.42700439	    241.81629767	    150.89881503	      0.00000000
      0.42774061	    227.86768016	    140.46436667	      0.00000000
      0.42847682	    214.30187968	    130.67139687	      0.00000000
      0.42921304	    201.20943686	    121.60032092	      0.00000000
      0.42994925	    188.84015341	    113.37222146	      0.00000000
      0.43068546	    177.20485561	    105.95112634	      0.00000000
      0.43142168	    166.42135027	     99.34263123	      0.00000000
      0.43215789	    156.48337628	     93.47368126	      0.00000000
      0.43289411	    147.44019949	     88.31174587	      0.00000000
      0.43363032	    139.25639699	     83.78565151	      0.00000000
      0.43436654	    131.85050339	     79.82068620	      0.00000000
      0.43510275	    125.11089352	     76.33507748	      0.00000000
      0.43583897	    118.94844047	     73.27191330	      0.00000000
      0.43657518	    113.11217706	     70.51377628	      0.00000000
      0.43731139	    107.73697540	     68.11273053	      0.00000000
      0.43804761	    102.05380398	     65.75213696	      0.00000000
      0.43878382	     97.30567314	     63.94018392	      0.00000000
      0.43952004	     88.88577028	     60.71901389	      0.00000000
      0.44025625	     71.87911026	     53.17373806	      0.00000000
      0.44099247	     57.48264910	     43.80396545	      0.00000000
      0.44172868	     58.32410795	     37.83910937	      0.00000000
