PointAcceleration
version=1
nRows=601
nColumns=4
inDegrees=no
No description.
endheader
time	state_0	state_1	state_2
      0.00000000	     28.98481710	     12.19947093	      0.00000000
      0.00073621	     29.02118715	     12.60275258	      0.00000000
      0.00147243	     29.05154026	     13.01787410	      0.00000000
      0.00220864	     29.07919866	     13.44458910	      0.00000000
      0.00294486	     29.10444630	     13.88228229	      0.00000000
      0.00368107	     29.12708045	     14.33128551	      0.00000000
      0.00441729	     29.14684689	     14.79183551	      0.00000000
      0.00515350	     29.16343785	     15.26425346	      0.00000000
      0.00588972	     29.17650124	     15.74878445	      0.00000000
      0.00662593	     29.18558152	     16.24564999	      0.00000000
      0.00736214	     29.19017911	     16.75506932	      0.00000000
      0.00809836	     29.18965204	     17.27724853	      0.00000000
      0.00883457	     29.18305307	     17.81233591	      0.00000000
      0.00957079	     29.16884703	     18.36038181	      0.00000000
      0.01030700	     29.14404493	     18.92114925	      0.00000000
      0.01104322	     29.10304579	     19.49378513	      0.00000000
      0.01177943	     29.03374973	     20.07601552	      0.00000000
      0.01251565	     28.91202640	     20.66249751	      0.00000000
      0.01325186	     28.68489291	     21.24137741	      0.00000000
      0.01398807	     28.24561147	     21.78690228	      0.00000000
      0.01472429	     27.36556141	     22.24496894	      0.00000000
      0.01546050	     25.59251249	     22.50329413	      0.00000000
      0.01619672	     22.00516661	     22.33743809	      0.00000000
      0.01693293	     14.84267072	     21.29664273	      0.00000000
      0.01766915	      0.95779348	     18.61392175	      0.00000000
      0.01840536	    -24.92981015	     12.95160058	      0.00000000
      0.01914158	    -70.31920533	      2.46051829	      0.00000000
      0.01987779	   -141.96648794	    -14.44244431	      0.00000000
      0.02061401	   -239.41157134	    -37.24359186	      0.00000000
      0.02135022	   -363.09644580	    -65.10073766	      0.00000000
      0.02208643	   -588.28148003	   -113.13552969	      0.00000000
      0.02282265	  -1028.45454723	   -197.33557372	      0.00000000
      0.02355886	  -1508.84188615	   -242.45204779	      0.00000000
      0.02429508	  -1608.64613435	   -119.96773935	      0.00000000
      0.02503129	  -1363.76608556	     90.95916429	      0.00000000
      0.02576751	    246.23298720	    577.75455915	      0.00000000
      0.02650372	   -190.17824971	    476.70229542	      0.00000000
      0.02723994	    -34.18601063	    498.42469175	      0.00000000
      0.02797615	    -71.79035712	    455.72685664	      0.00000000
      0.02871236	    -57.91469280	    415.18766549	      0.00000000
      0.02944858	    -49.96959402	    371.31285445	      0.00000000
      0.03018479	    -51.06653734	    327.39778939	      0.00000000
      0.03092101	    -42.25258706	    290.11668871	      0.00000000
      0.03165722	    -44.36464758	    256.08391019	      0.00000000
      0.03239344	    -37.40734173	    229.18429292	      0.00000000
      0.03312965	    -39.21963133	    205.75165385	      0.00000000
      0.03386587	    -34.18554541	    187.78996405	      0.00000000
      0.03460208	    -35.07193721	    172.55719387	      0.00000000
      0.03533829	    -31.84407523	    160.93340672	      0.00000000
      0.03607451	    -31.78899416	    151.29645641	      0.00000000
      0.03681072	    -29.79029465	    143.85531589	      0.00000000
      0.03754694	    -29.16344189	    137.79349640	      0.00000000
      0.03828315	    -27.79035425	    133.02757897	      0.00000000
      0.03901937	    -26.92005508	    129.17426669	      0.00000000
      0.03975558	    -25.80962766	    126.08515365	      0.00000000
      0.04049180	    -24.86582023	    123.57693664	      0.00000000
      0.04122801	    -23.85910541	    121.52358240	      0.00000000
      0.04196422	    -22.90759016	    119.83133243	      0.00000000
      0.04270044	    -21.94750845	    118.41260152	      0.00000000
      0.04343665	    -21.00944048	    117.21614832	      0.00000000
      0.04417287	    -20.07788501	    116.18596635	      0.00000000
      0.04490908	    -19.15926130	    115.29286073	      0.00000000
      0.04564530	    -18.25101959	    114.50237699	      0.00000000
      0.04638151	    -17.35356974	    113.79754243	      0.00000000
      0.04711773	    -16.46752338	    113.15757039	      0.00000000
      0.04785394	    -15.59207097	    112.57246512	      0.00000000
      0.04859015	    -14.72839680	    112.02979613	      0.00000000
      0.04932637	    -13.87553047	    111.52349737	      0.00000000
      0.05006258	    -13.03450486	    111.04608247	      0.00000000
      0.05079880	    -12.20423107	    110.59348789	      0.00000000
      0.05153501	    -11.38530060	    110.16093424	      0.00000000
      0.05227123	    -10.57634043	    109.74499540	      0.00000000
      0.05300744	     -9.77743392	    109.34212763	      0.00000000
      0.05374366	     -8.98646530	    108.94833057	      0.00000000
      0.05447987	     -8.20244367	    108.55959793	      0.00000000
      0.05521609	     -7.42276313	    108.17012260	      0.00000000
      0.05595230	     -6.64570784	    107.77321719	      0.00000000
      0.05668851	     -5.86960617	    107.36239157	      0.00000000
      0.05742473	     -5.09395520	    106.93139472	      0.00000000
      0.05816094	     -4.31735008	    106.47653456	      0.00000000
      0.05889716	     -3.53918923	    105.99374891	      0.00000000
      0.05963337	     -2.75803803	    105.48131983	      0.00000000
      0.06036959	     -1.97321247	    104.93698435	      0.00000000
      0.06110580	     -1.18322489	    104.36003950	      0.00000000
      0.06184202	     -0.38727203	    103.74946064	      0.00000000
      0.06257823	      0.41618337	    103.10514212	      0.00000000
      0.06331444	      1.22801761	    102.42681433	      0.00000000
      0.06405066	      2.04978790	    101.71468905	      0.00000000
      0.06478687	      2.88239892	    100.96896429	      0.00000000
      0.06552309	      3.72737750	    100.19008136	      0.00000000
      0.06625930	      4.58559881	     99.37857523	      0.00000000
      0.06699552	      5.45851407	     98.53510365	      0.00000000
      0.06773173	      6.34689968	     97.66053917	      0.00000000
      0.06846795	      7.25222392	     96.75573396	      0.00000000
      0.06920416	      8.17521882	     95.82186728	      0.00000000
      0.06994037	      9.11759559	     94.85980175	      0.00000000
      0.07067659	     10.08014080	     93.87083791	      0.00000000
      0.07141280	     11.06512401	     92.85551795	      0.00000000
      0.07214902	     12.07364847	     91.81477484	      0.00000000
      0.07288523	     13.10830257	     90.74863930	      0.00000000
      0.07362145	     14.17010832	     89.65752998	      0.00000000
      0.07435766	     15.26136935	     88.54147788	      0.00000000
      0.07509388	     16.38234245	     87.40106661	      0.00000000
      0.07583009	     17.53520960	     86.23695287	      0.00000000
      0.07656630	     18.72001165	     85.05020334	      0.00000000
      0.07730252	     19.93892500	     83.84204925	      0.00000000
      0.07803873	     21.19175977	     82.61420568	      0.00000000
      0.07877495	     22.48100218	     81.36837522	      0.00000000
      0.07951116	     23.80753205	     80.10578975	      0.00000000
      0.08024738	     25.17220316	     78.82921529	      0.00000000
      0.08098359	     26.57434656	     77.54140110	      0.00000000
      0.08171981	     28.01159180	     76.24960968	      0.00000000
      0.08245602	     29.47953596	     74.96319750	      0.00000000
      0.08319224	     30.97800197	     73.69266523	      0.00000000
      0.08392845	     32.50787066	     72.44787810	      0.00000000
      0.08466466	     34.07129693	     71.23519307	      0.00000000
      0.08540088	     35.66980716	     70.06193494	      0.00000000
      0.08613709	     37.30549918	     68.93235825	      0.00000000
      0.08687331	     38.98024972	     67.85175062	      0.00000000
      0.08760952	     40.69616851	     66.82314874	      0.00000000
      0.08834574	     42.45542689	     65.85032331	      0.00000000
      0.08908195	     44.26007588	     64.93537159	      0.00000000
      0.08981817	     46.11251515	     64.08082670	      0.00000000
      0.09055438	     48.01435576	     63.28813991	      0.00000000
      0.09129059	     49.96790126	     62.55908024	      0.00000000
      0.09202681	     51.97395661	     61.89491753	      0.00000000
      0.09276302	     54.03456040	     61.29719535	      0.00000000
      0.09349924	     56.14959672	     60.76719329	      0.00000000
      0.09423545	     58.32079501	     60.30648331	      0.00000000
      0.09497167	     60.54718056	     59.91612535	      0.00000000
      0.09570788	     62.83011078	     59.59739946	      0.00000000
      0.09644410	     65.16772750	     59.35077388	      0.00000000
      0.09718031	     67.56068686	     59.17702233	      0.00000000
      0.09791652	     70.00631880	     59.07582741	      0.00000000
      0.09865274	     72.50416186	     59.04734798	      0.00000000
      0.09938895	     75.05100514	     59.09002213	      0.00000000
      0.10012517	     77.64480923	     59.20277622	      0.00000000
      0.10086138	     80.28218202	     59.38133931	      0.00000000
      0.10159760	     82.95919126	     59.62000289	      0.00000000
      0.10233381	     85.67217708	     59.91197467	      0.00000000
      0.10307003	     88.41591573	     60.25017343	      0.00000000
      0.10380624	     91.18646006	     60.62968974	      0.00000000
      0.10454245	     93.97824879	     61.04474758	      0.00000000
      0.10527867	     96.78683777	     61.49207718	      0.00000000
      0.10601488	     99.60660591	     61.96730050	      0.00000000
      0.10675110	    102.43262117	     62.46783804	      0.00000000
      0.10748731	    105.25930580	     62.99026371	      0.00000000
      0.10822353	    108.08151410	     63.53232194	      0.00000000
      0.10895974	    110.89374836	     64.09111520	      0.00000000
      0.10969596	    113.69092752	     64.66451491	      0.00000000
      0.11043217	    116.46773189	     65.24989248	      0.00000000
      0.11116838	    119.21940054	     65.84521273	      0.00000000
      0.11190460	    121.94091947	     66.44801664	      0.00000000
      0.11264081	    124.62803135	     67.05639273	      0.00000000
      0.11337703	    127.27616434	     67.66804204	      0.00000000
      0.11411324	    129.88168569	     68.28123681	      0.00000000
      0.11484946	    132.44058899	     68.89388364	      0.00000000
      0.11558567	    134.94992185	     69.50449705	      0.00000000
      0.11632189	    137.40632439	     70.11124236	      0.00000000
      0.11705810	    139.80751281	     70.71290606	      0.00000000
      0.11779432	    142.15079074	     71.30792059	      0.00000000
      0.11853053	    144.43448581	     71.89536693	      0.00000000
      0.11926674	    146.65656294	     72.47387950	      0.00000000
      0.12000296	    148.81598665	     73.04304797	      0.00000000
      0.12073917	    150.91171688	     73.60189508	      0.00000000
      0.12147539	    152.94391072	     74.15143547	      0.00000000
      0.12221160	    154.91457474	     74.69350945	      0.00000000
      0.12294782	    156.82353438	     75.22975278	      0.00000000
      0.12368403	    158.67075635	     75.76095770	      0.00000000
      0.12442025	    160.45493987	     76.28693883	      0.00000000
      0.12515646	    162.17576384	     76.80774875	      0.00000000
      0.12589267	    163.83296789	     77.32302299	      0.00000000
      0.12662889	    165.42606546	     77.83229848	      0.00000000
      0.12736510	    166.95542086	     78.33506885	      0.00000000
      0.12810132	    168.42058491	     78.83061649	      0.00000000
      0.12883753	    169.82237559	     79.31842944	      0.00000000
      0.12957375	    171.16040709	     79.79768424	      0.00000000
      0.13030996	    172.43572499	     80.26788556	      0.00000000
      0.13104618	    173.64802088	     80.72819796	      0.00000000
      0.13178239	    174.79838631	     81.17814721	      0.00000000
      0.13251860	    175.88657324	     81.61693856	      0.00000000
      0.13325482	    176.91355024	     82.04409231	      0.00000000
      0.13399103	    177.87908747	     82.45886877	      0.00000000
      0.13472725	    178.78389019	     82.86073858	      0.00000000
      0.13546346	    179.62769448	     83.24900339	      0.00000000
      0.13619968	    180.41083900	     83.62302993	      0.00000000
      0.13693589	    181.13296138	     83.98212104	      0.00000000
      0.13767211	    181.79398343	     84.32548721	      0.00000000
      0.13840832	    182.39341018	     84.65238586	      0.00000000
      0.13914453	    182.93077208	     84.96183750	      0.00000000
      0.13988075	    183.40547525	     85.25302354	      0.00000000
      0.14061696	    183.81667643	     85.52473477	      0.00000000
      0.14135318	    184.16347497	     85.77594216	      0.00000000
      0.14208939	    184.44494538	     86.00527846	      0.00000000
      0.14282561	    184.66030067	     86.21162240	      0.00000000
      0.14356182	    184.80909719	     86.39365061	      0.00000000
      0.14429804	    184.89014390	     86.54988305	      0.00000000
      0.14503425	    184.90544239	     86.67985715	      0.00000000
      0.14577046	    184.85640258	     86.78301634	      0.00000000
      0.14650668	    184.74910994	     86.86056661	      0.00000000
      0.14724289	    184.57601323	     86.90854927	      0.00000000
      0.14797911	    184.25526919	     86.89933198	      0.00000000
      0.14871532	    183.91697934	     86.87758577	      0.00000000
      0.14945154	    183.57658353	     86.84819332	      0.00000000
      0.15018775	    183.21056432	     86.79909428	      0.00000000
      0.15092397	    182.81445357	     86.72806874	      0.00000000
      0.15166018	    182.38797006	     86.63482399	      0.00000000
      0.15239640	    181.93351479	     86.52048319	      0.00000000
      0.15313261	    181.45292801	     86.38590294	      0.00000000
      0.15386882	    180.94879569	     86.23243454	      0.00000000
      0.15460504	    180.42309916	     86.06119577	      0.00000000
      0.15534125	    179.87740255	     85.87329978	      0.00000000
      0.15607747	    179.28068889	     85.65930252	      0.00000000
      0.15681368	    178.56513412	     85.39994969	      0.00000000
      0.15754990	    177.87886997	     85.14806011	      0.00000000
      0.15828611	    177.18229753	     84.88995953	      0.00000000
      0.15902233	    176.46397943	     84.62399243	      0.00000000
      0.15975854	    175.71842589	     84.35057184	      0.00000000
      0.16049475	    174.93405719	     84.06837964	      0.00000000
      0.16123097	    174.10278670	     83.77695533	      0.00000000
      0.16196718	    173.21662731	     83.47638322	      0.00000000
      0.16270340	    172.26771984	     83.16600601	      0.00000000
      0.16343961	    171.24856857	     82.84480028	      0.00000000
      0.16417583	    170.15117441	     82.51030508	      0.00000000
      0.16491204	    168.96942467	     82.15965224	      0.00000000
      0.16564826	    167.69642312	     81.78838001	      0.00000000
      0.16638447	    166.32691695	     81.39099476	      0.00000000
      0.16712068	    164.85471756	     80.96052804	      0.00000000
      0.16785690	    163.27459755	     80.48795379	      0.00000000
      0.16859311	    161.58248504	     79.96418239	      0.00000000
      0.16932933	    159.77476670	     79.37696996	      0.00000000
      0.17006554	    157.85259842	     78.71743671	      0.00000000
      0.17080176	    155.81599104	     77.97291901	      0.00000000
      0.17153797	    153.67176375	     77.14136139	      0.00000000
      0.17227419	    151.41788339	     76.21564950	      0.00000000
      0.17301040	    149.66967717	     74.53795884	      0.00000000
      0.17374661	    147.84688329	     72.87284081	      0.00000000
      0.17448283	    145.31898628	     71.96942114	      0.00000000
      0.17521904	    142.79380192	     70.97420143	      0.00000000
      0.17595526	    140.13767616	     69.94384960	      0.00000000
      0.17669147	    137.34821415	     68.83684765	      0.00000000
      0.17742769	    134.40566012	     67.65700825	      0.00000000
      0.17816390	    131.30051724	     66.39566190	      0.00000000
      0.17890012	    128.03274507	     65.05261947	      0.00000000
      0.17963633	    124.60139047	     63.62608557	      0.00000000
      0.18037255	    121.01528834	     62.11894264	      0.00000000
      0.18110876	    117.28309764	     60.53367418	      0.00000000
      0.18184497	    113.42192951	     58.87727977	      0.00000000
      0.18258119	    109.44782470	     57.15594820	      0.00000000
      0.18331740	    105.38445716	     55.38012176	      0.00000000
      0.18405362	    101.25411267	     53.55933695	      0.00000000
      0.18478983	     97.08596559	     51.70679203	      0.00000000
      0.18552605	     92.90754827	     49.83478710	      0.00000000
      0.18626226	     88.74999355	     47.95762277	      0.00000000
      0.18699848	     84.64230949	     46.08861732	      0.00000000
      0.18773469	     80.61191665	     44.24071055	      0.00000000
      0.18847090	     76.68425872	     42.42598861	      0.00000000
      0.18920712	     72.87895337	     40.65420547	      0.00000000
      0.18994333	     69.21444005	     38.93460838	      0.00000000
      0.19067955	     65.70183295	     37.27330750	      0.00000000
      0.19141576	     62.35210271	     35.67631890	      0.00000000
      0.19215198	     59.16972877	     34.14671851	      0.00000000
      0.19288819	     56.15985466	     32.68779610	      0.00000000
      0.19362441	     53.32291582	     31.30054656	      0.00000000
      0.19436062	     50.66044343	     29.98633038	      0.00000000
      0.19509683	     48.17096544	     28.74487780	      0.00000000
      0.19583305	     45.85423103	     27.57631199	      0.00000000
      0.19656926	     43.70821379	     26.47962837	      0.00000000
      0.19730548	     41.73200744	     25.45415534	      0.00000000
      0.19804169	     39.92364366	     24.49840557	      0.00000000
      0.19877791	     38.28207445	     23.61113846	      0.00000000
      0.19951412	     36.80524601	     22.79035489	      0.00000000
      0.20025034	     35.49212607	     22.03438341	      0.00000000
      0.20098655	     34.33916962	     21.34017758	      0.00000000
      0.20172276	     33.34573196	     20.70598876	      0.00000000
      0.20245898	     32.50270236	     20.12588309	      0.00000000
      0.20319519	     31.81442498	     19.60072658	      0.00000000
      0.20393141	     31.24850467	     19.11197993	      0.00000000
      0.20466762	     30.77552680	     18.63956267	      0.00000000
      0.20540384	     30.35805909	     18.15278663	      0.00000000
      0.20614005	     29.98397486	     17.62555083	      0.00000000
      0.20687627	     29.72100753	     17.07215028	      0.00000000
      0.20761248	     29.70668953	     16.55814805	      0.00000000
      0.20834869	     29.97813818	     16.14150092	      0.00000000
      0.20908491	     30.31512943	     15.73719184	      0.00000000
      0.20982112	     30.58685693	     15.27177671	      0.00000000
      0.21055734	     30.79624158	     14.74562975	      0.00000000
      0.21129355	     30.95733953	     14.17377615	      0.00000000
      0.21202977	     31.07442381	     13.56680015	      0.00000000
      0.21276598	     31.14892838	     12.93366448	      0.00000000
      0.21350220	     31.18232776	     12.28236272	      0.00000000
      0.21423841	     31.17672902	     11.62044952	      0.00000000
      0.21497463	     31.13490770	     10.95506319	      0.00000000
      0.21571084	     31.05944501	     10.29197244	      0.00000000
      0.21644705	     30.95360456	      9.63661189	      0.00000000
      0.21718327	     30.81983190	      8.99259764	      0.00000000
      0.21791948	     30.66131415	      8.36333969	      0.00000000
      0.21865570	     30.48035715	      7.75075566	      0.00000000
      0.21939191	     30.27997561	      7.15686275	      0.00000000
      0.22012813	     30.06255992	      6.58264871	      0.00000000
      0.22086434	     29.83118666	      6.02922513	      0.00000000
      0.22160056	     29.58842690	      5.49697538	      0.00000000
      0.22233677	     29.33741279	      4.98640856	      0.00000000
      0.22307298	     29.08063252	      4.49740276	      0.00000000
      0.22380920	     28.82092192	      4.02994485	      0.00000000
      0.22454541	     28.56028084	      3.58346198	      0.00000000
      0.22528163	     28.30083204	      3.15747472	      0.00000000
      0.22601784	     28.04386007	      2.75109139	      0.00000000
      0.22675406	     27.79062386	      2.36350236	      0.00000000
      0.22749027	     27.54175274	      1.99367467	      0.00000000
      0.22822649	     27.29778271	      1.64064589	      0.00000000
      0.22896270	     27.05890104	      1.30338170	      0.00000000
      0.22969891	     26.82518331	      0.98090659	      0.00000000
      0.23043513	     26.59658943	      0.67224860	      0.00000000
      0.23117134	     26.37297038	      0.37647514	      0.00000000
      0.23190756	     26.15418877	      0.09270017	      0.00000000
      0.23264377	     25.94000993	     -0.17994311	      0.00000000
      0.23337999	     25.73024315	     -0.44221881	      0.00000000
      0.23411620	     25.52461926	     -0.69488825	      0.00000000
      0.23485242	     25.32289129	     -0.93854223	      0.00000000
      0.23558863	     25.12473758	     -1.17375670	      0.00000000
      0.23632484	     24.92986748	     -1.40096324	      0.00000000
      0.23706106	     24.73790193	     -1.62053886	      0.00000000
      0.23779727	     24.54862645	     -1.83296298	      0.00000000
      0.23853349	     24.36179728	     -2.03874198	      0.00000000
      0.23926970	     24.17734166	     -2.23848417	      0.00000000
      0.24000592	     23.99521093	     -2.43289469	      0.00000000
      0.24074213	     23.81522435	     -2.62226992	      0.00000000
      0.24147835	     23.63711596	     -2.80681952	      0.00000000
      0.24221456	     23.46052229	     -2.98647231	      0.00000000
      0.24295077	     23.28510032	     -3.16124547	      0.00000000
      0.24368699	     23.11049537	     -3.33100894	      0.00000000
      0.24442320	     22.93634461	     -3.49566239	      0.00000000
      0.24515942	     22.76236874	     -3.65511247	      0.00000000
      0.24589563	     22.58826015	     -3.80925397	      0.00000000
      0.24663185	     22.41387967	     -3.95815029	      0.00000000
      0.24736806	     22.23904449	     -4.10181745	      0.00000000
      0.24810428	     22.06378705	     -4.24056327	      0.00000000
      0.24884049	     21.88809421	     -4.37463488	      0.00000000
      0.24957671	     21.71213963	     -4.50456882	      0.00000000
      0.25031292	     21.53606072	     -4.63084688	      0.00000000
      0.25104913	     21.36007635	     -4.75408391	      0.00000000
      0.25178535	     21.18438369	     -4.87485641	      0.00000000
      0.25252156	     21.00913691	     -4.99365785	      0.00000000
      0.25325778	     20.83448341	     -5.11096600	      0.00000000
      0.25399399	     20.66045761	     -5.22703943	      0.00000000
      0.25473021	     20.48709862	     -5.34214472	      0.00000000
      0.25546642	     20.31434244	     -5.45632947	      0.00000000
      0.25620264	     20.14213401	     -5.56966397	      0.00000000
      0.25693885	     19.97037299	     -5.68208535	      0.00000000
      0.25767506	     19.79896442	     -5.79355385	      0.00000000
      0.25841128	     19.62782576	     -5.90398642	      0.00000000
      0.25914749	     19.45687260	     -6.01331431	      0.00000000
      0.25988371	     19.28606480	     -6.12147606	      0.00000000
      0.26061992	     19.11535429	     -6.22841537	      0.00000000
      0.26135614	     18.94474464	     -6.33409621	      0.00000000
      0.26209235	     18.77422526	     -6.43847080	      0.00000000
      0.26282857	     18.60382395	     -6.54147758	      0.00000000
      0.26356478	     18.43356805	     -6.64309095	      0.00000000
      0.26430099	     18.26352704	     -6.74329408	      0.00000000
      0.26503721	     18.09376074	     -6.84207097	      0.00000000
      0.26577342	     17.92436704	     -6.93940483	      0.00000000
      0.26650964	     17.75543517	     -7.03528094	      0.00000000
      0.26724585	     17.58709159	     -7.12968057	      0.00000000
      0.26798207	     17.41945514	     -7.22258782	      0.00000000
      0.26871828	     17.25268142	     -7.31398179	      0.00000000
      0.26945450	     17.08691971	     -7.40384461	      0.00000000
      0.27019071	     16.92235399	     -7.49215365	      0.00000000
      0.27092692	     16.75916365	     -7.57888919	      0.00000000
      0.27166314	     16.59755762	     -7.66402774	      0.00000000
      0.27239935	     16.43774247	     -7.74754819	      0.00000000
      0.27313557	     16.27994569	     -7.82942718	      0.00000000
      0.27387178	     16.12439465	     -7.90964304	      0.00000000
      0.27460800	     15.97132758	     -7.98817326	      0.00000000
      0.27534421	     15.82098370	     -8.06499640	      0.00000000
      0.27608043	     15.67360708	     -8.14009069	      0.00000000
      0.27681664	     15.52944127	     -8.21343510	      0.00000000
      0.27755286	     15.38874120	     -8.28500677	      0.00000000
      0.27828907	     15.25175606	     -8.35478374	      0.00000000
      0.27902528	     15.11877433	     -8.42273768	      0.00000000
      0.27976150	     14.99005311	     -8.48884423	      0.00000000
      0.28049771	     14.88580995	     -8.54932266	      0.00000000
      0.28123393	     14.76712384	     -8.61115563	      0.00000000
      0.28197014	     14.65378898	     -8.67101004	      0.00000000
      0.28270636	     14.54625467	     -8.72882813	      0.00000000
      0.28344257	     14.44487436	     -8.78456251	      0.00000000
      0.28417879	     14.35007940	     -8.83815128	      0.00000000
      0.28491500	     14.26210769	     -8.88955547	      0.00000000
      0.28565121	     14.18122599	     -8.93872750	      0.00000000
      0.28638743	     14.10748490	     -8.98564593	      0.00000000
      0.28712364	     14.04096325	     -9.03028125	      0.00000000
      0.28785986	     13.98162248	     -9.07261726	      0.00000000
      0.28859607	     13.92945526	     -9.11263042	      0.00000000
      0.28933229	     13.88444000	     -9.15029676	      0.00000000
      0.29006850	     13.84656612	     -9.18558871	      0.00000000
      0.29080472	     13.81584540	     -9.21847356	      0.00000000
      0.29154093	     13.79228832	     -9.24891732	      0.00000000
      0.29227714	     13.77592532	     -9.27688164	      0.00000000
      0.29301336	     13.76678415	     -9.30232755	      0.00000000
      0.29374957	     13.76489933	     -9.32521414	      0.00000000
      0.29448579	     13.77030463	     -9.34550007	      0.00000000
      0.29522200	     13.78302697	     -9.36314478	      0.00000000
      0.29595822	     13.80309448	     -9.37810752	      0.00000000
      0.29669443	     13.83051769	     -9.39035083	      0.00000000
      0.29743065	     13.86530940	     -9.39983746	      0.00000000
      0.29816686	     13.90745706	     -9.40653573	      0.00000000
      0.29890307	     13.95695048	     -9.41041483	      0.00000000
      0.29963929	     14.01374809	     -9.41145170	      0.00000000
      0.30037550	     14.07781006	     -9.40962501	      0.00000000
      0.30111172	     14.14905877	     -9.40492373	      0.00000000
      0.30184793	     14.22741650	     -9.39733986	      0.00000000
      0.30258415	     14.31276039	     -9.38687918	      0.00000000
      0.30332036	     14.40496205	     -9.37355291	      0.00000000
      0.30405658	     14.50384665	     -9.35738996	      0.00000000
      0.30479279	     14.60922803	     -9.33842831	      0.00000000
      0.30552900	     14.72088458	     -9.31672598	      0.00000000
      0.30626522	     14.83858202	     -9.29235412	      0.00000000
      0.30700143	     14.96206050	     -9.26540601	      0.00000000
      0.30773765	     15.09104297	     -9.23599378	      0.00000000
      0.30847386	     15.22523010	     -9.20425394	      0.00000000
      0.30921008	     15.36430591	     -9.17034408	      0.00000000
      0.30994629	     15.50794100	     -9.13443851	      0.00000000
      0.31068251	     15.65579907	     -9.09672150	      0.00000000
      0.31141872	     15.80754188	     -9.05736961	      0.00000000
      0.31215494	     15.96282979	     -9.01654687	      0.00000000
      0.31289115	     16.12132237	     -8.97438579	      0.00000000
      0.31362736	     16.28266856	     -8.93099659	      0.00000000
      0.31436358	     16.44651524	     -8.88646197	      0.00000000
      0.31509979	     16.61248462	     -8.84085932	      0.00000000
      0.31583601	     16.78021296	     -8.79426055	      0.00000000
      0.31657222	     16.94930838	     -8.74675201	      0.00000000
      0.31730844	     17.11942125	     -8.69842364	      0.00000000
      0.31804465	     17.29017887	     -8.64938313	      0.00000000
      0.31878087	     17.46127030	     -8.59973496	      0.00000000
      0.31951708	     17.63236756	     -8.54959512	      0.00000000
      0.32025329	     17.80320845	     -8.49906749	      0.00000000
      0.32098951	     17.97351848	     -8.44826122	      0.00000000
      0.32172572	     18.14308341	     -8.39726892	      0.00000000
      0.32246194	     18.31168034	     -8.34618480	      0.00000000
      0.32319815	     18.47913802	     -8.29508601	      0.00000000
      0.32393437	     18.64527932	     -8.24404947	      0.00000000
      0.32467058	     18.80997042	     -8.19313640	      0.00000000
      0.32540680	     18.97307359	     -8.14240697	      0.00000000
      0.32614301	     19.13448740	     -8.09190749	      0.00000000
      0.32687922	     19.29410784	     -8.04168285	      0.00000000
      0.32761544	     19.45186156	     -7.99176592	      0.00000000
      0.32835165	     19.60767346	     -7.94218801	      0.00000000
      0.32908787	     19.76149453	     -7.89296995	      0.00000000
      0.32982408	     19.91327460	     -7.84413105	      0.00000000
      0.33056030	     20.06298564	     -7.79568152	      0.00000000
      0.33129651	     20.21059895	     -7.74763011	      0.00000000
      0.33203273	     20.35610445	     -7.69997771	      0.00000000
      0.33276894	     20.49949176	     -7.65272388	      0.00000000
      0.33350515	     20.64076578	     -7.60586153	      0.00000000
      0.33424137	     20.77993148	     -7.55938234	      0.00000000
      0.33497758	     20.91700574	     -7.51327263	      0.00000000
      0.33571380	     21.05200589	     -7.46751751	      0.00000000
      0.33645001	     21.18495772	     -7.42209809	      0.00000000
      0.33718623	     21.31588792	     -7.37699431	      0.00000000
      0.33792244	     21.44482805	     -7.33218345	      0.00000000
      0.33865866	     21.57181103	     -7.28764165	      0.00000000
      0.33939487	     21.69687117	     -7.24334371	      0.00000000
      0.34013108	     21.82004456	     -7.19926332	      0.00000000
      0.34086730	     21.94136594	     -7.15537562	      0.00000000
      0.34160351	     22.06087446	     -7.11166061	      0.00000000
      0.34233973	     22.17860186	     -7.06809197	      0.00000000
      0.34307594	     22.29458205	     -7.02464126	      0.00000000
      0.34381216	     22.40884194	     -6.98128177	      0.00000000
      0.34454837	     22.52141112	     -6.93798582	      0.00000000
      0.34528459	     22.63231094	     -6.89472795	      0.00000000
      0.34602080	     22.74156536	     -6.85148179	      0.00000000
      0.34675702	     22.84918978	     -6.80822338	      0.00000000
      0.34749323	     22.95520199	     -6.76492794	      0.00000000
      0.34822944	     23.05961185	     -6.72157298	      0.00000000
      0.34896566	     23.16243120	     -6.67813533	      0.00000000
      0.34970187	     23.26366539	     -6.63459366	      0.00000000
      0.35043809	     23.36332127	     -6.59092618	      0.00000000
      0.35117430	     23.46140120	     -6.54711235	      0.00000000
      0.35191052	     23.55790843	     -6.50313135	      0.00000000
      0.35264673	     23.65284407	     -6.45896295	      0.00000000
      0.35338295	     23.74620950	     -6.41458687	      0.00000000
      0.35411916	     23.83800620	     -6.36998275	      0.00000000
      0.35485537	     23.92823541	     -6.32513040	      0.00000000
      0.35559159	     24.01690033	     -6.28000904	      0.00000000
      0.35632780	     24.10400352	     -6.23459825	      0.00000000
      0.35706402	     24.18955072	     -6.18887671	      0.00000000
      0.35780023	     24.27354682	     -6.14282362	      0.00000000
      0.35853645	     24.35600029	     -6.09641720	      0.00000000
      0.35927266	     24.43691878	     -6.04963632	      0.00000000
      0.36000888	     24.51631301	     -6.00245904	      0.00000000
      0.36074509	     24.59419313	     -5.95486413	      0.00000000
      0.36148130	     24.67057112	     -5.90683000	      0.00000000
      0.36221752	     24.74545874	     -5.85833572	      0.00000000
      0.36295373	     24.81886775	     -5.80936064	      0.00000000
      0.36368995	     24.89081015	     -5.75988467	      0.00000000
      0.36442616	     24.96129571	     -5.70988879	      0.00000000
      0.36516238	     25.03033496	     -5.65935446	      0.00000000
      0.36589859	     25.09793385	     -5.60826499	      0.00000000
      0.36663481	     25.16409947	     -5.55660417	      0.00000000
      0.36737102	     25.22883246	     -5.50435815	      0.00000000
      0.36810723	     25.29213424	     -5.45151410	      0.00000000
      0.36884345	     25.35399987	     -5.39806050	      0.00000000
      0.36957966	     25.41442205	     -5.34398990	      0.00000000
      0.37031588	     25.47339475	     -5.28928831	      0.00000000
      0.37105209	     25.53089648	     -5.23395843	      0.00000000
      0.37178831	     25.58694663	     -5.17795647	      0.00000000
      0.37252452	     25.64155366	     -5.12123715	      0.00000000
      0.37326074	     25.69481650	     -5.06368040	      0.00000000
      0.37399695	     25.74683782	     -5.00516372	      0.00000000
      0.37473317	     25.79778475	     -4.94552977	      0.00000000
      0.37546938	     25.84780739	     -4.88462919	      0.00000000
      0.37620559	     25.89706032	     -4.82231989	      0.00000000
      0.37694181	     25.94569351	     -4.75845461	      0.00000000
      0.37767802	     25.99384050	     -4.69290270	      0.00000000
      0.37841424	     26.04164439	     -4.62552441	      0.00000000
      0.37915045	     26.08921965	     -4.55619744	      0.00000000
      0.37988667	     26.13674599	     -4.48477877	      0.00000000
      0.38062288	     26.18424201	     -4.41117252	      0.00000000
      0.38135910	     26.23172151	     -4.33527683	      0.00000000
      0.38209531	     26.27894368	     -4.25705554	      0.00000000
      0.38283152	     26.32563893	     -4.17647041	      0.00000000
      0.38356774	     26.37149293	     -4.09350110	      0.00000000
      0.38430395	     26.41626816	     -4.00809829	      0.00000000
      0.38504017	     26.45980947	     -3.92021237	      0.00000000
      0.38577638	     26.50199639	     -3.82976615	      0.00000000
      0.38651260	     26.54260708	     -3.73676147	      0.00000000
      0.38724881	     26.58134066	     -3.64122459	      0.00000000
      0.38798503	     26.61779424	     -3.54326502	      0.00000000
      0.38872124	     26.65156819	     -3.44298553	      0.00000000
      0.38945745	     26.68238130	     -3.34047572	      0.00000000
      0.39019367	     26.70994993	     -3.23582419	      0.00000000
      0.39092988	     26.73419323	     -3.12906296	      0.00000000
      0.39166610	     26.75498706	     -3.02024372	      0.00000000
      0.39240231	     26.77238795	     -2.90936316	      0.00000000
      0.39313853	     26.78641556	     -2.79643765	      0.00000000
      0.39387474	     26.79723494	     -2.68143648	      0.00000000
      0.39461096	     26.80498264	     -2.56434700	      0.00000000
      0.39534717	     26.80990296	     -2.44511944	      0.00000000
      0.39608338	     26.81222203	     -2.32371878	      0.00000000
      0.39681960	     26.81224033	     -2.20008190	      0.00000000
      0.39755581	     26.81024906	     -2.07415693	      0.00000000
      0.39829203	     26.80658468	     -1.94587176	      0.00000000
      0.39902824	     26.80158187	     -1.81516199	      0.00000000
      0.39976446	     26.79559524	     -1.68194972	      0.00000000
      0.40050067	     26.78898359	     -1.54616138	      0.00000000
      0.40123689	     26.78210331	     -1.40771588	      0.00000000
      0.40197310	     26.77531961	     -1.26653339	      0.00000000
      0.40270931	     26.76897537	     -1.12253195	      0.00000000
      0.40344553	     26.76342569	     -0.97562816	      0.00000000
      0.40418174	     26.75898592	     -0.82574146	      0.00000000
      0.40491796	     26.75598595	     -0.67278760	      0.00000000
      0.40565417	     26.75470121	     -0.51668960	      0.00000000
      0.40639039	     26.75542280	     -0.35736519	      0.00000000
      0.40712660	     26.75837636	     -0.19474294	      0.00000000
      0.40786282	     26.76380444	     -0.02874445	      0.00000000
      0.40859903	     26.77187568	      0.14069436	      0.00000000
      0.40933525	     26.78277339	      0.31364426	      0.00000000
      0.41007146	     26.79660581	      0.49016068	      0.00000000
      0.41080767	     26.81350809	      0.67031402	      0.00000000
      0.41154389	     26.83351844	      0.85414522	      0.00000000
      0.41228010	     26.85668036	      1.04169800	      0.00000000
      0.41301632	     26.88293863	      1.23297796	      0.00000000
      0.41375253	     26.91224988	      1.42799622	      0.00000000
      0.41448875	     26.94451343	      1.62674481	      0.00000000
      0.41522496	     26.97964059	      1.82922249	      0.00000000
      0.41596118	     27.01751524	      2.03542529	      0.00000000
      0.41669739	     27.05802189	      2.24534996	      0.00000000
      0.41743360	     27.10103183	      2.45899836	      0.00000000
      0.41816982	     27.14640614	      2.67636565	      0.00000000
      0.41890603	     27.19401912	      2.89747078	      0.00000000
      0.41964225	     27.24370808	      3.12230008	      0.00000000
      0.42037846	     27.29543021	      3.35093570	      0.00000000
      0.42111468	     27.34919375	      3.58352696	      0.00000000
      0.42185089	     27.40503101	      3.82028113	      0.00000000
      0.42258711	     27.46292273	      4.06137376	      0.00000000
      0.42332332	     27.52275298	      4.30692827	      0.00000000
      0.42405953	     27.58442357	      4.55708563	      0.00000000
      0.42479575	     27.64775311	      4.81193194	      0.00000000
      0.42553196	     27.71258466	      5.07156726	      0.00000000
      0.42626818	     27.77867717	      5.33603873	      0.00000000
      0.42700439	     27.84587598	      5.60542696	      0.00000000
      0.42774061	     27.91376059	      5.87973904	      0.00000000
      0.42847682	     27.98177973	      6.15895966	      0.00000000
      0.42921304	     28.04933472	      6.44307329	      0.00000000
      0.42994925	     28.11585046	      6.73210826	      0.00000000
      0.43068546	     28.18108303	      7.02621467	      0.00000000
      0.43142168	     28.24478179	      7.32556908	      0.00000000
      0.43215789	     28.30697385	      7.63044918	      0.00000000
      0.43289411	     28.36759238	      7.94113202	      0.00000000
      0.43363032	     28.42667584	      8.25793478	      0.00000000
      0.43436654	     28.48421457	      8.58117881	      0.00000000
      0.43510275	     28.54021718	      8.91119014	      0.00000000
      0.43583897	     28.59466570	      9.24832075	      0.00000000
      0.43657518	     28.64753307	      9.59287481	      0.00000000
      0.43731139	     28.69876405	      9.94526966	      0.00000000
      0.43804761	     28.74834774	     10.30565080	      0.00000000
      0.43878382	     28.79613643	     10.67476550	      0.00000000
      0.43952004	     28.84279246	     11.05124899	      0.00000000
      0.44025625	     28.89054211	     11.43076866	      0.00000000
      0.44099247	     28.93958701	     11.81221218	      0.00000000
      0.44172868	     28.98483198	     12.20007898	      0.00000000
