PointPosition
version=1
nRows=601
nColumns=4
inDegrees=no
No description.
endheader
time	state_0	state_1	state_2
      0.00000000	     -0.06774293	      1.07957491	      0.00000000
      0.00073621	     -0.06656517	      1.07979335	      0.00000000
      0.00147243	     -0.06538428	      1.08000748	      0.00000000
      0.00220864	     -0.06420018	      1.08021731	      0.00000000
      0.00294486	     -0.06301287	      1.08042286	      0.00000000
      0.00368107	     -0.06182235	      1.08062409	      0.00000000
      0.00441729	     -0.06062868	      1.08082091	      0.00000000
      0.00515350	     -0.05943191	      1.08101325	      0.00000000
      0.00588972	     -0.05823211	      1.08120099	      0.00000000
      0.00662593	     -0.05702938	      1.08138405	      0.00000000
      0.00736214	     -0.05582380	      1.08156230	      0.00000000
      0.00809836	     -0.05461548	      1.08173565	      0.00000000
      0.00883457	     -0.05340453	      1.08190398	      0.00000000
      0.00957079	     -0.05219106	      1.08206718	      0.00000000
      0.01030700	     -0.05097516	      1.08222515	      0.00000000
      0.01104322	     -0.04975693	      1.08237778	      0.00000000
      0.01177943	     -0.04853647	      1.08252497	      0.00000000
      0.01251565	     -0.04731385	      1.08266662	      0.00000000
      0.01325186	     -0.04608916	      1.08280265	      0.00000000
      0.01398807	     -0.04486246	      1.08293297	      0.00000000
      0.01472429	     -0.04363381	      1.08305750	      0.00000000
      0.01546050	     -0.04240328	      1.08317617	      0.00000000
      0.01619672	     -0.04117092	      1.08328892	      0.00000000
      0.01693293	     -0.03993678	      1.08339571	      0.00000000
      0.01766915	     -0.03870092	      1.08349649	      0.00000000
      0.01840536	     -0.03746340	      1.08359124	      0.00000000
      0.01914158	     -0.03622430	      1.08367994	      0.00000000
      0.01987779	     -0.03498372	      1.08376259	      0.00000000
      0.02061401	     -0.03374186	      1.08383921	      0.00000000
      0.02135022	     -0.03249889	      1.08390981	      0.00000000
      0.02208643	     -0.03125517	      1.08397448	      0.00000000
      0.02282265	     -0.03001124	      1.08403335	      0.00000000
      0.02355886	     -0.02876829	      1.08408672	      0.00000000
      0.02429508	     -0.02752790	      1.08413508	      0.00000000
      0.02503129	     -0.02629114	      1.08417887	      0.00000000
      0.02576751	     -0.02505809	      1.08421838	      0.00000000
      0.02650372	     -0.02382884	      1.08425408	      0.00000000
      0.02723994	     -0.02260384	      1.08428665	      0.00000000
      0.02797615	     -0.02138300	      1.08431679	      0.00000000
      0.02871236	     -0.02016587	      1.08434514	      0.00000000
      0.02944858	     -0.01895164	      1.08437222	      0.00000000
      0.03018479	     -0.01773939	      1.08439851	      0.00000000
      0.03092101	     -0.01652820	      1.08442434	      0.00000000
      0.03165722	     -0.01531715	      1.08444999	      0.00000000
      0.03239344	     -0.01410548	      1.08447566	      0.00000000
      0.03312965	     -0.01289250	      1.08450149	      0.00000000
      0.03386587	     -0.01167771	      1.08452755	      0.00000000
      0.03460208	     -0.01046066	      1.08455390	      0.00000000
      0.03533829	     -0.00924104	      1.08458055	      0.00000000
      0.03607451	     -0.00801858	      1.08460750	      0.00000000
      0.03681072	     -0.00679312	      1.08463475	      0.00000000
      0.03754694	     -0.00556452	      1.08466225	      0.00000000
      0.03828315	     -0.00433270	      1.08468999	      0.00000000
      0.03901937	     -0.00309760	      1.08471791	      0.00000000
      0.03975558	     -0.00185920	      1.08474599	      0.00000000
      0.04049180	     -0.00061747	      1.08477417	      0.00000000
      0.04122801	      0.00062757	      1.08480241	      0.00000000
      0.04196422	      0.00187591	      1.08483067	      0.00000000
      0.04270044	      0.00312754	      1.08485889	      0.00000000
      0.04343665	      0.00438244	      1.08488704	      0.00000000
      0.04417287	      0.00564057	      1.08491508	      0.00000000
      0.04490908	      0.00690193	      1.08494295	      0.00000000
      0.04564530	      0.00816648	      1.08497063	      0.00000000
      0.04638151	      0.00943420	      1.08499806	      0.00000000
      0.04711773	      0.01070508	      1.08502521	      0.00000000
      0.04785394	      0.01197909	      1.08505205	      0.00000000
      0.04859015	      0.01325623	      1.08507854	      0.00000000
      0.04932637	      0.01453647	      1.08510465	      0.00000000
      0.05006258	      0.01581981	      1.08513035	      0.00000000
      0.05079880	      0.01710625	      1.08515560	      0.00000000
      0.05153501	      0.01839578	      1.08518039	      0.00000000
      0.05227123	      0.01968841	      1.08520467	      0.00000000
      0.05300744	      0.02098414	      1.08522844	      0.00000000
      0.05374366	      0.02228297	      1.08525165	      0.00000000
      0.05447987	      0.02358491	      1.08527430	      0.00000000
      0.05521609	      0.02488998	      1.08529635	      0.00000000
      0.05595230	      0.02619818	      1.08531778	      0.00000000
      0.05668851	      0.02750952	      1.08533856	      0.00000000
      0.05742473	      0.02882402	      1.08535867	      0.00000000
      0.05816094	      0.03014168	      1.08537807	      0.00000000
      0.05889716	      0.03146251	      1.08539673	      0.00000000
      0.05963337	      0.03278651	      1.08541462	      0.00000000
      0.06036959	      0.03411371	      1.08543169	      0.00000000
      0.06110580	      0.03544408	      1.08544791	      0.00000000
      0.06184202	      0.03677766	      1.08546323	      0.00000000
      0.06257823	      0.03811442	      1.08547759	      0.00000000
      0.06331444	      0.03945437	      1.08549095	      0.00000000
      0.06405066	      0.04079752	      1.08550325	      0.00000000
      0.06478687	      0.04214385	      1.08551443	      0.00000000
      0.06552309	      0.04349335	      1.08552443	      0.00000000
      0.06625930	      0.04484602	      1.08553318	      0.00000000
      0.06699552	      0.04620185	      1.08554061	      0.00000000
      0.06773173	      0.04756082	      1.08554665	      0.00000000
      0.06846795	      0.04892291	      1.08555121	      0.00000000
      0.06920416	      0.05028812	      1.08555423	      0.00000000
      0.06994037	      0.05165641	      1.08555562	      0.00000000
      0.07067659	      0.05302776	      1.08555530	      0.00000000
      0.07141280	      0.05440216	      1.08555317	      0.00000000
      0.07214902	      0.05577958	      1.08554916	      0.00000000
      0.07288523	      0.05715998	      1.08554316	      0.00000000
      0.07362145	      0.05854333	      1.08553509	      0.00000000
      0.07435766	      0.05992960	      1.08552483	      0.00000000
      0.07509388	      0.06131874	      1.08551230	      0.00000000
      0.07583009	      0.06271071	      1.08549738	      0.00000000
      0.07656630	      0.06410546	      1.08547995	      0.00000000
      0.07730252	      0.06550293	      1.08545992	      0.00000000
      0.07803873	      0.06690307	      1.08543716	      0.00000000
      0.07877495	      0.06830581	      1.08541156	      0.00000000
      0.07951116	      0.06971109	      1.08538299	      0.00000000
      0.08024738	      0.07111885	      1.08535135	      0.00000000
      0.08098359	      0.07252900	      1.08531651	      0.00000000
      0.08171981	      0.07394149	      1.08527834	      0.00000000
      0.08245602	      0.07535622	      1.08523673	      0.00000000
      0.08319224	      0.07677314	      1.08519157	      0.00000000
      0.08392845	      0.07819217	      1.08514274	      0.00000000
      0.08466466	      0.07961324	      1.08509013	      0.00000000
      0.08540088	      0.08103627	      1.08503364	      0.00000000
      0.08613709	      0.08246120	      1.08497315	      0.00000000
      0.08687331	      0.08388795	      1.08490858	      0.00000000
      0.08760952	      0.08531646	      1.08483983	      0.00000000
      0.08834574	      0.08674665	      1.08476679	      0.00000000
      0.08908195	      0.08817846	      1.08468940	      0.00000000
      0.08981817	      0.08961182	      1.08460755	      0.00000000
      0.09055438	      0.09104665	      1.08452117	      0.00000000
      0.09129059	      0.09248289	      1.08443018	      0.00000000
      0.09202681	      0.09392046	      1.08433450	      0.00000000
      0.09276302	      0.09535931	      1.08423407	      0.00000000
      0.09349924	      0.09679935	      1.08412882	      0.00000000
      0.09423545	      0.09824053	      1.08401868	      0.00000000
      0.09497167	      0.09968276	      1.08390359	      0.00000000
      0.09570788	      0.10112600	      1.08378350	      0.00000000
      0.09644410	      0.10257016	      1.08365835	      0.00000000
      0.09718031	      0.10401517	      1.08352810	      0.00000000
      0.09791652	      0.10546098	      1.08339269	      0.00000000
      0.09865274	      0.10690751	      1.08325207	      0.00000000
      0.09938895	      0.10835471	      1.08310622	      0.00000000
      0.10012517	      0.10980249	      1.08295509	      0.00000000
      0.10086138	      0.11125080	      1.08279865	      0.00000000
      0.10159760	      0.11269957	      1.08263686	      0.00000000
      0.10233381	      0.11414875	      1.08246970	      0.00000000
      0.10307003	      0.11559828	      1.08229716	      0.00000000
      0.10380624	      0.11704811	      1.08211921	      0.00000000
      0.10454245	      0.11849818	      1.08193584	      0.00000000
      0.10527867	      0.11994846	      1.08174705	      0.00000000
      0.10601488	      0.12139889	      1.08155283	      0.00000000
      0.10675110	      0.12284944	      1.08135317	      0.00000000
      0.10748731	      0.12430006	      1.08114808	      0.00000000
      0.10822353	      0.12575072	      1.08093757	      0.00000000
      0.10895974	      0.12720138	      1.08072162	      0.00000000
      0.10969596	      0.12865201	      1.08050026	      0.00000000
      0.11043217	      0.13010257	      1.08027348	      0.00000000
      0.11116838	      0.13155303	      1.08004130	      0.00000000
      0.11190460	      0.13300336	      1.07980371	      0.00000000
      0.11264081	      0.13445353	      1.07956075	      0.00000000
      0.11337703	      0.13590350	      1.07931240	      0.00000000
      0.11411324	      0.13735325	      1.07905868	      0.00000000
      0.11484946	      0.13880275	      1.07879961	      0.00000000
      0.11558567	      0.14025196	      1.07853518	      0.00000000
      0.11632189	      0.14170087	      1.07826542	      0.00000000
      0.11705810	      0.14314944	      1.07799033	      0.00000000
      0.11779432	      0.14459764	      1.07770992	      0.00000000
      0.11853053	      0.14604545	      1.07742420	      0.00000000
      0.11926674	      0.14749284	      1.07713318	      0.00000000
      0.12000296	      0.14893978	      1.07683686	      0.00000000
      0.12073917	      0.15038625	      1.07653526	      0.00000000
      0.12147539	      0.15183221	      1.07622838	      0.00000000
      0.12221160	      0.15327766	      1.07591624	      0.00000000
      0.12294782	      0.15472259	      1.07559886	      0.00000000
      0.12368403	      0.15616701	      1.07527628	      0.00000000
      0.12442025	      0.15761095	      1.07494852	      0.00000000
      0.12515646	      0.15905442	      1.07461564	      0.00000000
      0.12589267	      0.16049746	      1.07427768	      0.00000000
      0.12662889	      0.16194012	      1.07393468	      0.00000000
      0.12736510	      0.16338243	      1.07358669	      0.00000000
      0.12810132	      0.16482445	      1.07323376	      0.00000000
      0.12883753	      0.16626620	      1.07287594	      0.00000000
      0.12957375	      0.16770774	      1.07251326	      0.00000000
      0.13030996	      0.16914911	      1.07214579	      0.00000000
      0.13104618	      0.17059034	      1.07177355	      0.00000000
      0.13178239	      0.17203148	      1.07139659	      0.00000000
      0.13251860	      0.17347256	      1.07101493	      0.00000000
      0.13325482	      0.17491360	      1.07062863	      0.00000000
      0.13399103	      0.17635462	      1.07023769	      0.00000000
      0.13472725	      0.17779565	      1.06984216	      0.00000000
      0.13546346	      0.17923669	      1.06944205	      0.00000000
      0.13619968	      0.18067774	      1.06903739	      0.00000000
      0.13693589	      0.18211882	      1.06862820	      0.00000000
      0.13767211	      0.18355990	      1.06821448	      0.00000000
      0.13840832	      0.18500098	      1.06779627	      0.00000000
      0.13914453	      0.18644204	      1.06737357	      0.00000000
      0.13988075	      0.18788305	      1.06694639	      0.00000000
      0.14061696	      0.18932399	      1.06651475	      0.00000000
      0.14135318	      0.19076481	      1.06607865	      0.00000000
      0.14208939	      0.19220547	      1.06563810	      0.00000000
      0.14282561	      0.19364593	      1.06519312	      0.00000000
      0.14356182	      0.19508615	      1.06474372	      0.00000000
      0.14429804	      0.19652606	      1.06428990	      0.00000000
      0.14503425	      0.19796560	      1.06383167	      0.00000000
      0.14577046	      0.19940472	      1.06336906	      0.00000000
      0.14650668	      0.20084335	      1.06290207	      0.00000000
      0.14724289	      0.20228141	      1.06243072	      0.00000000
      0.14797911	      0.20371884	      1.06195502	      0.00000000
      0.14871532	      0.20515554	      1.06147501	      0.00000000
      0.14945154	      0.20659145	      1.06099070	      0.00000000
      0.15018775	      0.20802649	      1.06050211	      0.00000000
      0.15092397	      0.20946056	      1.06000926	      0.00000000
      0.15166018	      0.21089359	      1.05951218	      0.00000000
      0.15239640	      0.21232548	      1.05901090	      0.00000000
      0.15313261	      0.21375617	      1.05850545	      0.00000000
      0.15386882	      0.21518556	      1.05799584	      0.00000000
      0.15460504	      0.21661357	      1.05748211	      0.00000000
      0.15534125	      0.21804012	      1.05696430	      0.00000000
      0.15607747	      0.21946513	      1.05644244	      0.00000000
      0.15681368	      0.22088852	      1.05591655	      0.00000000
      0.15754990	      0.22231021	      1.05538669	      0.00000000
      0.15828611	      0.22373013	      1.05485290	      0.00000000
      0.15902233	      0.22514820	      1.05431523	      0.00000000
      0.15975854	      0.22656435	      1.05377374	      0.00000000
      0.16049475	      0.22797848	      1.05322851	      0.00000000
      0.16123097	      0.22939052	      1.05267963	      0.00000000
      0.16196718	      0.23080037	      1.05212723	      0.00000000
      0.16270340	      0.23220792	      1.05157145	      0.00000000
      0.16343961	      0.23361307	      1.05101248	      0.00000000
      0.16417583	      0.23501567	      1.05045053	      0.00000000
      0.16491204	      0.23641559	      1.04988587	      0.00000000
      0.16564826	      0.23781265	      1.04931882	      0.00000000
      0.16638447	      0.23920667	      1.04874973	      0.00000000
      0.16712068	      0.24059745	      1.04817900	      0.00000000
      0.16785690	      0.24198479	      1.04760711	      0.00000000
      0.16859311	      0.24336848	      1.04703454	      0.00000000
      0.16932933	      0.24474831	      1.04646184	      0.00000000
      0.17006554	      0.24612407	      1.04588959	      0.00000000
      0.17080176	      0.24749561	      1.04531838	      0.00000000
      0.17153797	      0.24886277	      1.04474883	      0.00000000
      0.17227419	      0.25022546	      1.04418154	      0.00000000
      0.17301040	      0.25158374	      1.04361693	      0.00000000
      0.17374661	      0.25293820	      1.04305468	      0.00000000
      0.17448283	      0.25428944	      1.04249453	      0.00000000
      0.17521904	      0.25563760	      1.04193713	      0.00000000
      0.17595526	      0.25698271	      1.04138331	      0.00000000
      0.17669147	      0.25832480	      1.04083393	      0.00000000
      0.17742769	      0.25966389	      1.04028982	      0.00000000
      0.17816390	      0.26100001	      1.03975181	      0.00000000
      0.17890012	      0.26233317	      1.03922071	      0.00000000
      0.17963633	      0.26366339	      1.03869729	      0.00000000
      0.18037255	      0.26499068	      1.03818230	      0.00000000
      0.18110876	      0.26631504	      1.03767642	      0.00000000
      0.18184497	      0.26763649	      1.03718032	      0.00000000
      0.18258119	      0.26895503	      1.03669460	      0.00000000
      0.18331740	      0.27027066	      1.03621981	      0.00000000
      0.18405362	      0.27158341	      1.03575645	      0.00000000
      0.18478983	      0.27289329	      1.03530499	      0.00000000
      0.18552605	      0.27420030	      1.03486583	      0.00000000
      0.18626226	      0.27550449	      1.03443931	      0.00000000
      0.18699848	      0.27680587	      1.03402575	      0.00000000
      0.18773469	      0.27810448	      1.03362541	      0.00000000
      0.18847090	      0.27940036	      1.03323849	      0.00000000
      0.18920712	      0.28069356	      1.03286515	      0.00000000
      0.18994333	      0.28198411	      1.03250552	      0.00000000
      0.19067955	      0.28327207	      1.03215968	      0.00000000
      0.19141576	      0.28455750	      1.03182766	      0.00000000
      0.19215198	      0.28584045	      1.03150946	      0.00000000
      0.19288819	      0.28712098	      1.03120506	      0.00000000
      0.19362441	      0.28839916	      1.03091439	      0.00000000
      0.19436062	      0.28967505	      1.03063735	      0.00000000
      0.19509683	      0.29094871	      1.03037381	      0.00000000
      0.19583305	      0.29222022	      1.03012361	      0.00000000
      0.19656926	      0.29348964	      1.02988659	      0.00000000
      0.19730548	      0.29475703	      1.02966254	      0.00000000
      0.19804169	      0.29602246	      1.02945125	      0.00000000
      0.19877791	      0.29728599	      1.02925248	      0.00000000
      0.19951412	      0.29854769	      1.02906598	      0.00000000
      0.20025034	      0.29980762	      1.02889149	      0.00000000
      0.20098655	      0.30106584	      1.02872872	      0.00000000
      0.20172276	      0.30232240	      1.02857740	      0.00000000
      0.20245898	      0.30357737	      1.02843724	      0.00000000
      0.20319519	      0.30483079	      1.02830792	      0.00000000
      0.20393141	      0.30608272	      1.02818915	      0.00000000
      0.20466762	      0.30733320	      1.02808061	      0.00000000
      0.20540384	      0.30858228	      1.02798198	      0.00000000
      0.20614005	      0.30982999	      1.02789294	      0.00000000
      0.20687627	      0.31107637	      1.02781315	      0.00000000
      0.20761248	      0.31232144	      1.02774228	      0.00000000
      0.20834869	      0.31356522	      1.02768000	      0.00000000
      0.20908491	      0.31480775	      1.02762598	      0.00000000
      0.20982112	      0.31604905	      1.02757991	      0.00000000
      0.21055734	      0.31728913	      1.02754147	      0.00000000
      0.21129355	      0.31852802	      1.02751037	      0.00000000
      0.21202977	      0.31976575	      1.02748629	      0.00000000
      0.21276598	      0.32100232	      1.02746895	      0.00000000
      0.21350220	      0.32223776	      1.02745807	      0.00000000
      0.21423841	      0.32347209	      1.02745335	      0.00000000
      0.21497463	      0.32470531	      1.02745454	      0.00000000
      0.21571084	      0.32593745	      1.02746137	      0.00000000
      0.21644705	      0.32716852	      1.02747359	      0.00000000
      0.21718327	      0.32839853	      1.02749094	      0.00000000
      0.21791948	      0.32962751	      1.02751320	      0.00000000
      0.21865570	      0.33085546	      1.02754011	      0.00000000
      0.21939191	      0.33208239	      1.02757147	      0.00000000
      0.22012813	      0.33330832	      1.02760704	      0.00000000
      0.22086434	      0.33453327	      1.02764661	      0.00000000
      0.22160056	      0.33575723	      1.02768998	      0.00000000
      0.22233677	      0.33698023	      1.02773694	      0.00000000
      0.22307298	      0.33820227	      1.02778729	      0.00000000
      0.22380920	      0.33942337	      1.02784085	      0.00000000
      0.22454541	      0.34064352	      1.02789743	      0.00000000
      0.22528163	      0.34186275	      1.02795684	      0.00000000
      0.22601784	      0.34308106	      1.02801891	      0.00000000
      0.22675406	      0.34429846	      1.02808348	      0.00000000
      0.22749027	      0.34551495	      1.02815037	      0.00000000
      0.22822649	      0.34673055	      1.02821943	      0.00000000
      0.22896270	      0.34794527	      1.02829050	      0.00000000
      0.22969891	      0.34915911	      1.02836343	      0.00000000
      0.23043513	      0.35037208	      1.02843806	      0.00000000
      0.23117134	      0.35158420	      1.02851427	      0.00000000
      0.23190756	      0.35279547	      1.02859191	      0.00000000
      0.23264377	      0.35400590	      1.02867085	      0.00000000
      0.23337999	      0.35521550	      1.02875097	      0.00000000
      0.23411620	      0.35642427	      1.02883213	      0.00000000
      0.23485242	      0.35763223	      1.02891422	      0.00000000
      0.23558863	      0.35883938	      1.02899713	      0.00000000
      0.23632484	      0.36004573	      1.02908074	      0.00000000
      0.23706106	      0.36125128	      1.02916494	      0.00000000
      0.23779727	      0.36245603	      1.02924963	      0.00000000
      0.23853349	      0.36365999	      1.02933471	      0.00000000
      0.23926970	      0.36486317	      1.02942009	      0.00000000
      0.24000592	      0.36606556	      1.02950567	      0.00000000
      0.24074213	      0.36726717	      1.02959136	      0.00000000
      0.24147835	      0.36846800	      1.02967710	      0.00000000
      0.24221456	      0.36966806	      1.02976280	      0.00000000
      0.24295077	      0.37086736	      1.02984838	      0.00000000
      0.24368699	      0.37206589	      1.02993379	      0.00000000
      0.24442320	      0.37326366	      1.03001896	      0.00000000
      0.24515942	      0.37446068	      1.03010383	      0.00000000
      0.24589563	      0.37565694	      1.03018834	      0.00000000
      0.24663185	      0.37685245	      1.03027245	      0.00000000
      0.24736806	      0.37804720	      1.03035612	      0.00000000
      0.24810428	      0.37924118	      1.03043931	      0.00000000
      0.24884049	      0.38043440	      1.03052198	      0.00000000
      0.24957671	      0.38162685	      1.03060413	      0.00000000
      0.25031292	      0.38281851	      1.03068574	      0.00000000
      0.25104913	      0.38400938	      1.03076680	      0.00000000
      0.25178535	      0.38519945	      1.03084730	      0.00000000
      0.25252156	      0.38638871	      1.03092727	      0.00000000
      0.25325778	      0.38757716	      1.03100670	      0.00000000
      0.25399399	      0.38876477	      1.03108561	      0.00000000
      0.25473021	      0.38995157	      1.03116402	      0.00000000
      0.25546642	      0.39113752	      1.03124194	      0.00000000
      0.25620264	      0.39232265	      1.03131940	      0.00000000
      0.25693885	      0.39350693	      1.03139642	      0.00000000
      0.25767506	      0.39469038	      1.03147302	      0.00000000
      0.25841128	      0.39587299	      1.03154922	      0.00000000
      0.25914749	      0.39705477	      1.03162504	      0.00000000
      0.25988371	      0.39823572	      1.03170051	      0.00000000
      0.26061992	      0.39941583	      1.03177564	      0.00000000
      0.26135614	      0.40059512	      1.03185046	      0.00000000
      0.26209235	      0.40177358	      1.03192499	      0.00000000
      0.26282857	      0.40295121	      1.03199925	      0.00000000
      0.26356478	      0.40412802	      1.03207326	      0.00000000
      0.26430099	      0.40530402	      1.03214704	      0.00000000
      0.26503721	      0.40647920	      1.03222061	      0.00000000
      0.26577342	      0.40765356	      1.03229400	      0.00000000
      0.26650964	      0.40882711	      1.03236722	      0.00000000
      0.26724585	      0.40999985	      1.03244029	      0.00000000
      0.26798207	      0.41117179	      1.03251324	      0.00000000
      0.26871828	      0.41234291	      1.03258609	      0.00000000
      0.26945450	      0.41351324	      1.03265885	      0.00000000
      0.27019071	      0.41468275	      1.03273155	      0.00000000
      0.27092692	      0.41585147	      1.03280421	      0.00000000
      0.27166314	      0.41701939	      1.03287686	      0.00000000
      0.27239935	      0.41818651	      1.03294950	      0.00000000
      0.27313557	      0.41935283	      1.03302216	      0.00000000
      0.27387178	      0.42051835	      1.03309487	      0.00000000
      0.27460800	      0.42168307	      1.03316764	      0.00000000
      0.27534421	      0.42284700	      1.03324049	      0.00000000
      0.27608043	      0.42401012	      1.03331345	      0.00000000
      0.27681664	      0.42517246	      1.03338654	      0.00000000
      0.27755286	      0.42633399	      1.03345977	      0.00000000
      0.27828907	      0.42749472	      1.03353317	      0.00000000
      0.27902528	      0.42865466	      1.03360676	      0.00000000
      0.27976150	      0.42981380	      1.03368055	      0.00000000
      0.28049771	      0.43097213	      1.03375457	      0.00000000
      0.28123393	      0.43212967	      1.03382885	      0.00000000
      0.28197014	      0.43328640	      1.03390339	      0.00000000
      0.28270636	      0.43444232	      1.03397822	      0.00000000
      0.28344257	      0.43559744	      1.03405336	      0.00000000
      0.28417879	      0.43675175	      1.03412884	      0.00000000
      0.28491500	      0.43790525	      1.03420466	      0.00000000
      0.28565121	      0.43905793	      1.03428085	      0.00000000
      0.28638743	      0.44020980	      1.03435743	      0.00000000
      0.28712364	      0.44136085	      1.03443442	      0.00000000
      0.28785986	      0.44251108	      1.03451184	      0.00000000
      0.28859607	      0.44366048	      1.03458970	      0.00000000
      0.28933229	      0.44480905	      1.03466803	      0.00000000
      0.29006850	      0.44595679	      1.03474685	      0.00000000
      0.29080472	      0.44710370	      1.03482617	      0.00000000
      0.29154093	      0.44824977	      1.03490601	      0.00000000
      0.29227714	      0.44939499	      1.03498639	      0.00000000
      0.29301336	      0.45053936	      1.03506733	      0.00000000
      0.29374957	      0.45168289	      1.03514884	      0.00000000
      0.29448579	      0.45282556	      1.03523095	      0.00000000
      0.29522200	      0.45396736	      1.03531367	      0.00000000
      0.29595822	      0.45510830	      1.03539701	      0.00000000
      0.29669443	      0.45624837	      1.03548100	      0.00000000
      0.29743065	      0.45738757	      1.03556564	      0.00000000
      0.29816686	      0.45852588	      1.03565097	      0.00000000
      0.29890307	      0.45966331	      1.03573698	      0.00000000
      0.29963929	      0.46079984	      1.03582371	      0.00000000
      0.30037550	      0.46193548	      1.03591115	      0.00000000
      0.30111172	      0.46307021	      1.03599934	      0.00000000
      0.30184793	      0.46420403	      1.03608828	      0.00000000
      0.30258415	      0.46533694	      1.03617798	      0.00000000
      0.30332036	      0.46646894	      1.03626848	      0.00000000
      0.30405658	      0.46760000	      1.03635976	      0.00000000
      0.30479279	      0.46873015	      1.03645187	      0.00000000
      0.30552900	      0.46985936	      1.03654480	      0.00000000
      0.30626522	      0.47098765	      1.03663857	      0.00000000
      0.30700143	      0.47211501	      1.03673320	      0.00000000
      0.30773765	      0.47324144	      1.03682872	      0.00000000
      0.30847386	      0.47436694	      1.03692512	      0.00000000
      0.30921008	      0.47549152	      1.03702244	      0.00000000
      0.30994629	      0.47661516	      1.03712070	      0.00000000
      0.31068251	      0.47773789	      1.03721991	      0.00000000
      0.31141872	      0.47885969	      1.03732012	      0.00000000
      0.31215494	      0.47998058	      1.03742134	      0.00000000
      0.31289115	      0.48110055	      1.03752361	      0.00000000
      0.31362736	      0.48221963	      1.03762698	      0.00000000
      0.31436358	      0.48333781	      1.03773147	      0.00000000
      0.31509979	      0.48445512	      1.03783713	      0.00000000
      0.31583601	      0.48557155	      1.03794401	      0.00000000
      0.31657222	      0.48668714	      1.03805213	      0.00000000
      0.31730844	      0.48780188	      1.03816155	      0.00000000
      0.31804465	      0.48891581	      1.03827230	      0.00000000
      0.31878087	      0.49002893	      1.03838442	      0.00000000
      0.31951708	      0.49114127	      1.03849795	      0.00000000
      0.32025329	      0.49225284	      1.03861292	      0.00000000
      0.32098951	      0.49336366	      1.03872938	      0.00000000
      0.32172572	      0.49447376	      1.03884734	      0.00000000
      0.32246194	      0.49558314	      1.03896686	      0.00000000
      0.32319815	      0.49669183	      1.03908795	      0.00000000
      0.32393437	      0.49779985	      1.03921065	      0.00000000
      0.32467058	      0.49890721	      1.03933499	      0.00000000
      0.32540680	      0.50001394	      1.03946100	      0.00000000
      0.32614301	      0.50112006	      1.03958870	      0.00000000
      0.32687922	      0.50222558	      1.03971812	      0.00000000
      0.32761544	      0.50333053	      1.03984929	      0.00000000
      0.32835165	      0.50443492	      1.03998223	      0.00000000
      0.32908787	      0.50553877	      1.04011697	      0.00000000
      0.32982408	      0.50664209	      1.04025352	      0.00000000
      0.33056030	      0.50774492	      1.04039192	      0.00000000
      0.33129651	      0.50884726	      1.04053218	      0.00000000
      0.33203273	      0.50994913	      1.04067432	      0.00000000
      0.33276894	      0.51105056	      1.04081837	      0.00000000
      0.33350515	      0.51215155	      1.04096434	      0.00000000
      0.33424137	      0.51325213	      1.04111225	      0.00000000
      0.33497758	      0.51435231	      1.04126212	      0.00000000
      0.33571380	      0.51545211	      1.04141397	      0.00000000
      0.33645001	      0.51655154	      1.04156780	      0.00000000
      0.33718623	      0.51765063	      1.04172365	      0.00000000
      0.33792244	      0.51874938	      1.04188151	      0.00000000
      0.33865866	      0.51984781	      1.04204141	      0.00000000
      0.33939487	      0.52094594	      1.04220336	      0.00000000
      0.34013108	      0.52204379	      1.04236738	      0.00000000
      0.34086730	      0.52314136	      1.04253346	      0.00000000
      0.34160351	      0.52423867	      1.04270163	      0.00000000
      0.34233973	      0.52533574	      1.04287190	      0.00000000
      0.34307594	      0.52643257	      1.04304427	      0.00000000
      0.34381216	      0.52752919	      1.04321875	      0.00000000
      0.34454837	      0.52862560	      1.04339536	      0.00000000
      0.34528459	      0.52972183	      1.04357410	      0.00000000
      0.34602080	      0.53081787	      1.04375498	      0.00000000
      0.34675702	      0.53191375	      1.04393800	      0.00000000
      0.34749323	      0.53300948	      1.04412318	      0.00000000
      0.34822944	      0.53410506	      1.04431051	      0.00000000
      0.34896566	      0.53520052	      1.04450001	      0.00000000
      0.34970187	      0.53629586	      1.04469167	      0.00000000
      0.35043809	      0.53739110	      1.04488551	      0.00000000
      0.35117430	      0.53848624	      1.04508152	      0.00000000
      0.35191052	      0.53958130	      1.04527971	      0.00000000
      0.35264673	      0.54067629	      1.04548008	      0.00000000
      0.35338295	      0.54177123	      1.04568263	      0.00000000
      0.35411916	      0.54286611	      1.04588736	      0.00000000
      0.35485537	      0.54396096	      1.04609428	      0.00000000
      0.35559159	      0.54505578	      1.04630338	      0.00000000
      0.35632780	      0.54615058	      1.04651467	      0.00000000
      0.35706402	      0.54724538	      1.04672814	      0.00000000
      0.35780023	      0.54834018	      1.04694379	      0.00000000
      0.35853645	      0.54943499	      1.04716162	      0.00000000
      0.35927266	      0.55052983	      1.04738163	      0.00000000
      0.36000888	      0.55162470	      1.04760380	      0.00000000
      0.36074509	      0.55271961	      1.04782815	      0.00000000
      0.36148130	      0.55381457	      1.04805466	      0.00000000
      0.36221752	      0.55490958	      1.04828333	      0.00000000
      0.36295373	      0.55600466	      1.04851415	      0.00000000
      0.36368995	      0.55709981	      1.04874712	      0.00000000
      0.36442616	      0.55819504	      1.04898222	      0.00000000
      0.36516238	      0.55929035	      1.04921945	      0.00000000
      0.36589859	      0.56038576	      1.04945880	      0.00000000
      0.36663481	      0.56148127	      1.04970026	      0.00000000
      0.36737102	      0.56257688	      1.04994382	      0.00000000
      0.36810723	      0.56367260	      1.05018946	      0.00000000
      0.36884345	      0.56476844	      1.05043718	      0.00000000
      0.36957966	      0.56586439	      1.05068696	      0.00000000
      0.37031588	      0.56696047	      1.05093878	      0.00000000
      0.37105209	      0.56805668	      1.05119264	      0.00000000
      0.37178831	      0.56915303	      1.05144852	      0.00000000
      0.37252452	      0.57024952	      1.05170640	      0.00000000
      0.37326074	      0.57134615	      1.05196626	      0.00000000
      0.37399695	      0.57244294	      1.05222809	      0.00000000
      0.37473317	      0.57353989	      1.05249188	      0.00000000
      0.37546938	      0.57463701	      1.05275761	      0.00000000
      0.37620559	      0.57573433	      1.05302527	      0.00000000
      0.37694181	      0.57683184	      1.05329485	      0.00000000
      0.37767802	      0.57792956	      1.05356632	      0.00000000
      0.37841424	      0.57902750	      1.05383968	      0.00000000
      0.37915045	      0.58012567	      1.05411490	      0.00000000
      0.37988667	      0.58122408	      1.05439197	      0.00000000
      0.38062288	      0.58232275	      1.05467088	      0.00000000
      0.38135910	      0.58342167	      1.05495160	      0.00000000
      0.38209531	      0.58452087	      1.05523411	      0.00000000
      0.38283152	      0.58562037	      1.05551841	      0.00000000
      0.38356774	      0.58672017	      1.05580447	      0.00000000
      0.38430395	      0.58782032	      1.05609228	      0.00000000
      0.38504017	      0.58892084	      1.05638183	      0.00000000
      0.38577638	      0.59002177	      1.05667311	      0.00000000
      0.38651260	      0.59112313	      1.05696610	      0.00000000
      0.38724881	      0.59222496	      1.05726080	      0.00000000
      0.38798503	      0.59332730	      1.05755719	      0.00000000
      0.38872124	      0.59443019	      1.05785526	      0.00000000
      0.38945745	      0.59553367	      1.05815500	      0.00000000
      0.39019367	      0.59663779	      1.05845640	      0.00000000
      0.39092988	      0.59774258	      1.05875943	      0.00000000
      0.39166610	      0.59884810	      1.05906409	      0.00000000
      0.39240231	      0.59995437	      1.05937035	      0.00000000
      0.39313853	      0.60106144	      1.05967820	      0.00000000
      0.39387474	      0.60216935	      1.05998761	      0.00000000
      0.39461096	      0.60327812	      1.06029854	      0.00000000
      0.39534717	      0.60438779	      1.06061098	      0.00000000
      0.39608338	      0.60549838	      1.06092488	      0.00000000
      0.39681960	      0.60660992	      1.06124022	      0.00000000
      0.39755581	      0.60772241	      1.06155694	      0.00000000
      0.39829203	      0.60883589	      1.06187500	      0.00000000
      0.39902824	      0.60995035	      1.06219435	      0.00000000
      0.39976446	      0.61106581	      1.06251494	      0.00000000
      0.40050067	      0.61218227	      1.06283671	      0.00000000
      0.40123689	      0.61329973	      1.06315960	      0.00000000
      0.40197310	      0.61441817	      1.06348353	      0.00000000
      0.40270931	      0.61553761	      1.06380845	      0.00000000
      0.40344553	      0.61665802	      1.06413427	      0.00000000
      0.40418174	      0.61777939	      1.06446092	      0.00000000
      0.40491796	      0.61890170	      1.06478830	      0.00000000
      0.40565417	      0.62002494	      1.06511635	      0.00000000
      0.40639039	      0.62114909	      1.06544495	      0.00000000
      0.40712660	      0.62227411	      1.06577402	      0.00000000
      0.40786282	      0.62339998	      1.06610346	      0.00000000
      0.40859903	      0.62452667	      1.06643316	      0.00000000
      0.40933525	      0.62565417	      1.06676301	      0.00000000
      0.41007146	      0.62678242	      1.06709291	      0.00000000
      0.41080767	      0.62791142	      1.06742274	      0.00000000
      0.41154389	      0.62904111	      1.06775238	      0.00000000
      0.41228010	      0.63017148	      1.06808171	      0.00000000
      0.41301632	      0.63130250	      1.06841061	      0.00000000
      0.41375253	      0.63243412	      1.06873895	      0.00000000
      0.41448875	      0.63356634	      1.06906661	      0.00000000
      0.41522496	      0.63469912	      1.06939347	      0.00000000
      0.41596118	      0.63583244	      1.06971938	      0.00000000
      0.41669739	      0.63696629	      1.07004423	      0.00000000
      0.41743360	      0.63810063	      1.07036789	      0.00000000
      0.41816982	      0.63923547	      1.07069021	      0.00000000
      0.41890603	      0.64037078	      1.07101108	      0.00000000
      0.41964225	      0.64150656	      1.07133035	      0.00000000
      0.42037846	      0.64264279	      1.07164791	      0.00000000
      0.42111468	      0.64377947	      1.07196360	      0.00000000
      0.42185089	      0.64491660	      1.07227730	      0.00000000
      0.42258711	      0.64605417	      1.07258885	      0.00000000
      0.42332332	      0.64719218	      1.07289812	      0.00000000
      0.42405953	      0.64833062	      1.07320496	      0.00000000
      0.42479575	      0.64946950	      1.07350922	      0.00000000
      0.42553196	      0.65060881	      1.07381076	      0.00000000
      0.42626818	      0.65174858	      1.07410942	      0.00000000
      0.42700439	      0.65288879	      1.07440507	      0.00000000
      0.42774061	      0.65402947	      1.07469756	      0.00000000
      0.42847682	      0.65517065	      1.07498676	      0.00000000
      0.42921304	      0.65631240	      1.07527256	      0.00000000
      0.42994925	      0.65745484	      1.07555487	      0.00000000
      0.43068546	      0.65859812	      1.07583363	      0.00000000
      0.43142168	      0.65974241	      1.07610879	      0.00000000
      0.43215789	      0.66088789	      1.07638032	      0.00000000
      0.43289411	      0.66203474	      1.07664820	      0.00000000
      0.43363032	      0.66318315	      1.07691241	      0.00000000
      0.43436654	      0.66433328	      1.07717296	      0.00000000
      0.43510275	      0.66548532	      1.07742982	      0.00000000
      0.43583897	      0.66663942	      1.07768302	      0.00000000
      0.43657518	      0.66779573	      1.07793254	      0.00000000
      0.43731139	      0.66895437	      1.07817840	      0.00000000
      0.43804761	      0.67011548	      1.07842060	      0.00000000
      0.43878382	      0.67127914	      1.07865913	      0.00000000
      0.43952004	      0.67244546	      1.07889399	      0.00000000
      0.44025625	      0.67361449	      1.07912506	      0.00000000
      0.44099247	      0.67478631	      1.07935211	      0.00000000
      0.44172868	      0.67596104	      1.07957491	      0.00000000
