PointVelocity
version=1
nRows=601
nColumns=4
inDegrees=no
No description.
endheader
time	state_0	state_1	state_2
      0.00000000	     -0.04723659	      0.04876237	      0.00000000
      0.00233839	     -0.04752703	      0.05099735	      0.00000000
      0.00467678	     -0.04779411	      0.05333890	      0.00000000
      0.00701517	     -0.04801887	      0.05570474	      0.00000000
      0.00935357	     -0.04819289	      0.05815213	      0.00000000
      0.01169196	     -0.04832942	      0.06069147	      0.00000000
      0.01403035	     -0.04844681	      0.06335760	      0.00000000
      0.01636874	     -0.04854776	      0.06615276	      0.00000000
      0.01870713	     -0.04862908	      0.06907375	      0.00000000
      0.02104552	     -0.04868633	      0.07211704	      0.00000000
      0.02338392	     -0.04871794	      0.07528147	      0.00000000
      0.02572231	     -0.04872792	      0.07858969	      0.00000000
      0.02806070	     -0.04871861	      0.08204631	      0.00000000
      0.03039909	     -0.04869339	      0.08568456	      0.00000000
      0.03273748	     -0.04866556	      0.08953058	      0.00000000
      0.03507587	     -0.04863077	      0.09361923	      0.00000000
      0.03741426	     -0.04859046	      0.09796602	      0.00000000
      0.03975266	     -0.04853744	      0.10261556	      0.00000000
      0.04209105	     -0.04847198	      0.10763450	      0.00000000
      0.04442944	     -0.04837974	      0.11303208	      0.00000000
      0.04676783	     -0.04824380	      0.11884039	      0.00000000
      0.04910622	     -0.04804624	      0.12494302	      0.00000000
      0.05144461	     -0.04776250	      0.13122163	      0.00000000
      0.05378300	     -0.04740923	      0.13750928	      0.00000000
      0.05612140	     -0.04700939	      0.14367071	      0.00000000
      0.05845979	     -0.04657011	      0.14977017	      0.00000000
      0.06079818	     -0.04610074	      0.15580442	      0.00000000
      0.06313657	     -0.04557725	      0.16190505	      0.00000000
      0.06547496	     -0.04502297	      0.16813967	      0.00000000
      0.06781335	     -0.04430875	      0.17470973	      0.00000000
      0.07015175	     -0.04337508	      0.18173932	      0.00000000
      0.07249014	     -0.04203783	      0.18946056	      0.00000000
      0.07482853	     -0.04055266	      0.19787676	      0.00000000
      0.07716692	     -0.03822202	      0.20735812	      0.00000000
      0.07950531	     -0.03660776	      0.21710725	      0.00000000
      0.08184370	     -0.02783683	      0.23053223	      0.00000000
      0.08418209	     -0.00426467	      0.25399991	      0.00000000
      0.08652049	      0.04130134	      0.28696585	      0.00000000
      0.08885888	      0.13900714	      0.32624617	      0.00000000
      0.09119727	      0.27381950	      0.36546429	      0.00000000
      0.09353566	      0.38885365	      0.39803257	      0.00000000
      0.09587405	      0.46143848	      0.42176475	      0.00000000
      0.09821244	      0.50266288	      0.43861650	      0.00000000
      0.10055083	      0.53082227	      0.45259228	      0.00000000
      0.10288923	      0.55103759	      0.46477685	      0.00000000
      0.10522762	      0.56578251	      0.47559956	      0.00000000
      0.10756601	      0.57802426	      0.48561707	      0.00000000
      0.10990440	      0.58849211	      0.49484713	      0.00000000
      0.11224279	      0.59820388	      0.50337732	      0.00000000
      0.11458118	      0.60720572	      0.51103681	      0.00000000
      0.11691958	      0.61590066	      0.51774336	      0.00000000
      0.11925797	      0.62457813	      0.52337907	      0.00000000
      0.12159636	      0.63364772	      0.52786036	      0.00000000
      0.12393475	      0.64349988	      0.53109652	      0.00000000
      0.12627314	      0.65451096	      0.53298674	      0.00000000
      0.12861153	      0.66696719	      0.53340483	      0.00000000
      0.13094992	      0.68115521	      0.53219856	      0.00000000
      0.13328832	      0.69728218	      0.52924070	      0.00000000
      0.13562671	      0.71560006	      0.52440456	      0.00000000
      0.13796510	      0.73623029	      0.51763146	      0.00000000
      0.14030349	      0.75930514	      0.50885444	      0.00000000
      0.14264188	      0.78480473	      0.49806726	      0.00000000
      0.14498027	      0.81274966	      0.48525102	      0.00000000
      0.14731866	      0.84305699	      0.47046200	      0.00000000
      0.14965706	      0.87570898	      0.45376284	      0.00000000
      0.15199545	      0.91056177	      0.43529710	      0.00000000
      0.15433384	      0.94752470	      0.41521633	      0.00000000
      0.15667223	      0.98630661	      0.39372607	      0.00000000
      0.15901062	      1.02665282	      0.37103421	      0.00000000
      0.16134901	      1.06811195	      0.34737729	      0.00000000
      0.16368741	      1.11026612	      0.32300120	      0.00000000
      0.16602580	      1.15259320	      0.29815940	      0.00000000
      0.16836419	      1.19457464	      0.27310751	      0.00000000
      0.17070258	      1.23573677	      0.24808939	      0.00000000
      0.17304097	      1.27559575	      0.22335469	      0.00000000
      0.17537936	      1.31383432	      0.19911602	      0.00000000
      0.17771775	      1.35012371	      0.17559370	      0.00000000
      0.18005615	      1.38429358	      0.15292845	      0.00000000
      0.18239454	      1.41616205	      0.13127053	      0.00000000
      0.18473293	      1.44556638	      0.11064918	      0.00000000
      0.18707132	      1.47228187	      0.09109330	      0.00000000
      0.18940971	      1.49607348	      0.07252286	      0.00000000
      0.19174810	      1.51659409	      0.05483746	      0.00000000
      0.19408649	      1.53380061	      0.03794747	      0.00000000
      0.19642489	      1.54760558	      0.02176312	      0.00000000
      0.19876328	      1.55850874	      0.00632519	      0.00000000
      0.20110167	      1.56701721	     -0.00830635	      0.00000000
      0.20344006	      1.57397673	     -0.02198161	      0.00000000
      0.20577845	      1.58017870	     -0.03454997	      0.00000000
      0.20811684	      1.58631594	     -0.04588755	      0.00000000
      0.21045524	      1.59313034	     -0.05584654	      0.00000000
      0.21279363	      1.60092616	     -0.06440982	      0.00000000
      0.21513202	      1.61010681	     -0.07152550	      0.00000000
      0.21747041	      1.62042728	     -0.07734487	      0.00000000
      0.21980880	      1.63167374	     -0.08201073	      0.00000000
      0.22214719	      1.64318042	     -0.08581368	      0.00000000
      0.22448558	      1.65429083	     -0.08904992	      0.00000000
      0.22682398	      1.66445541	     -0.09197930	      0.00000000
      0.22916237	      1.67314306	     -0.09486295	      0.00000000
      0.23150076	      1.68029885	     -0.09779391	      0.00000000
      0.23383915	      1.68585049	     -0.10087294	      0.00000000
      0.23617754	      1.69011648	     -0.10405843	      0.00000000
      0.23851593	      1.69335984	     -0.10732734	      0.00000000
      0.24085432	      1.69595199	     -0.11061181	      0.00000000
      0.24319272	      1.69823237	     -0.11385418	      0.00000000
      0.24553111	      1.70043991	     -0.11702026	      0.00000000
      0.24786950	      1.70281094	     -0.12007769	      0.00000000
      0.25020789	      1.70543029	     -0.12302887	      0.00000000
      0.25254628	      1.70840535	     -0.12587261	      0.00000000
      0.25488467	      1.71173247	     -0.12862375	      0.00000000
      0.25722307	      1.71543129	     -0.13129511	      0.00000000
      0.25956146	      1.71945760	     -0.13389857	      0.00000000
      0.26189985	      1.72376993	     -0.13645066	      0.00000000
      0.26423824	      1.72832020	     -0.13895311	      0.00000000
      0.26657663	      1.73305434	     -0.14141583	      0.00000000
      0.26891502	      1.73797937	     -0.14381800	      0.00000000
      0.27125341	      1.74311252	     -0.14613891	      0.00000000
      0.27359181	      1.74851803	     -0.14833741	      0.00000000
      0.27593020	      1.75425459	     -0.15037659	      0.00000000
      0.27826859	      1.76036245	     -0.15222645	      0.00000000
      0.28060698	      1.76684897	     -0.15387199	      0.00000000
      0.28294537	      1.77374689	     -0.15528809	      0.00000000
      0.28528376	      1.78111359	     -0.15644327	      0.00000000
      0.28762216	      1.78903723	     -0.15729079	      0.00000000
      0.28996055	      1.79762305	     -0.15778079	      0.00000000
      0.29229894	      1.80690419	     -0.15787595	      0.00000000
      0.29463733	      1.81690092	     -0.15754587	      0.00000000
      0.29697572	      1.82754032	     -0.15677772	      0.00000000
      0.29931411	      1.83875623	     -0.15555741	      0.00000000
      0.30165250	      1.85046205	     -0.15386556	      0.00000000
      0.30399090	      1.86259833	     -0.15167129	      0.00000000
      0.30632929	      1.87509870	     -0.14894400	      0.00000000
      0.30866768	      1.88790003	     -0.14564865	      0.00000000
      0.31100607	      1.90090825	     -0.14177162	      0.00000000
      0.31334446	      1.91403401	     -0.13729320	      0.00000000
      0.31568285	      1.92714977	     -0.13222614	      0.00000000
      0.31802124	      1.94012735	     -0.12657848	      0.00000000
      0.32035964	      1.95282382	     -0.12038566	      0.00000000
      0.32269803	      1.96508818	     -0.11368121	      0.00000000
      0.32503642	      1.97680923	     -0.10650719	      0.00000000
      0.32737481	      1.98786824	     -0.09890367	      0.00000000
      0.32971320	      1.99822590	     -0.09090642	      0.00000000
      0.33205159	      2.00782757	     -0.08255261	      0.00000000
      0.33438999	      2.01670584	     -0.07387741	      0.00000000
      0.33672838	      2.02487930	     -0.06491964	      0.00000000
      0.33906677	      2.03243178	     -0.05571969	      0.00000000
      0.34140516	      2.03943164	     -0.04632217	      0.00000000
      0.34374355	      2.04598559	     -0.03677493	      0.00000000
      0.34608194	      2.05218992	     -0.02713052	      0.00000000
      0.34842033	      2.05816109	     -0.01744031	      0.00000000
      0.35075873	      2.06399961	     -0.00776488	      0.00000000
      0.35309712	      2.06984449	      0.00185499	      0.00000000
      0.35543551	      2.07585436	      0.01138110	      0.00000000
      0.35777390	      2.08217909	      0.02078578	      0.00000000
      0.36011229	      2.08895764	      0.03003055	      0.00000000
      0.36245068	      2.09629296	      0.03908166	      0.00000000
      0.36478907	      2.10434295	      0.04791869	      0.00000000
      0.36712747	      2.11311054	      0.05648268	      0.00000000
      0.36946586	      2.12252024	      0.06467809	      0.00000000
      0.37180425	      2.13251520	      0.07243744	      0.00000000
      0.37414264	      2.14319826	      0.07974969	      0.00000000
      0.37648103	      2.15451462	      0.08655933	      0.00000000
      0.37881942	      2.16609685	      0.09268618	      0.00000000
      0.38115782	      2.17796815	      0.09811239	      0.00000000
      0.38349621	      2.19025030	      0.10286079	      0.00000000
      0.38583460	      2.20312138	      0.10698256	      0.00000000
      0.38817299	      2.21724402	      0.11069917	      0.00000000
      0.39051138	      2.23199361	      0.11378462	      0.00000000
      0.39284977	      2.24671170	      0.11600742	      0.00000000
      0.39518816	      2.26213307	      0.11764278	      0.00000000
      0.39752656	      2.27824972	      0.11869092	      0.00000000
      0.39986495	      2.29468064	      0.11901191	      0.00000000
      0.40220334	      2.31155091	      0.11865656	      0.00000000
      0.40454173	      2.32899804	      0.11768322	      0.00000000
      0.40688012	      2.34704623	      0.11610914	      0.00000000
      0.40921851	      2.36564781	      0.11393599	      0.00000000
      0.41155690	      2.38479781	      0.11118467	      0.00000000
      0.41389530	      2.40446650	      0.10788216	      0.00000000
      0.41623369	      2.42462061	      0.10405677	      0.00000000
      0.41857208	      2.44521990	      0.09974088	      0.00000000
      0.42091047	      2.46623422	      0.09497169	      0.00000000
      0.42324886	      2.48763239	      0.08978211	      0.00000000
      0.42558725	      2.50937933	      0.08420524	      0.00000000
      0.42792565	      2.53144271	      0.07826725	      0.00000000
      0.43026404	      2.55379269	      0.07199734	      0.00000000
      0.43260243	      2.57640361	      0.06542020	      0.00000000
      0.43494082	      2.59924826	      0.05856158	      0.00000000
      0.43727921	      2.62230191	      0.05144661	      0.00000000
      0.43961760	      2.64553804	      0.04410157	      0.00000000
      0.44195599	      2.66893559	      0.03655655	      0.00000000
      0.44429439	      2.69247409	      0.02884398	      0.00000000
      0.44663278	      2.71613606	      0.02099807	      0.00000000
      0.44897117	      2.73990124	      0.01305403	      0.00000000
      0.45130956	      2.76375055	      0.00504370	      0.00000000
      0.45364795	      2.78766278	     -0.00299977	      0.00000000
      0.45598634	      2.81162095	     -0.01104964	      0.00000000
      0.45832473	      2.83560588	     -0.01907741	      0.00000000
      0.46066313	      2.85960677	     -0.02706230	      0.00000000
      0.46300152	      2.88360930	     -0.03498132	      0.00000000
      0.46533991	      2.90761205	     -0.04282034	      0.00000000
      0.46767830	      2.93160932	     -0.05056228	      0.00000000
      0.47001669	      2.95561306	     -0.05820090	      0.00000000
      0.47235508	      2.97963090	     -0.06572653	      0.00000000
      0.47469348	      3.00369067	     -0.07314196	      0.00000000
      0.47703187	      3.02781703	     -0.08044649	      0.00000000
      0.47937026	      3.05205140	     -0.08764962	      0.00000000
      0.48170865	      3.07643324	     -0.09475701	      0.00000000
      0.48404704	      3.10100921	     -0.10177780	      0.00000000
      0.48638543	      3.12582486	     -0.10871679	      0.00000000
      0.48872382	      3.15092267	     -0.11557545	      0.00000000
      0.49106222	      3.17634507	     -0.12235100	      0.00000000
      0.49340061	      3.20212555	     -0.12903404	      0.00000000
      0.49573900	      3.22829887	     -0.13561144	      0.00000000
      0.49807739	      3.25488859	     -0.14206285	      0.00000000
      0.50041578	      3.28192102	     -0.14836470	      0.00000000
      0.50275417	      3.30940707	     -0.15448502	      0.00000000
      0.50509257	      3.33736277	     -0.16038946	      0.00000000
      0.50743096	      3.36577648	     -0.16603055	      0.00000000
      0.50976935	      3.39464541	     -0.17136053	      0.00000000
      0.51210774	      3.42391488	     -0.17630976	      0.00000000
      0.51444613	      3.45354381	     -0.18081209	      0.00000000
      0.51678452	      3.48340458	     -0.18476932	      0.00000000
      0.51912291	      3.51338682	     -0.18809275	      0.00000000
      0.52146131	      3.54325833	     -0.19065528	      0.00000000
      0.52379970	      3.57280337	     -0.19234746	      0.00000000
      0.52613809	      3.60166906	     -0.19302562	      0.00000000
      0.52847648	      3.62951241	     -0.19257163	      0.00000000
      0.53081487	      3.65588165	     -0.19085512	      0.00000000
      0.53315326	      3.68032195	     -0.18777819	      0.00000000
      0.53549165	      3.70235752	     -0.18326984	      0.00000000
      0.53783005	      3.72150091	     -0.17729148	      0.00000000
      0.54016844	      3.73736231	     -0.16988113	      0.00000000
      0.54250683	      3.74953090	     -0.16111049	      0.00000000
      0.54484522	      3.75778840	     -0.15115803	      0.00000000
      0.54718361	      3.76187972	     -0.14024516	      0.00000000
      0.54952200	      3.76179877	     -0.12864841	      0.00000000
      0.55186040	      3.75747011	     -0.11671000	      0.00000000
      0.55419879	      3.74917076	     -0.10460640	      0.00000000
      0.55653718	      3.73724233	     -0.09243323	      0.00000000
      0.55887557	      3.72179007	     -0.08056402	      0.00000000
      0.56121396	      3.70304231	     -0.06923153	      0.00000000
      0.56355235	      3.68137648	     -0.05840325	      0.00000000
      0.56589074	      3.65692288	     -0.04835678	      0.00000000
      0.56822914	      3.62978174	     -0.03923728	      0.00000000
      0.57056753	      3.60019460	     -0.03101447	      0.00000000
      0.57290592	      3.56837290	     -0.02356861	      0.00000000
      0.57524431	      3.53449308	     -0.01684024	      0.00000000
      0.57758270	      3.49866899	     -0.01080369	      0.00000000
      0.57992109	      3.46101883	     -0.00543982	      0.00000000
      0.58225948	      3.42164702	     -0.00071766	      0.00000000
      0.58459788	      3.38069866	      0.00345429	      0.00000000
      0.58693627	      3.33824059	      0.00708067	      0.00000000
      0.58927466	      3.29434598	      0.01016121	      0.00000000
      0.59161305	      3.24894197	      0.01249351	      0.00000000
      0.59395144	      3.20194721	      0.01381839	      0.00000000
      0.59628983	      3.15324091	      0.01385144	      0.00000000
      0.59862823	      3.10270274	      0.01227569	      0.00000000
      0.60096662	      3.05036833	      0.00906323	      0.00000000
      0.60330501	      2.99627580	      0.00420234	      0.00000000
      0.60564340	      2.94065882	     -0.00199844	      0.00000000
      0.60798179	      2.88372444	     -0.00922391	      0.00000000
      0.61032018	      2.82574517	     -0.01712309	      0.00000000
      0.61265857	      2.76696035	     -0.02535240	      0.00000000
      0.61499697	      2.70754927	     -0.03377315	      0.00000000
      0.61733536	      2.64768465	     -0.04221478	      0.00000000
      0.61967375	      2.58744224	     -0.05072952	      0.00000000
      0.62201214	      2.52692083	     -0.05930279	      0.00000000
      0.62435053	      2.46612467	     -0.06806395	      0.00000000
      0.62668892	      2.40510960	     -0.07704849	      0.00000000
      0.62902731	      2.34377731	     -0.08644061	      0.00000000
      0.63136571	      2.28212690	     -0.09630119	      0.00000000
      0.63370410	      2.21979619	     -0.10706183	      0.00000000
      0.63604249	      2.15646166	     -0.11931481	      0.00000000
      0.63838088	      2.09136027	     -0.13366747	      0.00000000
      0.64071927	      2.02381319	     -0.15084385	      0.00000000
      0.64305766	      1.95279704	     -0.17073284	      0.00000000
      0.64539606	      1.87741044	     -0.19311489	      0.00000000
      0.64773445	      1.79633687	     -0.21716190	      0.00000000
      0.65007284	      1.70767956	     -0.24306904	      0.00000000
      0.65241123	      1.61030072	     -0.26902823	      0.00000000
      0.65474962	      1.50230815	     -0.29276454	      0.00000000
      0.65708801	      1.38551548	     -0.30927536	      0.00000000
      0.65942640	      1.26185177	     -0.31159757	      0.00000000
      0.66176480	      1.13740820	     -0.29628047	      0.00000000
      0.66410319	      1.01889923	     -0.25994995	      0.00000000
      0.66644158	      0.91036408	     -0.20896732	      0.00000000
      0.66877997	      0.81654852	     -0.15013666	      0.00000000
      0.67111836	      0.73310932	     -0.09396078	      0.00000000
      0.67345675	      0.65832928	     -0.04875446	      0.00000000
      0.67579514	      0.57904412	     -0.02303837	      0.00000000
      0.67813354	      0.48920996	     -0.01773035	      0.00000000
      0.68047193	      0.37253992	     -0.04221816	      0.00000000
      0.68281032	      0.19049028	     -0.12047095	      0.00000000
      0.68514871	      0.03438847	     -0.17568552	      0.00000000
      0.68748710	     -0.00868385	     -0.17429707	      0.00000000
      0.68982549	     -0.00962856	     -0.19656914	      0.00000000
      0.69216389	     -0.00847758	     -0.24091222	      0.00000000
      0.69450228	     -0.00184923	     -0.26458242	      0.00000000
      0.69684067	      0.00230092	     -0.26154678	      0.00000000
      0.69917906	      0.00596402	     -0.23912710	      0.00000000
      0.70151745	      0.00816266	     -0.20346047	      0.00000000
      0.70385584	      0.00969259	     -0.16166331	      0.00000000
      0.70619423	      0.01065628	     -0.11858889	      0.00000000
      0.70853263	      0.01135703	     -0.07731552	      0.00000000
      0.71087102	      0.01229759	     -0.04206656	      0.00000000
      0.71320941	      0.01350429	     -0.01256264	      0.00000000
      0.71554780	      0.01497153	      0.01151727	      0.00000000
      0.71788619	      0.01636883	      0.03234585	      0.00000000
      0.72022458	      0.01728572	      0.05230801	      0.00000000
      0.72256297	      0.01772026	      0.07132063	      0.00000000
      0.72490137	      0.01795483	      0.08832427	      0.00000000
      0.72723976	      0.01819064	      0.10272371	      0.00000000
      0.72957815	      0.01855150	      0.11438273	      0.00000000
      0.73191654	      0.01906355	      0.12345078	      0.00000000
      0.73425493	      0.01978255	      0.13001062	      0.00000000
      0.73659332	      0.02067154	      0.13435225	      0.00000000
      0.73893172	      0.02170811	      0.13673144	      0.00000000
      0.74127011	      0.02282592	      0.13748657	      0.00000000
      0.74360850	      0.02396150	      0.13696524	      0.00000000
      0.74594689	      0.02505432	      0.13546196	      0.00000000
      0.74828528	      0.02604347	      0.13329983	      0.00000000
      0.75062367	      0.02689965	      0.13063275	      0.00000000
      0.75296206	      0.02759438	      0.12763358	      0.00000000
      0.75530046	      0.02813398	      0.12432593	      0.00000000
      0.75763885	      0.02852246	      0.12075217	      0.00000000
      0.75997724	      0.02878158	      0.11689262	      0.00000000
      0.76231563	      0.02893008	      0.11274607	      0.00000000
      0.76465402	      0.02898904	      0.10830514	      0.00000000
      0.76699241	      0.02897987	      0.10356845	      0.00000000
      0.76933081	      0.02891994	      0.09854735	      0.00000000
      0.77166920	      0.02882841	      0.09325000	      0.00000000
      0.77400759	      0.02871765	      0.08769641	      0.00000000
      0.77634598	      0.02860260	      0.08189918	      0.00000000
      0.77868437	      0.02848971	      0.07589329	      0.00000000
      0.78102276	      0.02838366	      0.06973038	      0.00000000
      0.78336115	      0.02828755	      0.06341586	      0.00000000
      0.78569955	      0.02821033	      0.05693118	      0.00000000
      0.78803794	      0.02816152	      0.05024056	      0.00000000
      0.79037633	      0.02816064	      0.04324934	      0.00000000
      0.79271472	      0.02820144	      0.03611171	      0.00000000
      0.79505311	      0.02825280	      0.02912204	      0.00000000
      0.79739150	      0.02827321	      0.02239763	      0.00000000
      0.79972989	      0.02824488	      0.01595500	      0.00000000
      0.80206829	      0.02818245	      0.00964829	      0.00000000
      0.80440668	      0.02809953	      0.00332174	      0.00000000
      0.80674507	      0.02801139	     -0.00306307	      0.00000000
      0.80908346	      0.02791845	     -0.00947350	      0.00000000
      0.81142185	      0.02781022	     -0.01585243	      0.00000000
      0.81376024	      0.02768353	     -0.02218059	      0.00000000
      0.81609864	      0.02754333	     -0.02845765	      0.00000000
      0.81843703	      0.02739449	     -0.03468609	      0.00000000
      0.82077542	      0.02724610	     -0.04086729	      0.00000000
      0.82311381	      0.02710600	     -0.04699773	      0.00000000
      0.82545220	      0.02698083	     -0.05307063	      0.00000000
      0.82779059	      0.02687780	     -0.05908204	      0.00000000
      0.83012898	      0.02680125	     -0.06501811	      0.00000000
      0.83246738	      0.02675591	     -0.07086490	      0.00000000
      0.83480577	      0.02674223	     -0.07659879	      0.00000000
      0.83714416	      0.02676157	     -0.08219705	      0.00000000
      0.83948255	      0.02681120	     -0.08763107	      0.00000000
      0.84182094	      0.02688913	     -0.09287130	      0.00000000
      0.84415933	      0.02699047	     -0.09789114	      0.00000000
      0.84649772	      0.02711094	     -0.10266224	      0.00000000
      0.84883612	      0.02724545	     -0.10716791	      0.00000000
      0.85117451	      0.02738912	     -0.11138935	      0.00000000
      0.85351290	      0.02753809	     -0.11532203	      0.00000000
      0.85585129	      0.02768832	     -0.11895970	      0.00000000
      0.85818968	      0.02783744	     -0.12230515	      0.00000000
      0.86052807	      0.02798255	     -0.12535999	      0.00000000
      0.86286647	      0.02812202	     -0.12812797	      0.00000000
      0.86520486	      0.02825365	     -0.13061229	      0.00000000
      0.86754325	      0.02837580	     -0.13281532	      0.00000000
      0.86988164	      0.02848634	     -0.13473863	      0.00000000
      0.87222003	      0.02858351	     -0.13638625	      0.00000000
      0.87455842	      0.02866529	     -0.13775977	      0.00000000
      0.87689681	      0.02873023	     -0.13887354	      0.00000000
      0.87923521	      0.02877733	     -0.13974025	      0.00000000
      0.88157360	      0.02880609	     -0.14038512	      0.00000000
      0.88391199	      0.02881649	     -0.14083481	      0.00000000
      0.88625038	      0.02880890	     -0.14110580	      0.00000000
      0.88858877	      0.02878338	     -0.14121304	      0.00000000
      0.89092716	      0.02874147	     -0.14115745	      0.00000000
      0.89326555	      0.02868486	     -0.14093863	      0.00000000
      0.89560395	      0.02861746	     -0.14055282	      0.00000000
      0.89794234	      0.02854262	     -0.14000165	      0.00000000
      0.90028073	      0.02846558	     -0.13927973	      0.00000000
      0.90261912	      0.02839007	     -0.13838442	      0.00000000
      0.90495751	      0.02832206	     -0.13729573	      0.00000000
      0.90729590	      0.02826666	     -0.13599086	      0.00000000
      0.90963430	      0.02822835	     -0.13444274	      0.00000000
      0.91197269	      0.02820963	     -0.13262564	      0.00000000
      0.91431108	      0.02821059	     -0.13053880	      0.00000000
      0.91664947	      0.02823064	     -0.12818221	      0.00000000
      0.91898786	      0.02826723	     -0.12558026	      0.00000000
      0.92132625	      0.02831904	     -0.12275548	      0.00000000
      0.92366464	      0.02838234	     -0.11973199	      0.00000000
      0.92600304	      0.02845613	     -0.11653219	      0.00000000
      0.92834143	      0.02853569	     -0.11316712	      0.00000000
      0.93067982	      0.02861684	     -0.10964722	      0.00000000
      0.93301821	      0.02869440	     -0.10596954	      0.00000000
      0.93535660	      0.02876523	     -0.10213389	      0.00000000
      0.93769499	      0.02882470	     -0.09814241	      0.00000000
      0.94003338	      0.02886955	     -0.09399413	      0.00000000
      0.94237178	      0.02889730	     -0.08970354	      0.00000000
      0.94471017	      0.02890639	     -0.08528140	      0.00000000
      0.94704856	      0.02889741	     -0.08075073	      0.00000000
      0.94938695	      0.02887064	     -0.07613315	      0.00000000
      0.95172534	      0.02882833	     -0.07145427	      0.00000000
      0.95406373	      0.02877225	     -0.06673922	      0.00000000
      0.95640213	      0.02870524	     -0.06200781	      0.00000000
      0.95874052	      0.02862916	     -0.05728193	      0.00000000
      0.96107891	      0.02854593	     -0.05257369	      0.00000000
      0.96341730	      0.02845719	     -0.04789670	      0.00000000
      0.96575569	      0.02836400	     -0.04325243	      0.00000000
      0.96809408	      0.02826703	     -0.03864067	      0.00000000
      0.97043247	      0.02816634	     -0.03406760	      0.00000000
      0.97277087	      0.02806208	     -0.02953857	      0.00000000
      0.97510926	      0.02795388	     -0.02507449	      0.00000000
      0.97744765	      0.02784173	     -0.02069190	      0.00000000
      0.97978604	      0.02772543	     -0.01642805	      0.00000000
      0.98212443	      0.02760450	     -0.01232097	      0.00000000
      0.98446282	      0.02747910	     -0.00841239	      0.00000000
      0.98680122	      0.02734768	     -0.00473826	      0.00000000
      0.98913961	      0.02720842	     -0.00135085	      0.00000000
      0.99147800	      0.02705590	      0.00170152	      0.00000000
      0.99381639	      0.02688291	      0.00430168	      0.00000000
      0.99615478	      0.02668863	      0.00629746	      0.00000000
      0.99849317	      0.02648364	      0.00770307	      0.00000000
      1.00083156	      0.02626620	      0.00855307	      0.00000000
      1.00316996	      0.02603288	      0.00890376	      0.00000000
      1.00550835	      0.02577672	      0.00879572	      0.00000000
      1.00784674	      0.02548047	      0.00818525	      0.00000000
      1.01018513	      0.02513801	      0.00701390	      0.00000000
      1.01252352	      0.02475155	      0.00528934	      0.00000000
      1.01486191	      0.02431503	      0.00301986	      0.00000000
      1.01720030	      0.02382551	      0.00026262	      0.00000000
      1.01953870	      0.02327810	     -0.00293199	      0.00000000
      1.02187709	      0.02267097	     -0.00649340	      0.00000000
      1.02421548	      0.02200284	     -0.01035634	      0.00000000
      1.02655387	      0.02127720	     -0.01443961	      0.00000000
      1.02889226	      0.02049799	     -0.01866358	      0.00000000
      1.03123065	      0.01967141	     -0.02293710	      0.00000000
      1.03356905	      0.01880445	     -0.02716415	      0.00000000
      1.03590744	      0.01790111	     -0.03126875	      0.00000000
      1.03824583	      0.01696844	     -0.03516854	      0.00000000
      1.04058422	      0.01600877	     -0.03882091	      0.00000000
      1.04292261	      0.01502734	     -0.04217570	      0.00000000
      1.04526100	      0.01402595	     -0.04522716	      0.00000000
      1.04759939	      0.01300966	     -0.04795888	      0.00000000
      1.04993779	      0.01198226	     -0.05039310	      0.00000000
      1.05227618	      0.01095020	     -0.05254403	      0.00000000
      1.05461457	      0.00991986	     -0.05444668	      0.00000000
      1.05695296	      0.00890011	     -0.05613317	      0.00000000
      1.05929135	      0.00789748	     -0.05763082	      0.00000000
      1.06162974	      0.00691945	     -0.05896712	      0.00000000
      1.06396813	      0.00596869	     -0.06015356	      0.00000000
      1.06630653	      0.00504845	     -0.06120319	      0.00000000
      1.06864492	      0.00415696	     -0.06211795	      0.00000000
      1.07098331	      0.00329322	     -0.06290049	      0.00000000
      1.07332170	      0.00245306	     -0.06355146	      0.00000000
      1.07566009	      0.00163293	     -0.06407058	      0.00000000
      1.07799848	      0.00082925	     -0.06446069	      0.00000000
      1.08033688	      0.00003977	     -0.06472141	      0.00000000
      1.08267527	     -0.00073965	     -0.06485311	      0.00000000
      1.08501366	     -0.00151611	     -0.06487274	      0.00000000
      1.08735205	     -0.00228895	     -0.06477539	      0.00000000
      1.08969044	     -0.00305945	     -0.06454312	      0.00000000
      1.09202883	     -0.00382372	     -0.06414012	      0.00000000
      1.09436722	     -0.00457835	     -0.06351924	      0.00000000
      1.09670562	     -0.00532255	     -0.06267165	      0.00000000
      1.09904401	     -0.00605654	     -0.06159713	      0.00000000
      1.10138240	     -0.00677814	     -0.06033918	      0.00000000
      1.10372079	     -0.00748552	     -0.05894076	      0.00000000
      1.10605918	     -0.00817513	     -0.05743084	      0.00000000
      1.10839757	     -0.00884623	     -0.05583488	      0.00000000
      1.11073596	     -0.00949852	     -0.05415967	      0.00000000
      1.11307436	     -0.01013279	     -0.05241275	      0.00000000
      1.11541275	     -0.01075009	     -0.05060465	      0.00000000
      1.11775114	     -0.01135014	     -0.04874854	      0.00000000
      1.12008953	     -0.01193314	     -0.04685897	      0.00000000
      1.12242792	     -0.01249888	     -0.04495154	      0.00000000
      1.12476631	     -0.01304769	     -0.04303642	      0.00000000
      1.12710471	     -0.01358046	     -0.04112472	      0.00000000
      1.12944310	     -0.01409788	     -0.03922332	      0.00000000
      1.13178149	     -0.01460087	     -0.03734012	      0.00000000
      1.13411988	     -0.01508975	     -0.03548055	      0.00000000
      1.13645827	     -0.01556486	     -0.03365086	      0.00000000
      1.13879666	     -0.01602615	     -0.03185579	      0.00000000
      1.14113505	     -0.01647347	     -0.03010029	      0.00000000
      1.14347345	     -0.01690676	     -0.02838801	      0.00000000
      1.14581184	     -0.01732593	     -0.02672326	      0.00000000
      1.14815023	     -0.01773111	     -0.02510880	      0.00000000
      1.15048862	     -0.01812214	     -0.02354584	      0.00000000
      1.15282701	     -0.01849974	     -0.02203606	      0.00000000
      1.15516540	     -0.01886481	     -0.02058519	      0.00000000
      1.15750379	     -0.01921790	     -0.01919444	      0.00000000
      1.15984219	     -0.01955967	     -0.01786222	      0.00000000
      1.16218058	     -0.01989159	     -0.01659013	      0.00000000
      1.16451897	     -0.02021472	     -0.01538051	      0.00000000
      1.16685736	     -0.02052923	     -0.01423156	      0.00000000
      1.16919575	     -0.02083544	     -0.01314066	      0.00000000
      1.17153414	     -0.02113379	     -0.01210575	      0.00000000
      1.17387254	     -0.02142500	     -0.01112708	      0.00000000
      1.17621093	     -0.02170965	     -0.01020573	      0.00000000
      1.17854932	     -0.02198829	     -0.00934139	      0.00000000
      1.18088771	     -0.02226113	     -0.00853199	      0.00000000
      1.18322610	     -0.02252865	     -0.00777600	      0.00000000
      1.18556449	     -0.02279093	     -0.00707204	      0.00000000
      1.18790288	     -0.02304800	     -0.00641870	      0.00000000
      1.19024128	     -0.02329987	     -0.00581445	      0.00000000
      1.19257967	     -0.02354656	     -0.00525779	      0.00000000
      1.19491806	     -0.02378825	     -0.00474712	      0.00000000
      1.19725645	     -0.02402516	     -0.00428072	      0.00000000
      1.19959484	     -0.02425758	     -0.00385698	      0.00000000
      1.20193323	     -0.02448577	     -0.00347421	      0.00000000
      1.20427162	     -0.02471001	     -0.00313101	      0.00000000
      1.20661002	     -0.02493058	     -0.00282593	      0.00000000
      1.20894841	     -0.02514768	     -0.00255785	      0.00000000
      1.21128680	     -0.02536155	     -0.00232563	      0.00000000
      1.21362519	     -0.02557231	     -0.00212831	      0.00000000
      1.21596358	     -0.02578014	     -0.00196493	      0.00000000
      1.21830197	     -0.02598508	     -0.00183464	      0.00000000
      1.22064037	     -0.02618719	     -0.00173657	      0.00000000
      1.22297876	     -0.02638644	     -0.00166990	      0.00000000
      1.22531715	     -0.02658283	     -0.00163386	      0.00000000
      1.22765554	     -0.02677638	     -0.00162742	      0.00000000
      1.22999393	     -0.02696710	     -0.00164968	      0.00000000
      1.23233232	     -0.02715509	     -0.00169922	      0.00000000
      1.23467071	     -0.02734046	     -0.00177476	      0.00000000
      1.23700911	     -0.02752341	     -0.00187448	      0.00000000
      1.23934750	     -0.02770407	     -0.00199663	      0.00000000
      1.24168589	     -0.02788269	     -0.00213910	      0.00000000
      1.24402428	     -0.02805936	     -0.00229974	      0.00000000
      1.24636267	     -0.02823440	     -0.00247610	      0.00000000
      1.24870106	     -0.02840791	     -0.00266560	      0.00000000
      1.25103946	     -0.02858039	     -0.00286532	      0.00000000
      1.25337785	     -0.02875211	     -0.00307212	      0.00000000
      1.25571624	     -0.02892368	     -0.00328275	      0.00000000
      1.25805463	     -0.02909553	     -0.00349363	      0.00000000
      1.26039302	     -0.02926818	     -0.00370166	      0.00000000
      1.26273141	     -0.02944197	     -0.00390331	      0.00000000
      1.26506980	     -0.02961721	     -0.00409606	      0.00000000
      1.26740820	     -0.02979399	     -0.00427691	      0.00000000
      1.26974659	     -0.02997243	     -0.00444396	      0.00000000
      1.27208498	     -0.03015246	     -0.00459491	      0.00000000
      1.27442337	     -0.03033423	     -0.00472818	      0.00000000
      1.27676176	     -0.03051776	     -0.00484191	      0.00000000
      1.27910015	     -0.03070340	     -0.00493446	      0.00000000
      1.28143854	     -0.03089142	     -0.00500401	      0.00000000
      1.28377694	     -0.03108239	     -0.00504867	      0.00000000
      1.28611533	     -0.03127686	     -0.00506644	      0.00000000
      1.28845372	     -0.03147543	     -0.00505531	      0.00000000
      1.29079211	     -0.03167875	     -0.00501314	      0.00000000
      1.29313050	     -0.03188729	     -0.00493816	      0.00000000
      1.29546889	     -0.03210157	     -0.00482845	      0.00000000
      1.29780729	     -0.03232180	     -0.00468284	      0.00000000
      1.30014568	     -0.03254827	     -0.00450000	      0.00000000
      1.30248407	     -0.03278092	     -0.00427959	      0.00000000
      1.30482246	     -0.03301979	     -0.00402107	      0.00000000
      1.30716085	     -0.03326479	     -0.00372481	      0.00000000
      1.30949924	     -0.03351589	     -0.00339098	      0.00000000
      1.31183763	     -0.03377314	     -0.00302024	      0.00000000
      1.31417603	     -0.03403669	     -0.00261314	      0.00000000
      1.31651442	     -0.03430677	     -0.00217015	      0.00000000
      1.31885281	     -0.03458379	     -0.00169177	      0.00000000
      1.32119120	     -0.03486799	     -0.00117770	      0.00000000
      1.32352959	     -0.03515987	     -0.00062782	      0.00000000
      1.32586798	     -0.03545942	     -0.00004026	      0.00000000
      1.32820637	     -0.03576694	      0.00058654	      0.00000000
      1.33054477	     -0.03608209	      0.00125674	      0.00000000
      1.33288316	     -0.03640488	      0.00197421	      0.00000000
      1.33522155	     -0.03673489	      0.00274513	      0.00000000
      1.33755994	     -0.03707206	      0.00357584	      0.00000000
      1.33989833	     -0.03741630	      0.00447218	      0.00000000
      1.34223672	     -0.03776782	      0.00544095	      0.00000000
      1.34457512	     -0.03812668	      0.00648377	      0.00000000
      1.34691351	     -0.03849303	      0.00760373	      0.00000000
      1.34925190	     -0.03886610	      0.00879564	      0.00000000
      1.35159029	     -0.03924505	      0.01005558	      0.00000000
      1.35392868	     -0.03962773	      0.01137333	      0.00000000
      1.35626707	     -0.04001178	      0.01273891	      0.00000000
      1.35860546	     -0.04039504	      0.01414335	      0.00000000
      1.36094386	     -0.04077519	      0.01557690	      0.00000000
      1.36328225	     -0.04115252	      0.01703846	      0.00000000
      1.36562064	     -0.04152759	      0.01852588	      0.00000000
      1.36795903	     -0.04190347	      0.02004767	      0.00000000
      1.37029742	     -0.04228454	      0.02161347	      0.00000000
      1.37263581	     -0.04267030	      0.02323074	      0.00000000
      1.37497420	     -0.04306038	      0.02490700	      0.00000000
      1.37731260	     -0.04345110	      0.02664037	      0.00000000
      1.37965099	     -0.04383829	      0.02842914	      0.00000000
      1.38198938	     -0.04421818	      0.03026970	      0.00000000
      1.38432777	     -0.04458859	      0.03216159	      0.00000000
      1.38666616	     -0.04494973	      0.03409898	      0.00000000
      1.38900455	     -0.04530203	      0.03607793	      0.00000000
      1.39134295	     -0.04564403	      0.03808712	      0.00000000
      1.39368134	     -0.04596992	      0.04011153	      0.00000000
      1.39601973	     -0.04628446	      0.04216253	      0.00000000
      1.39835812	     -0.04660381	      0.04428026	      0.00000000
      1.40069651	     -0.04692270	      0.04644923	      0.00000000
      1.40303490	     -0.04723423	      0.04875127	      0.00000000
