PointAcceleration
version=1
nRows=601
nColumns=4
inDegrees=no
No description.
endheader
time	state_0	state_1	state_2
      0.00000000	   -106.71157171	   -249.08034283	      0.00000000
      0.00118779	   -110.36262554	   -257.12702741	      0.00000000
      0.00237558	   -114.81201135	   -266.32915844	      0.00000000
      0.00356337	   -120.44338415	   -277.21943257	      0.00000000
      0.00475117	   -127.57284607	   -290.19137714	      0.00000000
      0.00593896	   -136.29550154	   -305.34301892	      0.00000000
      0.00712675	   -146.57661864	   -322.60578686	      0.00000000
      0.00831454	   -158.29720892	   -341.79837465	      0.00000000
      0.00950233	   -171.27936951	   -362.61765903	      0.00000000
      0.01069012	   -185.36355319	   -384.76608819	      0.00000000
      0.01187791	   -200.37056909	   -407.88061223	      0.00000000
      0.01306571	   -216.14043947	   -431.60290178	      0.00000000
      0.01425350	   -232.42930805	   -455.43227093	      0.00000000
      0.01544129	   -248.95944682	   -478.82164390	      0.00000000
      0.01662908	   -265.26466686	   -500.97256203	      0.00000000
      0.01781687	   -280.82553942	   -521.07476582	      0.00000000
      0.01900466	   -294.81799704	   -537.92746936	      0.00000000
      0.02019245	   -306.58379626	   -550.66562618	      0.00000000
      0.02138025	   -314.82916404	   -557.35936483	      0.00000000
      0.02256804	   -319.86458102	   -558.48695028	      0.00000000
      0.02375583	   -318.18030828	   -548.03691501	      0.00000000
      0.02494362	   -307.86215945	   -522.84991743	      0.00000000
      0.02613141	   -127.80523526	   -297.63097681	      0.00000000
      0.02731920	   -123.26546000	   -288.85878788	      0.00000000
      0.02850699	   -115.70152131	   -274.00840723	      0.00000000
      0.02969479	   -104.30374429	   -246.33059830	      0.00000000
      0.03088258	   -100.28646346	   -209.31853965	      0.00000000
      0.03207037	    -93.89354634	   -155.17712753	      0.00000000
      0.03325816	    -88.98605806	   -102.83707766	      0.00000000
      0.03444595	    -82.62028184	    -57.74169274	      0.00000000
      0.03563374	    -76.62647195	    -24.78511267	      0.00000000
      0.03682153	    -71.32780294	     -3.27040191	      0.00000000
      0.03800933	    -67.19656874	      9.28275777	      0.00000000
      0.03919712	    -64.02986948	     15.37189236	      0.00000000
      0.04038491	    -61.75401192	     17.61632354	      0.00000000
      0.04157270	    -60.15771487	     17.52729165	      0.00000000
      0.04276049	    -59.11238150	     16.25563264	      0.00000000
      0.04394828	    -58.46171547	     14.45891655	      0.00000000
      0.04513608	    -58.10166373	     12.42247373	      0.00000000
      0.04632387	    -57.93520291	     10.44720727	      0.00000000
      0.04751166	    -57.89732290	      8.53316181	      0.00000000
      0.04869945	    -57.93348118	      6.84179456	      0.00000000
      0.04988724	    -58.00852561	      5.32122365	      0.00000000
      0.05107503	    -58.09041299	      4.06472132	      0.00000000
      0.05226282	    -58.16133410	      3.02678374	      0.00000000
      0.05345062	    -58.19963475	      2.26268657	      0.00000000
      0.05463841	    -58.19662213	      1.73880744	      0.00000000
      0.05582620	    -58.13682400	      1.48809612	      0.00000000
      0.05701399	    -58.01579108	      1.48604591	      0.00000000
      0.05820178	    -57.82244170	      1.75286334	      0.00000000
      0.05938957	    -57.55419048	      2.27076579	      0.00000000
      0.06057736	    -57.20295837	      3.05340029	      0.00000000
      0.06176516	    -56.76697242	      4.08829318	      0.00000000
      0.06295295	    -56.24069373	      5.38580965	      0.00000000
      0.06414074	    -55.62241240	      6.93852012	      0.00000000
      0.06532853	    -54.90843131	      8.75568579	      0.00000000
      0.06651632	    -54.09707427	     10.83447813	      0.00000000
      0.06770411	    -53.18598967	     13.18405513	      0.00000000
      0.06889190	    -52.17384094	     15.80531530	      0.00000000
      0.07007970	    -51.05884522	     18.70756081	      0.00000000
      0.07126749	    -49.83918544	     21.89462952	      0.00000000
      0.07245528	    -48.51341826	     25.37510163	      0.00000000
      0.07364307	    -47.07955011	     29.15414013	      0.00000000
      0.07483086	    -45.53724962	     33.23842572	      0.00000000
      0.07601865	    -43.88595177	     37.63248436	      0.00000000
      0.07720644	    -42.12512757	     42.34147511	      0.00000000
      0.07839424	    -40.25326480	     47.36913609	      0.00000000
      0.07958203	    -38.27070019	     52.71688661	      0.00000000
      0.08076982	    -36.17769128	     58.38510988	      0.00000000
      0.08195761	    -33.97495967	     64.37236003	      0.00000000
      0.08314540	    -31.66301051	     70.67604886	      0.00000000
      0.08433319	    -29.24241785	     77.29143469	      0.00000000
      0.08552098	    -26.71351790	     84.21241078	      0.00000000
      0.08670878	    -24.07851524	     91.42997345	      0.00000000
      0.08789657	    -21.34108990	     98.93298534	      0.00000000
      0.08908436	    -18.50152046	    106.71230101	      0.00000000
      0.09027215	    -15.55956015	    114.75660994	      0.00000000
      0.09145994	    -12.51650966	    123.05301241	      0.00000000
      0.09264773	     -9.37535217	    131.58593209	      0.00000000
      0.09383552	     -6.13833487	    140.34127245	      0.00000000
      0.09502332	     -2.80855474	    149.30176083	      0.00000000
      0.09621111	      0.61223150	    158.45260596	      0.00000000
      0.09739890	      4.12130724	    167.77595526	      0.00000000
      0.09858669	      7.71665887	    177.25669509	      0.00000000
      0.09977448	     11.39510796	    186.87669700	      0.00000000
      0.10096227	     15.15428778	    196.62121686	      0.00000000
      0.10215006	     18.99090149	    206.47279928	      0.00000000
      0.10333786	     22.90239465	    216.41746291	      0.00000000
      0.10452565	     26.88543592	    226.43901041	      0.00000000
      0.10571344	     30.93723216	    236.52445787	      0.00000000
      0.10690123	     35.05440547	    246.65919608	      0.00000000
      0.10808902	     39.23388793	    256.83130678	      0.00000000
      0.10927681	     43.47226108	    267.02787863	      0.00000000
      0.11046460	     47.76618289	    277.23798621	      0.00000000
      0.11165240	     52.11217875	    287.45031350	      0.00000000
      0.11284019	     56.50663085	    297.65473645	      0.00000000
      0.11402798	     60.94597255	    307.84125222	      0.00000000
      0.11521577	     65.42633846	    318.00031737	      0.00000000
      0.11640356	     69.94403092	    328.12283775	      0.00000000
      0.11759135	     74.49514481	    338.19995962	      0.00000000
      0.11877915	     79.07597884	    348.22346032	      0.00000000
      0.11996694	     83.68274381	    358.18521413	      0.00000000
      0.12115473	     88.31177808	    368.07772629	      0.00000000
      0.12234252	     92.95953363	    377.89349762	      0.00000000
      0.12353031	     97.62189175	    387.62530197	      0.00000000
      0.12471810	    102.29523993	    397.26718048	      0.00000000
      0.12590589	    106.97774529	    406.81496380	      0.00000000
      0.12709369	    111.66670886	    416.25986095	      0.00000000
      0.12828148	    116.35738787	    425.59426090	      0.00000000
      0.12946927	    121.04730268	    434.81413157	      0.00000000
      0.13065706	    125.73371582	    443.91420590	      0.00000000
      0.13184485	    130.41394898	    452.88940248	      0.00000000
      0.13303264	    135.08557552	    461.73514852	      0.00000000
      0.13422043	    139.74631077	    470.44713831	      0.00000000
      0.13540823	    144.39396186	    479.02134323	      0.00000000
      0.13659602	    149.02646911	    487.45399197	      0.00000000
      0.13778381	    153.64176046	    495.74136578	      0.00000000
      0.13897160	    158.23799038	    503.88020682	      0.00000000
      0.14015939	    162.81323656	    511.86716255	      0.00000000
      0.14134718	    167.36581527	    519.69940065	      0.00000000
      0.14253497	    171.89393556	    527.37389613	      0.00000000
      0.14372277	    176.39601408	    534.88813007	      0.00000000
      0.14491056	    180.87035101	    542.23933343	      0.00000000
      0.14609835	    185.31542823	    549.42524435	      0.00000000
      0.14728614	    189.72961473	    556.44332309	      0.00000000
      0.14847393	    194.11143512	    563.29153137	      0.00000000
      0.14966172	    198.45931425	    569.96754965	      0.00000000
      0.15084951	    202.77179253	    576.46951405	      0.00000000
      0.15203731	    207.04732738	    582.79529762	      0.00000000
      0.15322510	    211.28443921	    588.94314378	      0.00000000
      0.15441289	    215.48156788	    594.91105537	      0.00000000
      0.15560068	    219.63717307	    600.69731766	      0.00000000
      0.15678847	    223.74958886	    606.29996598	      0.00000000
      0.15797626	    227.81718124	    611.71729917	      0.00000000
      0.15916405	    231.83805551	    616.94728244	      0.00000000
      0.16035185	    235.81046447	    621.98827067	      0.00000000
      0.16153964	    239.73216372	    626.83811740	      0.00000000
      0.16272743	    243.60127968	    631.49536182	      0.00000000
      0.16391522	    247.41523395	    635.95790744	      0.00000000
      0.16510301	    251.17199902	    640.22464524	      0.00000000
      0.16629080	    254.86911043	    644.29410082	      0.00000000
      0.16747859	    258.50439661	    648.16562596	      0.00000000
      0.16866639	    262.07664506	    651.83935493	      0.00000000
      0.16985418	    265.58389471	    655.31524080	      0.00000000
      0.17104197	    269.02741357	    658.59573857	      0.00000000
      0.17222976	    272.40637897	    661.68200482	      0.00000000
      0.17341755	    275.72398945	    664.57824283	      0.00000000
      0.17460534	    278.98116855	    667.28773702	      0.00000000
      0.17579313	    282.18044912	    669.81511398	      0.00000000
      0.17698093	    285.32398162	    672.16590667	      0.00000000
      0.17816872	    288.41252517	    674.34491581	      0.00000000
      0.17935651	    291.44877407	    676.35885923	      0.00000000
      0.18054430	    294.43324641	    678.21326028	      0.00000000
      0.18173209	    297.36871489	    679.91469049	      0.00000000
      0.18291988	    300.25665598	    681.46931445	      0.00000000
      0.18410767	    303.09953056	    682.88290516	      0.00000000
      0.18529547	    305.89957116	    684.16167643	      0.00000000
      0.18648326	    308.65880904	    685.31063022	      0.00000000
      0.18767105	    311.37961851	    686.33558188	      0.00000000
      0.18885884	    314.06369988	    687.24099621	      0.00000000
      0.19004663	    316.71322934	    688.03215567	      0.00000000
      0.19123442	    319.32971384	    688.71315836	      0.00000000
      0.19242221	    321.91508084	    689.28878733	      0.00000000
      0.19361001	    324.47073566	    689.76285234	      0.00000000
      0.19479780	    326.99840753	    690.13969803	      0.00000000
      0.19598559	    329.49944939	    690.42288050	      0.00000000
      0.19717338	    331.97544728	    690.61635426	      0.00000000
      0.19836117	    334.42773054	    690.72344284	      0.00000000
      0.19954896	    336.85778381	    690.74774754	      0.00000000
      0.20073676	    339.26692802	    690.69237424	      0.00000000
      0.20192455	    341.65657434	    690.56060008	      0.00000000
      0.20311234	    344.02803989	    690.35532575	      0.00000000
      0.20430013	    346.38267920	    690.07953081	      0.00000000
      0.20548792	    348.72180215	    689.73592060	      0.00000000
      0.20667571	    351.04671346	    689.32720050	      0.00000000
      0.20786350	    353.35870377	    688.85588517	      0.00000000
      0.20905130	    355.65902580	    688.32442431	      0.00000000
      0.21023909	    357.94893011	    687.73513878	      0.00000000
      0.21142688	    360.22960621	    687.09023259	      0.00000000
      0.21261467	    362.50223728	    686.39182363	      0.00000000
      0.21380246	    364.76792991	    685.64187109	      0.00000000
      0.21499025	    367.02777703	    684.84228589	      0.00000000
      0.21617804	    369.28278373	    683.99478789	      0.00000000
      0.21736584	    371.53393851	    683.10108596	      0.00000000
      0.21855363	    373.78213337	    682.16267680	      0.00000000
      0.21974142	    376.02823106	    681.18106403	      0.00000000
      0.22092921	    378.27299575	    680.15752837	      0.00000000
      0.22211700	    380.51714260	    679.09335781	      0.00000000
      0.22330479	    382.76129056	    677.98961251	      0.00000000
      0.22449258	    385.00600585	    676.84736693	      0.00000000
      0.22568038	    387.25175864	    675.66746812	      0.00000000
      0.22686817	    389.49897167	    674.45078374	      0.00000000
      0.22805596	    391.74797294	    673.19796117	      0.00000000
      0.22924375	    393.99904277	    671.90965691	      0.00000000
      0.23043154	    396.25237267	    670.58631847	      0.00000000
      0.23161933	    398.50811315	    669.22838737	      0.00000000
      0.23280712	    400.76633166	    667.83610919	      0.00000000
      0.23399492	    403.02707187	    666.40971425	      0.00000000
      0.23518271	    405.29029962	    664.94925281	      0.00000000
      0.23637050	    407.55596941	    663.45474656	      0.00000000
      0.23755829	    409.82396697	    661.92605541	      0.00000000
      0.23874608	    412.09417037	    660.36299630	      0.00000000
      0.23993387	    414.36640097	    658.76524307	      0.00000000
      0.24112166	    416.64047763	    657.13242465	      0.00000000
      0.24230946	    418.91617643	    655.46404818	      0.00000000
      0.24349725	    421.19327394	    653.75957485	      0.00000000
      0.24468504	    423.47152347	    652.01837225	      0.00000000
      0.24587283	    425.75065796	    650.23973721	      0.00000000
      0.24706062	    428.03041610	    648.42290667	      0.00000000
      0.24824841	    430.31047444	    646.56700737	      0.00000000
      0.24943620	    432.59055179	    644.67114462	      0.00000000
      0.25062400	    434.87024714	    642.73426206	      0.00000000
      0.25181179	    437.14924089	    640.75532320	      0.00000000
      0.25299958	    439.42702662	    638.73307579	      0.00000000
      0.25418737	    441.70321653	    636.66632501	      0.00000000
      0.25537516	    443.97719757	    634.55365211	      0.00000000
      0.25656295	    446.24851678	    632.39373848	      0.00000000
      0.25775074	    448.51644592	    630.18502501	      0.00000000
      0.25893854	    450.78046734	    627.92610005	      0.00000000
      0.26012633	    453.03971042	    625.61526418	      0.00000000
      0.26131412	    455.29356621	    623.25101006	      0.00000000
      0.26250191	    457.54099474	    620.83150647	      0.00000000
      0.26368970	    459.78126156	    618.35516291	      0.00000000
      0.26487749	    462.01316317	    615.82005892	      0.00000000
      0.26606528	    464.23579718	    613.22454516	      0.00000000
      0.26725308	    466.44787212	    610.56666321	      0.00000000
      0.26844087	    468.64803006	    607.84449541	      0.00000000
      0.26962866	    470.83480465	    605.05591972	      0.00000000
      0.27081645	    473.00813941	    602.20106484	      0.00000000
      0.27200424	    475.16784241	    599.27799609	      0.00000000
      0.27319203	    477.31033972	    596.28545386	      0.00000000
      0.27437983	    479.43339363	    593.22046110	      0.00000000
      0.27556762	    481.53544357	    590.08111924	      0.00000000
      0.27675541	    483.61358339	    586.86512602	      0.00000000
      0.27794320	    485.66557250	    583.57060847	      0.00000000
      0.27913099	    487.68850927	    580.19566097	      0.00000000
      0.28031878	    489.67992878	    576.73867835	      0.00000000
      0.28150657	    491.63677296	    573.19799426	      0.00000000
      0.28269437	    493.55634364	    569.57221248	      0.00000000
      0.28388216	    495.43526328	    565.85977390	      0.00000000
      0.28506995	    497.27041417	    562.05931456	      0.00000000
      0.28625774	    499.05817976	    558.16944914	      0.00000000
      0.28744553	    500.79507241	    554.18890732	      0.00000000
      0.28863332	    502.47726469	    550.11648321	      0.00000000
      0.28982111	    504.10087092	    545.95092839	      0.00000000
      0.29100891	    505.66193289	    541.69124027	      0.00000000
      0.29219670	    507.15620908	    537.33622052	      0.00000000
      0.29338449	    508.57985022	    532.88521304	      0.00000000
      0.29457228	    509.92848209	    528.33718521	      0.00000000
      0.29576007	    511.19834278	    523.69173540	      0.00000000
      0.29694786	    512.38490777	    518.94790244	      0.00000000
      0.29813565	    513.48447020	    514.10544709	      0.00000000
      0.29932345	    514.49232643	    509.16340287	      0.00000000
      0.30051124	    515.40482459	    504.12165440	      0.00000000
      0.30169903	    516.21708940	    498.97919545	      0.00000000
      0.30288682	    516.92545728	    493.73597092	      0.00000000
      0.30407461	    517.52483969	    488.39088811	      0.00000000
      0.30526240	    518.01148095	    482.94390285	      0.00000000
      0.30645019	    518.38002579	    477.39381270	      0.00000000
      0.30763799	    518.62655592	    471.74056932	      0.00000000
      0.30882578	    518.74541130	    465.98288044	      0.00000000
      0.31001357	    518.73239460	    460.12068860	      0.00000000
      0.31120136	    518.58144926	    454.15262449	      0.00000000
      0.31238915	    518.28809118	    448.07868646	      0.00000000
      0.31357694	    517.84585645	    441.89750846	      0.00000000
      0.31476473	    517.25010740	    435.60927175	      0.00000000
      0.31595253	    516.49412344	    429.21278628	      0.00000000
      0.31714032	    515.57297993	    422.70842339	      0.00000000
      0.31832811	    514.47965926	    416.09521792	      0.00000000
      0.31951590	    513.20898206	    409.37382397	      0.00000000
      0.32070369	    511.75359703	    402.54355813	      0.00000000
      0.32189148	    510.10820281	    395.60542426	      0.00000000
      0.32307927	    508.26531762	    388.55917783	      0.00000000
      0.32426707	    506.21940798	    381.40619672	      0.00000000
      0.32545486	    503.96287034	    374.14673647	      0.00000000
      0.32664265	    501.48979599	    366.78255823	      0.00000000
      0.32783044	    498.79234292	    359.31442239	      0.00000000
      0.32901823	    495.86451895	    351.74464612	      0.00000000
      0.33020602	    492.69857003	    344.07474879	      0.00000000
      0.33139381	    489.28838718	    336.30765511	      0.00000000
      0.33258161	    485.62641833	    328.44575924	      0.00000000
      0.33376940	    481.70604666	    320.49249772	      0.00000000
      0.33495719	    477.51958596	    312.45101626	      0.00000000
      0.33614498	    473.06001988	    304.32534562	      0.00000000
      0.33733277	    468.31959932	    296.11948189	      0.00000000
      0.33852056	    463.29109391	    287.83815573	      0.00000000
      0.33970835	    457.96700109	    279.48635932	      0.00000000
      0.34089615	    452.33960896	    271.06947119	      0.00000000
      0.34208394	    446.40154095	    262.59337333	      0.00000000
      0.34327173	    440.14475769	    254.06413114	      0.00000000
      0.34445952	    433.56213141	    245.48850149	      0.00000000
      0.34564731	    426.64568977	    236.87335939	      0.00000000
      0.34683510	    419.38910607	    228.22651517	      0.00000000
      0.34802290	    411.78516318	    219.55599463	      0.00000000
      0.34921069	    403.82923761	    210.87112705	      0.00000000
      0.35039848	    395.51588345	    202.18170436	      0.00000000
      0.35158627	    386.84321621	    193.49927715	      0.00000000
      0.35277406	    377.80864693	    184.83605899	      0.00000000
      0.35396185	    368.41423481	    176.20656906	      0.00000000
      0.35514964	    358.66057320	    167.62578008	      0.00000000
      0.35633744	    348.55428218	    159.11140716	      0.00000000
      0.35752523	    338.09889281	    150.68108140	      0.00000000
      0.35871302	    327.30594137	    142.35539321	      0.00000000
      0.35990081	    316.18189150	    134.15435316	      0.00000000
      0.36108860	    304.74427812	    126.10097045	      0.00000000
      0.36227639	    293.00351322	    118.21745649	      0.00000000
      0.36346418	    280.98604830	    110.52916606	      0.00000000
      0.36465198	    268.70828137	    103.06059536	      0.00000000
      0.36583977	    256.21028772	     95.83993187	      0.00000000
      0.36702756	    243.51713216	     88.89402707	      0.00000000
      0.36821535	    230.68881579	     82.25487091	      0.00000000
      0.36940314	    217.76051094	     75.94964954	      0.00000000
      0.37059093	    204.81873490	     70.01397146	      0.00000000
      0.37177872	    191.89992439	     64.46636766	      0.00000000
      0.37296652	    179.11638904	     59.33869255	      0.00000000
      0.37415431	    166.46766137	     54.62180249	      0.00000000
      0.37534210	    154.09052360	     50.32925761	      0.00000000
      0.37652989	    141.84509471	     46.40224855	      0.00000000
      0.37771768	    129.99664636	     42.84368275	      0.00000000
      0.37890547	    117.93485611	     39.51616960	      0.00000000
      0.38009326	    106.33915345	     36.46242286	      0.00000000
      0.38128106	     92.85158197	     33.30164151	      0.00000000
      0.38246885	     76.42515380	     29.61754020	      0.00000000
      0.38365664	     61.86342809	     25.43580832	      0.00000000
      0.38484443	     58.30307483	     21.16458053	      0.00000000
      0.38603222	     58.51587746	     19.16622976	      0.00000000
      0.38722001	     56.25639850	     17.42010576	      0.00000000
      0.38840780	     53.92539458	     15.49550955	      0.00000000
      0.38959560	     51.74317495	     13.69468209	      0.00000000
      0.39078339	     49.50039203	     12.12913645	      0.00000000
      0.39197118	     47.27692294	     10.84662687	      0.00000000
      0.39315897	     45.12778131	      9.84213962	      0.00000000
      0.39434676	     43.14426638	      9.09909043	      0.00000000
      0.39553455	     41.33718977	      8.58266088	      0.00000000
      0.39672234	     39.73731060	      8.25700132	      0.00000000
      0.39791014	     38.32352011	      8.03876137	      0.00000000
      0.39909793	     37.07514570	      7.85514940	      0.00000000
      0.40028572	     35.96109421	      7.66306409	      0.00000000
      0.40147351	     34.94860428	      7.43320304	      0.00000000
      0.40266130	     34.02176241	      7.15799084	      0.00000000
      0.40384909	     33.16064439	      6.83177052	      0.00000000
      0.40503688	     32.35918645	      6.45801112	      0.00000000
      0.40622468	     31.60698121	      6.04102146	      0.00000000
      0.40741247	     30.89961961	      5.58693960	      0.00000000
      0.40860026	     30.22995791	      5.10292901	      0.00000000
      0.40978805	     29.59314264	      4.59522887	      0.00000000
      0.41097584	     28.98283826	      4.07107770	      0.00000000
      0.41216363	     28.39457328	      3.53616905	      0.00000000
      0.41335142	     27.82298792	      2.99685254	      0.00000000
      0.41453922	     27.26500601	      2.45747356	      0.00000000
      0.41572701	     26.71697145	      1.92255657	      0.00000000
      0.41691480	     26.17726169	      1.39564128	      0.00000000
      0.41810259	     25.64373813	      0.88026780	      0.00000000
      0.41929038	     25.11545332	      0.37880049	      0.00000000
      0.42047817	     24.59107092	     -0.10654715	      0.00000000
      0.42166596	     24.06975095	     -0.57446393	      0.00000000
      0.42285376	     23.55036608	     -1.02383818	      0.00000000
      0.42404155	     23.03205147	     -1.45419301	      0.00000000
      0.42522934	     22.51374570	     -1.86525268	      0.00000000
      0.42641713	     21.99474203	     -2.25714142	      0.00000000
      0.42760492	     21.47419229	     -2.63016679	      0.00000000
      0.42879271	     20.95169688	     -2.98485140	      0.00000000
      0.42998051	     20.42675420	     -3.32187409	      0.00000000
      0.43116830	     19.89922651	     -3.64199344	      0.00000000
      0.43235609	     19.36890819	     -3.94609279	      0.00000000
      0.43354388	     18.83573223	     -4.23503836	      0.00000000
      0.43473167	     18.29959064	     -4.50979055	      0.00000000
      0.43591946	     17.76029644	     -4.77123060	      0.00000000
      0.43710725	     17.21763705	     -5.02030635	      0.00000000
      0.43829505	     16.67122146	     -5.25785141	      0.00000000
      0.43948284	     16.12063358	     -5.48474295	      0.00000000
      0.44067063	     15.56530149	     -5.70173291	      0.00000000
      0.44185842	     15.00461499	     -5.90960094	      0.00000000
      0.44304621	     14.43788999	     -6.10900801	      0.00000000
      0.44423400	     13.86438596	     -6.30063204	      0.00000000
      0.44542179	     13.28336759	     -6.48504419	      0.00000000
      0.44660959	     12.69402843	     -6.66282374	      0.00000000
      0.44779738	     12.09561664	     -6.83445677	      0.00000000
      0.44898517	     11.48728812	     -7.00033549	      0.00000000
      0.45017296	     10.86829457	     -7.16082183	      0.00000000
      0.45136075	     10.23777387	     -7.31633000	      0.00000000
      0.45254854	      9.59508473	     -7.46722084	      0.00000000
      0.45373633	      8.93951445	     -7.61385325	      0.00000000
      0.45492413	      8.27062886	     -7.75654954	      0.00000000
      0.45611192	      7.58798251	     -7.89563110	      0.00000000
      0.45729971	      6.89122246	     -8.03138765	      0.00000000
      0.45848750	      6.17984237	     -8.16410189	      0.00000000
      0.45967529	      5.45347330	     -8.29403521	      0.00000000
      0.46086308	      4.71161506	     -8.42144311	      0.00000000
      0.46205087	      3.95425729	     -8.54657896	      0.00000000
      0.46323867	      3.18080104	     -8.66967317	      0.00000000
      0.46442646	      2.39223834	     -8.79100145	      0.00000000
      0.46561425	      1.58464105	     -8.91064422	      0.00000000
      0.46680204	      0.93510375	     -9.03738522	      0.00000000
      0.46798983	      0.07920958	     -9.15019504	      0.00000000
      0.46917762	     -0.78442955	     -9.26246405	      0.00000000
      0.47036541	     -1.65495169	     -9.37443507	      0.00000000
      0.47155321	     -2.53755278	     -9.48609552	      0.00000000
      0.47274100	     -3.43114736	     -9.59771169	      0.00000000
      0.47392879	     -4.33576146	     -9.70949451	      0.00000000
      0.47511658	     -5.25039372	     -9.82170119	      0.00000000
      0.47630437	     -6.17373775	     -9.93459850	      0.00000000
      0.47749216	     -7.10440395	    -10.04845021	      0.00000000
      0.47867995	     -8.04110501	    -10.16350801	      0.00000000
      0.47986775	     -8.98253089	    -10.28001561	      0.00000000
      0.48105554	     -9.92771670	    -10.39819143	      0.00000000
      0.48224333	    -10.87566055	    -10.51824738	      0.00000000
      0.48343112	    -11.82563248	    -10.64037469	      0.00000000
      0.48461891	    -12.77687363	    -10.76475956	      0.00000000
      0.48580670	    -13.72870967	    -10.89157875	      0.00000000
      0.48699449	    -14.68045719	    -11.02100420	      0.00000000
      0.48818229	    -15.63140673	    -11.15320506	      0.00000000
      0.48937008	    -16.58086275	    -11.28834484	      0.00000000
      0.49055787	    -17.52811387	    -11.42658385	      0.00000000
      0.49174566	    -18.47247297	    -11.56807668	      0.00000000
      0.49293345	    -19.41330640	    -11.71297132	      0.00000000
      0.49412124	    -20.35000205	    -11.86141136	      0.00000000
      0.49530903	    -21.28206659	    -12.01353149	      0.00000000
      0.49649683	    -22.20902175	    -12.16946430	      0.00000000
      0.49768462	    -23.13054366	    -12.32933354	      0.00000000
      0.49887241	    -24.04631891	    -12.49326359	      0.00000000
      0.50006020	    -24.95619499	    -12.66137208	      0.00000000
      0.50124799	    -25.86002776	    -12.83377999	      0.00000000
      0.50243578	    -26.75782084	    -13.01060485	      0.00000000
      0.50362358	    -27.64958468	    -13.19197004	      0.00000000
      0.50481137	    -28.53545458	    -13.37799899	      0.00000000
      0.50599916	    -29.41557028	    -13.56882310	      0.00000000
      0.50718695	    -30.29017152	    -13.76457694	      0.00000000
      0.50837474	    -31.15949899	    -13.96540466	      0.00000000
      0.50956253	    -32.02387100	    -14.17145605	      0.00000000
      0.51075032	    -32.88360254	    -14.38289148	      0.00000000
      0.51193812	    -33.73906693	    -14.59987878	      0.00000000
      0.51312591	    -34.59062964	    -14.82259689	      0.00000000
      0.51431370	    -35.43869688	    -15.05123337	      0.00000000
      0.51550149	    -36.28366292	    -15.28598701	      0.00000000
      0.51668928	    -37.12594554	    -15.52706587	      0.00000000
      0.51787707	    -37.96594735	    -15.77468888	      0.00000000
      0.51906486	    -38.80407762	    -16.02908448	      0.00000000
      0.52025266	    -39.64072847	    -16.29049128	      0.00000000
      0.52144045	    -40.47628296	    -16.55915713	      0.00000000
      0.52262824	    -41.31110623	    -16.83533906	      0.00000000
      0.52381603	    -42.14554104	    -17.11930277	      0.00000000
      0.52500382	    -42.97991235	    -17.41132185	      0.00000000
      0.52619161	    -43.81451257	    -17.71167773	      0.00000000
      0.52737940	    -44.64961713	    -18.02065838	      0.00000000
      0.52856720	    -45.48546206	    -18.33855856	      0.00000000
      0.52975499	    -46.32226782	    -18.66567819	      0.00000000
      0.53094278	    -47.16021176	    -19.00232288	      0.00000000
      0.53213057	    -47.99945753	    -19.34880207	      0.00000000
      0.53331836	    -48.84012427	    -19.70542974	      0.00000000
      0.53450615	    -49.68231985	    -20.07252250	      0.00000000
      0.53569394	    -50.52610707	    -20.45040036	      0.00000000
      0.53688174	    -51.37154036	    -20.83938484	      0.00000000
      0.53806953	    -52.21862756	    -21.23979958	      0.00000000
      0.53925732	    -53.06737135	    -21.65196872	      0.00000000
      0.54044511	    -53.91772398	    -22.07621688	      0.00000000
      0.54163290	    -54.76963577	    -22.51286809	      0.00000000
      0.54282069	    -55.62300060	    -22.96224485	      0.00000000
      0.54400848	    -56.47771255	    -23.42466761	      0.00000000
      0.54519628	    -57.33360409	    -23.90045301	      0.00000000
      0.54638407	    -58.19050754	    -24.38991394	      0.00000000
      0.54757186	    -59.04819513	    -24.89335937	      0.00000000
      0.54875965	    -59.90643434	    -25.41109288	      0.00000000
      0.54994744	    -60.76495338	    -25.94341140	      0.00000000
      0.55113523	    -61.62346730	    -26.49060755	      0.00000000
      0.55232302	    -62.48169592	    -27.05297664	      0.00000000
      0.55351082	    -63.33933812	    -27.63081610	      0.00000000
      0.55469861	    -64.19615797	    -28.22443885	      0.00000000
      0.55588640	    -65.05190203	    -28.83416864	      0.00000000
      0.55707419	    -65.90641732	    -29.46034404	      0.00000000
      0.55826198	    -66.75955591	    -30.10329581	      0.00000000
      0.55944977	    -67.61123615	    -30.76331896	      0.00000000
      0.56063756	    -68.46141178	    -31.44064877	      0.00000000
      0.56182536	    -69.31000140	    -32.13545106	      0.00000000
      0.56301315	    -70.15695450	    -32.84786722	      0.00000000
      0.56420094	    -71.00207277	    -33.57803925	      0.00000000
      0.56538873	    -71.84516138	    -34.32615509	      0.00000000
      0.56657652	    -72.68587411	    -35.09242480	      0.00000000
      0.56776431	    -73.52386738	    -35.87708574	      0.00000000
      0.56895210	    -74.35873964	    -36.68037164	      0.00000000
      0.57013990	    -75.19008939	    -37.50251388	      0.00000000
      0.57132769	    -76.01753543	    -38.34373448	      0.00000000
      0.57251548	    -76.84068613	    -39.20424469	      0.00000000
      0.57370327	    -77.65919872	    -40.08425124	      0.00000000
      0.57489106	    -78.47271439	    -40.98395083	      0.00000000
      0.57607885	    -79.28092146	    -41.90353860	      0.00000000
      0.57726664	    -80.08349263	    -42.84320196	      0.00000000
      0.57845444	    -80.88013604	    -43.80312691	      0.00000000
      0.57964223	    -81.67054690	    -44.78349371	      0.00000000
      0.58083002	    -82.45444351	    -45.78448017	      0.00000000
      0.58201781	    -83.23153407	    -46.80625986	      0.00000000
      0.58320560	    -84.00154069	    -47.84900284	      0.00000000
      0.58439339	    -84.76417809	    -48.91287615	      0.00000000
      0.58558119	    -85.51916841	    -49.99804243	      0.00000000
      0.58676898	    -86.26622966	    -51.10466003	      0.00000000
      0.58795677	    -87.00508041	    -52.23288294	      0.00000000
      0.58914456	    -87.73543461	    -53.38286432	      0.00000000
      0.59033235	    -88.45699977	    -54.55474990	      0.00000000
      0.59152014	    -89.16948077	    -55.74868409	      0.00000000
      0.59270793	    -89.87256749	    -56.96480090	      0.00000000
      0.59389573	    -90.56594809	    -58.20323267	      0.00000000
      0.59508352	    -91.24928799	    -59.46409796	      0.00000000
      0.59627131	    -91.92225129	    -60.74751265	      0.00000000
      0.59745910	    -92.58447394	    -62.05357558	      0.00000000
      0.59864689	    -93.23559187	    -63.38238186	      0.00000000
      0.59983468	    -93.87520754	    -64.73400573	      0.00000000
      0.60102247	    -94.50292610	    -66.10851677	      0.00000000
      0.60221027	    -95.11830921	    -67.50595747	      0.00000000
      0.60339806	    -95.72092520	    -68.92636451	      0.00000000
      0.60458585	    -96.31028009	    -70.36973652	      0.00000000
      0.60577364	    -96.88589116	    -71.83606393	      0.00000000
      0.60696143	    -97.44718557	    -73.32528207	      0.00000000
      0.60814922	    -97.99360667	    -74.83731327	      0.00000000
      0.60933701	    -98.52447702	    -76.37200303	      0.00000000
      0.61052481	    -99.03913946	    -77.92917531	      0.00000000
      0.61171260	    -99.53679304	    -79.50855515	      0.00000000
      0.61290039	   -100.01665988	    -81.10983331	      0.00000000
      0.61408818	   -100.47781141	    -82.73258371	      0.00000000
      0.61527597	   -100.91934430	    -84.37633001	      0.00000000
      0.61646376	   -101.34021513	    -86.04046734	      0.00000000
      0.61765155	   -101.73940664	    -87.72432174	      0.00000000
      0.61883935	   -102.11578827	    -89.42708621	      0.00000000
      0.62002714	   -102.46825721	    -91.14786488	      0.00000000
      0.62121493	   -102.79563607	    -92.88563092	      0.00000000
      0.62240272	   -103.09677684	    -94.63924838	      0.00000000
      0.62359051	   -103.37050311	    -96.40745794	      0.00000000
      0.62477830	   -103.61566904	    -98.18887094	      0.00000000
      0.62596609	   -103.83115316	    -99.98198918	      0.00000000
      0.62715389	   -104.01586822	   -101.78516795	      0.00000000
      0.62834168	   -104.16880139	   -103.59666907	      0.00000000
      0.62952947	   -104.28897533	   -105.41459172	      0.00000000
      0.63071726	   -104.37552534	   -107.23695439	      0.00000000
      0.63190505	   -104.42761548	   -109.06159386	      0.00000000
      0.63309284	   -104.44455822	   -110.88628148	      0.00000000
      0.63428063	   -104.42568295	   -112.70858753	      0.00000000
      0.63546843	   -104.37051242	   -114.52604475	      0.00000000
      0.63665622	   -104.27857857	   -116.33597574	      0.00000000
      0.63784401	   -104.14963253	   -118.13568983	      0.00000000
      0.63903180	   -103.98341864	   -119.92228013	      0.00000000
      0.64021959	   -103.77987851	   -121.69282284	      0.00000000
      0.64140738	   -103.53890200	   -123.44415260	      0.00000000
      0.64259517	   -103.26056908	   -125.17309783	      0.00000000
      0.64378297	   -102.94485045	   -126.87621283	      0.00000000
      0.64497076	   -102.59208646	   -128.55023151	      0.00000000
      0.64615855	   -102.20309267	   -130.19221809	      0.00000000
      0.64734634	   -101.77773151	   -131.79835714	      0.00000000
      0.64853413	   -101.31629959	   -133.36505537	      0.00000000
      0.64972192	   -100.81619827	   -134.88588978	      0.00000000
      0.65090971	   -100.27826108	   -136.35705925	      0.00000000
      0.65209751	    -99.70197835	   -137.77398112	      0.00000000
      0.65328530	    -99.74600192	   -139.99888564	      0.00000000
      0.65447309	    -99.11474569	   -141.32219653	      0.00000000
      0.65566088	    -98.46544733	   -142.60224308	      0.00000000
      0.65684867	    -97.78953442	   -143.82853782	      0.00000000
      0.65803646	    -97.08079141	   -144.99207786	      0.00000000
      0.65922426	    -96.33912053	   -146.09092605	      0.00000000
      0.66041205	    -95.56342932	   -147.12255653	      0.00000000
      0.66159984	    -94.75362288	   -148.08636941	      0.00000000
      0.66278763	    -93.90800807	   -148.98051216	      0.00000000
      0.66397542	    -93.02480849	   -149.80341531	      0.00000000
      0.66516321	    -92.10219840	   -150.55413781	      0.00000000
      0.66635100	    -91.13853141	   -151.23245920	      0.00000000
      0.66753880	    -90.13214394	   -151.83879149	      0.00000000
      0.66872659	    -89.08168256	   -152.37423217	      0.00000000
      0.66991438	    -87.98593490	   -152.84065960	      0.00000000
      0.67110217	    -86.84408539	   -153.24058935	      0.00000000
      0.67228996	    -85.65571466	   -153.57747046	      0.00000000
      0.67347775	    -84.42093550	   -153.85530008	      0.00000000
      0.67466554	    -83.14051664	   -154.07910085	      0.00000000
      0.67585334	    -81.81593683	   -154.25439351	      0.00000000
      0.67704113	    -80.44960052	   -154.38779871	      0.00000000
      0.67822892	    -79.04478719	   -154.48638130	      0.00000000
      0.67941671	    -77.60599079	   -154.55840646	      0.00000000
      0.68060450	    -76.13872933	   -154.61253604	      0.00000000
      0.68179229	    -74.65007135	   -154.65878864	      0.00000000
      0.68298008	    -73.14839509	   -154.70777872	      0.00000000
      0.68416788	    -71.64412294	   -154.77180714	      0.00000000
      0.68535567	    -70.14954206	   -154.86438426	      0.00000000
      0.68654346	    -68.67993647	   -155.00164021	      0.00000000
      0.68773125	    -67.25357658	   -155.20227343	      0.00000000
      0.68891904	    -65.89344172	   -155.48969071	      0.00000000
      0.69010683	    -64.62742711	   -155.89239147	      0.00000000
      0.69129462	    -63.49110705	   -156.44715373	      0.00000000
      0.69248242	    -62.52773033	   -157.19943802	      0.00000000
      0.69367021	    -61.79158685	   -158.20769115	      0.00000000
      0.69485800	    -61.34661125	   -159.54263378	      0.00000000
      0.69604579	    -61.26879303	   -161.29092023	      0.00000000
      0.69723358	    -61.64067341	   -163.55105291	      0.00000000
      0.69842137	    -62.54789252	   -166.43062901	      0.00000000
      0.69960916	    -64.07057651	   -170.03882481	      0.00000000
      0.70079696	    -66.30479989	   -174.48584963	      0.00000000
      0.70198475	    -69.28033719	   -179.83691597	      0.00000000
      0.70317254	    -72.91308971	   -186.07256466	      0.00000000
      0.70436033	    -77.10850184	   -193.12869090	      0.00000000
      0.70554812	    -81.70214248	   -200.84930994	      0.00000000
      0.70673591	    -86.47172114	   -209.00523863	      0.00000000
      0.70792370	    -91.16497824	   -217.31964155	      0.00000000
      0.70911150	    -95.56403876	   -225.53662975	      0.00000000
      0.71029929	    -99.57430133	   -233.54912154	      0.00000000
      0.71148708	   -103.20378134	   -241.32001911	      0.00000000
      0.71267487	   -106.71185274	   -249.08721238	      0.00000000
