PointPosition
version=1
nRows=601
nColumns=4
inDegrees=no
No description.
endheader
time	state_0	state_1	state_2
      0.00000000	     -0.38096291	     -0.00665476	     -0.09478690
      0.00145686	     -0.38105303	     -0.00653380	     -0.09478690
      0.00291373	     -0.38114441	     -0.00640799	     -0.09478690
      0.00437059	     -0.38123703	     -0.00627697	     -0.09478690
      0.00582746	     -0.38133091	     -0.00614039	     -0.09478690
      0.00728432	     -0.38142602	     -0.00599784	     -0.09478690
      0.00874119	     -0.38152239	     -0.00584891	     -0.09478690
      0.01019805	     -0.38161999	     -0.00569315	     -0.09478690
      0.01165492	     -0.38171884	     -0.00553007	     -0.09478690
      0.01311178	     -0.38181896	     -0.00535913	     -0.09478690
      0.01456865	     -0.38192036	     -0.00517974	     -0.09478690
      0.01602551	     -0.38202310	     -0.00499124	     -0.09478690
      0.01748237	     -0.38212723	     -0.00479298	     -0.09478690
      0.01893924	     -0.38223283	     -0.00458422	     -0.09478690
      0.02039610	     -0.38233999	     -0.00436427	     -0.09478690
      0.02185297	     -0.38244853	     -0.00413287	     -0.09478690
      0.02330983	     -0.38255808	     -0.00389017	     -0.09478690
      0.02476670	     -0.38266878	     -0.00363552	     -0.09478690
      0.02622356	     -0.38278092	     -0.00336788	     -0.09478690
      0.02768043	     -0.38289466	     -0.00308637	     -0.09478690
      0.02913729	     -0.38301020	     -0.00279014	     -0.09478690
      0.03059415	     -0.38312782	     -0.00247823	     -0.09478690
      0.03205102	     -0.38324805	     -0.00214964	     -0.09478690
      0.03350788	     -0.38337153	     -0.00180331	     -0.09478690
      0.03496475	     -0.38349935	     -0.00143837	     -0.09478690
      0.03642161	     -0.38363298	     -0.00105388	     -0.09478690
      0.03787848	     -0.38377532	     -0.00064906	     -0.09478690
      0.03933534	     -0.38393018	     -0.00022306	     -0.09478690
      0.04079221	     -0.38410752	      0.00022444	     -0.09478690
      0.04224907	     -0.38432392	      0.00069371	     -0.09478690
      0.04370594	     -0.38457920	      0.00119080	     -0.09478690
      0.04516280	     -0.38484795	      0.00172699	     -0.09478690
      0.04661966	     -0.38508924	      0.00231425	     -0.09478690
      0.04807653	     -0.38527189	      0.00295926	     -0.09478690
      0.04953339	     -0.38537306	      0.00366492	     -0.09478690
      0.05099026	     -0.38536932	      0.00443245	     -0.09478690
      0.05244712	     -0.38523899	      0.00526129	     -0.09478690
      0.05390399	     -0.38496203	      0.00614919	     -0.09478690
      0.05536085	     -0.38452202	      0.00709240	     -0.09478690
      0.05681772	     -0.38390457	      0.00808622	     -0.09478690
      0.05827458	     -0.38310004	      0.00912502	     -0.09478690
      0.05973144	     -0.38210167	      0.01020293	     -0.09478690
      0.06118831	     -0.38090930	      0.01131375	     -0.09478690
      0.06264517	     -0.37952663	      0.01245157	     -0.09478690
      0.06410204	     -0.37796375	      0.01361073	     -0.09478690
      0.06555890	     -0.37623340	      0.01478628	     -0.09478690
      0.06701577	     -0.37435128	      0.01597388	     -0.09478690
      0.06847263	     -0.37233353	      0.01716991	     -0.09478690
      0.06992950	     -0.37019588	      0.01837138	     -0.09478690
      0.07138636	     -0.36795327	      0.01957579	     -0.09478690
      0.07284323	     -0.36561874	      0.02078111	     -0.09478690
      0.07430009	     -0.36320420	      0.02198563	     -0.09478690
      0.07575695	     -0.36071936	      0.02318792	     -0.09478690
      0.07721382	     -0.35817285	      0.02438674	     -0.09478690
      0.07867068	     -0.35557134	      0.02558107	     -0.09478690
      0.08012755	     -0.35292056	      0.02676996	     -0.09478690
      0.08158441	     -0.35022465	      0.02795264	     -0.09478690
      0.08304128	     -0.34748700	      0.02912839	     -0.09478690
      0.08449814	     -0.34470981	      0.03029658	     -0.09478690
      0.08595501	     -0.34189483	      0.03145666	     -0.09478690
      0.08741187	     -0.33904306	      0.03260812	     -0.09478690
      0.08886873	     -0.33615526	      0.03375051	     -0.09478690
      0.09032560	     -0.33323182	      0.03488341	     -0.09478690
      0.09178246	     -0.33027301	      0.03600643	     -0.09478690
      0.09323933	     -0.32727895	      0.03711923	     -0.09478690
      0.09469619	     -0.32424971	      0.03822148	     -0.09478690
      0.09615306	     -0.32118532	      0.03931287	     -0.09478690
      0.09760992	     -0.31808582	      0.04039312	     -0.09478690
      0.09906679	     -0.31495128	      0.04146195	     -0.09478690
      0.10052365	     -0.31178181	      0.04251911	     -0.09478690
      0.10198052	     -0.30857758	      0.04356436	     -0.09478690
      0.10343738	     -0.30533880	      0.04459747	     -0.09478690
      0.10489424	     -0.30206578	      0.04561822	     -0.09478690
      0.10635111	     -0.29875881	      0.04662639	     -0.09478690
      0.10780797	     -0.29541832	      0.04762179	     -0.09478690
      0.10926484	     -0.29204475	      0.04860422	     -0.09478690
      0.11072170	     -0.28863862	      0.04957348	     -0.09478690
      0.11217857	     -0.28520052	      0.05052938	     -0.09478690
      0.11363543	     -0.28173104	      0.05147173	     -0.09478690
      0.11509230	     -0.27823074	      0.05240037	     -0.09478690
      0.11654916	     -0.27470010	      0.05331512	     -0.09478690
      0.11800602	     -0.27113961	      0.05421583	     -0.09478690
      0.11946289	     -0.26754939	      0.05510236	     -0.09478690
      0.12091975	     -0.26392932	      0.05597460	     -0.09478690
      0.12237662	     -0.26027954	      0.05683243	     -0.09478690
      0.12383348	     -0.25660036	      0.05767577	     -0.09478690
      0.12529035	     -0.25289202	      0.05850451	     -0.09478690
      0.12674721	     -0.24915475	      0.05931858	     -0.09478690
      0.12820408	     -0.24538876	      0.06011789	     -0.09478690
      0.12966094	     -0.24159418	      0.06090238	     -0.09478690
      0.13111781	     -0.23777114	      0.06167198	     -0.09478690
      0.13257467	     -0.23391975	      0.06242662	     -0.09478690
      0.13403153	     -0.23004020	      0.06316623	     -0.09478690
      0.13548840	     -0.22613265	      0.06389073	     -0.09478690
      0.13694526	     -0.22219730	      0.06460006	     -0.09478690
      0.13840213	     -0.21823433	      0.06529414	     -0.09478690
      0.13985899	     -0.21424394	      0.06597289	     -0.09478690
      0.14131586	     -0.21022636	      0.06663624	     -0.09478690
      0.14277272	     -0.20618181	      0.06728409	     -0.09478690
      0.14422959	     -0.20211055	      0.06791635	     -0.09478690
      0.14568645	     -0.19801281	      0.06853295	     -0.09478690
      0.14714331	     -0.19388882	      0.06913379	     -0.09478690
      0.14860018	     -0.18973879	      0.06971878	     -0.09478690
      0.15005704	     -0.18556293	      0.07028784	     -0.09478690
      0.15151391	     -0.18136143	      0.07084089	     -0.09478690
      0.15297077	     -0.17713452	      0.07137782	     -0.09478690
      0.15442764	     -0.17288243	      0.07189856	     -0.09478690
      0.15588450	     -0.16860539	      0.07240300	     -0.09478690
      0.15734137	     -0.16430364	      0.07289106	     -0.09478690
      0.15879823	     -0.15997740	      0.07336265	     -0.09478690
      0.16025510	     -0.15562690	      0.07381767	     -0.09478690
      0.16171196	     -0.15125234	      0.07425604	     -0.09478690
      0.16316882	     -0.14685391	      0.07467767	     -0.09478690
      0.16462569	     -0.14243182	      0.07508250	     -0.09478690
      0.16608255	     -0.13798623	      0.07547045	     -0.09478690
      0.16753942	     -0.13351732	      0.07584146	     -0.09478690
      0.16899628	     -0.12902527	      0.07619545	     -0.09478690
      0.17045315	     -0.12451024	      0.07653238	     -0.09478690
      0.17191001	     -0.11997237	      0.07685220	     -0.09478690
      0.17336688	     -0.11541183	      0.07715486	     -0.09478690
      0.17482374	     -0.11082874	      0.07744033	     -0.09478690
      0.17628060	     -0.10622324	      0.07770858	     -0.09478690
      0.17773747	     -0.10159548	      0.07795958	     -0.09478690
      0.17919433	     -0.09694558	      0.07819330	     -0.09478690
      0.18065120	     -0.09227368	      0.07840973	     -0.09478690
      0.18210806	     -0.08757992	      0.07860885	     -0.09478690
      0.18356493	     -0.08286443	      0.07879066	     -0.09478690
      0.18502179	     -0.07812734	      0.07895515	     -0.09478690
      0.18647866	     -0.07336877	      0.07910232	     -0.09478690
      0.18793552	     -0.06858883	      0.07923218	     -0.09478690
      0.18939239	     -0.06378765	      0.07934474	     -0.09478690
      0.19084925	     -0.05896531	      0.07944003	     -0.09478690
      0.19230611	     -0.05412192	      0.07951807	     -0.09478690
      0.19376298	     -0.04925757	      0.07957891	     -0.09478690
      0.19521984	     -0.04437234	      0.07962257	     -0.09478690
      0.19667671	     -0.03946630	      0.07964911	     -0.09478690
      0.19813357	     -0.03453953	      0.07965859	     -0.09478690
      0.19959044	     -0.02959207	      0.07965108	     -0.09478690
      0.20104730	     -0.02462397	      0.07962664	     -0.09478690
      0.20250417	     -0.01963528	      0.07958537	     -0.09478690
      0.20396103	     -0.01462603	      0.07952735	     -0.09478690
      0.20541789	     -0.00959627	      0.07945267	     -0.09478690
      0.20687476	     -0.00454602	      0.07936144	     -0.09478690
      0.20833162	      0.00052466	      0.07925378	     -0.09478690
      0.20978849	      0.00561575	      0.07912979	     -0.09478690
      0.21124535	      0.01072720	      0.07898959	     -0.09478690
      0.21270222	      0.01585896	      0.07883332	     -0.09478690
      0.21415908	      0.02101099	      0.07866111	     -0.09478690
      0.21561595	      0.02618324	      0.07847309	     -0.09478690
      0.21707281	      0.03137567	      0.07826943	     -0.09478690
      0.21852968	      0.03658824	      0.07805027	     -0.09478690
      0.21998654	      0.04182088	      0.07781577	     -0.09478690
      0.22144340	      0.04707355	      0.07756610	     -0.09478690
      0.22290027	      0.05234621	      0.07730144	     -0.09478690
      0.22435713	      0.05763878	      0.07702196	     -0.09478690
      0.22581400	      0.06295123	      0.07672784	     -0.09478690
      0.22727086	      0.06828348	      0.07641929	     -0.09478690
      0.22872773	      0.07363548	      0.07609648	     -0.09478690
      0.23018459	      0.07900716	      0.07575963	     -0.09478690
      0.23164146	      0.08439846	      0.07540894	     -0.09478690
      0.23309832	      0.08980932	      0.07504461	     -0.09478690
      0.23455519	      0.09523968	      0.07466688	     -0.09478690
      0.23601205	      0.10068949	      0.07427597	     -0.09478690
      0.23746891	      0.10615869	      0.07387211	     -0.09478690
      0.23892578	      0.11164725	      0.07345556	     -0.09478690
      0.24038264	      0.11715516	      0.07302656	     -0.09478690
      0.24183951	      0.12268239	      0.07258540	     -0.09478690
      0.24329637	      0.12822893	      0.07213233	     -0.09478690
      0.24475324	      0.13379478	      0.07166765	     -0.09478690
      0.24621010	      0.13937991	      0.07119164	     -0.09478690
      0.24766697	      0.14498431	      0.07070460	     -0.09478690
      0.24912383	      0.15060795	      0.07020680	     -0.09478690
      0.25058069	      0.15625082	      0.06969855	     -0.09478690
      0.25203756	      0.16191290	      0.06918016	     -0.09478690
      0.25349442	      0.16759415	      0.06865194	     -0.09478690
      0.25495129	      0.17329457	      0.06811418	     -0.09478690
      0.25640815	      0.17901412	      0.06756722	     -0.09478690
      0.25786502	      0.18475277	      0.06701137	     -0.09478690
      0.25932188	      0.19051047	      0.06644693	     -0.09478690
      0.26077875	      0.19628718	      0.06587423	     -0.09478690
      0.26223561	      0.20208282	      0.06529358	     -0.09478690
      0.26369248	      0.20789735	      0.06470530	     -0.09478690
      0.26514934	      0.21373071	      0.06410971	     -0.09478690
      0.26660620	      0.21958282	      0.06350715	     -0.09478690
      0.26806307	      0.22545364	      0.06289793	     -0.09478690
      0.26951993	      0.23134309	      0.06228239	     -0.09478690
      0.27097680	      0.23725109	      0.06166087	     -0.09478690
      0.27243366	      0.24317755	      0.06103370	     -0.09478690
      0.27389053	      0.24912238	      0.06040121	     -0.09478690
      0.27534739	      0.25508548	      0.05976373	     -0.09478690
      0.27680426	      0.26106673	      0.05912160	     -0.09478690
      0.27826112	      0.26706603	      0.05847518	     -0.09478690
      0.27971798	      0.27308325	      0.05782482	     -0.09478690
      0.28117485	      0.27911829	      0.05717086	     -0.09478690
      0.28263171	      0.28517099	      0.05651368	     -0.09478690
      0.28408858	      0.29124123	      0.05585364	     -0.09478690
      0.28554544	      0.29732885	      0.05519113	     -0.09478690
      0.28700231	      0.30343371	      0.05452653	     -0.09478690
      0.28845917	      0.30955566	      0.05386026	     -0.09478690
      0.28991604	      0.31569455	      0.05319273	     -0.09478690
      0.29137290	      0.32185019	      0.05252437	     -0.09478690
      0.29282977	      0.32802240	      0.05185563	     -0.09478690
      0.29428663	      0.33421097	      0.05118692	     -0.09478690
      0.29574349	      0.34041566	      0.05051868	     -0.09478690
      0.29720036	      0.34663619	      0.04985134	     -0.09478690
      0.29865722	      0.35287228	      0.04918532	     -0.09478690
      0.30011409	      0.35912362	      0.04852105	     -0.09478690
      0.30157095	      0.36538989	      0.04785896	     -0.09478690
      0.30302782	      0.37167079	      0.04719952	     -0.09478690
      0.30448468	      0.37796600	      0.04654319	     -0.09478690
      0.30594155	      0.38427520	      0.04589048	     -0.09478690
      0.30739841	      0.39059806	      0.04524186	     -0.09478690
      0.30885527	      0.39693421	      0.04459782	     -0.09478690
      0.31031214	      0.40328330	      0.04395884	     -0.09478690
      0.31176900	      0.40964493	      0.04332539	     -0.09478690
      0.31322587	      0.41601872	      0.04269795	     -0.09478690
      0.31468273	      0.42240425	      0.04207699	     -0.09478690
      0.31613960	      0.42880109	      0.04146297	     -0.09478690
      0.31759646	      0.43520878	      0.04085627	     -0.09478690
      0.31905333	      0.44162679	      0.04025725	     -0.09478690
      0.32051019	      0.44805462	      0.03966629	     -0.09478690
      0.32196706	      0.45449183	      0.03908380	     -0.09478690
      0.32342392	      0.46093801	      0.03851026	     -0.09478690
      0.32488078	      0.46739274	      0.03794615	     -0.09478690
      0.32633765	      0.47385546	      0.03739174	     -0.09478690
      0.32779451	      0.48032544	      0.03684710	     -0.09478690
      0.32925138	      0.48680201	      0.03631231	     -0.09478690
      0.33070824	      0.49328471	      0.03578775	     -0.09478690
      0.33216511	      0.49977298	      0.03527368	     -0.09478690
      0.33362197	      0.50626606	      0.03477013	     -0.09478690
      0.33507884	      0.51276335	      0.03427731	     -0.09478690
      0.33653570	      0.51926436	      0.03379556	     -0.09478690
      0.33799256	      0.52576856	      0.03332511	     -0.09478690
      0.33944943	      0.53227540	      0.03286624	     -0.09478690
      0.34090629	      0.53878432	      0.03241910	     -0.09478690
      0.34236316	      0.54529467	      0.03198380	     -0.09478690
      0.34382002	      0.55180579	      0.03156033	     -0.09478690
      0.34527689	      0.55831698	      0.03114863	     -0.09478690
      0.34673375	      0.56482755	      0.03074864	     -0.09478690
      0.34819062	      0.57133683	      0.03036031	     -0.09478690
      0.34964748	      0.57784418	      0.02998363	     -0.09478690
      0.35110435	      0.58434897	      0.02961857	     -0.09478690
      0.35256121	      0.59085059	      0.02926517	     -0.09478690
      0.35401807	      0.59734843	      0.02892342	     -0.09478690
      0.35547494	      0.60384189	      0.02859336	     -0.09478690
      0.35693180	      0.61033037	      0.02827499	     -0.09478690
      0.35838867	      0.61681329	      0.02796838	     -0.09478690
      0.35984553	      0.62329006	      0.02767355	     -0.09478690
      0.36130240	      0.62976009	      0.02739058	     -0.09478690
      0.36275926	      0.63622281	      0.02711955	     -0.09478690
      0.36421613	      0.64267766	      0.02686055	     -0.09478690
      0.36567299	      0.64912407	      0.02661370	     -0.09478690
      0.36712985	      0.65556149	      0.02637914	     -0.09478690
      0.36858672	      0.66198937	      0.02615705	     -0.09478690
      0.37004358	      0.66840716	      0.02594762	     -0.09478690
      0.37150045	      0.67481436	      0.02575111	     -0.09478690
      0.37295731	      0.68121043	      0.02556782	     -0.09478690
      0.37441418	      0.68759490	      0.02539812	     -0.09478690
      0.37587104	      0.69396730	      0.02524248	     -0.09478690
      0.37732791	      0.70032717	      0.02510145	     -0.09478690
      0.37878477	      0.70667412	      0.02497573	     -0.09478690
      0.38024164	      0.71300775	      0.02486610	     -0.09478690
      0.38169850	      0.71932770	      0.02477355	     -0.09478690
      0.38315536	      0.72563362	      0.02469912	     -0.09478690
      0.38461223	      0.73192521	      0.02464404	     -0.09478690
      0.38606909	      0.73820211	      0.02460958	     -0.09478690
      0.38752596	      0.74446398	      0.02459711	     -0.09478690
      0.38898282	      0.75071045	      0.02460801	     -0.09478690
      0.39043969	      0.75694106	      0.02464367	     -0.09478690
      0.39189655	      0.76315529	      0.02470541	     -0.09478690
      0.39335342	      0.76935243	      0.02479447	     -0.09478690
      0.39481028	      0.77553169	      0.02491199	     -0.09478690
      0.39626714	      0.78169197	      0.02505894	     -0.09478690
      0.39772401	      0.78783202	      0.02523620	     -0.09478690
      0.39918087	      0.79395019	      0.02544445	     -0.09478690
      0.40063774	      0.80004461	      0.02568422	     -0.09478690
      0.40209460	      0.80611293	      0.02595570	     -0.09478690
      0.40355147	      0.81215253	      0.02625884	     -0.09478690
      0.40500833	      0.81816030	      0.02659311	     -0.09478690
      0.40646520	      0.82413288	      0.02695767	     -0.09478690
      0.40792206	      0.83006654	      0.02735127	     -0.09478690
      0.40937893	      0.83595741	      0.02777244	     -0.09478690
      0.41083579	      0.84180141	      0.02821949	     -0.09478690
      0.41229265	      0.84759445	      0.02869052	     -0.09478690
      0.41374952	      0.85333245	      0.02918316	     -0.09478690
      0.41520638	      0.85901140	      0.02969456	     -0.09478690
      0.41666325	      0.86462747	      0.03022097	     -0.09478690
      0.41812011	      0.87017700	      0.03075810	     -0.09478690
      0.41957698	      0.87565667	      0.03130127	     -0.09478690
      0.42103384	      0.88106345	      0.03184594	     -0.09478690
      0.42249071	      0.88639483	      0.03238848	     -0.09478690
      0.42394757	      0.89164863	      0.03292603	     -0.09478690
      0.42540443	      0.89682316	      0.03345727	     -0.09478690
      0.42686130	      0.90191695	      0.03398167	     -0.09478690
      0.42831816	      0.90692875	      0.03449983	     -0.09478690
      0.42977503	      0.91185738	      0.03501279	     -0.09478690
      0.43123189	      0.91670163	      0.03552222	     -0.09478690
      0.43268876	      0.92146021	      0.03602998	     -0.09478690
      0.43414562	      0.92613157	      0.03653718	     -0.09478690
      0.43560249	      0.93071393	      0.03704396	     -0.09478690
      0.43705935	      0.93520503	      0.03754847	     -0.09478690
      0.43851622	      0.93960237	      0.03804780	     -0.09478690
      0.43997308	      0.94390283	      0.03853824	     -0.09478690
      0.44142994	      0.94810298	      0.03901618	     -0.09478690
      0.44288681	      0.95219830	      0.03947711	     -0.09478690
      0.44434367	      0.95618359	      0.03991552	     -0.09478690
      0.44580054	      0.96005171	      0.04032229	     -0.09478690
      0.44725740	      0.96379440	      0.04068570	     -0.09478690
      0.44871427	      0.96740035	      0.04098964	     -0.09478690
      0.45017113	      0.97085654	      0.04121593	     -0.09478690
      0.45162800	      0.97414552	      0.04134187	     -0.09478690
      0.45308486	      0.97724728	      0.04134214	     -0.09478690
      0.45454172	      0.98013619	      0.04118500	     -0.09478690
      0.45599859	      0.98278355	      0.04083498	     -0.09478690
      0.45745545	      0.98515570	      0.04025225	     -0.09478690
      0.45891232	      0.98721671	      0.03939641	     -0.09478690
      0.46036918	      0.98893084	      0.03823290	     -0.09478690
      0.46182605	      0.99026386	      0.03673403	     -0.09478690
      0.46328291	      0.99119362	      0.03488980	     -0.09478690
      0.46473978	      0.99175776	      0.03277855	     -0.09478690
      0.46619664	      0.99212675	      0.03063867	     -0.09478690
      0.46765351	      0.99243649	      0.02861862	     -0.09478690
      0.46911037	      0.99271059	      0.02668606	     -0.09478690
      0.47056723	      0.99296314	      0.02480865	     -0.09478690
      0.47202410	      0.99320230	      0.02296877	     -0.09478690
      0.47348096	      0.99343296	      0.02115603	     -0.09478690
      0.47493783	      0.99365606	      0.01937221	     -0.09478690
      0.47639469	      0.99387126	      0.01762361	     -0.09478690
      0.47785156	      0.99407687	      0.01592247	     -0.09478690
      0.47930842	      0.99427131	      0.01428324	     -0.09478690
      0.48076529	      0.99445083	      0.01274444	     -0.09478690
      0.48222215	      0.99460946	      0.01136271	     -0.09478690
      0.48367902	      0.99474198	      0.01018017	     -0.09478690
      0.48513588	      0.99484710	      0.00920979	     -0.09478690
      0.48659274	      0.99492908	      0.00842816	     -0.09478690
      0.48804961	      0.99499297	      0.00780520	     -0.09478690
      0.48950647	      0.99504353	      0.00731074	     -0.09478690
      0.49096334	      0.99508464	      0.00691895	     -0.09478690
      0.49242020	      0.99511890	      0.00661127	     -0.09478690
      0.49387707	      0.99514832	      0.00637241	     -0.09478690
      0.49533393	      0.99517410	      0.00619197	     -0.09478690
      0.49679080	      0.99519719	      0.00606118	     -0.09478690
      0.49824766	      0.99521813	      0.00597371	     -0.09478690
      0.49970452	      0.99523737	      0.00592404	     -0.09478690
      0.50116139	      0.99525516	      0.00590792	     -0.09478690
      0.50261825	      0.99527173	      0.00592150	     -0.09478690
      0.50407512	      0.99528720	      0.00596171	     -0.09478690
      0.50553198	      0.99530167	      0.00602571	     -0.09478690
      0.50698885	      0.99531519	      0.00611115	     -0.09478690
      0.50844571	      0.99532782	      0.00621585	     -0.09478690
      0.50990258	      0.99533958	      0.00633793	     -0.09478690
      0.51135944	      0.99535048	      0.00647561	     -0.09478690
      0.51281631	      0.99536054	      0.00662731	     -0.09478690
      0.51427317	      0.99536976	      0.00679154	     -0.09478690
      0.51573003	      0.99537817	      0.00696693	     -0.09478690
      0.51718690	      0.99538577	      0.00715217	     -0.09478690
      0.51864376	      0.99539259	      0.00734602	     -0.09478690
      0.52010063	      0.99539863	      0.00754732	     -0.09478690
      0.52155749	      0.99540392	      0.00775498	     -0.09478690
      0.52301436	      0.99540849	      0.00796798	     -0.09478690
      0.52447122	      0.99541235	      0.00818535	     -0.09478690
      0.52592809	      0.99541553	      0.00840621	     -0.09478690
      0.52738495	      0.99541807	      0.00862974	     -0.09478690
      0.52884181	      0.99541998	      0.00885515	     -0.09478690
      0.53029868	      0.99542129	      0.00908175	     -0.09478690
      0.53175554	      0.99542203	      0.00930882	     -0.09478690
      0.53321241	      0.99542225	      0.00953567	     -0.09478690
      0.53466927	      0.99542199	      0.00976158	     -0.09478690
      0.53612614	      0.99542130	      0.00998580	     -0.09478690
      0.53758300	      0.99542027	      0.01020756	     -0.09478690
      0.53903987	      0.99541899	      0.01042603	     -0.09478690
      0.54049673	      0.99541756	      0.01064039	     -0.09478690
      0.54195360	      0.99541608	      0.01084983	     -0.09478690
      0.54341046	      0.99541466	      0.01105361	     -0.09478690
      0.54486732	      0.99541339	      0.01125115	     -0.09478690
      0.54632419	      0.99541236	      0.01144197	     -0.09478690
      0.54778105	      0.99541161	      0.01162584	     -0.09478690
      0.54923792	      0.99541115	      0.01180268	     -0.09478690
      0.55069478	      0.99541097	      0.01197258	     -0.09478690
      0.55215165	      0.99541105	      0.01213574	     -0.09478690
      0.55360851	      0.99541132	      0.01229251	     -0.09478690
      0.55506538	      0.99541171	      0.01244325	     -0.09478690
      0.55652224	      0.99541214	      0.01258843	     -0.09478690
      0.55797910	      0.99541253	      0.01272860	     -0.09478690
      0.55943597	      0.99541275	      0.01286442	     -0.09478690
      0.56089283	      0.99541269	      0.01299663	     -0.09478690
      0.56234970	      0.99541220	      0.01312606	     -0.09478690
      0.56380656	      0.99541114	      0.01325353	     -0.09478690
      0.56526343	      0.99540935	      0.01337978	     -0.09478690
      0.56672029	      0.99540670	      0.01350539	     -0.09478690
      0.56817716	      0.99540309	      0.01363058	     -0.09478690
      0.56963402	      0.99539847	      0.01375532	     -0.09478690
      0.57109089	      0.99539288	      0.01387909	     -0.09478690
      0.57254775	      0.99538637	      0.01400110	     -0.09478690
      0.57400461	      0.99537911	      0.01412019	     -0.09478690
      0.57546148	      0.99537130	      0.01423507	     -0.09478690
      0.57691834	      0.99536316	      0.01434429	     -0.09478690
      0.57837521	      0.99535494	      0.01444642	     -0.09478690
      0.57983207	      0.99534691	      0.01454001	     -0.09478690
      0.58128894	      0.99533931	      0.01462365	     -0.09478690
      0.58274580	      0.99533238	      0.01469582	     -0.09478690
      0.58420267	      0.99532640	      0.01475494	     -0.09478690
      0.58565953	      0.99532163	      0.01479916	     -0.09478690
      0.58711639	      0.99531837	      0.01482653	     -0.09478690
      0.58857326	      0.99531695	      0.01483512	     -0.09478690
      0.59003012	      0.99531768	      0.01482314	     -0.09478690
      0.59148699	      0.99532081	      0.01478948	     -0.09478690
      0.59294385	      0.99532653	      0.01473360	     -0.09478690
      0.59440072	      0.99533487	      0.01465610	     -0.09478690
      0.59585758	      0.99534573	      0.01455818	     -0.09478690
      0.59731445	      0.99535885	      0.01444171	     -0.09478690
      0.59877131	      0.99537391	      0.01430858	     -0.09478690
      0.60022818	      0.99539057	      0.01416030	     -0.09478690
      0.60168504	      0.99540854	      0.01399790	     -0.09478690
      0.60314190	      0.99542763	      0.01382156	     -0.09478690
      0.60459877	      0.99544774	      0.01363108	     -0.09478690
      0.60605563	      0.99546889	      0.01342578	     -0.09478690
      0.60751250	      0.99549113	      0.01320493	     -0.09478690
      0.60896936	      0.99551455	      0.01296839	     -0.09478690
      0.61042623	      0.99553917	      0.01271646	     -0.09478690
      0.61188309	      0.99556494	      0.01244942	     -0.09478690
      0.61333996	      0.99559179	      0.01216714	     -0.09478690
      0.61479682	      0.99561973	      0.01186876	     -0.09478690
      0.61625368	      0.99564889	      0.01155319	     -0.09478690
      0.61771055	      0.99567946	      0.01122032	     -0.09478690
      0.61916741	      0.99571160	      0.01087110	     -0.09478690
      0.62062428	      0.99574520	      0.01050770	     -0.09478690
      0.62208114	      0.99578008	      0.01013263	     -0.09478690
      0.62353801	      0.99581592	      0.00974849	     -0.09478690
      0.62499487	      0.99585240	      0.00935769	     -0.09478690
      0.62645174	      0.99588923	      0.00896228	     -0.09478690
      0.62790860	      0.99592615	      0.00856407	     -0.09478690
      0.62936547	      0.99596296	      0.00816452	     -0.09478690
      0.63082233	      0.99599949	      0.00776492	     -0.09478690
      0.63227919	      0.99603562	      0.00736625	     -0.09478690
      0.63373606	      0.99607125	      0.00696936	     -0.09478690
      0.63519292	      0.99610632	      0.00657491	     -0.09478690
      0.63664979	      0.99614076	      0.00618345	     -0.09478690
      0.63810665	      0.99617457	      0.00579537	     -0.09478690
      0.63956352	      0.99620770	      0.00541105	     -0.09478690
      0.64102038	      0.99624016	      0.00503073	     -0.09478690
      0.64247725	      0.99627194	      0.00465464	     -0.09478690
      0.64393411	      0.99630305	      0.00428295	     -0.09478690
      0.64539097	      0.99633348	      0.00391580	     -0.09478690
      0.64684784	      0.99636325	      0.00355331	     -0.09478690
      0.64830470	      0.99639237	      0.00319555	     -0.09478690
      0.64976157	      0.99642084	      0.00284262	     -0.09478690
      0.65121843	      0.99644868	      0.00249455	     -0.09478690
      0.65267530	      0.99647590	      0.00215141	     -0.09478690
      0.65413216	      0.99650251	      0.00181322	     -0.09478690
      0.65558903	      0.99652852	      0.00148002	     -0.09478690
      0.65704589	      0.99655395	      0.00115182	     -0.09478690
      0.65850276	      0.99657879	      0.00082866	     -0.09478690
      0.65995962	      0.99660307	      0.00051053	     -0.09478690
      0.66141648	      0.99662680	      0.00019745	     -0.09478690
      0.66287335	      0.99664997	     -0.00011058	     -0.09478690
      0.66433021	      0.99667261	     -0.00041355	     -0.09478690
      0.66578708	      0.99669472	     -0.00071148	     -0.09478690
      0.66724394	      0.99671631	     -0.00100437	     -0.09478690
      0.66870081	      0.99673738	     -0.00129222	     -0.09478690
      0.67015767	      0.99675795	     -0.00157505	     -0.09478690
      0.67161454	      0.99677803	     -0.00185287	     -0.09478690
      0.67307140	      0.99679761	     -0.00212570	     -0.09478690
      0.67452826	      0.99681671	     -0.00239354	     -0.09478690
      0.67598513	      0.99683533	     -0.00265643	     -0.09478690
      0.67744199	      0.99685348	     -0.00291437	     -0.09478690
      0.67889886	      0.99687117	     -0.00316740	     -0.09478690
      0.68035572	      0.99688840	     -0.00341553	     -0.09478690
      0.68181259	      0.99690517	     -0.00365879	     -0.09478690
      0.68326945	      0.99692150	     -0.00389721	     -0.09478690
      0.68472632	      0.99693738	     -0.00413080	     -0.09478690
      0.68618318	      0.99695281	     -0.00435960	     -0.09478690
      0.68764005	      0.99696781	     -0.00458362	     -0.09478690
      0.68909691	      0.99698237	     -0.00480290	     -0.09478690
      0.69055377	      0.99699649	     -0.00501745	     -0.09478690
      0.69201064	      0.99701018	     -0.00522730	     -0.09478690
      0.69346750	      0.99702344	     -0.00543247	     -0.09478690
      0.69492437	      0.99703626	     -0.00563297	     -0.09478690
      0.69638123	      0.99704864	     -0.00582884	     -0.09478690
      0.69783810	      0.99706059	     -0.00602008	     -0.09478690
      0.69929496	      0.99707208	     -0.00620672	     -0.09478690
      0.70075183	      0.99708313	     -0.00638878	     -0.09478690
      0.70220869	      0.99709373	     -0.00656627	     -0.09478690
      0.70366556	      0.99710385	     -0.00673922	     -0.09478690
      0.70512242	      0.99711351	     -0.00690764	     -0.09478690
      0.70657928	      0.99712268	     -0.00707156	     -0.09478690
      0.70803615	      0.99713135	     -0.00723100	     -0.09478690
      0.70949301	      0.99713952	     -0.00738597	     -0.09478690
      0.71094988	      0.99714715	     -0.00753650	     -0.09478690
      0.71240674	      0.99715424	     -0.00768262	     -0.09478690
      0.71386361	      0.99716076	     -0.00782435	     -0.09478690
      0.71532047	      0.99716669	     -0.00796172	     -0.09478690
      0.71677734	      0.99717201	     -0.00809474	     -0.09478690
      0.71823420	      0.99717669	     -0.00822346	     -0.09478690
      0.71969106	      0.99718071	     -0.00834791	     -0.09478690
      0.72114793	      0.99718403	     -0.00846810	     -0.09478690
      0.72260479	      0.99718664	     -0.00858408	     -0.09478690
      0.72406166	      0.99718851	     -0.00869589	     -0.09478690
      0.72551852	      0.99718962	     -0.00880355	     -0.09478690
      0.72697539	      0.99718997	     -0.00890712	     -0.09478690
      0.72843225	      0.99718953	     -0.00900663	     -0.09478690
      0.72988912	      0.99718832	     -0.00910213	     -0.09478690
      0.73134598	      0.99718631	     -0.00919367	     -0.09478690
      0.73280285	      0.99718351	     -0.00928131	     -0.09478690
      0.73425971	      0.99717992	     -0.00936509	     -0.09478690
      0.73571657	      0.99717554	     -0.00944507	     -0.09478690
      0.73717344	      0.99717036	     -0.00952131	     -0.09478690
      0.73863030	      0.99716437	     -0.00959386	     -0.09478690
      0.74008717	      0.99715758	     -0.00966279	     -0.09478690
      0.74154403	      0.99714998	     -0.00972815	     -0.09478690
      0.74300090	      0.99714157	     -0.00979000	     -0.09478690
      0.74445776	      0.99713235	     -0.00984841	     -0.09478690
      0.74591463	      0.99712231	     -0.00990344	     -0.09478690
      0.74737149	      0.99711147	     -0.00995514	     -0.09478690
      0.74882835	      0.99709982	     -0.01000360	     -0.09478690
      0.75028522	      0.99708736	     -0.01004886	     -0.09478690
      0.75174208	      0.99707410	     -0.01009100	     -0.09478690
      0.75319895	      0.99706003	     -0.01013007	     -0.09478690
      0.75465581	      0.99704516	     -0.01016614	     -0.09478690
      0.75611268	      0.99702949	     -0.01019927	     -0.09478690
      0.75756954	      0.99701301	     -0.01022953	     -0.09478690
      0.75902641	      0.99699573	     -0.01025698	     -0.09478690
      0.76048327	      0.99697765	     -0.01028168	     -0.09478690
      0.76194014	      0.99695878	     -0.01030369	     -0.09478690
      0.76339700	      0.99693911	     -0.01032308	     -0.09478690
      0.76485386	      0.99691866	     -0.01033990	     -0.09478690
      0.76631073	      0.99689742	     -0.01035421	     -0.09478690
      0.76776759	      0.99687539	     -0.01036606	     -0.09478690
      0.76922446	      0.99685257	     -0.01037550	     -0.09478690
      0.77068132	      0.99682896	     -0.01038259	     -0.09478690
      0.77213819	      0.99680456	     -0.01038737	     -0.09478690
      0.77359505	      0.99677937	     -0.01038990	     -0.09478690
      0.77505192	      0.99675340	     -0.01039022	     -0.09478690
      0.77650878	      0.99672664	     -0.01038839	     -0.09478690
      0.77796564	      0.99669910	     -0.01038443	     -0.09478690
      0.77942251	      0.99667077	     -0.01037841	     -0.09478690
      0.78087937	      0.99664166	     -0.01037035	     -0.09478690
      0.78233624	      0.99661176	     -0.01036030	     -0.09478690
      0.78379310	      0.99658107	     -0.01034830	     -0.09478690
      0.78524997	      0.99654960	     -0.01033439	     -0.09478690
      0.78670683	      0.99651733	     -0.01031859	     -0.09478690
      0.78816370	      0.99648427	     -0.01030095	     -0.09478690
      0.78962056	      0.99645043	     -0.01028149	     -0.09478690
      0.79107743	      0.99641579	     -0.01026025	     -0.09478690
      0.79253429	      0.99638037	     -0.01023726	     -0.09478690
      0.79399115	      0.99634415	     -0.01021255	     -0.09478690
      0.79544802	      0.99630715	     -0.01018615	     -0.09478690
      0.79690488	      0.99626935	     -0.01015809	     -0.09478690
      0.79836175	      0.99623076	     -0.01012840	     -0.09478690
      0.79981861	      0.99619136	     -0.01009711	     -0.09478690
      0.80127548	      0.99615117	     -0.01006424	     -0.09478690
      0.80273234	      0.99611017	     -0.01002982	     -0.09478690
      0.80418921	      0.99606835	     -0.00999387	     -0.09478690
      0.80564607	      0.99602572	     -0.00995641	     -0.09478690
      0.80710293	      0.99598226	     -0.00991747	     -0.09478690
      0.80855980	      0.99593797	     -0.00987706	     -0.09478690
      0.81001666	      0.99589284	     -0.00983521	     -0.09478690
      0.81147353	      0.99584688	     -0.00979194	     -0.09478690
      0.81293039	      0.99580006	     -0.00974727	     -0.09478690
      0.81438726	      0.99575240	     -0.00970123	     -0.09478690
      0.81584412	      0.99570388	     -0.00965383	     -0.09478690
      0.81730099	      0.99565449	     -0.00960511	     -0.09478690
      0.81875785	      0.99560424	     -0.00955509	     -0.09478690
      0.82021472	      0.99555312	     -0.00950378	     -0.09478690
      0.82167158	      0.99550112	     -0.00945121	     -0.09478690
      0.82312844	      0.99544824	     -0.00939740	     -0.09478690
      0.82458531	      0.99539447	     -0.00934237	     -0.09478690
      0.82604217	      0.99533980	     -0.00928614	     -0.09478690
      0.82749904	      0.99528424	     -0.00922873	     -0.09478690
      0.82895590	      0.99522776	     -0.00917015	     -0.09478690
      0.83041277	      0.99517037	     -0.00911041	     -0.09478690
      0.83186963	      0.99511204	     -0.00904952	     -0.09478690
      0.83332650	      0.99505279	     -0.00898750	     -0.09478690
      0.83478336	      0.99499260	     -0.00892435	     -0.09478690
      0.83624022	      0.99493147	     -0.00886009	     -0.09478690
      0.83769709	      0.99486940	     -0.00879471	     -0.09478690
      0.83915395	      0.99480638	     -0.00872821	     -0.09478690
      0.84061082	      0.99474240	     -0.00866059	     -0.09478690
      0.84206768	      0.99467746	     -0.00859183	     -0.09478690
      0.84352455	      0.99461155	     -0.00852191	     -0.09478690
      0.84498141	      0.99454467	     -0.00845080	     -0.09478690
      0.84643828	      0.99447679	     -0.00837846	     -0.09478690
      0.84789514	      0.99440793	     -0.00830485	     -0.09478690
      0.84935201	      0.99433806	     -0.00822992	     -0.09478690
      0.85080887	      0.99426719	     -0.00815363	     -0.09478690
      0.85226573	      0.99419532	     -0.00807591	     -0.09478690
      0.85372260	      0.99412244	     -0.00799670	     -0.09478690
      0.85517946	      0.99404855	     -0.00791594	     -0.09478690
      0.85663633	      0.99397364	     -0.00783351	     -0.09478690
      0.85809319	      0.99389769	     -0.00774930	     -0.09478690
      0.85955006	      0.99382070	     -0.00766318	     -0.09478690
      0.86100692	      0.99374262	     -0.00757500	     -0.09478690
      0.86246379	      0.99366344	     -0.00748458	     -0.09478690
      0.86392065	      0.99358313	     -0.00739174	     -0.09478690
      0.86537751	      0.99350165	     -0.00729628	     -0.09478690
      0.86683438	      0.99341899	     -0.00719796	     -0.09478690
      0.86829124	      0.99333511	     -0.00709656	     -0.09478690
      0.86974811	      0.99325000	     -0.00699182	     -0.09478690
      0.87120497	      0.99316366	     -0.00688347	     -0.09478690
      0.87266184	      0.99307606	     -0.00677121	     -0.09478690
      0.87411870	      0.99298721	     -0.00665476	     -0.09478690
