PointVelocity
version=1
nRows=601
nColumns=4
inDegrees=no
No description.
endheader
time	state_0	state_1	state_2
      0.00000000	      3.29698825	      0.44525172	      0.00000000
      0.00145686	      3.16598715	      0.41191900	      0.00000000
      0.00291373	      3.02916796	      0.36714097	      0.00000000
      0.00437059	      2.88169893	      0.30647067	      0.00000000
      0.00582746	      2.72402165	      0.23150038	      0.00000000
      0.00728432	      2.55428149	      0.14119316	      0.00000000
      0.00874119	      2.37115059	      0.03485263	      0.00000000
      0.01019805	      2.17308586	     -0.08965467	      0.00000000
      0.01165492	      1.95813250	     -0.23517565	      0.00000000
      0.01311178	      1.72591061	     -0.40203860	      0.00000000
      0.01456865	      1.47543385	     -0.58989713	      0.00000000
      0.01602551	      1.20878949	     -0.79389548	      0.00000000
      0.01748237	      0.92859611	     -1.00718506	      0.00000000
      0.01893924	      0.63730964	     -1.22629634	      0.00000000
      0.02039610	      0.36548523	     -1.40926345	      0.00000000
      0.02185297	      0.20894440	     -1.44128058	      0.00000000
      0.02330983	      0.17123184	     -1.34155386	      0.00000000
      0.02476670	      0.14774933	     -1.24921874	      0.00000000
      0.02622356	      0.12552298	     -1.17731885	      0.00000000
      0.02768043	      0.11271789	     -1.10092864	      0.00000000
      0.02913729	      0.09895529	     -1.00915090	      0.00000000
      0.03059415	      0.08589817	     -0.89173157	      0.00000000
      0.03205102	      0.07021986	     -0.76052657	      0.00000000
      0.03350788	      0.05579149	     -0.63441703	      0.00000000
      0.03496475	      0.04388930	     -0.52659291	      0.00000000
      0.03642161	      0.03482228	     -0.43685605	      0.00000000
      0.03787848	      0.02843014	     -0.36540034	      0.00000000
      0.03933534	      0.02397598	     -0.30741804	      0.00000000
      0.04079221	      0.02093893	     -0.25996119	      0.00000000
      0.04224907	      0.01889858	     -0.22032066	      0.00000000
      0.04370594	      0.01745850	     -0.18618897	      0.00000000
      0.04516280	      0.01646670	     -0.15652129	      0.00000000
      0.04661966	      0.01572231	     -0.13010881	      0.00000000
      0.04807653	      0.01518408	     -0.10658692	      0.00000000
      0.04953339	      0.01475862	     -0.08539135	      0.00000000
      0.05099026	      0.01442753	     -0.06633485	      0.00000000
      0.05244712	      0.01414437	     -0.04910307	      0.00000000
      0.05390399	      0.01389786	     -0.03354960	      0.00000000
      0.05536085	      0.01366556	     -0.01948342	      0.00000000
      0.05681772	      0.01344339	     -0.00680327	      0.00000000
      0.05827458	      0.01322277	      0.00461349	      0.00000000
      0.05973144	      0.01300430	      0.01484362	      0.00000000
      0.06118831	      0.01278741	      0.02397680	      0.00000000
      0.06264517	      0.01257519	      0.03207691	      0.00000000
      0.06410204	      0.01237120	      0.03921346	      0.00000000
      0.06555890	      0.01217877	      0.04543568	      0.00000000
      0.06701577	      0.01200261	      0.05079479	      0.00000000
      0.06847263	      0.01184509	      0.05532926	      0.00000000
      0.06992950	      0.01171026	      0.05907846	      0.00000000
      0.07138636	      0.01159913	      0.06208042	      0.00000000
      0.07284323	      0.01151438	      0.06437169	      0.00000000
      0.07430009	      0.01145515	      0.06599899	      0.00000000
      0.07575695	      0.01142157	      0.06700953	      0.00000000
      0.07721382	      0.01141038	      0.06745879	      0.00000000
      0.07867068	      0.01141912	      0.06740342	      0.00000000
      0.08012755	      0.01144378	      0.06689470	      0.00000000
      0.08158441	      0.01148092	      0.06598549	      0.00000000
      0.08304128	      0.01152811	      0.06471099	      0.00000000
      0.08449814	      0.01158299	      0.06310964	      0.00000000
      0.08595501	      0.01164582	      0.06119599	      0.00000000
      0.08741187	      0.01171683	      0.05898628	      0.00000000
      0.08886873	      0.01179903	      0.05648016	      0.00000000
      0.09032560	      0.01189502	      0.05367919	      0.00000000
      0.09178246	      0.01200853	      0.05058031	      0.00000000
      0.09323933	      0.01214275	      0.04718235	      0.00000000
      0.09469619	      0.01230064	      0.04348432	      0.00000000
      0.09615306	      0.01248507	      0.03948391	      0.00000000
      0.09760992	      0.01269832	      0.03518203	      0.00000000
      0.09906679	      0.01294328	      0.03057293	      0.00000000
      0.10052365	      0.01322103	      0.02567095	      0.00000000
      0.10198052	      0.01353321	      0.02048396	      0.00000000
      0.10343738	      0.01387661	      0.01505831	      0.00000000
      0.10489424	      0.01424856	      0.00943751	      0.00000000
      0.10635111	      0.01463985	      0.00370072	      0.00000000
      0.10780797	      0.01504068	     -0.00206216	      0.00000000
      0.10926484	      0.01543846	     -0.00778479	      0.00000000
      0.11072170	      0.01582056	     -0.01339263	      0.00000000
      0.11217857	      0.01618233	     -0.01888422	      0.00000000
      0.11363543	      0.01651085	     -0.02419392	      0.00000000
      0.11509230	      0.01681547	     -0.02945747	      0.00000000
      0.11654916	      0.01707379	     -0.03459768	      0.00000000
      0.11800602	      0.01731687	     -0.04052247	      0.00000000
      0.11946289	      0.01764710	     -0.04882792	      0.00000000
      0.12091975	      0.01828301	     -0.05983173	      0.00000000
      0.12237662	      0.01936678	     -0.07330191	      0.00000000
      0.12383348	      0.02078329	     -0.08817807	      0.00000000
      0.12529035	      0.02246090	     -0.10368605	      0.00000000
      0.12674721	      0.02425627	     -0.11883642	      0.00000000
      0.12820408	      0.02603714	     -0.13256796	      0.00000000
      0.12966094	      0.02767259	     -0.14447347	      0.00000000
      0.13111781	      0.02905608	     -0.15418223	      0.00000000
      0.13257467	      0.03018109	     -0.16192534	      0.00000000
      0.13403153	      0.03103394	     -0.16785392	      0.00000000
      0.13548840	      0.03166361	     -0.17229717	      0.00000000
      0.13694526	      0.03210079	     -0.17551284	      0.00000000
      0.13840213	      0.03238633	     -0.17772009	      0.00000000
      0.13985899	      0.03255205	     -0.17912616	      0.00000000
      0.14131586	      0.03262232	     -0.17986262	      0.00000000
      0.14277272	      0.03261952	     -0.18007386	      0.00000000
      0.14422959	      0.03255800	     -0.17984380	      0.00000000
      0.14568645	      0.03245214	     -0.17927019	      0.00000000
      0.14714331	      0.03231064	     -0.17840839	      0.00000000
      0.14860018	      0.03214250	     -0.17732357	      0.00000000
      0.15005704	      0.03195283	     -0.17605171	      0.00000000
      0.15151391	      0.03174710	     -0.17463523	      0.00000000
      0.15297077	      0.03152805	     -0.17309715	      0.00000000
      0.15442764	      0.03129886	     -0.17146474	      0.00000000
      0.15588450	      0.03106088	     -0.16975254	      0.00000000
      0.15734137	      0.03081588	     -0.16797779	      0.00000000
      0.15879823	      0.03056461	     -0.16614910	      0.00000000
      0.16025510	      0.03030821	     -0.16427667	      0.00000000
      0.16171196	      0.03004704	     -0.16236517	      0.00000000
      0.16316882	      0.02978181	     -0.16042011	      0.00000000
      0.16462569	      0.02951253	     -0.15844420	      0.00000000
      0.16608255	      0.02923943	     -0.15644051	      0.00000000
      0.16753942	      0.02896233	     -0.15441117	      0.00000000
      0.16899628	      0.02868122	     -0.15235840	      0.00000000
      0.17045315	      0.02839596	     -0.15028440	      0.00000000
      0.17191001	      0.02810650	     -0.14819123	      0.00000000
      0.17336688	      0.02781277	     -0.14608116	      0.00000000
      0.17482374	      0.02751478	     -0.14395630	      0.00000000
      0.17628060	      0.02721253	     -0.14181880	      0.00000000
      0.17773747	      0.02690608	     -0.13967065	      0.00000000
      0.17919433	      0.02659550	     -0.13751371	      0.00000000
      0.18065120	      0.02628092	     -0.13534968	      0.00000000
      0.18210806	      0.02596248	     -0.13318000	      0.00000000
      0.18356493	      0.02564035	     -0.13100601	      0.00000000
      0.18502179	      0.02531473	     -0.12882873	      0.00000000
      0.18647866	      0.02498578	     -0.12664918	      0.00000000
      0.18793552	      0.02465368	     -0.12446810	      0.00000000
      0.18939239	      0.02431857	     -0.12228624	      0.00000000
      0.19084925	      0.02398056	     -0.12010421	      0.00000000
      0.19230611	      0.02363970	     -0.11792262	      0.00000000
      0.19376298	      0.02329602	     -0.11574204	      0.00000000
      0.19521984	      0.02294950	     -0.11356302	      0.00000000
      0.19667671	      0.02260004	     -0.11138614	      0.00000000
      0.19813357	      0.02224753	     -0.10921195	      0.00000000
      0.19959044	      0.02189173	     -0.10704106	      0.00000000
      0.20104730	      0.02153236	     -0.10487406	      0.00000000
      0.20250417	      0.02116901	     -0.10271155	      0.00000000
      0.20396103	      0.02080117	     -0.10055416	      0.00000000
      0.20541789	      0.02042815	     -0.09840249	      0.00000000
      0.20687476	      0.02004917	     -0.09625719	      0.00000000
      0.20833162	      0.01966331	     -0.09411885	      0.00000000
      0.20978849	      0.01926948	     -0.09198809	      0.00000000
      0.21124535	      0.01886672	     -0.08986546	      0.00000000
      0.21270222	      0.01845382	     -0.08775152	      0.00000000
      0.21415908	      0.01803017	     -0.08564675	      0.00000000
      0.21561595	      0.01759489	     -0.08355161	      0.00000000
      0.21707281	      0.01714831	     -0.08146655	      0.00000000
      0.21852968	      0.01669048	     -0.07939199	      0.00000000
      0.21998654	      0.01622299	     -0.07732850	      0.00000000
      0.22144340	      0.01574725	     -0.07527665	      0.00000000
      0.22290027	      0.01526567	     -0.07323734	      0.00000000
      0.22435713	      0.01478061	     -0.07121152	      0.00000000
      0.22581400	      0.01429429	     -0.06920045	      0.00000000
      0.22727086	      0.01380897	     -0.06720545	      0.00000000
      0.22872773	      0.01332588	     -0.06522796	      0.00000000
      0.23018459	      0.01284637	     -0.06326944	      0.00000000
      0.23164146	      0.01237068	     -0.06133120	      0.00000000
      0.23309832	      0.01189921	     -0.05941463	      0.00000000
      0.23455519	      0.01143168	     -0.05752078	      0.00000000
      0.23601205	      0.01096793	     -0.05565084	      0.00000000
      0.23746891	      0.01050758	     -0.05380566	      0.00000000
      0.23892578	      0.01005029	     -0.05198619	      0.00000000
      0.24038264	      0.00959578	     -0.05019312	      0.00000000
      0.24183951	      0.00914376	     -0.04842723	      0.00000000
      0.24329637	      0.00869405	     -0.04668907	      0.00000000
      0.24475324	      0.00824646	     -0.04497927	      0.00000000
      0.24621010	      0.00780089	     -0.04329825	      0.00000000
      0.24766697	      0.00735724	     -0.04164653	      0.00000000
      0.24912383	      0.00691542	     -0.04002445	      0.00000000
      0.25058069	      0.00647537	     -0.03843240	      0.00000000
      0.25203756	      0.00603699	     -0.03687063	      0.00000000
      0.25349442	      0.00560022	     -0.03533943	      0.00000000
      0.25495129	      0.00516494	     -0.03383896	      0.00000000
      0.25640815	      0.00473107	     -0.03236939	      0.00000000
      0.25786502	      0.00429848	     -0.03093079	      0.00000000
      0.25932188	      0.00386705	     -0.02952324	      0.00000000
      0.26077875	      0.00343664	     -0.02814673	      0.00000000
      0.26223561	      0.00300713	     -0.02680127	      0.00000000
      0.26369248	      0.00257837	     -0.02548678	      0.00000000
      0.26514934	      0.00215023	     -0.02420319	      0.00000000
      0.26660620	      0.00172256	     -0.02295035	      0.00000000
      0.26806307	      0.00129522	     -0.02172812	      0.00000000
      0.26951993	      0.00086806	     -0.02053623	      0.00000000
      0.27097680	      0.00044093	     -0.01937444	      0.00000000
      0.27243366	      0.00001370	     -0.01824240	      0.00000000
      0.27389053	     -0.00041377	     -0.01713977	      0.00000000
      0.27534739	     -0.00084160	     -0.01606613	      0.00000000
      0.27680426	     -0.00126993	     -0.01502105	      0.00000000
      0.27826112	     -0.00169882	     -0.01400402	      0.00000000
      0.27971798	     -0.00212839	     -0.01301454	      0.00000000
      0.28117485	     -0.00255868	     -0.01205202	      0.00000000
      0.28263171	     -0.00298975	     -0.01111587	      0.00000000
      0.28408858	     -0.00342163	     -0.01020552	      0.00000000
      0.28554544	     -0.00385434	     -0.00932036	      0.00000000
      0.28700231	     -0.00428787	     -0.00845983	      0.00000000
      0.28845917	     -0.00472225	     -0.00762337	      0.00000000
      0.28991604	     -0.00515746	     -0.00681046	      0.00000000
      0.29137290	     -0.00559351	     -0.00602058	      0.00000000
      0.29282977	     -0.00603039	     -0.00525327	      0.00000000
      0.29428663	     -0.00646813	     -0.00450806	      0.00000000
      0.29574349	     -0.00690671	     -0.00378457	      0.00000000
      0.29720036	     -0.00734616	     -0.00308242	      0.00000000
      0.29865722	     -0.00778647	     -0.00240133	      0.00000000
      0.30011409	     -0.00822767	     -0.00174102	      0.00000000
      0.30157095	     -0.00866976	     -0.00110127	      0.00000000
      0.30302782	     -0.00911279	     -0.00048186	      0.00000000
      0.30448468	     -0.00955679	      0.00011749	      0.00000000
      0.30594155	     -0.01000182	      0.00069707	      0.00000000
      0.30739841	     -0.01044794	      0.00125724	      0.00000000
      0.30885527	     -0.01089524	      0.00179839	      0.00000000
      0.31031214	     -0.01134378	      0.00232098	      0.00000000
      0.31176900	     -0.01179365	      0.00282546	      0.00000000
      0.31322587	     -0.01224493	      0.00331241	      0.00000000
      0.31468273	     -0.01269774	      0.00378242	      0.00000000
      0.31613960	     -0.01315221	      0.00423621	      0.00000000
      0.31759646	     -0.01360847	      0.00467451	      0.00000000
      0.31905333	     -0.01406656	      0.00509809	      0.00000000
      0.32051019	     -0.01452647	      0.00550762	      0.00000000
      0.32196706	     -0.01498834	      0.00590376	      0.00000000
      0.32342392	     -0.01545226	      0.00628713	      0.00000000
      0.32488078	     -0.01591844	      0.00665878	      0.00000000
      0.32633765	     -0.01638716	      0.00702006	      0.00000000
      0.32779451	     -0.01685822	      0.00737210	      0.00000000
      0.32925138	     -0.01733118	      0.00771538	      0.00000000
      0.33070824	     -0.01780623	      0.00805028	      0.00000000
      0.33216511	     -0.01828392	      0.00837780	      0.00000000
      0.33362197	     -0.01876398	      0.00869844	      0.00000000
      0.33507884	     -0.01924611	      0.00901263	      0.00000000
      0.33653570	     -0.01973057	      0.00932151	      0.00000000
      0.33799256	     -0.02021741	      0.00962600	      0.00000000
      0.33944943	     -0.02070667	      0.00992690	      0.00000000
      0.34090629	     -0.02119847	      0.01022521	      0.00000000
      0.34236316	     -0.02169290	      0.01052189	      0.00000000
      0.34382002	     -0.02219001	      0.01081794	      0.00000000
      0.34527689	     -0.02268991	      0.01111412	      0.00000000
      0.34673375	     -0.02319266	      0.01141131	      0.00000000
      0.34819062	     -0.02369844	      0.01171016	      0.00000000
      0.34964748	     -0.02420740	      0.01201146	      0.00000000
      0.35110435	     -0.02471971	      0.01231586	      0.00000000
      0.35256121	     -0.02523553	      0.01262406	      0.00000000
      0.35401807	     -0.02575499	      0.01293664	      0.00000000
      0.35547494	     -0.02627820	      0.01325421	      0.00000000
      0.35693180	     -0.02680523	      0.01357715	      0.00000000
      0.35838867	     -0.02733613	      0.01390592	      0.00000000
      0.35984553	     -0.02787098	      0.01424080	      0.00000000
      0.36130240	     -0.02840980	      0.01458212	      0.00000000
      0.36275926	     -0.02895271	      0.01493009	      0.00000000
      0.36421613	     -0.02949977	      0.01528500	      0.00000000
      0.36567299	     -0.03005115	      0.01564708	      0.00000000
      0.36712985	     -0.03060699	      0.01601665	      0.00000000
      0.36858672	     -0.03116755	      0.01639393	      0.00000000
      0.37004358	     -0.03173303	      0.01677926	      0.00000000
      0.37150045	     -0.03230370	      0.01717282	      0.00000000
      0.37295731	     -0.03287979	      0.01757488	      0.00000000
      0.37441418	     -0.03346156	      0.01798546	      0.00000000
      0.37587104	     -0.03404920	      0.01840473	      0.00000000
      0.37732791	     -0.03464286	      0.01883256	      0.00000000
      0.37878477	     -0.03524267	      0.01926898	      0.00000000
      0.38024164	     -0.03584866	      0.01971375	      0.00000000
      0.38169850	     -0.03646088	      0.02016673	      0.00000000
      0.38315536	     -0.03707931	      0.02062748	      0.00000000
      0.38461223	     -0.03770391	      0.02109556	      0.00000000
      0.38606909	     -0.03833472	      0.02157045	      0.00000000
      0.38752596	     -0.03897176	      0.02205155	      0.00000000
      0.38898282	     -0.03961516	      0.02253875	      0.00000000
      0.39043969	     -0.04026514	      0.02303183	      0.00000000
      0.39189655	     -0.04092181	      0.02353151	      0.00000000
      0.39335342	     -0.04158546	      0.02403845	      0.00000000
      0.39481028	     -0.04225605	      0.02455429	      0.00000000
      0.39626714	     -0.04293362	      0.02508076	      0.00000000
      0.39772401	     -0.04361791	      0.02562041	      0.00000000
      0.39918087	     -0.04430857	      0.02617614	      0.00000000
      0.40063774	     -0.04500523	      0.02675163	      0.00000000
      0.40209460	     -0.04570732	      0.02735133	      0.00000000
      0.40355147	     -0.04641460	      0.02798007	      0.00000000
      0.40500833	     -0.04712642	      0.02864379	      0.00000000
      0.40646520	     -0.04784304	      0.02934842	      0.00000000
      0.40792206	     -0.04856411	      0.03010102	      0.00000000
      0.40937893	     -0.04929127	      0.03090959	      0.00000000
      0.41083579	     -0.05002609	      0.03178381	      0.00000000
      0.41229265	     -0.05077189	      0.03273466	      0.00000000
      0.41374952	     -0.05153244	      0.03377552	      0.00000000
      0.41520638	     -0.05231052	      0.03491785	      0.00000000
      0.41666325	     -0.05310888	      0.03617524	      0.00000000
      0.41812011	     -0.05392803	      0.03755552	      0.00000000
      0.41957698	     -0.05476888	      0.03906900	      0.00000000
      0.42103384	     -0.05562871	      0.04071728	      0.00000000
      0.42249071	     -0.05650327	      0.04250254	      0.00000000
      0.42394757	     -0.05738909	      0.04442123	      0.00000000
      0.42540443	     -0.05828154	      0.04647197	      0.00000000
      0.42686130	     -0.05917938	      0.04865358	      0.00000000
      0.42831816	     -0.06008037	      0.05096655	      0.00000000
      0.42977503	     -0.06098386	      0.05341299	      0.00000000
      0.43123189	     -0.06188803	      0.05599464	      0.00000000
      0.43268876	     -0.06279232	      0.05871617	      0.00000000
      0.43414562	     -0.06369671	      0.06158384	      0.00000000
      0.43560249	     -0.06460027	      0.06460545	      0.00000000
      0.43705935	     -0.06550380	      0.06778927	      0.00000000
      0.43851622	     -0.06640498	      0.07114132	      0.00000000
      0.43997308	     -0.06730427	      0.07466579	      0.00000000
      0.44142994	     -0.06819930	      0.07836856	      0.00000000
      0.44288681	     -0.06909184	      0.08225590	      0.00000000
      0.44434367	     -0.06998004	      0.08634161	      0.00000000
      0.44580054	     -0.07086708	      0.09063976	      0.00000000
      0.44725740	     -0.07175085	      0.09517136	      0.00000000
      0.44871427	     -0.07263494	      0.09995615	      0.00000000
      0.45017113	     -0.07351919	      0.10502043	      0.00000000
      0.45162800	     -0.07440719	      0.11038924	      0.00000000
      0.45308486	     -0.07530295	      0.11610262	      0.00000000
      0.45454172	     -0.07621640	      0.12220591	      0.00000000
      0.45599859	     -0.07716188	      0.12875744	      0.00000000
      0.45745545	     -0.07816190	      0.13582755	      0.00000000
      0.45891232	     -0.07924333	      0.14347232	      0.00000000
      0.46036918	     -0.08043690	      0.15175447	      0.00000000
      0.46182605	     -0.08176610	      0.16070957	      0.00000000
      0.46328291	     -0.08321671	      0.17030320	      0.00000000
      0.46473978	     -0.08451471	      0.18000947	      0.00000000
      0.46619664	     -0.08553191	      0.18962778	      0.00000000
      0.46765351	     -0.08667416	      0.19984590	      0.00000000
      0.46911037	     -0.08808980	      0.21093298	      0.00000000
      0.47056723	     -0.08982252	      0.22270937	      0.00000000
      0.47202410	     -0.09189760	      0.23517292	      0.00000000
      0.47348096	     -0.09472192	      0.24832704	      0.00000000
      0.47493783	     -0.09851495	      0.26222705	      0.00000000
      0.47639469	     -0.10434313	      0.27697024	      0.00000000
      0.47785156	     -0.11394248	      0.29250769	      0.00000000
      0.47930842	     -0.13056693	      0.30908160	      0.00000000
      0.48076529	     -0.16094947	      0.32677172	      0.00000000
      0.48222215	     -0.19141331	      0.34943719	      0.00000000
      0.48367902	     -0.20041476	      0.38065627	      0.00000000
      0.48513588	     -0.18553856	      0.41884803	      0.00000000
      0.48659274	     -0.15128691	      0.46141268	      0.00000000
      0.48804961	     -0.10191249	      0.50618912	      0.00000000
      0.48950647	     -0.03815027	      0.55179313	      0.00000000
      0.49096334	      0.03895594	      0.59698176	      0.00000000
      0.49242020	      0.12802420	      0.64062277	      0.00000000
      0.49387707	      0.22731938	      0.68177459	      0.00000000
      0.49533393	      0.33554074	      0.71977272	      0.00000000
      0.49679080	      0.45074222	      0.75409474	      0.00000000
      0.49824766	      0.57090756	      0.78446635	      0.00000000
      0.49970452	      0.69312221	      0.81075958	      0.00000000
      0.50116139	      0.81433197	      0.83308977	      0.00000000
      0.50261825	      0.93172336	      0.85174059	      0.00000000
      0.50407512	      1.04251251	      0.86711943	      0.00000000
      0.50553198	      1.14529310	      0.87971059	      0.00000000
      0.50698885	      1.23847639	      0.88997226	      0.00000000
      0.50844571	      1.32213846	      0.89834270	      0.00000000
      0.50990258	      1.39610254	      0.90517287	      0.00000000
      0.51135944	      1.46129856	      0.91075162	      0.00000000
      0.51281631	      1.51843266	      0.91529073	      0.00000000
      0.51427317	      1.56866932	      0.91894748	      0.00000000
      0.51573003	      1.61306914	      0.92183176	      0.00000000
      0.51718690	      1.65269512	      0.92402058	      0.00000000
      0.51864376	      1.68858753	      0.92556748	      0.00000000
      0.52010063	      1.72156235	      0.92651118	      0.00000000
      0.52155749	      1.75248113	      0.92687850	      0.00000000
      0.52301436	      1.78191397	      0.92669101	      0.00000000
      0.52447122	      1.81051677	      0.92596404	      0.00000000
      0.52592809	      1.83860696	      0.92471518	      0.00000000
      0.52738495	      1.86657646	      0.92295936	      0.00000000
      0.52884181	      1.89445277	      0.92071976	      0.00000000
      0.53029868	      1.92230267	      0.91802008	      0.00000000
      0.53175554	      1.94993946	      0.91489107	      0.00000000
      0.53321241	      1.97719788	      0.91136485	      0.00000000
      0.53466927	      2.00389169	      0.90747123	      0.00000000
      0.53612614	      2.02985329	      0.90324065	      0.00000000
      0.53758300	      2.05506104	      0.89869246	      0.00000000
      0.53903987	      2.07950193	      0.89384613	      0.00000000
      0.54049673	      2.10328140	      0.88871087	      0.00000000
      0.54195360	      2.12646202	      0.88329914	      0.00000000
      0.54341046	      2.14916741	      0.87761601	      0.00000000
      0.54486732	      2.17151549	      0.87166901	      0.00000000
      0.54632419	      2.19365482	      0.86545885	      0.00000000
      0.54778105	      2.21568141	      0.85899623	      0.00000000
      0.54923792	      2.23763244	      0.85228624	      0.00000000
      0.55069478	      2.25978309	      0.84530009	      0.00000000
      0.55215165	      2.28195425	      0.83806899	      0.00000000
      0.55360851	      2.30378760	      0.83065275	      0.00000000
      0.55506538	      2.32531514	      0.82305913	      0.00000000
      0.55652224	      2.34657071	      0.81529326	      0.00000000
      0.55797910	      2.36756195	      0.80736013	      0.00000000
      0.55943597	      2.38831421	      0.79926411	      0.00000000
      0.56089283	      2.40885472	      0.79100792	      0.00000000
      0.56234970	      2.42921384	      0.78259452	      0.00000000
      0.56380656	      2.44940978	      0.77402625	      0.00000000
      0.56526343	      2.46945718	      0.76530575	      0.00000000
      0.56672029	      2.48935898	      0.75643536	      0.00000000
      0.56817716	      2.50912390	      0.74741697	      0.00000000
      0.56963402	      2.52875349	      0.73825240	      0.00000000
      0.57109089	      2.54825078	      0.72894308	      0.00000000
      0.57254775	      2.56760894	      0.71949100	      0.00000000
      0.57400461	      2.58682093	      0.70989764	      0.00000000
      0.57546148	      2.60587414	      0.70016524	      0.00000000
      0.57691834	      2.62475626	      0.69029552	      0.00000000
      0.57837521	      2.64345805	      0.68029074	      0.00000000
      0.57983207	      2.66197018	      0.67015280	      0.00000000
      0.58128894	      2.68029102	      0.65988385	      0.00000000
      0.58274580	      2.69841832	      0.64948588	      0.00000000
      0.58420267	      2.71635595	      0.63896087	      0.00000000
      0.58565953	      2.73410712	      0.62831074	      0.00000000
      0.58711639	      2.75167613	      0.61753739	      0.00000000
      0.58857326	      2.76906649	      0.60664274	      0.00000000
      0.59003012	      2.78627953	      0.59562880	      0.00000000
      0.59148699	      2.80331666	      0.58449769	      0.00000000
      0.59294385	      2.82017735	      0.57325158	      0.00000000
      0.59440072	      2.83686175	      0.56189273	      0.00000000
      0.59585758	      2.85336882	      0.55042314	      0.00000000
      0.59731445	      2.86969713	      0.53884458	      0.00000000
      0.59877131	      2.88584601	      0.52715821	      0.00000000
      0.60022818	      2.90181470	      0.51536469	      0.00000000
      0.60168504	      2.91760577	      0.50346453	      0.00000000
      0.60314190	      2.93322214	      0.49145760	      0.00000000
      0.60459877	      2.94866950	      0.47934475	      0.00000000
      0.60605563	      2.96395328	      0.46712655	      0.00000000
      0.60751250	      2.97907961	      0.45480479	      0.00000000
      0.60896936	      2.99405449	      0.44238113	      0.00000000
      0.61042623	      3.00888325	      0.42985730	      0.00000000
      0.61188309	      3.02357041	      0.41723435	      0.00000000
      0.61333996	      3.03812269	      0.40451283	      0.00000000
      0.61479682	      3.05254834	      0.39169262	      0.00000000
      0.61625368	      3.06685743	      0.37877466	      0.00000000
      0.61771055	      3.08106038	      0.36576017	      0.00000000
      0.61916741	      3.09516491	      0.35265138	      0.00000000
      0.62062428	      3.10917811	      0.33944986	      0.00000000
      0.62208114	      3.12310526	      0.32615725	      0.00000000
      0.62353801	      3.13695253	      0.31277479	      0.00000000
      0.62499487	      3.15072719	      0.29930445	      0.00000000
      0.62645174	      3.16443775	      0.28574818	      0.00000000
      0.62790860	      3.17809297	      0.27210911	      0.00000000
      0.62936547	      3.19170198	      0.25839038	      0.00000000
      0.63082233	      3.20527176	      0.24459598	      0.00000000
      0.63227919	      3.21880959	      0.23073006	      0.00000000
      0.63373606	      3.23232038	      0.21679721	      0.00000000
      0.63519292	      3.24580995	      0.20280237	      0.00000000
      0.63664979	      3.25928257	      0.18875065	      0.00000000
      0.63810665	      3.27274336	      0.17464757	      0.00000000
      0.63956352	      3.28619580	      0.16049842	      0.00000000
      0.64102038	      3.29964382	      0.14630889	      0.00000000
      0.64247725	      3.31308960	      0.13208424	      0.00000000
      0.64393411	      3.32653583	      0.11783004	      0.00000000
      0.64539097	      3.33998401	      0.10355155	      0.00000000
      0.64684784	      3.35343617	      0.08925431	      0.00000000
      0.64830470	      3.36689370	      0.07494378	      0.00000000
      0.64976157	      3.38035828	      0.06062561	      0.00000000
      0.65121843	      3.39383108	      0.04630556	      0.00000000
      0.65267530	      3.40731349	      0.03198950	      0.00000000
      0.65413216	      3.42080634	      0.01768340	      0.00000000
      0.65558903	      3.43431068	      0.00339334	      0.00000000
      0.65704589	      3.44782677	     -0.01087465	      0.00000000
      0.65850276	      3.46135490	     -0.02511445	      0.00000000
      0.65995962	      3.47489441	     -0.03932010	      0.00000000
      0.66141648	      3.48844444	     -0.05348558	      0.00000000
      0.66287335	      3.50200399	     -0.06760504	      0.00000000
      0.66433021	      3.51557190	     -0.08167250	      0.00000000
      0.66578708	      3.52914807	     -0.09568204	      0.00000000
      0.66724394	      3.54273222	     -0.10962752	      0.00000000
      0.66870081	      3.55632536	     -0.12350301	      0.00000000
      0.67015767	      3.56992813	     -0.13730222	      0.00000000
      0.67161454	      3.58354171	     -0.15101965	      0.00000000
      0.67307140	      3.59716686	     -0.16464920	      0.00000000
      0.67452826	      3.61080425	     -0.17818669	      0.00000000
      0.67598513	      3.62445367	     -0.19162711	      0.00000000
      0.67744199	      3.63811591	     -0.20496886	      0.00000000
      0.67889886	      3.65179028	     -0.21820947	      0.00000000
      0.68035572	      3.66548104	     -0.23135088	      0.00000000
      0.68181259	      3.67919162	     -0.24439396	      0.00000000
      0.68326945	      3.69293338	     -0.25734380	      0.00000000
      0.68472632	      3.70671797	     -0.27020406	      0.00000000
      0.68618318	      3.72056072	     -0.28298189	      0.00000000
      0.68764005	      3.73447707	     -0.29568321	      0.00000000
      0.68909691	      3.74847746	     -0.30831667	      0.00000000
      0.69055377	      3.76257171	     -0.32089049	      0.00000000
      0.69201064	      3.77676208	     -0.33341361	      0.00000000
      0.69346750	      3.79105055	     -0.34589528	      0.00000000
      0.69492437	      3.80543821	     -0.35834168	      0.00000000
      0.69638123	      3.81992701	     -0.37075940	      0.00000000
      0.69783810	      3.83452416	     -0.38314862	      0.00000000
      0.69929496	      3.84923801	     -0.39550977	      0.00000000
      0.70075183	      3.86407922	     -0.40783682	      0.00000000
      0.70220869	      3.87905823	     -0.42012426	      0.00000000
      0.70366556	      3.89418099	     -0.43236233	      0.00000000
      0.70512242	      3.90945248	     -0.44454209	      0.00000000
      0.70657928	      3.92487256	     -0.45665160	      0.00000000
      0.70803615	      3.94044184	     -0.46867912	      0.00000000
      0.70949301	      3.95615893	     -0.48061014	      0.00000000
      0.71094988	      3.97202480	     -0.49242956	      0.00000000
      0.71240674	      3.98803516	     -0.50412183	      0.00000000
      0.71386361	      4.00418607	     -0.51567136	      0.00000000
      0.71532047	      4.02046341	     -0.52706531	      0.00000000
      0.71677734	      4.03685014	     -0.53829222	      0.00000000
      0.71823420	      4.05332790	     -0.54934140	      0.00000000
      0.71969106	      4.06987637	     -0.56020325	      0.00000000
      0.72114793	      4.08649120	     -0.57086263	      0.00000000
      0.72260479	      4.10316979	     -0.58130318	      0.00000000
      0.72406166	      4.11992449	     -0.59150298	      0.00000000
      0.72551852	      4.13676868	     -0.60143821	      0.00000000
      0.72697539	      4.15370745	     -0.61108924	      0.00000000
      0.72843225	      4.17074175	     -0.62043707	      0.00000000
      0.72988912	      4.18785386	     -0.62947259	      0.00000000
      0.73134598	      4.20502144	     -0.63818864	      0.00000000
      0.73280285	      4.22222556	     -0.64657885	      0.00000000
      0.73425971	      4.23944950	     -0.65463550	      0.00000000
      0.73571657	      4.25669860	     -0.66234212	      0.00000000
      0.73717344	      4.27398369	     -0.66967787	      0.00000000
      0.73863030	      4.29131626	     -0.67662265	      0.00000000
      0.74008717	      4.30870672	     -0.68315511	      0.00000000
      0.74154403	      4.32613489	     -0.68927135	      0.00000000
      0.74300090	      4.34357363	     -0.69497155	      0.00000000
      0.74445776	      4.36097888	     -0.70026746	      0.00000000
      0.74591463	      4.37830426	     -0.70517401	      0.00000000
      0.74737149	      4.39553114	     -0.70969197	      0.00000000
      0.74882835	      4.41264367	     -0.71382068	      0.00000000
      0.75028522	      4.42966726	     -0.71753420	      0.00000000
      0.75174208	      4.44663370	     -0.72079937	      0.00000000
      0.75319895	      4.46356697	     -0.72358595	      0.00000000
      0.75465581	      4.48048275	     -0.72586162	      0.00000000
      0.75611268	      4.49733441	     -0.72761345	      0.00000000
      0.75756954	      4.51406685	     -0.72885978	      0.00000000
      0.75902641	      4.53065142	     -0.72963208	      0.00000000
      0.76048327	      4.54707917	     -0.72992455	      0.00000000
      0.76194014	      4.56336941	     -0.72970228	      0.00000000
      0.76339700	      4.57954261	     -0.72893394	      0.00000000
      0.76485386	      4.59557265	     -0.72761629	      0.00000000
      0.76631073	      4.61139086	     -0.72578111	      0.00000000
      0.76776759	      4.62696582	     -0.72343224	      0.00000000
      0.76922446	      4.64232591	     -0.72052673	      0.00000000
      0.77068132	      4.65750620	     -0.71701330	      0.00000000
      0.77213819	      4.67251663	     -0.71285847	      0.00000000
      0.77359505	      4.68729786	     -0.70808773	      0.00000000
      0.77505192	      4.70176559	     -0.70275366	      0.00000000
      0.77650878	      4.71586283	     -0.69688861	      0.00000000
      0.77796564	      4.72957413	     -0.69049117	      0.00000000
      0.77942251	      4.74292113	     -0.68352195	      0.00000000
      0.78087937	      4.75591190	     -0.67595151	      0.00000000
      0.78233624	      4.76853468	     -0.66776702	      0.00000000
      0.78379310	      4.78077526	     -0.65895893	      0.00000000
      0.78524997	      4.79259131	     -0.64954869	      0.00000000
      0.78670683	      4.80394051	     -0.63956246	      0.00000000
      0.78816370	      4.81477980	     -0.62903219	      0.00000000
      0.78962056	      4.82507821	     -0.61798094	      0.00000000
      0.79107743	      4.83481041	     -0.60642839	      0.00000000
      0.79253429	      4.84395824	     -0.59438935	      0.00000000
      0.79399115	      4.85248104	     -0.58190672	      0.00000000
      0.79544802	      4.86032003	     -0.56905315	      0.00000000
      0.79690488	      4.86743330	     -0.55588527	      0.00000000
      0.79836175	      4.87379457	     -0.54244781	      0.00000000
      0.79981861	      4.87942309	     -0.52872453	      0.00000000
      0.80127548	      4.88437987	     -0.51464229	      0.00000000
      0.80273234	      4.88862922	     -0.50024610	      0.00000000
      0.80418921	      4.89202079	     -0.48575708	      0.00000000
      0.80564607	      4.89450279	     -0.47126756	      0.00000000
      0.80710293	      4.89618659	     -0.45663863	      0.00000000
      0.80855980	      4.89714955	     -0.44174774	      0.00000000
      0.81001666	      4.89722291	     -0.42684815	      0.00000000
      0.81147353	      4.89597948	     -0.41251463	      0.00000000
      0.81293039	      4.89347728	     -0.39866765	      0.00000000
      0.81438726	      4.89017067	     -0.38462410	      0.00000000
      0.81584412	      4.88609479	     -0.37027452	      0.00000000
      0.81730099	      4.88108800	     -0.35580453	      0.00000000
      0.81875785	      4.87506485	     -0.34131953	      0.00000000
      0.82021472	      4.86790079	     -0.32698751	      0.00000000
      0.82167158	      4.85951959	     -0.31292119	      0.00000000
      0.82312844	      4.84990934	     -0.29909961	      0.00000000
      0.82458531	      4.83904467	     -0.28553944	      0.00000000
      0.82604217	      4.82699400	     -0.27210253	      0.00000000
      0.82749904	      4.81377089	     -0.25868342	      0.00000000
      0.82895590	      4.79945733	     -0.24498763	      0.00000000
      0.83041277	      4.78412258	     -0.23074637	      0.00000000
      0.83186963	      4.76792696	     -0.21556772	      0.00000000
      0.83332650	      4.75099046	     -0.19905215	      0.00000000
      0.83478336	      4.73349025	     -0.18079467	      0.00000000
      0.83624022	      4.71560455	     -0.16029702	      0.00000000
      0.83769709	      4.69745276	     -0.13736342	      0.00000000
      0.83915395	      4.67917771	     -0.11172709	      0.00000000
      0.84061082	      4.66070908	     -0.08374049	      0.00000000
      0.84206768	      4.64202042	     -0.05379722	      0.00000000
      0.84352455	      4.62282938	     -0.02268123	      0.00000000
      0.84498141	      4.60294843	      0.00876802	      0.00000000
      0.84643828	      4.58196730	      0.04005260	      0.00000000
      0.84789514	      4.55961626	      0.07074413	      0.00000000
      0.84935201	      4.53527470	      0.10097480	      0.00000000
      0.85080887	      4.50837416	      0.13084664	      0.00000000
      0.85226573	      4.47786908	      0.16041049	      0.00000000
      0.85372260	      4.44259595	      0.18931163	      0.00000000
      0.85517946	      4.40144035	      0.21718439	      0.00000000
      0.85663633	      4.35320020	      0.24342530	      0.00000000
      0.85809319	      4.29766106	      0.26843014	      0.00000000
      0.85955006	      4.23464658	      0.29309441	      0.00000000
      0.86100692	      4.16495603	      0.31848168	      0.00000000
      0.86246379	      4.08931443	      0.34581314	      0.00000000
      0.86392065	      4.00833728	      0.37422893	      0.00000000
      0.86537751	      3.92261858	      0.40259157	      0.00000000
      0.86683438	      3.83202355	      0.42817573	      0.00000000
      0.86829124	      3.73666677	      0.44884485	      0.00000000
      0.86974811	      3.63574512	      0.46233004	      0.00000000
      0.87120497	      3.52924949	      0.46712387	      0.00000000
      0.87266184	      3.41543344	      0.46082487	      0.00000000
      0.87411870	      3.29654572	      0.44483905	      0.00000000
