PointPosition
version=1
nRows=601
nColumns=4
inDegrees=no
No description.
endheader
time	state_0	state_1	state_2
      0.00000000	     -0.36870642	      0.10041084	      0.09478690
      0.00118958	     -0.36670935	      0.10050625	      0.09478690
      0.00237915	     -0.36469688	      0.10058927	      0.09478690
      0.00356873	     -0.36266906	      0.10065968	      0.09478690
      0.00475831	     -0.36062600	      0.10071729	      0.09478690
      0.00594789	     -0.35856781	      0.10076188	      0.09478690
      0.00713746	     -0.35649457	      0.10079324	      0.09478690
      0.00832704	     -0.35440635	      0.10081118	      0.09478690
      0.00951662	     -0.35230319	      0.10081549	      0.09478690
      0.01070619	     -0.35018513	      0.10080597	      0.09478690
      0.01189577	     -0.34805221	      0.10078243	      0.09478690
      0.01308535	     -0.34590444	      0.10074466	      0.09478690
      0.01427493	     -0.34374182	      0.10069248	      0.09478690
      0.01546450	     -0.34156435	      0.10062567	      0.09478690
      0.01665408	     -0.33937202	      0.10054405	      0.09478690
      0.01784366	     -0.33716481	      0.10044740	      0.09478690
      0.01903323	     -0.33494268	      0.10033552	      0.09478690
      0.02022281	     -0.33270562	      0.10020820	      0.09478690
      0.02141239	     -0.33045356	      0.10006522	      0.09478690
      0.02260196	     -0.32818648	      0.09990635	      0.09478690
      0.02379154	     -0.32590432	      0.09973137	      0.09478690
      0.02498112	     -0.32360702	      0.09954003	      0.09478690
      0.02617070	     -0.32129453	      0.09933211	      0.09478690
      0.02736027	     -0.31896678	      0.09910733	      0.09478690
      0.02854985	     -0.31662371	      0.09886545	      0.09478690
      0.02973943	     -0.31426525	      0.09860619	      0.09478690
      0.03092900	     -0.31189131	      0.09832927	      0.09478690
      0.03211858	     -0.30950184	      0.09803441	      0.09478690
      0.03330816	     -0.30709673	      0.09772131	      0.09478690
      0.03449774	     -0.30467591	      0.09738966	      0.09478690
      0.03568731	     -0.30223928	      0.09703914	      0.09478690
      0.03687689	     -0.29978675	      0.09666942	      0.09478690
      0.03806647	     -0.29731822	      0.09628018	      0.09478690
      0.03925604	     -0.29483358	      0.09587105	      0.09478690
      0.04044562	     -0.29233272	      0.09544170	      0.09478690
      0.04163520	     -0.28981554	      0.09499175	      0.09478690
      0.04282478	     -0.28728189	      0.09452083	      0.09478690
      0.04401435	     -0.28473167	      0.09402856	      0.09478690
      0.04520393	     -0.28216472	      0.09351455	      0.09478690
      0.04639351	     -0.27958092	      0.09297841	      0.09478690
      0.04758308	     -0.27698011	      0.09241972	      0.09478690
      0.04877266	     -0.27436214	      0.09183809	      0.09478690
      0.04996224	     -0.27172685	      0.09123308	      0.09478690
      0.05115182	     -0.26907407	      0.09060428	      0.09478690
      0.05234139	     -0.26640362	      0.08995126	      0.09478690
      0.05353097	     -0.26371531	      0.08927359	      0.09478690
      0.05472055	     -0.26100897	      0.08857084	      0.09478690
      0.05591012	     -0.25828438	      0.08784255	      0.09478690
      0.05709970	     -0.25554133	      0.08708830	      0.09478690
      0.05828928	     -0.25277961	      0.08630764	      0.09478690
      0.05947885	     -0.24999899	      0.08550013	      0.09478690
      0.06066843	     -0.24719923	      0.08466533	      0.09478690
      0.06185801	     -0.24438007	      0.08380280	      0.09478690
      0.06304759	     -0.24154124	      0.08291212	      0.09478690
      0.06423716	     -0.23868248	      0.08199286	      0.09478690
      0.06542674	     -0.23580347	      0.08104461	      0.09478690
      0.06661632	     -0.23290392	      0.08006695	      0.09478690
      0.06780589	     -0.22998349	      0.07905950	      0.09478690
      0.06899547	     -0.22704183	      0.07802188	      0.09478690
      0.07018505	     -0.22407857	      0.07695372	      0.09478690
      0.07137463	     -0.22109333	      0.07585469	      0.09478690
      0.07256420	     -0.21808570	      0.07472446	      0.09478690
      0.07375378	     -0.21505525	      0.07356273	      0.09478690
      0.07494336	     -0.21200152	      0.07236922	      0.09478690
      0.07613293	     -0.20892405	      0.07114369	      0.09478690
      0.07732251	     -0.20582235	      0.06988592	      0.09478690
      0.07851209	     -0.20269589	      0.06859572	      0.09478690
      0.07970167	     -0.19954414	      0.06727292	      0.09478690
      0.08089124	     -0.19636654	      0.06591741	      0.09478690
      0.08208082	     -0.19316252	      0.06452909	      0.09478690
      0.08327040	     -0.18993147	      0.06310790	      0.09478690
      0.08445997	     -0.18667279	      0.06165383	      0.09478690
      0.08564955	     -0.18338582	      0.06016689	      0.09478690
      0.08683913	     -0.18006991	      0.05864716	      0.09478690
      0.08802870	     -0.17672439	      0.05709471	      0.09478690
      0.08921828	     -0.17334855	      0.05550972	      0.09478690
      0.09040786	     -0.16994169	      0.05389235	      0.09478690
      0.09159744	     -0.16650308	      0.05224284	      0.09478690
      0.09278701	     -0.16303195	      0.05056148	      0.09478690
      0.09397659	     -0.15952756	      0.04884859	      0.09478690
      0.09516617	     -0.15598911	      0.04710455	      0.09478690
      0.09635574	     -0.15241582	      0.04532979	      0.09478690
      0.09754532	     -0.14880687	      0.04352480	      0.09478690
      0.09873490	     -0.14516145	      0.04169010	      0.09478690
      0.09992448	     -0.14147873	      0.03982629	      0.09478690
      0.10111405	     -0.13775787	      0.03793403	      0.09478690
      0.10230363	     -0.13399806	      0.03601400	      0.09478690
      0.10349321	     -0.13019846	      0.03406699	      0.09478690
      0.10468278	     -0.12635838	      0.03209378	      0.09478690
      0.10587236	     -0.12247719	      0.03009525	      0.09478690
      0.10706194	     -0.11855518	      0.02807220	      0.09478690
      0.10825152	     -0.11459331	      0.02602539	      0.09478690
      0.10944109	     -0.11059885	      0.02395480	      0.09478690
      0.11063067	     -0.10658474	      0.02185957	      0.09478690
      0.11182025	     -0.10259515	      0.01973461	      0.09478690
      0.11300982	     -0.09870079	      0.01757077	      0.09478690
      0.11419940	     -0.09503465	      0.01535149	      0.09478690
      0.11538898	     -0.09179058	      0.01305183	      0.09478690
      0.11657856	     -0.08937901	      0.01064342	      0.09478690
      0.11776813	     -0.08832641	      0.00813043	      0.09478690
      0.11895771	     -0.08810538	      0.00577034	      0.09478690
      0.12014729	     -0.08787679	      0.00380500	      0.09478690
      0.12133686	     -0.08766722	      0.00222916	      0.09478690
      0.12252644	     -0.08750140	      0.00101206	      0.09478690
      0.12371602	     -0.08735237	      0.00009849	      0.09478690
      0.12490559	     -0.08722796	     -0.00057199	      0.09478690
      0.12609517	     -0.08711069	     -0.00105415	      0.09478690
      0.12728475	     -0.08700877	     -0.00139730	      0.09478690
      0.12847433	     -0.08690865	     -0.00163694	      0.09478690
      0.12966390	     -0.08681794	     -0.00180376	      0.09478690
      0.13085348	     -0.08672834	     -0.00191774	      0.09478690
      0.13204306	     -0.08664423	     -0.00199588	      0.09478690
      0.13323263	     -0.08656211	     -0.00204889	      0.09478690
      0.13442221	     -0.08648366	     -0.00208567	      0.09478690
      0.13561179	     -0.08640781	     -0.00211184	      0.09478690
      0.13680137	     -0.08633505	     -0.00213191	      0.09478690
      0.13799094	     -0.08626511	     -0.00214869	      0.09478690
      0.13918052	     -0.08619810	     -0.00216436	      0.09478690
      0.14037010	     -0.08613392	     -0.00218030	      0.09478690
      0.14155967	     -0.08607259	     -0.00219759	      0.09478690
      0.14274925	     -0.08601407	     -0.00221688	      0.09478690
      0.14393883	     -0.08595837	     -0.00223854	      0.09478690
      0.14512841	     -0.08590542	     -0.00226255	      0.09478690
      0.14631798	     -0.08585515	     -0.00228882	      0.09478690
      0.14750756	     -0.08580750	     -0.00231713	      0.09478690
      0.14869714	     -0.08576240	     -0.00234726	      0.09478690
      0.14988671	     -0.08571976	     -0.00237899	      0.09478690
      0.15107629	     -0.08567953	     -0.00241207	      0.09478690
      0.15226587	     -0.08564161	     -0.00244628	      0.09478690
      0.15345545	     -0.08560594	     -0.00248138	      0.09478690
      0.15464502	     -0.08557245	     -0.00251717	      0.09478690
      0.15583460	     -0.08554105	     -0.00255343	      0.09478690
      0.15702418	     -0.08551168	     -0.00258996	      0.09478690
      0.15821375	     -0.08548426	     -0.00262655	      0.09478690
      0.15940333	     -0.08545873	     -0.00266298	      0.09478690
      0.16059291	     -0.08543500	     -0.00269905	      0.09478690
      0.16178248	     -0.08541300	     -0.00273451	      0.09478690
      0.16297206	     -0.08539267	     -0.00276909	      0.09478690
      0.16416164	     -0.08537394	     -0.00280250	      0.09478690
      0.16535122	     -0.08535674	     -0.00283439	      0.09478690
      0.16654079	     -0.08534100	     -0.00286444	      0.09478690
      0.16773037	     -0.08532665	     -0.00289226	      0.09478690
      0.16891995	     -0.08531364	     -0.00291751	      0.09478690
      0.17010952	     -0.08530188	     -0.00293981	      0.09478690
      0.17129910	     -0.08529133	     -0.00295880	      0.09478690
      0.17248868	     -0.08528192	     -0.00297411	      0.09478690
      0.17367826	     -0.08527358	     -0.00298540	      0.09478690
      0.17486783	     -0.08526625	     -0.00299232	      0.09478690
      0.17605741	     -0.08525988	     -0.00299453	      0.09478690
      0.17724699	     -0.08525441	     -0.00299171	      0.09478690
      0.17843656	     -0.08524977	     -0.00298357	      0.09478690
      0.17962614	     -0.08524592	     -0.00296979	      0.09478690
      0.18081572	     -0.08524279	     -0.00295011	      0.09478690
      0.18200530	     -0.08524035	     -0.00292428	      0.09478690
      0.18319487	     -0.08523854	     -0.00289207	      0.09478690
      0.18438445	     -0.08523732	     -0.00285326	      0.09478690
      0.18557403	     -0.08523664	     -0.00280768	      0.09478690
      0.18676360	     -0.08523648	     -0.00275516	      0.09478690
      0.18795318	     -0.08523679	     -0.00269558	      0.09478690
      0.18914276	     -0.08523755	     -0.00262881	      0.09478690
      0.19033234	     -0.08523874	     -0.00255480	      0.09478690
      0.19152191	     -0.08524034	     -0.00247348	      0.09478690
      0.19271149	     -0.08524236	     -0.00238484	      0.09478690
      0.19390107	     -0.08524477	     -0.00228887	      0.09478690
      0.19509064	     -0.08524761	     -0.00218561	      0.09478690
      0.19628022	     -0.08525089	     -0.00207513	      0.09478690
      0.19746980	     -0.08525463	     -0.00195752	      0.09478690
      0.19865937	     -0.08525889	     -0.00183289	      0.09478690
      0.19984895	     -0.08526372	     -0.00170138	      0.09478690
      0.20103853	     -0.08526920	     -0.00156318	      0.09478690
      0.20222811	     -0.08527543	     -0.00141847	      0.09478690
      0.20341768	     -0.08528249	     -0.00126748	      0.09478690
      0.20460726	     -0.08529054	     -0.00111044	      0.09478690
      0.20579684	     -0.08529969	     -0.00094763	      0.09478690
      0.20698641	     -0.08531013	     -0.00077932	      0.09478690
      0.20817599	     -0.08532202	     -0.00060582	      0.09478690
      0.20936557	     -0.08533556	     -0.00042742	      0.09478690
      0.21055515	     -0.08535095	     -0.00024447	      0.09478690
      0.21174472	     -0.08536839	     -0.00005728	      0.09478690
      0.21293430	     -0.08538812	      0.00013379	      0.09478690
      0.21412388	     -0.08541033	      0.00032843	      0.09478690
      0.21531345	     -0.08543524	      0.00052629	      0.09478690
      0.21650303	     -0.08546304	      0.00072705	      0.09478690
      0.21769261	     -0.08549393	      0.00093039	      0.09478690
      0.21888219	     -0.08552806	      0.00113601	      0.09478690
      0.22007176	     -0.08556559	      0.00134364	      0.09478690
      0.22126134	     -0.08560664	      0.00155300	      0.09478690
      0.22245092	     -0.08565131	      0.00176386	      0.09478690
      0.22364049	     -0.08569967	      0.00197600	      0.09478690
      0.22483007	     -0.08575180	      0.00218923	      0.09478690
      0.22601965	     -0.08580773	      0.00240339	      0.09478690
      0.22720922	     -0.08586749	      0.00261833	      0.09478690
      0.22839880	     -0.08593109	      0.00283394	      0.09478690
      0.22958838	     -0.08599854	      0.00305010	      0.09478690
      0.23077796	     -0.08606983	      0.00326675	      0.09478690
      0.23196753	     -0.08614496	      0.00348382	      0.09478690
      0.23315711	     -0.08622393	      0.00370124	      0.09478690
      0.23434669	     -0.08630673	      0.00391898	      0.09478690
      0.23553626	     -0.08639337	      0.00413700	      0.09478690
      0.23672584	     -0.08648384	      0.00435527	      0.09478690
      0.23791542	     -0.08657818	      0.00457375	      0.09478690
      0.23910500	     -0.08667639	      0.00479242	      0.09478690
      0.24029457	     -0.08677851	      0.00501124	      0.09478690
      0.24148415	     -0.08688458	      0.00523017	      0.09478690
      0.24267373	     -0.08699464	      0.00544917	      0.09478690
      0.24386330	     -0.08710874	      0.00566820	      0.09478690
      0.24505288	     -0.08722695	      0.00588719	      0.09478690
      0.24624246	     -0.08734932	      0.00610606	      0.09478690
      0.24743204	     -0.08747592	      0.00632474	      0.09478690
      0.24862161	     -0.08760682	      0.00654312	      0.09478690
      0.24981119	     -0.08774208	      0.00676109	      0.09478690
      0.25100077	     -0.08788177	      0.00697851	      0.09478690
      0.25219034	     -0.08802594	      0.00719524	      0.09478690
      0.25337992	     -0.08817464	      0.00741111	      0.09478690
      0.25456950	     -0.08832792	      0.00762593	      0.09478690
      0.25575908	     -0.08848581	      0.00783949	      0.09478690
      0.25694865	     -0.08864834	      0.00805158	      0.09478690
      0.25813823	     -0.08881552	      0.00826194	      0.09478690
      0.25932781	     -0.08898734	      0.00847033	      0.09478690
      0.26051738	     -0.08916380	      0.00867647	      0.09478690
      0.26170696	     -0.08934487	      0.00888009	      0.09478690
      0.26289654	     -0.08953050	      0.00908088	      0.09478690
      0.26408611	     -0.08972063	      0.00927855	      0.09478690
      0.26527569	     -0.08991520	      0.00947279	      0.09478690
      0.26646527	     -0.09011410	      0.00966327	      0.09478690
      0.26765485	     -0.09031721	      0.00984967	      0.09478690
      0.26884442	     -0.09052440	      0.01003166	      0.09478690
      0.27003400	     -0.09073551	      0.01020893	      0.09478690
      0.27122358	     -0.09095040	      0.01038120	      0.09478690
      0.27241315	     -0.09116895	      0.01054821	      0.09478690
      0.27360273	     -0.09139104	      0.01070978	      0.09478690
      0.27479231	     -0.09161656	      0.01086575	      0.09478690
      0.27598189	     -0.09184540	      0.01101604	      0.09478690
      0.27717146	     -0.09207744	      0.01116059	      0.09478690
      0.27836104	     -0.09231255	      0.01129942	      0.09478690
      0.27955062	     -0.09255056	      0.01143254	      0.09478690
      0.28074019	     -0.09279130	      0.01156005	      0.09478690
      0.28192977	     -0.09303455	      0.01168206	      0.09478690
      0.28311935	     -0.09328008	      0.01179873	      0.09478690
      0.28430893	     -0.09352740	      0.01191010	      0.09478690
      0.28549850	     -0.09377580	      0.01201606	      0.09478690
      0.28668808	     -0.09402490	      0.01211671	      0.09478690
      0.28787766	     -0.09427468	      0.01221255	      0.09478690
      0.28906723	     -0.09452500	      0.01230411	      0.09478690
      0.29025681	     -0.09477568	      0.01239209	      0.09478690
      0.29144639	     -0.09502655	      0.01247719	      0.09478690
      0.29263597	     -0.09527743	      0.01256028	      0.09478690
      0.29382554	     -0.09552818	      0.01264225	      0.09478690
      0.29501512	     -0.09577862	      0.01272405	      0.09478690
      0.29620470	     -0.09602852	      0.01280662	      0.09478690
      0.29739427	     -0.09627760	      0.01289086	      0.09478690
      0.29858385	     -0.09652556	      0.01297763	      0.09478690
      0.29977343	     -0.09677208	      0.01306772	      0.09478690
      0.30096300	     -0.09701685	      0.01316186	      0.09478690
      0.30215258	     -0.09725956	      0.01326069	      0.09478690
      0.30334216	     -0.09749994	      0.01336479	      0.09478690
      0.30453174	     -0.09773771	      0.01347465	      0.09478690
      0.30572131	     -0.09797262	      0.01359072	      0.09478690
      0.30691089	     -0.09820442	      0.01371336	      0.09478690
      0.30810047	     -0.09843288	      0.01384290	      0.09478690
      0.30929004	     -0.09865775	      0.01397959	      0.09478690
      0.31047962	     -0.09887882	      0.01412368	      0.09478690
      0.31166920	     -0.09909581	      0.01427537	      0.09478690
      0.31285878	     -0.09930846	      0.01443486	      0.09478690
      0.31404835	     -0.09951645	      0.01460237	      0.09478690
      0.31523793	     -0.09971942	      0.01477815	      0.09478690
      0.31642751	     -0.09991694	      0.01496249	      0.09478690
      0.31761708	     -0.10010855	      0.01515577	      0.09478690
      0.31880666	     -0.10029364	      0.01535843	      0.09478690
      0.31999624	     -0.10047160	      0.01557102	      0.09478690
      0.32118582	     -0.10064169	      0.01579417	      0.09478690
      0.32237539	     -0.10080311	      0.01602858	      0.09478690
      0.32356497	     -0.10095499	      0.01627507	      0.09478690
      0.32475455	     -0.10109643	      0.01653446	      0.09478690
      0.32594412	     -0.10122646	      0.01680762	      0.09478690
      0.32713370	     -0.10134412	      0.01709542	      0.09478690
      0.32832328	     -0.10144848	      0.01739867	      0.09478690
      0.32951286	     -0.10153862	      0.01771812	      0.09478690
      0.33070243	     -0.10161368	      0.01805441	      0.09478690
      0.33189201	     -0.10167287	      0.01840808	      0.09478690
      0.33308159	     -0.10171550	      0.01877951	      0.09478690
      0.33427116	     -0.10174090	      0.01916900	      0.09478690
      0.33546074	     -0.10174845	      0.01957683	      0.09478690
      0.33665032	     -0.10173750	      0.02000331	      0.09478690
      0.33783989	     -0.10170756	      0.02044858	      0.09478690
      0.33902947	     -0.10165827	      0.02091264	      0.09478690
      0.34021905	     -0.10158948	      0.02139529	      0.09478690
      0.34140863	     -0.10150114	      0.02189629	      0.09478690
      0.34259820	     -0.10139336	      0.02241522	      0.09478690
      0.34378778	     -0.10126630	      0.02295160	      0.09478690
      0.34497736	     -0.10112023	      0.02350485	      0.09478690
      0.34616693	     -0.10095549	      0.02407432	      0.09478690
      0.34735651	     -0.10077250	      0.02465927	      0.09478690
      0.34854609	     -0.10057175	      0.02525894	      0.09478690
      0.34973567	     -0.10035378	      0.02587247	      0.09478690
      0.35092524	     -0.10011919	      0.02649898	      0.09478690
      0.35211482	     -0.09986861	      0.02713754	      0.09478690
      0.35330440	     -0.09960271	      0.02778720	      0.09478690
      0.35449397	     -0.09932219	      0.02844701	      0.09478690
      0.35568355	     -0.09902776	      0.02911599	      0.09478690
      0.35687313	     -0.09872011	      0.02979319	      0.09478690
      0.35806271	     -0.09839995	      0.03047765	      0.09478690
      0.35925228	     -0.09806798	      0.03116847	      0.09478690
      0.36044186	     -0.09772484	      0.03186476	      0.09478690
      0.36163144	     -0.09737119	      0.03256568	      0.09478690
      0.36282101	     -0.09700763	      0.03327042	      0.09478690
      0.36401059	     -0.09663473	      0.03397824	      0.09478690
      0.36520017	     -0.09625305	      0.03468842	      0.09478690
      0.36638974	     -0.09586308	      0.03540031	      0.09478690
      0.36757932	     -0.09546530	      0.03611329	      0.09478690
      0.36876890	     -0.09506016	      0.03682682	      0.09478690
      0.36995848	     -0.09464805	      0.03754034	      0.09478690
      0.37114805	     -0.09422937	      0.03825340	      0.09478690
      0.37233763	     -0.09380448	      0.03896552	      0.09478690
      0.37352721	     -0.09337370	      0.03967631	      0.09478690
      0.37471678	     -0.09293736	      0.04038536	      0.09478690
      0.37590636	     -0.09249576	      0.04109230	      0.09478690
      0.37709594	     -0.09204916	      0.04179679	      0.09478690
      0.37828552	     -0.09159784	      0.04249850	      0.09478690
      0.37947509	     -0.09114206	      0.04319711	      0.09478690
      0.38066467	     -0.09068206	      0.04389230	      0.09478690
      0.38185425	     -0.09021807	      0.04458379	      0.09478690
      0.38304382	     -0.08975032	      0.04527129	      0.09478690
      0.38423340	     -0.08927903	      0.04595451	      0.09478690
      0.38542298	     -0.08880441	      0.04663318	      0.09478690
      0.38661256	     -0.08832666	      0.04730705	      0.09478690
      0.38780213	     -0.08784598	      0.04797585	      0.09478690
      0.38899171	     -0.08736257	      0.04863934	      0.09478690
      0.39018129	     -0.08687661	      0.04929726	      0.09478690
      0.39137086	     -0.08638828	      0.04994939	      0.09478690
      0.39256044	     -0.08589775	      0.05059550	      0.09478690
      0.39375002	     -0.08540520	      0.05123536	      0.09478690
      0.39493960	     -0.08491078	      0.05186875	      0.09478690
      0.39612917	     -0.08441466	      0.05249547	      0.09478690
      0.39731875	     -0.08391699	      0.05311532	      0.09478690
      0.39850833	     -0.08341791	      0.05372810	      0.09478690
      0.39969790	     -0.08291756	      0.05433362	      0.09478690
      0.40088748	     -0.08241608	      0.05493169	      0.09478690
      0.40207706	     -0.08191361	      0.05552214	      0.09478690
      0.40326663	     -0.08141027	      0.05610480	      0.09478690
      0.40445621	     -0.08090619	      0.05667951	      0.09478690
      0.40564579	     -0.08040149	      0.05724609	      0.09478690
      0.40683537	     -0.07989628	      0.05780439	      0.09478690
      0.40802494	     -0.07939068	      0.05835427	      0.09478690
      0.40921452	     -0.07888480	      0.05889557	      0.09478690
      0.41040410	     -0.07837874	      0.05942816	      0.09478690
      0.41159367	     -0.07787260	      0.05995191	      0.09478690
      0.41278325	     -0.07736649	      0.06046669	      0.09478690
      0.41397283	     -0.07686048	      0.06097238	      0.09478690
      0.41516241	     -0.07635469	      0.06146886	      0.09478690
      0.41635198	     -0.07584918	      0.06195604	      0.09478690
      0.41754156	     -0.07534404	      0.06243381	      0.09478690
      0.41873114	     -0.07483934	      0.06290208	      0.09478690
      0.41992071	     -0.07433516	      0.06336078	      0.09478690
      0.42111029	     -0.07383157	      0.06380982	      0.09478690
      0.42229987	     -0.07332862	      0.06424915	      0.09478690
      0.42348945	     -0.07282637	      0.06467871	      0.09478690
      0.42467902	     -0.07232488	      0.06509845	      0.09478690
      0.42586860	     -0.07182420	      0.06550833	      0.09478690
      0.42705818	     -0.07132437	      0.06590832	      0.09478690
      0.42824775	     -0.07082544	      0.06629839	      0.09478690
      0.42943733	     -0.07032745	      0.06667854	      0.09478690
      0.43062691	     -0.06983042	      0.06704876	      0.09478690
      0.43181649	     -0.06933440	      0.06740904	      0.09478690
      0.43300606	     -0.06883942	      0.06775938	      0.09478690
      0.43419564	     -0.06834549	      0.06809982	      0.09478690
      0.43538522	     -0.06785265	      0.06843035	      0.09478690
      0.43657479	     -0.06736092	      0.06875102	      0.09478690
      0.43776437	     -0.06687032	      0.06906185	      0.09478690
      0.43895395	     -0.06638087	      0.06936287	      0.09478690
      0.44014352	     -0.06589259	      0.06965414	      0.09478690
      0.44133310	     -0.06540549	      0.06993568	      0.09478690
      0.44252268	     -0.06491960	      0.07020757	      0.09478690
      0.44371226	     -0.06443493	      0.07046985	      0.09478690
      0.44490183	     -0.06395149	      0.07072258	      0.09478690
      0.44609141	     -0.06346930	      0.07096583	      0.09478690
      0.44728099	     -0.06298837	      0.07119966	      0.09478690
      0.44847056	     -0.06250871	      0.07142414	      0.09478690
      0.44966014	     -0.06203034	      0.07163935	      0.09478690
      0.45084972	     -0.06155327	      0.07184537	      0.09478690
      0.45203930	     -0.06107751	      0.07204227	      0.09478690
      0.45322887	     -0.06060308	      0.07223015	      0.09478690
      0.45441845	     -0.06012997	      0.07240907	      0.09478690
      0.45560803	     -0.05965822	      0.07257914	      0.09478690
      0.45679760	     -0.05918782	      0.07274044	      0.09478690
      0.45798718	     -0.05871879	      0.07289306	      0.09478690
      0.45917676	     -0.05825115	      0.07303709	      0.09478690
      0.46036634	     -0.05778490	      0.07317264	      0.09478690
      0.46155591	     -0.05732006	      0.07329979	      0.09478690
      0.46274549	     -0.05685664	      0.07341865	      0.09478690
      0.46393507	     -0.05639465	      0.07352932	      0.09478690
      0.46512464	     -0.05593410	      0.07363189	      0.09478690
      0.46631422	     -0.05547500	      0.07372648	      0.09478690
      0.46750380	     -0.05501737	      0.07381318	      0.09478690
      0.46869338	     -0.05456121	      0.07389210	      0.09478690
      0.46988295	     -0.05410653	      0.07396335	      0.09478690
      0.47107253	     -0.05365333	      0.07402705	      0.09478690
      0.47226211	     -0.05320162	      0.07408330	      0.09478690
      0.47345168	     -0.05275141	      0.07413223	      0.09478690
      0.47464126	     -0.05230269	      0.07417394	      0.09478690
      0.47583084	     -0.05185546	      0.07420857	      0.09478690
      0.47702041	     -0.05140972	      0.07423622	      0.09478690
      0.47820999	     -0.05096547	      0.07425702	      0.09478690
      0.47939957	     -0.05052268	      0.07427110	      0.09478690
      0.48058915	     -0.05008136	      0.07427858	      0.09478690
      0.48177872	     -0.04964148	      0.07427958	      0.09478690
      0.48296830	     -0.04920304	      0.07427424	      0.09478690
      0.48415788	     -0.04876600	      0.07426268	      0.09478690
      0.48534745	     -0.04833035	      0.07424502	      0.09478690
      0.48653703	     -0.04789605	      0.07422139	      0.09478690
      0.48772661	     -0.04746308	      0.07419192	      0.09478690
      0.48891619	     -0.04703140	      0.07415673	      0.09478690
      0.49010576	     -0.04660097	      0.07411597	      0.09478690
      0.49129534	     -0.04617174	      0.07406975	      0.09478690
      0.49248492	     -0.04574369	      0.07401821	      0.09478690
      0.49367449	     -0.04531675	      0.07396151	      0.09478690
      0.49486407	     -0.04489090	      0.07389978	      0.09478690
      0.49605365	     -0.04446607	      0.07383317	      0.09478690
      0.49724323	     -0.04404223	      0.07376183	      0.09478690
      0.49843280	     -0.04361932	      0.07368591	      0.09478690
      0.49962238	     -0.04319729	      0.07360558	      0.09478690
      0.50081196	     -0.04277609	      0.07352098	      0.09478690
      0.50200153	     -0.04235567	      0.07343228	      0.09478690
      0.50319111	     -0.04193598	      0.07333963	      0.09478690
      0.50438069	     -0.04151697	      0.07324320	      0.09478690
      0.50557026	     -0.04109859	      0.07314316	      0.09478690
      0.50675984	     -0.04068079	      0.07303966	      0.09478690
      0.50794942	     -0.04026353	      0.07293286	      0.09478690
      0.50913900	     -0.03984676	      0.07282293	      0.09478690
      0.51032857	     -0.03943043	      0.07271004	      0.09478690
      0.51151815	     -0.03901451	      0.07259434	      0.09478690
      0.51270773	     -0.03859893	      0.07247601	      0.09478690
      0.51389730	     -0.03818364	      0.07235520	      0.09478690
      0.51508688	     -0.03776858	      0.07223207	      0.09478690
      0.51627646	     -0.03735367	      0.07210677	      0.09478690
      0.51746604	     -0.03693889	      0.07197949	      0.09478690
      0.51865561	     -0.03652425	      0.07185042	      0.09478690
      0.51984519	     -0.03610974	      0.07171976	      0.09478690
      0.52103477	     -0.03569536	      0.07158770	      0.09478690
      0.52222434	     -0.03528109	      0.07145444	      0.09478690
      0.52341392	     -0.03486693	      0.07132018	      0.09478690
      0.52460350	     -0.03445286	      0.07118510	      0.09478690
      0.52579308	     -0.03403886	      0.07104941	      0.09478690
      0.52698265	     -0.03362492	      0.07091330	      0.09478690
      0.52817223	     -0.03321101	      0.07077697	      0.09478690
      0.52936181	     -0.03279711	      0.07064061	      0.09478690
      0.53055138	     -0.03238319	      0.07050443	      0.09478690
      0.53174096	     -0.03196921	      0.07036862	      0.09478690
      0.53293054	     -0.03155513	      0.07023338	      0.09478690
      0.53412012	     -0.03114091	      0.07009892	      0.09478690
      0.53530969	     -0.03072650	      0.06996543	      0.09478690
      0.53649927	     -0.03031185	      0.06983314	      0.09478690
      0.53768885	     -0.02989689	      0.06970223	      0.09478690
      0.53887842	     -0.02948156	      0.06957293	      0.09478690
      0.54006800	     -0.02906579	      0.06944542	      0.09478690
      0.54125758	     -0.02864950	      0.06931994	      0.09478690
      0.54244715	     -0.02823259	      0.06919669	      0.09478690
      0.54363673	     -0.02781497	      0.06907587	      0.09478690
      0.54482631	     -0.02739654	      0.06895771	      0.09478690
      0.54601589	     -0.02697718	      0.06884241	      0.09478690
      0.54720546	     -0.02655676	      0.06873020	      0.09478690
      0.54839504	     -0.02613516	      0.06862128	      0.09478690
      0.54958462	     -0.02571222	      0.06851586	      0.09478690
      0.55077419	     -0.02528780	      0.06841416	      0.09478690
      0.55196377	     -0.02486174	      0.06831638	      0.09478690
      0.55315335	     -0.02443385	      0.06822272	      0.09478690
      0.55434293	     -0.02400397	      0.06813339	      0.09478690
      0.55553250	     -0.02357192	      0.06804859	      0.09478690
      0.55672208	     -0.02313750	      0.06796852	      0.09478690
      0.55791166	     -0.02270053	      0.06789337	      0.09478690
      0.55910123	     -0.02226082	      0.06782334	      0.09478690
      0.56029081	     -0.02181817	      0.06775861	      0.09478690
      0.56148039	     -0.02137239	      0.06769936	      0.09478690
      0.56266997	     -0.02092328	      0.06764577	      0.09478690
      0.56385954	     -0.02047064	      0.06759801	      0.09478690
      0.56504912	     -0.02001428	      0.06755625	      0.09478690
      0.56623870	     -0.01955399	      0.06752064	      0.09478690
      0.56742827	     -0.01908957	      0.06749133	      0.09478690
      0.56861785	     -0.01862084	      0.06746848	      0.09478690
      0.56980743	     -0.01814759	      0.06745221	      0.09478690
      0.57099701	     -0.01766963	      0.06744267	      0.09478690
      0.57218658	     -0.01718676	      0.06743998	      0.09478690
      0.57337616	     -0.01669880	      0.06744426	      0.09478690
      0.57456574	     -0.01620556	      0.06745563	      0.09478690
      0.57575531	     -0.01570685	      0.06747420	      0.09478690
      0.57694489	     -0.01520248	      0.06750008	      0.09478690
      0.57813447	     -0.01469228	      0.06753336	      0.09478690
      0.57932404	     -0.01417607	      0.06757415	      0.09478690
      0.58051362	     -0.01365368	      0.06762253	      0.09478690
      0.58170320	     -0.01312493	      0.06767858	      0.09478690
      0.58289278	     -0.01258964	      0.06774239	      0.09478690
      0.58408235	     -0.01204763	      0.06781402	      0.09478690
      0.58527193	     -0.01149874	      0.06789354	      0.09478690
      0.58646151	     -0.01094277	      0.06798098	      0.09478690
      0.58765108	     -0.01037956	      0.06807641	      0.09478690
      0.58884066	     -0.00980891	      0.06817985	      0.09478690
      0.59003024	     -0.00923065	      0.06829134	      0.09478690
      0.59121982	     -0.00864459	      0.06841091	      0.09478690
      0.59240939	     -0.00805056	      0.06853858	      0.09478690
      0.59359897	     -0.00744836	      0.06867437	      0.09478690
      0.59478855	     -0.00683780	      0.06881827	      0.09478690
      0.59597812	     -0.00621872	      0.06897030	      0.09478690
      0.59716770	     -0.00559091	      0.06913045	      0.09478690
      0.59835728	     -0.00495419	      0.06929873	      0.09478690
      0.59954686	     -0.00430838	      0.06947510	      0.09478690
      0.60073643	     -0.00365330	      0.06965957	      0.09478690
      0.60192601	     -0.00298876	      0.06985209	      0.09478690
      0.60311559	     -0.00231458	      0.07005265	      0.09478690
      0.60430516	     -0.00163060	      0.07026120	      0.09478690
      0.60549474	     -0.00093663	      0.07047771	      0.09478690
      0.60668432	     -0.00023251	      0.07070212	      0.09478690
      0.60787390	      0.00048192	      0.07093438	      0.09478690
      0.60906347	      0.00120684	      0.07117442	      0.09478690
      0.61025305	      0.00194240	      0.07142217	      0.09478690
      0.61144263	      0.00268876	      0.07167756	      0.09478690
      0.61263220	      0.00344609	      0.07194048	      0.09478690
      0.61382178	      0.00421453	      0.07221085	      0.09478690
      0.61501136	      0.00499425	      0.07248856	      0.09478690
      0.61620093	      0.00578540	      0.07277350	      0.09478690
      0.61739051	      0.00658814	      0.07306556	      0.09478690
      0.61858009	      0.00740260	      0.07336460	      0.09478690
      0.61976967	      0.00822895	      0.07367050	      0.09478690
      0.62095924	      0.00906733	      0.07398313	      0.09478690
      0.62214882	      0.00991789	      0.07430233	      0.09478690
      0.62333840	      0.01078078	      0.07462796	      0.09478690
      0.62452797	      0.01165614	      0.07495987	      0.09478690
      0.62571755	      0.01254412	      0.07529790	      0.09478690
      0.62690713	      0.01344486	      0.07564187	      0.09478690
      0.62809671	      0.01435850	      0.07599163	      0.09478690
      0.62928628	      0.01528520	      0.07634698	      0.09478690
      0.63047586	      0.01622508	      0.07670775	      0.09478690
      0.63166544	      0.01717828	      0.07707374	      0.09478690
      0.63285501	      0.01814494	      0.07744477	      0.09478690
      0.63404459	      0.01912518	      0.07782063	      0.09478690
      0.63523417	      0.02011915	      0.07820112	      0.09478690
      0.63642375	      0.02112695	      0.07858601	      0.09478690
      0.63761332	      0.02214870	      0.07897510	      0.09478690
      0.63880290	      0.02318453	      0.07936816	      0.09478690
      0.63999248	      0.02423453	      0.07976495	      0.09478690
      0.64118205	      0.02529881	      0.08016525	      0.09478690
      0.64237163	      0.02637747	      0.08056880	      0.09478690
      0.64356121	      0.02747059	      0.08097537	      0.09478690
      0.64475078	      0.02857825	      0.08138470	      0.09478690
      0.64594036	      0.02970054	      0.08179653	      0.09478690
      0.64712994	      0.03083755	      0.08221059	      0.09478690
      0.64831952	      0.03198934	      0.08262664	      0.09478690
      0.64950909	      0.03315599	      0.08304439	      0.09478690
      0.65069867	      0.03433755	      0.08346360	      0.09478690
      0.65188825	      0.03553408	      0.08388397	      0.09478690
      0.65307782	      0.03674560	      0.08430524	      0.09478690
      0.65426740	      0.03797216	      0.08472711	      0.09478690
      0.65545698	      0.03921377	      0.08514930	      0.09478690
      0.65664656	      0.04047046	      0.08557151	      0.09478690
      0.65783613	      0.04174224	      0.08599345	      0.09478690
      0.65902571	      0.04302911	      0.08641484	      0.09478690
      0.66021529	      0.04433107	      0.08683536	      0.09478690
      0.66140486	      0.04564812	      0.08725472	      0.09478690
      0.66259444	      0.04698025	      0.08767262	      0.09478690
      0.66378402	      0.04832744	      0.08808876	      0.09478690
      0.66497360	      0.04968968	      0.08850284	      0.09478690
      0.66616317	      0.05106696	      0.08891457	      0.09478690
      0.66735275	      0.05245925	      0.08932365	      0.09478690
      0.66854233	      0.05386655	      0.08972978	      0.09478690
      0.66973190	      0.05528883	      0.09013268	      0.09478690
      0.67092148	      0.05672608	      0.09053206	      0.09478690
      0.67211106	      0.05817829	      0.09092763	      0.09478690
      0.67330064	      0.05964544	      0.09131911	      0.09478690
      0.67449021	      0.06112753	      0.09170622	      0.09478690
      0.67567979	      0.06262454	      0.09208868	      0.09478690
      0.67686937	      0.06413649	      0.09246624	      0.09478690
      0.67805894	      0.06566336	      0.09283861	      0.09478690
      0.67924852	      0.06720516	      0.09320554	      0.09478690
      0.68043810	      0.06876190	      0.09356677	      0.09478690
      0.68162767	      0.07033360	      0.09392204	      0.09478690
      0.68281725	      0.07192028	      0.09427111	      0.09478690
      0.68400683	      0.07352194	      0.09461372	      0.09478690
      0.68519641	      0.07513862	      0.09494964	      0.09478690
      0.68638598	      0.07677033	      0.09527862	      0.09478690
      0.68757556	      0.07841711	      0.09560043	      0.09478690
      0.68876514	      0.08007899	      0.09591483	      0.09478690
      0.68995471	      0.08175600	      0.09622159	      0.09478690
      0.69114429	      0.08344816	      0.09652049	      0.09478690
      0.69233387	      0.08515550	      0.09681130	      0.09478690
      0.69352345	      0.08687806	      0.09709379	      0.09478690
      0.69471302	      0.08861586	      0.09736775	      0.09478690
      0.69590260	      0.09036892	      0.09763294	      0.09478690
      0.69709218	      0.09213726	      0.09788915	      0.09478690
      0.69828175	      0.09392089	      0.09813616	      0.09478690
      0.69947133	      0.09571984	      0.09837375	      0.09478690
      0.70066091	      0.09753409	      0.09860170	      0.09478690
      0.70185049	      0.09936366	      0.09881979	      0.09478690
      0.70304006	      0.10120854	      0.09902781	      0.09478690
      0.70422964	      0.10306871	      0.09922554	      0.09478690
      0.70541922	      0.10494417	      0.09941276	      0.09478690
      0.70660879	      0.10683488	      0.09958925	      0.09478690
      0.70779837	      0.10874084	      0.09975479	      0.09478690
      0.70898795	      0.11066201	      0.09990918	      0.09478690
      0.71017753	      0.11259835	      0.10005219	      0.09478690
      0.71136710	      0.11454984	      0.10018361	      0.09478690
      0.71255668	      0.11651643	      0.10030323	      0.09478690
      0.71374626	      0.11849818	      0.10041084	      0.09478690
