PointVelocity
version=1
nRows=601
nColumns=4
inDegrees=no
No description.
endheader
time	state_0	state_1	state_2
      0.00000000	     -0.00162133	     -0.10156145	      0.00000000
      0.00118958	     -0.00174382	     -0.10023440	      0.00000000
      0.00237915	     -0.00189425	     -0.09894067	      0.00000000
      0.00356873	     -0.00206311	     -0.09766881	      0.00000000
      0.00475831	     -0.00223755	     -0.09637183	      0.00000000
      0.00594789	     -0.00242556	     -0.09505393	      0.00000000
      0.00713746	     -0.00262760	     -0.09372173	      0.00000000
      0.00832704	     -0.00284299	     -0.09237667	      0.00000000
      0.00951662	     -0.00307248	     -0.09101634	      0.00000000
      0.01070619	     -0.00331728	     -0.08964116	      0.00000000
      0.01189577	     -0.00357787	     -0.08825155	      0.00000000
      0.01308535	     -0.00385432	     -0.08684783	      0.00000000
      0.01427493	     -0.00414695	     -0.08542985	      0.00000000
      0.01546450	     -0.00445536	     -0.08399785	      0.00000000
      0.01665408	     -0.00477922	     -0.08255190	      0.00000000
      0.01784366	     -0.00511739	     -0.08109235	      0.00000000
      0.01903323	     -0.00546879	     -0.07961937	      0.00000000
      0.02022281	     -0.00583198	     -0.07813346	      0.00000000
      0.02141239	     -0.00620547	     -0.07663498	      0.00000000
      0.02260196	     -0.00658822	     -0.07512453	      0.00000000
      0.02379154	     -0.00697918	     -0.07360256	      0.00000000
      0.02498112	     -0.00737829	     -0.07206953	      0.00000000
      0.02617070	     -0.00778564	     -0.07052573	      0.00000000
      0.02736027	     -0.00820153	     -0.06897128	      0.00000000
      0.02854985	     -0.00862622	     -0.06740611	      0.00000000
      0.02973943	     -0.00905889	     -0.06583026	      0.00000000
      0.03092900	     -0.00949842	     -0.06424368	      0.00000000
      0.03211858	     -0.00994340	     -0.06264666	      0.00000000
      0.03330816	     -0.01039244	     -0.06103933	      0.00000000
      0.03449774	     -0.01084501	     -0.05942186	      0.00000000
      0.03568731	     -0.01130055	     -0.05779417	      0.00000000
      0.03687689	     -0.01175917	     -0.05615603	      0.00000000
      0.03806647	     -0.01222078	     -0.05450699	      0.00000000
      0.03925604	     -0.01268555	     -0.05284652	      0.00000000
      0.04044562	     -0.01315349	     -0.05117385	      0.00000000
      0.04163520	     -0.01362470	     -0.04948826	      0.00000000
      0.04282478	     -0.01409919	     -0.04778870	      0.00000000
      0.04401435	     -0.01457703	     -0.04607428	      0.00000000
      0.04520393	     -0.01505823	     -0.04434372	      0.00000000
      0.04639351	     -0.01554287	     -0.04259594	      0.00000000
      0.04758308	     -0.01603099	     -0.04082948	      0.00000000
      0.04877266	     -0.01652267	     -0.03904310	      0.00000000
      0.04996224	     -0.01701797	     -0.03723512	      0.00000000
      0.05115182	     -0.01751698	     -0.03540418	      0.00000000
      0.05234139	     -0.01801982	     -0.03354839	      0.00000000
      0.05353097	     -0.01852657	     -0.03166624	      0.00000000
      0.05472055	     -0.01903739	     -0.02975566	      0.00000000
      0.05591012	     -0.01955238	     -0.02781499	      0.00000000
      0.05709970	     -0.02007174	     -0.02584195	      0.00000000
      0.05828928	     -0.02059559	     -0.02383476	      0.00000000
      0.05947885	     -0.02112415	     -0.02179092	      0.00000000
      0.06066843	     -0.02165755	     -0.01970855	      0.00000000
      0.06185801	     -0.02219606	     -0.01758495	      0.00000000
      0.06304759	     -0.02273979	     -0.01541814	      0.00000000
      0.06423716	     -0.02328905	     -0.01320526	      0.00000000
      0.06542674	     -0.02384391	     -0.01094424	      0.00000000
      0.06661632	     -0.02440471	     -0.00863210	      0.00000000
      0.06780589	     -0.02497146	     -0.00626671	      0.00000000
      0.06899547	     -0.02554452	     -0.00384497	      0.00000000
      0.07018505	     -0.02612385	     -0.00136470	      0.00000000
      0.07137463	     -0.02670978	      0.00117726	      0.00000000
      0.07256420	     -0.02730223	      0.00378313	      0.00000000
      0.07375378	     -0.02790154	      0.00645622	      0.00000000
      0.07494336	     -0.02850756	      0.00919880	      0.00000000
      0.07613293	     -0.02912064	      0.01201423	      0.00000000
      0.07732251	     -0.02974057	      0.01490487	      0.00000000
      0.07851209	     -0.03036773	      0.01787422	      0.00000000
      0.07970167	     -0.03100183	      0.02092467	      0.00000000
      0.08089124	     -0.03164332	      0.02405980	      0.00000000
      0.08208082	     -0.03229179	      0.02728205	      0.00000000
      0.08327040	     -0.03294772	      0.03059509	      0.00000000
      0.08445997	     -0.03361060	      0.03400129	      0.00000000
      0.08564955	     -0.03428088	      0.03750418	      0.00000000
      0.08683913	     -0.03495794	      0.04110603	      0.00000000
      0.08802870	     -0.03564214	      0.04481018	      0.00000000
      0.08921828	     -0.03633275	      0.04861873	      0.00000000
      0.09040786	     -0.03703000	      0.05253473	      0.00000000
      0.09159744	     -0.03773306	      0.05656007	      0.00000000
      0.09278701	     -0.03844202	      0.06069737	      0.00000000
      0.09397659	     -0.03915595	      0.06494829	      0.00000000
      0.09516617	     -0.03987476	      0.06931485	      0.00000000
      0.09635574	     -0.04059746	      0.07379846	      0.00000000
      0.09754532	     -0.04132374	      0.07840044	      0.00000000
      0.09873490	     -0.04205257	      0.08312189	      0.00000000
      0.09992448	     -0.04278343	      0.08796328	      0.00000000
      0.10111405	     -0.04351524	      0.09292541	      0.00000000
      0.10230363	     -0.04424733	      0.09800778	      0.00000000
      0.10349321	     -0.04497856	      0.10321093	      0.00000000
      0.10468278	     -0.04570809	      0.10853327	      0.00000000
      0.10587236	     -0.04643436	      0.11397492	      0.00000000
      0.10706194	     -0.04715551	      0.11953248	      0.00000000
      0.10825152	     -0.04787081	      0.12520733	      0.00000000
      0.10944109	     -0.04857971	      0.13099677	      0.00000000
      0.11063067	     -0.04928524	      0.13690815	      0.00000000
      0.11182025	     -0.04999447	      0.14294889	      0.00000000
      0.11300982	     -0.05071503	      0.14913765	      0.00000000
      0.11419940	     -0.05146220	      0.15549516	      0.00000000
      0.11538898	     -0.05227774	      0.16208569	      0.00000000
      0.11657856	     -0.05333751	      0.16914281	      0.00000000
      0.11776813	     -0.05451669	      0.17658444	      0.00000000
      0.11895771	     -0.05552333	      0.18405933	      0.00000000
      0.12014729	     -0.05651754	      0.19171911	      0.00000000
      0.12133686	     -0.05752716	      0.19964543	      0.00000000
      0.12252644	     -0.05833738	      0.20760300	      0.00000000
      0.12371602	     -0.05891821	      0.21550373	      0.00000000
      0.12490559	     -0.05927779	      0.22333262	      0.00000000
      0.12609517	     -0.05942700	      0.23106096	      0.00000000
      0.12728475	     -0.05938179	      0.23867292	      0.00000000
      0.12847433	     -0.05919180	      0.24614022	      0.00000000
      0.12966390	     -0.05874572	      0.25338251	      0.00000000
      0.13085348	     -0.05803651	      0.26030761	      0.00000000
      0.13204306	     -0.05658060	      0.26673003	      0.00000000
      0.13323263	     -0.05382461	      0.27229613	      0.00000000
      0.13442221	     -0.04878008	      0.27686926	      0.00000000
      0.13561179	     -0.04078060	      0.28002935	      0.00000000
      0.13680137	     -0.02882055	      0.28215157	      0.00000000
      0.13799094	     -0.01395482	      0.28246424	      0.00000000
      0.13918052	      0.00953472	      0.28476026	      0.00000000
      0.14037010	      0.05379072	      0.29654374	      0.00000000
      0.14155967	      0.12214755	      0.31519789	      0.00000000
      0.14274925	      0.21232367	      0.33234434	      0.00000000
      0.14393883	      0.31466931	      0.34318110	      0.00000000
      0.14512841	      0.42078207	      0.34744518	      0.00000000
      0.14631798	      0.53021491	      0.34792105	      0.00000000
      0.14750756	      0.64498662	      0.34686812	      0.00000000
      0.14869714	      0.76734686	      0.34579324	      0.00000000
      0.14988671	      0.89711508	      0.34532885	      0.00000000
      0.15107629	      1.03253992	      0.34503661	      0.00000000
      0.15226587	      1.17277042	      0.34517630	      0.00000000
      0.15345545	      1.31628850	      0.34561886	      0.00000000
      0.15464502	      1.46131939	      0.34630028	      0.00000000
      0.15583460	      1.60561130	      0.34685497	      0.00000000
      0.15702418	      1.74697642	      0.34702698	      0.00000000
      0.15821375	      1.88453148	      0.34690639	      0.00000000
      0.15940333	      2.01747062	      0.34660063	      0.00000000
      0.16059291	      2.14556260	      0.34625636	      0.00000000
      0.16178248	      2.26823937	      0.34584733	      0.00000000
      0.16297206	      2.38542570	      0.34543215	      0.00000000
      0.16416164	      2.49704998	      0.34502784	      0.00000000
      0.16535122	      2.60332493	      0.34470247	      0.00000000
      0.16654079	      2.70438310	      0.34444152	      0.00000000
      0.16773037	      2.80048340	      0.34425555	      0.00000000
      0.16891995	      2.89186322	      0.34410614	      0.00000000
      0.17010952	      2.97883008	      0.34399317	      0.00000000
      0.17129910	      3.06168998	      0.34388726	      0.00000000
      0.17248868	      3.14075176	      0.34379094	      0.00000000
      0.17367826	      3.21632315	      0.34368690	      0.00000000
      0.17486783	      3.28866511	      0.34357452	      0.00000000
      0.17605741	      3.35804975	      0.34344486	      0.00000000
      0.17724699	      3.42468251	      0.34329555	      0.00000000
      0.17843656	      3.48878569	      0.34312249	      0.00000000
      0.17962614	      3.55050783	      0.34292410	      0.00000000
      0.18081572	      3.61001617	      0.34270062	      0.00000000
      0.18200530	      3.66740232	      0.34245379	      0.00000000
      0.18319487	      3.72277515	      0.34218727	      0.00000000
      0.18438445	      3.77617422	      0.34190542	      0.00000000
      0.18557403	      3.82765403	      0.34161258	      0.00000000
      0.18676360	      3.87721814	      0.34131424	      0.00000000
      0.18795318	      3.92488285	      0.34101440	      0.00000000
      0.18914276	      3.97063766	      0.34072012	      0.00000000
      0.19033234	      4.01448169	      0.34043655	      0.00000000
      0.19152191	      4.05640684	      0.34017269	      0.00000000
      0.19271149	      4.09641159	      0.33993637	      0.00000000
      0.19390107	      4.13449641	      0.33973632	      0.00000000
      0.19509064	      4.17066629	      0.33958157	      0.00000000
      0.19628022	      4.20492725	      0.33947489	      0.00000000
      0.19746980	      4.23728874	      0.33942041	      0.00000000
      0.19865937	      4.26775622	      0.33940762	      0.00000000
      0.19984895	      4.29633862	      0.33942777	      0.00000000
      0.20103853	      4.32303854	      0.33945240	      0.00000000
      0.20222811	      4.34786296	      0.33945492	      0.00000000
      0.20341768	      4.37081463	      0.33938912	      0.00000000
      0.20460726	      4.39190158	      0.33921044	      0.00000000
      0.20579684	      4.41113125	      0.33885806	      0.00000000
      0.20698641	      4.42851675	      0.33827234	      0.00000000
      0.20817599	      4.44407230	      0.33738110	      0.00000000
      0.20936557	      4.45781709	      0.33611214	      0.00000000
      0.21055515	      4.46977169	      0.33438481	      0.00000000
      0.21174472	      4.47995836	      0.33211497	      0.00000000
      0.21293430	      4.48840692	      0.32922089	      0.00000000
      0.21412388	      4.49514279	      0.32561250	      0.00000000
      0.21531345	      4.50022159	      0.32122936	      0.00000000
      0.21650303	      4.50369287	      0.31600514	      0.00000000
      0.21769261	      4.50566095	      0.30993390	      0.00000000
      0.21888219	      4.50622270	      0.30301253	      0.00000000
      0.22007176	      4.50551421	      0.29529255	      0.00000000
      0.22126134	      4.50365640	      0.28682911	      0.00000000
      0.22245092	      4.50077373	      0.27768962	      0.00000000
      0.22364049	      4.49697605	      0.26794557	      0.00000000
      0.22483007	      4.49235414	      0.25764593	      0.00000000
      0.22601965	      4.48698603	      0.24683992	      0.00000000
      0.22720922	      4.48093496	      0.23555674	      0.00000000
      0.22839880	      4.47424541	      0.22380853	      0.00000000
      0.22958838	      4.46698704	      0.21165917	      0.00000000
      0.23077796	      4.45920451	      0.19914750	      0.00000000
      0.23196753	      4.45102277	      0.18648562	      0.00000000
      0.23315711	      4.44254530	      0.17389196	      0.00000000
      0.23434669	      4.43394641	      0.16176758	      0.00000000
      0.23553626	      4.42537480	      0.15053535	      0.00000000
      0.23672584	      4.41695752	      0.14060960	      0.00000000
      0.23791542	      4.40879532	      0.13241193	      0.00000000
      0.23910500	      4.40089120	      0.12615412	      0.00000000
      0.24029457	      4.39324375	      0.12206206	      0.00000000
      0.24148415	      4.38575489	      0.12012172	      0.00000000
      0.24267373	      4.37834129	      0.12033947	      0.00000000
      0.24386330	      4.37087198	      0.12259100	      0.00000000
      0.24505288	      4.36323659	      0.12675983	      0.00000000
      0.24624246	      4.35531828	      0.13273951	      0.00000000
      0.24743204	      4.34702280	      0.14042364	      0.00000000
      0.24862161	      4.33824443	      0.14979158	      0.00000000
      0.24981119	      4.32891437	      0.16083967	      0.00000000
      0.25100077	      4.31886761	      0.17357243	      0.00000000
      0.25219034	      4.30800702	      0.18803532	      0.00000000
      0.25337992	      4.29596505	      0.20404126	      0.00000000
      0.25456950	      4.28248438	      0.22144734	      0.00000000
      0.25575908	      4.26681917	      0.23961384	      0.00000000
      0.25694865	      4.24835788	      0.25790343	      0.00000000
      0.25813823	      4.22587012	      0.27512581	      0.00000000
      0.25932781	      4.19820818	      0.28997746	      0.00000000
      0.26051738	      4.16381908	      0.30099296	      0.00000000
      0.26170696	      4.12112407	      0.30647666	      0.00000000
      0.26289654	      4.06890242	      0.30545872	      0.00000000
      0.26408611	      4.00601858	      0.29694941	      0.00000000
      0.26527569	      3.93233271	      0.28121967	      0.00000000
      0.26646527	      3.84826559	      0.25915090	      0.00000000
      0.26765485	      3.75362675	      0.23083981	      0.00000000
      0.26884442	      3.64842633	      0.19646644	      0.00000000
      0.27003400	      3.52889503	      0.15195675	      0.00000000
      0.27122358	      3.39059759	      0.09220096	      0.00000000
      0.27241315	      3.22754501	      0.01095676	      0.00000000
      0.27360273	      3.03371336	     -0.09796409	      0.00000000
      0.27479231	      2.80703169	     -0.23599484	      0.00000000
      0.27598189	      2.54474623	     -0.40472742	      0.00000000
      0.27717146	      2.24992612	     -0.60012900	      0.00000000
      0.27836104	      1.92434821	     -0.81830035	      0.00000000
      0.27955062	      1.57499645	     -1.05189172	      0.00000000
      0.28074019	      1.21003543	     -1.29102362	      0.00000000
      0.28192977	      0.83732508	     -1.52944657	      0.00000000
      0.28311935	      0.48398378	     -1.73337800	      0.00000000
      0.28430893	      0.25682460	     -1.78065793	      0.00000000
      0.28549850	      0.18760690	     -1.65833406	      0.00000000
      0.28668808	      0.15562913	     -1.52566965	      0.00000000
      0.28787766	      0.12469109	     -1.42784648	      0.00000000
      0.28906723	      0.10596914	     -1.34005237	      0.00000000
      0.29025681	      0.08986542	     -1.25857981	      0.00000000
      0.29144639	      0.07675047	     -1.16164960	      0.00000000
      0.29263597	      0.06157180	     -1.04061097	      0.00000000
      0.29382554	      0.04609717	     -0.90858463	      0.00000000
      0.29501512	      0.03136387	     -0.78008838	      0.00000000
      0.29620470	      0.01892376	     -0.66387633	      0.00000000
      0.29739427	      0.00928102	     -0.56551271	      0.00000000
      0.29858385	      0.00203263	     -0.48281621	      0.00000000
      0.29977343	     -0.00305023	     -0.41492350	      0.00000000
      0.30096300	     -0.00649548	     -0.35839897	      0.00000000
      0.30215258	     -0.00871713	     -0.31069732	      0.00000000
      0.30334216	     -0.01002708	     -0.26973861	      0.00000000
      0.30453174	     -0.01073480	     -0.23362030	      0.00000000
      0.30572131	     -0.01096199	     -0.20149792	      0.00000000
      0.30691089	     -0.01090893	     -0.17231557	      0.00000000
      0.30810047	     -0.01063492	     -0.14568857	      0.00000000
      0.30929004	     -0.01022135	     -0.12113535	      0.00000000
      0.31047962	     -0.00969087	     -0.09852960	      0.00000000
      0.31166920	     -0.00909157	     -0.07762055	      0.00000000
      0.31285878	     -0.00843716	     -0.05831100	      0.00000000
      0.31404835	     -0.00775464	     -0.04045846	      0.00000000
      0.31523793	     -0.00705285	     -0.02398366	      0.00000000
      0.31642751	     -0.00634731	     -0.00878932	      0.00000000
      0.31761708	     -0.00564365	      0.00519364	      0.00000000
      0.31880666	     -0.00495065	      0.01804180	      0.00000000
      0.31999624	     -0.00427161	      0.02981726	      0.00000000
      0.32118582	     -0.00361110	      0.04058554	      0.00000000
      0.32237539	     -0.00297072	      0.05040307	      0.00000000
      0.32356497	     -0.00235234	      0.05932814	      0.00000000
      0.32475455	     -0.00175637	      0.06741214	      0.00000000
      0.32594412	     -0.00118301	      0.07470774	      0.00000000
      0.32713370	     -0.00063186	      0.08126167	      0.00000000
      0.32832328	     -0.00010213	      0.08712177	      0.00000000
      0.32951286	      0.00040699	      0.09233039	      0.00000000
      0.33070243	      0.00089681	      0.09693093	      0.00000000
      0.33189201	      0.00136829	      0.10096156	      0.00000000
      0.33308159	      0.00182289	      0.10446143	      0.00000000
      0.33427116	      0.00226155	      0.10746473	      0.00000000
      0.33546074	      0.00268566	      0.11000666	      0.00000000
      0.33665032	      0.00309608	      0.11211768	      0.00000000
      0.33783989	      0.00349409	      0.11382899	      0.00000000
      0.33902947	      0.00388029	      0.11516721	      0.00000000
      0.34021905	      0.00425540	      0.11616056	      0.00000000
      0.34140863	      0.00462019	      0.11683294	      0.00000000
      0.34259820	      0.00497571	      0.11720827	      0.00000000
      0.34378778	      0.00532233	      0.11730600	      0.00000000
      0.34497736	      0.00566069	      0.11714685	      0.00000000
      0.34616693	      0.00599119	      0.11674797	      0.00000000
      0.34735651	      0.00631432	      0.11612722	      0.00000000
      0.34854609	      0.00663040	      0.11529947	      0.00000000
      0.34973567	      0.00693980	      0.11428016	      0.00000000
      0.35092524	      0.00724275	      0.11308231	      0.00000000
      0.35211482	      0.00753952	      0.11171945	      0.00000000
      0.35330440	      0.00783026	      0.11020321	      0.00000000
      0.35449397	      0.00811515	      0.10854556	      0.00000000
      0.35568355	      0.00839423	      0.10675708	      0.00000000
      0.35687313	      0.00866758	      0.10484857	      0.00000000
      0.35806271	      0.00893510	      0.10282992	      0.00000000
      0.35925228	      0.00919678	      0.10071116	      0.00000000
      0.36044186	      0.00945239	      0.09850175	      0.00000000
      0.36163144	      0.00970178	      0.09621129	      0.00000000
      0.36282101	      0.00994459	      0.09384901	      0.00000000
      0.36401059	      0.01018055	      0.09142428	      0.00000000
      0.36520017	      0.01040917	      0.08894615	      0.00000000
      0.36638974	      0.01063004	      0.08642381	      0.00000000
      0.36757932	      0.01084260	      0.08386598	      0.00000000
      0.36876890	      0.01104633	      0.08128153	      0.00000000
      0.36995848	      0.01124064	      0.07867852	      0.00000000
      0.37114805	      0.01142498	      0.07606522	      0.00000000
      0.37233763	      0.01159880	      0.07344858	      0.00000000
      0.37352721	      0.01176157	      0.07083589	      0.00000000
      0.37471678	      0.01191290	      0.06823261	      0.00000000
      0.37590636	      0.01205237	      0.06564457	      0.00000000
      0.37709594	      0.01217976	      0.06307553	      0.00000000
      0.37828552	      0.01229480	      0.06052972	      0.00000000
      0.37947509	      0.01239747	      0.05800946	      0.00000000
      0.38066467	      0.01248770	      0.05551745	      0.00000000
      0.38185425	      0.01256562	      0.05305498	      0.00000000
      0.38304382	      0.01263135	      0.05062359	      0.00000000
      0.38423340	      0.01268510	      0.04822417	      0.00000000
      0.38542298	      0.01272711	      0.04585767	      0.00000000
      0.38661256	      0.01275757	      0.04352519	      0.00000000
      0.38780213	      0.01277674	      0.04122780	      0.00000000
      0.38899171	      0.01278473	      0.03896734	      0.00000000
      0.39018129	      0.01278170	      0.03674552	      0.00000000
      0.39137086	      0.01276763	      0.03456511	      0.00000000
      0.39256044	      0.01274252	      0.03242874	      0.00000000
      0.39375002	      0.01270620	      0.03033997	      0.00000000
      0.39493960	      0.01265852	      0.02830229	      0.00000000
      0.39612917	      0.01259920	      0.02631957	      0.00000000
      0.39731875	      0.01252798	      0.02439574	      0.00000000
      0.39850833	      0.01244454	      0.02253437	      0.00000000
      0.39969790	      0.01234859	      0.02073919	      0.00000000
      0.40088748	      0.01223990	      0.01901281	      0.00000000
      0.40207706	      0.01211822	      0.01735814	      0.00000000
      0.40326663	      0.01198350	      0.01577630	      0.00000000
      0.40445621	      0.01183566	      0.01426883	      0.00000000
      0.40564579	      0.01167488	      0.01283517	      0.00000000
      0.40683537	      0.01150127	      0.01147518	      0.00000000
      0.40802494	      0.01131528	      0.01018669	      0.00000000
      0.40921452	      0.01111728	      0.00896788	      0.00000000
      0.41040410	      0.01090791	      0.00781528	      0.00000000
      0.41159367	      0.01068777	      0.00672572	      0.00000000
      0.41278325	      0.01045766	      0.00569493	      0.00000000
      0.41397283	      0.01021834	      0.00471884	      0.00000000
      0.41516241	      0.00997067	      0.00379303	      0.00000000
      0.41635198	      0.00971550	      0.00291309	      0.00000000
      0.41754156	      0.00945368	      0.00207495	      0.00000000
      0.41873114	      0.00918604	      0.00127443	      0.00000000
      0.41992071	      0.00891334	      0.00050825	      0.00000000
      0.42111029	      0.00863632	     -0.00022709	      0.00000000
      0.42229987	      0.00835560	     -0.00093392	      0.00000000
      0.42348945	      0.00807178	     -0.00161481	      0.00000000
      0.42467902	      0.00778531	     -0.00227108	      0.00000000
      0.42586860	      0.00749664	     -0.00290433	      0.00000000
      0.42705818	      0.00720604	     -0.00351497	      0.00000000
      0.42824775	      0.00691381	     -0.00410368	      0.00000000
      0.42943733	      0.00662007	     -0.00467015	      0.00000000
      0.43062691	      0.00632497	     -0.00521428	      0.00000000
      0.43181649	      0.00602853	     -0.00573531	      0.00000000
      0.43300606	      0.00573078	     -0.00623261	      0.00000000
      0.43419564	      0.00543165	     -0.00670517	      0.00000000
      0.43538522	      0.00513110	     -0.00715204	      0.00000000
      0.43657479	      0.00482903	     -0.00757222	      0.00000000
      0.43776437	      0.00452534	     -0.00796466	      0.00000000
      0.43895395	      0.00421993	     -0.00832862	      0.00000000
      0.44014352	      0.00391269	     -0.00866323	      0.00000000
      0.44133310	      0.00360355	     -0.00896822	      0.00000000
      0.44252268	      0.00329242	     -0.00924315	      0.00000000
      0.44371226	      0.00297931	     -0.00948838	      0.00000000
      0.44490183	      0.00266419	     -0.00970407	      0.00000000
      0.44609141	      0.00234716	     -0.00989129	      0.00000000
      0.44728099	      0.00202827	     -0.01005086	      0.00000000
      0.44847056	      0.00170772	     -0.01018457	      0.00000000
      0.44966014	      0.00138566	     -0.01029397	      0.00000000
      0.45084972	      0.00106238	     -0.01038151	      0.00000000
      0.45203930	      0.00073816	     -0.01044951	      0.00000000
      0.45322887	      0.00041338	     -0.01050090	      0.00000000
      0.45441845	      0.00008841	     -0.01053859	      0.00000000
      0.45560803	     -0.00023630	     -0.01056551	      0.00000000
      0.45679760	     -0.00056029	     -0.01058461	      0.00000000
      0.45798718	     -0.00088315	     -0.01059844	      0.00000000
      0.45917676	     -0.00120445	     -0.01060971	      0.00000000
      0.46036634	     -0.00152379	     -0.01062036	      0.00000000
      0.46155591	     -0.00184081	     -0.01063255	      0.00000000
      0.46274549	     -0.00215521	     -0.01064733	      0.00000000
      0.46393507	     -0.00246671	     -0.01066596	      0.00000000
      0.46512464	     -0.00277516	     -0.01068850	      0.00000000
      0.46631422	     -0.00308042	     -0.01071523	      0.00000000
      0.46750380	     -0.00338249	     -0.01074539	      0.00000000
      0.46869338	     -0.00368135	     -0.01077844	      0.00000000
      0.46988295	     -0.00397713	     -0.01081313	      0.00000000
      0.47107253	     -0.00426993	     -0.01084831	      0.00000000
      0.47226211	     -0.00455995	     -0.01088246	      0.00000000
      0.47345168	     -0.00484736	     -0.01091411	      0.00000000
      0.47464126	     -0.00513241	     -0.01094180	      0.00000000
      0.47583084	     -0.00541532	     -0.01096399	      0.00000000
      0.47702041	     -0.00569632	     -0.01097961	      0.00000000
      0.47820999	     -0.00597562	     -0.01098745	      0.00000000
      0.47939957	     -0.00625340	     -0.01098705	      0.00000000
      0.48058915	     -0.00652982	     -0.01097781	      0.00000000
      0.48177872	     -0.00680495	     -0.01095996	      0.00000000
      0.48296830	     -0.00707887	     -0.01093362	      0.00000000
      0.48415788	     -0.00735155	     -0.01089954	      0.00000000
      0.48534745	     -0.00762296	     -0.01085842	      0.00000000
      0.48653703	     -0.00789300	     -0.01081116	      0.00000000
      0.48772661	     -0.00816160	     -0.01075867	      0.00000000
      0.48891619	     -0.00842865	     -0.01070163	      0.00000000
      0.49010576	     -0.00869407	     -0.01064073	      0.00000000
      0.49129534	     -0.00895778	     -0.01057633	      0.00000000
      0.49248492	     -0.00921971	     -0.01050883	      0.00000000
      0.49367449	     -0.00947983	     -0.01043840	      0.00000000
      0.49486407	     -0.00973809	     -0.01036524	      0.00000000
      0.49605365	     -0.00999450	     -0.01028944	      0.00000000
      0.49724323	     -0.01024903	     -0.01021102	      0.00000000
      0.49843280	     -0.01050172	     -0.01013029	      0.00000000
      0.49962238	     -0.01075256	     -0.01004749	      0.00000000
      0.50081196	     -0.01100151	     -0.00996361	      0.00000000
      0.50200153	     -0.01124855	     -0.00987949	      0.00000000
      0.50319111	     -0.01149351	     -0.00979696	      0.00000000
      0.50438069	     -0.01173627	     -0.00971760	      0.00000000
      0.50557026	     -0.01197655	     -0.00964397	      0.00000000
      0.50675984	     -0.01221411	     -0.00957847	      0.00000000
      0.50794942	     -0.01244857	     -0.00952422	      0.00000000
      0.50913900	     -0.01267953	     -0.00948436	      0.00000000
      0.51032857	     -0.01290655	     -0.00946206	      0.00000000
      0.51151815	     -0.01312913	     -0.00946058	      0.00000000
      0.51270773	     -0.01334692	     -0.00948249	      0.00000000
      0.51389730	     -0.01355932	     -0.00953076	      0.00000000
      0.51508688	     -0.01376588	     -0.00960715	      0.00000000
      0.51627646	     -0.01396678	     -0.00971336	      0.00000000
      0.51746604	     -0.01416197	     -0.00984789	      0.00000000
      0.51865561	     -0.01435076	     -0.01001035	      0.00000000
      0.51984519	     -0.01453324	     -0.01019932	      0.00000000
      0.52103477	     -0.01470949	     -0.01041344	      0.00000000
      0.52222434	     -0.01487985	     -0.01064954	      0.00000000
      0.52341392	     -0.01504461	     -0.01090473	      0.00000000
      0.52460350	     -0.01520433	     -0.01117482	      0.00000000
      0.52579308	     -0.01535953	     -0.01145570	      0.00000000
      0.52698265	     -0.01551089	     -0.01174302	      0.00000000
      0.52817223	     -0.01565910	     -0.01203233	      0.00000000
      0.52936181	     -0.01580482	     -0.01232004	      0.00000000
      0.53055138	     -0.01594875	     -0.01260227	      0.00000000
      0.53174096	     -0.01609143	     -0.01287697	      0.00000000
      0.53293054	     -0.01623344	     -0.01314157	      0.00000000
      0.53412012	     -0.01637508	     -0.01339613	      0.00000000
      0.53530969	     -0.01651671	     -0.01364002	      0.00000000
      0.53649927	     -0.01665832	     -0.01387562	      0.00000000
      0.53768885	     -0.01679995	     -0.01410464	      0.00000000
      0.53887842	     -0.01694124	     -0.01433176	      0.00000000
      0.54006800	     -0.01708191	     -0.01456102	      0.00000000
      0.54125758	     -0.01722123	     -0.01479900	      0.00000000
      0.54244715	     -0.01735859	     -0.01505180	      0.00000000
      0.54363673	     -0.01749299	     -0.01532721	      0.00000000
      0.54482631	     -0.01762352	     -0.01563272	      0.00000000
      0.54601589	     -0.01774903	     -0.01597659	      0.00000000
      0.54720546	     -0.01786839	     -0.01636696	      0.00000000
      0.54839504	     -0.01798040	     -0.01681180	      0.00000000
      0.54958462	     -0.01808384	     -0.01731919	      0.00000000
      0.55077419	     -0.01817755	     -0.01789616	      0.00000000
      0.55196377	     -0.01826034	     -0.01855002	      0.00000000
      0.55315335	     -0.01833118	     -0.01928632	      0.00000000
      0.55434293	     -0.01838901	     -0.02011105	      0.00000000
      0.55553250	     -0.01843297	     -0.02102804	      0.00000000
      0.55672208	     -0.01846217	     -0.02204171	      0.00000000
      0.55791166	     -0.01847600	     -0.02315399	      0.00000000
      0.55910123	     -0.01847378	     -0.02436743	      0.00000000
      0.56029081	     -0.01845516	     -0.02568191	      0.00000000
      0.56148039	     -0.01841974	     -0.02709792	      0.00000000
      0.56266997	     -0.01836748	     -0.02861325	      0.00000000
      0.56385954	     -0.01829828	     -0.03022618	      0.00000000
      0.56504912	     -0.01821239	     -0.03193272	      0.00000000
      0.56623870	     -0.01811002	     -0.03372912	      0.00000000
      0.56742827	     -0.01799167	     -0.03561037	      0.00000000
      0.56861785	     -0.01785785	     -0.03757137	      0.00000000
      0.56980743	     -0.01770914	     -0.03960767	      0.00000000
      0.57099701	     -0.01754618	     -0.04171425	      0.00000000
      0.57218658	     -0.01736943	     -0.04388932	      0.00000000
      0.57337616	     -0.01717941	     -0.04613018	      0.00000000
      0.57456574	     -0.01697611	     -0.04843960	      0.00000000
      0.57575531	     -0.01675964	     -0.05081951	      0.00000000
      0.57694489	     -0.01652927	     -0.05327754	      0.00000000
      0.57813447	     -0.01628443	     -0.05582112	      0.00000000
      0.57932404	     -0.01602377	     -0.05846018	      0.00000000
      0.58051362	     -0.01574600	     -0.06120551	      0.00000000
      0.58170320	     -0.01544969	     -0.06406376	      0.00000000
      0.58289278	     -0.01513338	     -0.06704340	      0.00000000
      0.58408235	     -0.01479647	     -0.07014135	      0.00000000
      0.58527193	     -0.01443822	     -0.07335665	      0.00000000
      0.58646151	     -0.01405969	     -0.07667362	      0.00000000
      0.58765108	     -0.01366171	     -0.08007810	      0.00000000
      0.58884066	     -0.01324707	     -0.08354566	      0.00000000
      0.59003024	     -0.01281831	     -0.08705240	      0.00000000
      0.59121982	     -0.01237906	     -0.09057417	      0.00000000
      0.59240939	     -0.01193272	     -0.09408664	      0.00000000
      0.59359897	     -0.01148238	     -0.09757388	      0.00000000
      0.59478855	     -0.01103104	     -0.10101948	      0.00000000
      0.59597812	     -0.01058044	     -0.10441663	      0.00000000
      0.59716770	     -0.01013238	     -0.10775822	      0.00000000
      0.59835728	     -0.00968758	     -0.11104042	      0.00000000
      0.59954686	     -0.00924686	     -0.11425942	      0.00000000
      0.60073643	     -0.00881098	     -0.11740676	      0.00000000
      0.60192601	     -0.00838069	     -0.12047419	      0.00000000
      0.60311559	     -0.00795764	     -0.12344595	      0.00000000
      0.60430516	     -0.00754331	     -0.12630627	      0.00000000
      0.60549474	     -0.00714017	     -0.12903638	      0.00000000
      0.60668432	     -0.00675043	     -0.13161697	      0.00000000
      0.60787390	     -0.00637651	     -0.13403360	      0.00000000
      0.60906347	     -0.00602066	     -0.13627064	      0.00000000
      0.61025305	     -0.00568435	     -0.13832292	      0.00000000
      0.61144263	     -0.00536905	     -0.14018350	      0.00000000
      0.61263220	     -0.00507494	     -0.14185666	      0.00000000
      0.61382178	     -0.00480236	     -0.14334442	      0.00000000
      0.61501136	     -0.00455046	     -0.14465840	      0.00000000
      0.61620093	     -0.00431855	     -0.14580903	      0.00000000
      0.61739051	     -0.00410496	     -0.14681119	      0.00000000
      0.61858009	     -0.00390826	     -0.14767890	      0.00000000
      0.61976967	     -0.00372668	     -0.14842613	      0.00000000
      0.62095924	     -0.00355858	     -0.14906676	      0.00000000
      0.62214882	     -0.00340243	     -0.14961205	      0.00000000
      0.62333840	     -0.00325677	     -0.15007374	      0.00000000
      0.62452797	     -0.00312042	     -0.15046010	      0.00000000
      0.62571755	     -0.00299220	     -0.15078009	      0.00000000
      0.62690713	     -0.00287130	     -0.15103938	      0.00000000
      0.62809671	     -0.00275686	     -0.15124428	      0.00000000
      0.62928628	     -0.00264833	     -0.15139850	      0.00000000
      0.63047586	     -0.00254513	     -0.15150632	      0.00000000
      0.63166544	     -0.00244690	     -0.15157020	      0.00000000
      0.63285501	     -0.00235325	     -0.15159300	      0.00000000
      0.63404459	     -0.00226395	     -0.15157647	      0.00000000
      0.63523417	     -0.00217872	     -0.15152262	      0.00000000
      0.63642375	     -0.00209738	     -0.15143283	      0.00000000
      0.63761332	     -0.00201972	     -0.15130862	      0.00000000
      0.63880290	     -0.00194561	     -0.15115116	      0.00000000
      0.63999248	     -0.00187486	     -0.15096171	      0.00000000
      0.64118205	     -0.00180733	     -0.15074132	      0.00000000
      0.64237163	     -0.00174288	     -0.15049109	      0.00000000
      0.64356121	     -0.00168137	     -0.15021200	      0.00000000
      0.64475078	     -0.00162264	     -0.14990505	      0.00000000
      0.64594036	     -0.00156654	     -0.14957114	      0.00000000
      0.64712994	     -0.00151297	     -0.14921120	      0.00000000
      0.64831952	     -0.00146185	     -0.14882611	      0.00000000
      0.64950909	     -0.00141301	     -0.14841679	      0.00000000
      0.65069867	     -0.00136632	     -0.14798405	      0.00000000
      0.65188825	     -0.00132165	     -0.14752869	      0.00000000
      0.65307782	     -0.00127889	     -0.14705143	      0.00000000
      0.65426740	     -0.00123793	     -0.14655302	      0.00000000
      0.65545698	     -0.00119865	     -0.14603413	      0.00000000
      0.65664656	     -0.00116097	     -0.14549544	      0.00000000
      0.65783613	     -0.00112478	     -0.14493754	      0.00000000
      0.65902571	     -0.00109001	     -0.14436104	      0.00000000
      0.66021529	     -0.00105658	     -0.14376649	      0.00000000
      0.66140486	     -0.00102443	     -0.14315443	      0.00000000
      0.66259444	     -0.00099349	     -0.14252533	      0.00000000
      0.66378402	     -0.00096371	     -0.14187965	      0.00000000
      0.66497360	     -0.00093506	     -0.14121780	      0.00000000
      0.66616317	     -0.00090750	     -0.14054017	      0.00000000
      0.66735275	     -0.00088101	     -0.13984709	      0.00000000
      0.66854233	     -0.00085558	     -0.13913890	      0.00000000
      0.66973190	     -0.00083120	     -0.13841585	      0.00000000
      0.67092148	     -0.00080786	     -0.13767819	      0.00000000
      0.67211106	     -0.00078559	     -0.13692612	      0.00000000
      0.67330064	     -0.00076440	     -0.13615984	      0.00000000
      0.67449021	     -0.00074432	     -0.13537946	      0.00000000
      0.67567979	     -0.00072539	     -0.13458512	      0.00000000
      0.67686937	     -0.00070765	     -0.13377689	      0.00000000
      0.67805894	     -0.00069117	     -0.13295485	      0.00000000
      0.67924852	     -0.00067601	     -0.13211900	      0.00000000
      0.68043810	     -0.00066224	     -0.13126938	      0.00000000
      0.68162767	     -0.00064996	     -0.13040596	      0.00000000
      0.68281725	     -0.00063927	     -0.12952873	      0.00000000
      0.68400683	     -0.00063028	     -0.12863762	      0.00000000
      0.68519641	     -0.00062313	     -0.12773258	      0.00000000
      0.68638598	     -0.00061796	     -0.12681355	      0.00000000
      0.68757556	     -0.00061493	     -0.12588042	      0.00000000
      0.68876514	     -0.00061422	     -0.12493313	      0.00000000
      0.68995471	     -0.00061603	     -0.12397156	      0.00000000
      0.69114429	     -0.00062058	     -0.12299562	      0.00000000
      0.69233387	     -0.00062809	     -0.12200522	      0.00000000
      0.69352345	     -0.00063883	     -0.12100025	      0.00000000
      0.69471302	     -0.00065307	     -0.11998061	      0.00000000
      0.69590260	     -0.00067111	     -0.11894621	      0.00000000
      0.69709218	     -0.00069327	     -0.11789696	      0.00000000
      0.69828175	     -0.00071989	     -0.11683278	      0.00000000
      0.69947133	     -0.00075133	     -0.11575359	      0.00000000
      0.70066091	     -0.00078796	     -0.11465934	      0.00000000
      0.70185049	     -0.00083018	     -0.11355000	      0.00000000
      0.70304006	     -0.00087838	     -0.11242546	      0.00000000
      0.70422964	     -0.00093307	     -0.11128557	      0.00000000
      0.70541922	     -0.00099464	     -0.11013058	      0.00000000
      0.70660879	     -0.00106346	     -0.10896133	      0.00000000
      0.70779837	     -0.00113970	     -0.10777613	      0.00000000
      0.70898795	     -0.00122456	     -0.10657344	      0.00000000
      0.71017753	     -0.00131885	     -0.10535640	      0.00000000
      0.71136710	     -0.00142423	     -0.10414052	      0.00000000
      0.71255668	     -0.00152768	     -0.10288734	      0.00000000
      0.71374626	     -0.00162829	     -0.10158002	      0.00000000
