PointVelocity
version=1
nRows=601
nColumns=4
inDegrees=no
No description.
endheader
time	state_0	state_1	state_2
      0.00000000	      3.06699142	     -0.15139548	      0.00000000
      0.00160321	      3.01622202	     -0.16764098	      0.00000000
      0.00320642	      2.96510457	     -0.18172007	      0.00000000
      0.00480962	      2.91247834	     -0.19392151	      0.00000000
      0.00641283	      2.85741390	     -0.20728891	      0.00000000
      0.00801604	      2.79811496	     -0.22262418	      0.00000000
      0.00961925	      2.73369158	     -0.23982390	      0.00000000
      0.01122246	      2.66191669	     -0.25910562	      0.00000000
      0.01282567	      2.58065566	     -0.28113259	      0.00000000
      0.01442887	      2.48652865	     -0.30636034	      0.00000000
      0.01603208	      2.37601109	     -0.33545558	      0.00000000
      0.01763529	      2.24540227	     -0.36849712	      0.00000000
      0.01923850	      2.09036203	     -0.40581653	      0.00000000
      0.02084171	      1.90923381	     -0.44629872	      0.00000000
      0.02244491	      1.69917273	     -0.48912553	      0.00000000
      0.02404812	      1.46353450	     -0.53148542	      0.00000000
      0.02565133	      1.20073226	     -0.57245037	      0.00000000
      0.02725454	      0.92306910	     -0.60582260	      0.00000000
      0.02885775	      0.62222983	     -0.63436299	      0.00000000
      0.03046096	      0.32350398	     -0.64516265	      0.00000000
      0.03206416	      0.13908034	     -0.59196568	      0.00000000
      0.03366737	      0.08239536	     -0.51233120	      0.00000000
      0.03527058	      0.07009645	     -0.46355968	      0.00000000
      0.03687379	      0.06048979	     -0.42650096	      0.00000000
      0.03847700	      0.05263956	     -0.39118767	      0.00000000
      0.04008021	      0.04717033	     -0.36096367	      0.00000000
      0.04168341	      0.04238544	     -0.33307990	      0.00000000
      0.04328662	      0.03889571	     -0.30813385	      0.00000000
      0.04488983	      0.03602740	     -0.28550454	      0.00000000
      0.04649304	      0.03393362	     -0.26503902	      0.00000000
      0.04809625	      0.03235071	     -0.24644932	      0.00000000
      0.04969945	      0.03128731	     -0.22943455	      0.00000000
      0.05130266	      0.03058325	     -0.21375874	      0.00000000
      0.05290587	      0.03020071	     -0.19931294	      0.00000000
      0.05450908	      0.03004850	     -0.18599109	      0.00000000
      0.05611229	      0.03009516	     -0.17371977	      0.00000000
      0.05771550	      0.03028205	     -0.16242260	      0.00000000
      0.05931870	      0.03058065	     -0.15203249	      0.00000000
      0.06092191	      0.03095077	     -0.14248278	      0.00000000
      0.06252512	      0.03136930	     -0.13371295	      0.00000000
      0.06412833	      0.03180858	     -0.12566300	      0.00000000
      0.06573154	      0.03225177	     -0.11827887	      0.00000000
      0.06733474	      0.03268056	     -0.11150566	      0.00000000
      0.06893795	      0.03308398	     -0.10529622	      0.00000000
      0.07054116	      0.03345084	     -0.09960135	      0.00000000
      0.07214437	      0.03377505	     -0.09438018	      0.00000000
      0.07374758	      0.03405088	     -0.08958909	      0.00000000
      0.07535079	      0.03427603	     -0.08519365	      0.00000000
      0.07695399	      0.03444866	     -0.08115650	      0.00000000
      0.07855720	      0.03456906	     -0.07744865	      0.00000000
      0.08016041	      0.03463806	     -0.07403835	      0.00000000
      0.08176362	      0.03465754	     -0.07090153	      0.00000000
      0.08336683	      0.03462990	     -0.06801172	      0.00000000
      0.08497004	      0.03455783	     -0.06534889	      0.00000000
      0.08657324	      0.03444454	     -0.06289111	      0.00000000
      0.08817645	      0.03429295	     -0.06062162	      0.00000000
      0.08977966	      0.03410652	     -0.05852231	      0.00000000
      0.09138287	      0.03388806	     -0.05657904	      0.00000000
      0.09298608	      0.03364089	     -0.05477683	      0.00000000
      0.09458928	      0.03336754	     -0.05310360	      0.00000000
      0.09619249	      0.03307103	     -0.05154681	      0.00000000
      0.09779570	      0.03275351	     -0.05009607	      0.00000000
      0.09939891	      0.03241759	     -0.04874079	      0.00000000
      0.10100212	      0.03206508	     -0.04747188	      0.00000000
      0.10260533	      0.03169815	     -0.04628027	      0.00000000
      0.10420853	      0.03131831	     -0.04515796	      0.00000000
      0.10581174	      0.03092734	     -0.04409712	      0.00000000
      0.10741495	      0.03052647	     -0.04309065	      0.00000000
      0.10901816	      0.03011716	     -0.04213172	      0.00000000
      0.11062137	      0.02970045	     -0.04121408	      0.00000000
      0.11222457	      0.02927756	     -0.04033182	      0.00000000
      0.11382778	      0.02884935	     -0.03947963	      0.00000000
      0.11543099	      0.02841680	     -0.03865252	      0.00000000
      0.11703420	      0.02798066	     -0.03784572	      0.00000000
      0.11863741	      0.02754179	     -0.03705480	      0.00000000
      0.12024062	      0.02710094	     -0.03627558	      0.00000000
      0.12184382	      0.02665887	     -0.03550419	      0.00000000
      0.12344703	      0.02621632	     -0.03473714	      0.00000000
      0.12505024	      0.02577400	     -0.03397111	      0.00000000
      0.12665345	      0.02533262	     -0.03320327	      0.00000000
      0.12825666	      0.02489286	     -0.03243089	      0.00000000
      0.12985986	      0.02445540	     -0.03165179	      0.00000000
      0.13146307	      0.02402088	     -0.03086381	      0.00000000
      0.13306628	      0.02358995	     -0.03006541	      0.00000000
      0.13466949	      0.02316321	     -0.02925497	      0.00000000
      0.13627270	      0.02274127	     -0.02843160	      0.00000000
      0.13787591	      0.02232465	     -0.02759417	      0.00000000
      0.13947911	      0.02191391	     -0.02674240	      0.00000000
      0.14108232	      0.02150951	     -0.02587567	      0.00000000
      0.14268553	      0.02111190	     -0.02499428	      0.00000000
      0.14428874	      0.02072145	     -0.02409808	      0.00000000
      0.14589195	      0.02033847	     -0.02318791	      0.00000000
      0.14749516	      0.01996319	     -0.02226409	      0.00000000
      0.14909836	      0.01959572	     -0.02132792	      0.00000000
      0.15070157	      0.01923611	     -0.02038013	      0.00000000
      0.15230478	      0.01888414	     -0.01942238	      0.00000000
      0.15390799	      0.01853959	     -0.01845582	      0.00000000
      0.15551120	      0.01820186	     -0.01748234	      0.00000000
      0.15711440	      0.01787032	     -0.01650340	      0.00000000
      0.15871761	      0.01754391	     -0.01552095	      0.00000000
      0.16032082	      0.01722148	     -0.01453658	      0.00000000
      0.16192403	      0.01690172	     -0.01355205	      0.00000000
      0.16352724	      0.01658309	     -0.01256899	      0.00000000
      0.16513045	      0.01626457	     -0.01158868	      0.00000000
      0.16673365	      0.01594518	     -0.01061358	      0.00000000
      0.16833686	      0.01562601	     -0.00964912	      0.00000000
      0.16994007	      0.01530646	     -0.00869320	      0.00000000
      0.17154328	      0.01498836	     -0.00774084	      0.00000000
      0.17314649	      0.01467459	     -0.00679676	      0.00000000
      0.17474969	      0.01436932	     -0.00586756	      0.00000000
      0.17635290	      0.01407641	     -0.00495601	      0.00000000
      0.17795611	      0.01379754	     -0.00406590	      0.00000000
      0.17955932	      0.01353470	     -0.00320083	      0.00000000
      0.18116253	      0.01328719	     -0.00236330	      0.00000000
      0.18276574	      0.01305457	     -0.00155614	      0.00000000
      0.18436894	      0.01283504	     -0.00078074	      0.00000000
      0.18597215	      0.01262707	     -0.00003894	      0.00000000
      0.18757536	      0.01242900	      0.00066858	      0.00000000
      0.18917857	      0.01223927	      0.00134069	      0.00000000
      0.19078178	      0.01205668	      0.00197708	      0.00000000
      0.19238499	      0.01188000	      0.00257707	      0.00000000
      0.19398819	      0.01170831	      0.00314060	      0.00000000
      0.19559140	      0.01154063	      0.00366732	      0.00000000
      0.19719461	      0.01137617	      0.00415742	      0.00000000
      0.19879782	      0.01121408	      0.00461082	      0.00000000
      0.20040103	      0.01105363	      0.00502795	      0.00000000
      0.20200423	      0.01089404	      0.00540904	      0.00000000
      0.20360744	      0.01073463	      0.00575470	      0.00000000
      0.20521065	      0.01057470	      0.00606543	      0.00000000
      0.20681386	      0.01041367	      0.00634203	      0.00000000
      0.20841707	      0.01025089	      0.00658519	      0.00000000
      0.21002028	      0.01008591	      0.00679587	      0.00000000
      0.21162348	      0.00991819	      0.00697495	      0.00000000
      0.21322669	      0.00974737	      0.00712348	      0.00000000
      0.21482990	      0.00957302	      0.00724251	      0.00000000
      0.21643311	      0.00939491	      0.00733318	      0.00000000
      0.21803632	      0.00921271	      0.00739663	      0.00000000
      0.21963952	      0.00902628	      0.00743408	      0.00000000
      0.22124273	      0.00883539	      0.00744675	      0.00000000
      0.22284594	      0.00863999	      0.00743587	      0.00000000
      0.22444915	      0.00843996	      0.00740271	      0.00000000
      0.22605236	      0.00823529	      0.00734852	      0.00000000
      0.22765557	      0.00802595	      0.00727460	      0.00000000
      0.22925877	      0.00781201	      0.00718217	      0.00000000
      0.23086198	      0.00759347	      0.00707253	      0.00000000
      0.23246519	      0.00737045	      0.00694690	      0.00000000
      0.23406840	      0.00714300	      0.00680655	      0.00000000
      0.23567161	      0.00691129	      0.00665266	      0.00000000
      0.23727481	      0.00667540	      0.00648645	      0.00000000
      0.23887802	      0.00643550	      0.00630907	      0.00000000
      0.24048123	      0.00619171	      0.00612168	      0.00000000
      0.24208444	      0.00594423	      0.00592537	      0.00000000
      0.24368765	      0.00569319	      0.00572125	      0.00000000
      0.24529086	      0.00543878	      0.00551032	      0.00000000
      0.24689406	      0.00518114	      0.00529364	      0.00000000
      0.24849727	      0.00492048	      0.00507212	      0.00000000
      0.25010048	      0.00465694	      0.00484675	      0.00000000
      0.25170369	      0.00439069	      0.00461836	      0.00000000
      0.25330690	      0.00412190	      0.00438784	      0.00000000
      0.25491011	      0.00385074	      0.00415596	      0.00000000
      0.25651331	      0.00357734	      0.00392352	      0.00000000
      0.25811652	      0.00330186	      0.00369120	      0.00000000
      0.25971973	      0.00302445	      0.00345970	      0.00000000
      0.26132294	      0.00274523	      0.00322962	      0.00000000
      0.26292615	      0.00246434	      0.00300158	      0.00000000
      0.26452935	      0.00218189	      0.00277609	      0.00000000
      0.26613256	      0.00189801	      0.00255368	      0.00000000
      0.26773577	      0.00161279	      0.00233478	      0.00000000
      0.26933898	      0.00132633	      0.00211984	      0.00000000
      0.27094219	      0.00103872	      0.00190920	      0.00000000
      0.27254540	      0.00075004	      0.00170321	      0.00000000
      0.27414860	      0.00046037	      0.00150216	      0.00000000
      0.27575181	      0.00016978	      0.00130631	      0.00000000
      0.27735502	     -0.00012168	      0.00111586	      0.00000000
      0.27895823	     -0.00041394	      0.00093102	      0.00000000
      0.28056144	     -0.00070697	      0.00075190	      0.00000000
      0.28216464	     -0.00100071	      0.00057865	      0.00000000
      0.28376785	     -0.00129514	      0.00041130	      0.00000000
      0.28537106	     -0.00159022	      0.00024993	      0.00000000
      0.28697427	     -0.00188592	      0.00009453	      0.00000000
      0.28857748	     -0.00218222	     -0.00005489	      0.00000000
      0.29018069	     -0.00247911	     -0.00019840	      0.00000000
      0.29178389	     -0.00277657	     -0.00033604	      0.00000000
      0.29338710	     -0.00307458	     -0.00046794	      0.00000000
      0.29499031	     -0.00337316	     -0.00059419	      0.00000000
      0.29659352	     -0.00367228	     -0.00071494	      0.00000000
      0.29819673	     -0.00397195	     -0.00083035	      0.00000000
      0.29979994	     -0.00427217	     -0.00094060	      0.00000000
      0.30140314	     -0.00457295	     -0.00104586	      0.00000000
      0.30300635	     -0.00487429	     -0.00114633	      0.00000000
      0.30460956	     -0.00517620	     -0.00124220	      0.00000000
      0.30621277	     -0.00547870	     -0.00133369	      0.00000000
      0.30781598	     -0.00578179	     -0.00142103	      0.00000000
      0.30941918	     -0.00608548	     -0.00150446	      0.00000000
      0.31102239	     -0.00638980	     -0.00158422	      0.00000000
      0.31262560	     -0.00669474	     -0.00166058	      0.00000000
      0.31422881	     -0.00700033	     -0.00173380	      0.00000000
      0.31583202	     -0.00730657	     -0.00180414	      0.00000000
      0.31743523	     -0.00761348	     -0.00187187	      0.00000000
      0.31903843	     -0.00792108	     -0.00193726	      0.00000000
      0.32064164	     -0.00822938	     -0.00200056	      0.00000000
      0.32224485	     -0.00853840	     -0.00206205	      0.00000000
      0.32384806	     -0.00884816	     -0.00212199	      0.00000000
      0.32545127	     -0.00915867	     -0.00218063	      0.00000000
      0.32705447	     -0.00946996	     -0.00223824	      0.00000000
      0.32865768	     -0.00978203	     -0.00229507	      0.00000000
      0.33026089	     -0.01009493	     -0.00235136	      0.00000000
      0.33186410	     -0.01040865	     -0.00240736	      0.00000000
      0.33346731	     -0.01072322	     -0.00246331	      0.00000000
      0.33507052	     -0.01103866	     -0.00251943	      0.00000000
      0.33667372	     -0.01135499	     -0.00257596	      0.00000000
      0.33827693	     -0.01167223	     -0.00263311	      0.00000000
      0.33988014	     -0.01199040	     -0.00269108	      0.00000000
      0.34148335	     -0.01230953	     -0.00275008	      0.00000000
      0.34308656	     -0.01262965	     -0.00281028	      0.00000000
      0.34468977	     -0.01295078	     -0.00287188	      0.00000000
      0.34629297	     -0.01327295	     -0.00293503	      0.00000000
      0.34789618	     -0.01359620	     -0.00299991	      0.00000000
      0.34949939	     -0.01392055	     -0.00306667	      0.00000000
      0.35110260	     -0.01424603	     -0.00313546	      0.00000000
      0.35270581	     -0.01457270	     -0.00320642	      0.00000000
      0.35430901	     -0.01490057	     -0.00327967	      0.00000000
      0.35591222	     -0.01522970	     -0.00335532	      0.00000000
      0.35751543	     -0.01556013	     -0.00343349	      0.00000000
      0.35911864	     -0.01589191	     -0.00351427	      0.00000000
      0.36072185	     -0.01622510	     -0.00359774	      0.00000000
      0.36232506	     -0.01655975	     -0.00368396	      0.00000000
      0.36392826	     -0.01689594	     -0.00377300	      0.00000000
      0.36553147	     -0.01723374	     -0.00386489	      0.00000000
      0.36713468	     -0.01757322	     -0.00395968	      0.00000000
      0.36873789	     -0.01791447	     -0.00405736	      0.00000000
      0.37034110	     -0.01825758	     -0.00415797	      0.00000000
      0.37194430	     -0.01860264	     -0.00426148	      0.00000000
      0.37354751	     -0.01894976	     -0.00436789	      0.00000000
      0.37515072	     -0.01929905	     -0.00447715	      0.00000000
      0.37675393	     -0.01965063	     -0.00458924	      0.00000000
      0.37835714	     -0.02000462	     -0.00470406	      0.00000000
      0.37996035	     -0.02036118	     -0.00482155	      0.00000000
      0.38156355	     -0.02072045	     -0.00494155	      0.00000000
      0.38316676	     -0.02108260	     -0.00506396	      0.00000000
      0.38476997	     -0.02144779	     -0.00518859	      0.00000000
      0.38637318	     -0.02181621	     -0.00531528	      0.00000000
      0.38797639	     -0.02218805	     -0.00544379	      0.00000000
      0.38957959	     -0.02256350	     -0.00557390	      0.00000000
      0.39118280	     -0.02294278	     -0.00570530	      0.00000000
      0.39278601	     -0.02332611	     -0.00583771	      0.00000000
      0.39438922	     -0.02371371	     -0.00597074	      0.00000000
      0.39599243	     -0.02410582	     -0.00610400	      0.00000000
      0.39759564	     -0.02450268	     -0.00623703	      0.00000000
      0.39919884	     -0.02490456	     -0.00636930	      0.00000000
      0.40080205	     -0.02531169	     -0.00650025	      0.00000000
      0.40240526	     -0.02572436	     -0.00662922	      0.00000000
      0.40400847	     -0.02614282	     -0.00675548	      0.00000000
      0.40561168	     -0.02656735	     -0.00687823	      0.00000000
      0.40721489	     -0.02699823	     -0.00699657	      0.00000000
      0.40881809	     -0.02743572	     -0.00710948	      0.00000000
      0.41042130	     -0.02788012	     -0.00721589	      0.00000000
      0.41202451	     -0.02833169	     -0.00731453	      0.00000000
      0.41362772	     -0.02879071	     -0.00740410	      0.00000000
      0.41523093	     -0.02925746	     -0.00748306	      0.00000000
      0.41683413	     -0.02973216	     -0.00754983	      0.00000000
      0.41843734	     -0.03021518	     -0.00760275	      0.00000000
      0.42004055	     -0.03070636	     -0.00763976	      0.00000000
      0.42164376	     -0.03120635	     -0.00765866	      0.00000000
      0.42324697	     -0.03171767	     -0.00766053	      0.00000000
      0.42485018	     -0.03223941	     -0.00764911	      0.00000000
      0.42645338	     -0.03276989	     -0.00762181	      0.00000000
      0.42805659	     -0.03331012	     -0.00757021	      0.00000000
      0.42965980	     -0.03386058	     -0.00749081	      0.00000000
      0.43126301	     -0.03442126	     -0.00738055	      0.00000000
      0.43286622	     -0.03499251	     -0.00723578	      0.00000000
      0.43446942	     -0.03557444	     -0.00705283	      0.00000000
      0.43607263	     -0.03616734	     -0.00682799	      0.00000000
      0.43767584	     -0.03677133	     -0.00655709	      0.00000000
      0.43927905	     -0.03738671	     -0.00623619	      0.00000000
      0.44088226	     -0.03801359	     -0.00586070	      0.00000000
      0.44248547	     -0.03865227	     -0.00542638	      0.00000000
      0.44408867	     -0.03930285	     -0.00492822	      0.00000000
      0.44569188	     -0.03996564	     -0.00436157	      0.00000000
      0.44729509	     -0.04064075	     -0.00372110	      0.00000000
      0.44889830	     -0.04132852	     -0.00300187	      0.00000000
      0.45050151	     -0.04202903	     -0.00219828	      0.00000000
      0.45210472	     -0.04274264	     -0.00130518	      0.00000000
      0.45370792	     -0.04346940	     -0.00031679	      0.00000000
      0.45531113	     -0.04420966	      0.00077223	      0.00000000
      0.45691434	     -0.04496339	      0.00196770	      0.00000000
      0.45851755	     -0.04573088	      0.00327510	      0.00000000
      0.46012076	     -0.04651200	      0.00470015	      0.00000000
      0.46172396	     -0.04730695	      0.00624832	      0.00000000
      0.46332717	     -0.04811539	      0.00792508	      0.00000000
      0.46493038	     -0.04893733	      0.00973577	      0.00000000
      0.46653359	     -0.04977216	      0.01168537	      0.00000000
      0.46813680	     -0.05061962	      0.01377894	      0.00000000
      0.46974001	     -0.05147873	      0.01602079	      0.00000000
      0.47134321	     -0.05234880	      0.01841555	      0.00000000
      0.47294642	     -0.05322846	      0.02096668	      0.00000000
      0.47454963	     -0.05411652	      0.02367819	      0.00000000
      0.47615284	     -0.05501121	      0.02655256	      0.00000000
      0.47775605	     -0.05591082	      0.02959275	      0.00000000
      0.47935925	     -0.05681301	      0.03280069	      0.00000000
      0.48096246	     -0.05771531	      0.03617892	      0.00000000
      0.48256567	     -0.05861483	      0.03972989	      0.00000000
      0.48416888	     -0.05950843	      0.04345635	      0.00000000
      0.48577209	     -0.06039254	      0.04736251	      0.00000000
      0.48737530	     -0.06126328	      0.05145233	      0.00000000
      0.48897850	     -0.06211615	      0.05573356	      0.00000000
      0.49058171	     -0.06294617	      0.06021281	      0.00000000
      0.49218492	     -0.06374723	      0.06490350	      0.00000000
      0.49378813	     -0.06451239	      0.06981524	      0.00000000
      0.49539134	     -0.06523385	      0.07497147	      0.00000000
      0.49699454	     -0.06590449	      0.08038639	      0.00000000
      0.49859775	     -0.06651629	      0.08610685	      0.00000000
      0.50020096	     -0.06706657	      0.09216508	      0.00000000
      0.50180417	     -0.06753704	      0.09864847	      0.00000000
      0.50340738	     -0.06791819	      0.10562412	      0.00000000
      0.50501059	     -0.06816101	      0.11324297	      0.00000000
      0.50661379	     -0.06824514	      0.12163966	      0.00000000
      0.50821700	     -0.06805077	      0.13104475	      0.00000000
      0.50982021	     -0.06754956	      0.14163341	      0.00000000
      0.51142342	     -0.06637315	      0.15372282	      0.00000000
      0.51302663	     -0.06438629	      0.16757575	      0.00000000
      0.51462984	     -0.06045853	      0.18378448	      0.00000000
      0.51623304	     -0.05385100	      0.20291573	      0.00000000
      0.51783625	     -0.04236772	      0.22549089	      0.00000000
      0.51943946	     -0.02301322	      0.25251254	      0.00000000
      0.52104267	      0.00597461	      0.28206293	      0.00000000
      0.52264588	      0.05138749	      0.31046130	      0.00000000
      0.52424908	      0.11614039	      0.33531948	      0.00000000
      0.52585229	      0.18979979	      0.35703021	      0.00000000
      0.52745550	      0.25519573	      0.37777983	      0.00000000
      0.52905871	      0.30883796	      0.39818270	      0.00000000
      0.53066192	      0.35674602	      0.41794483	      0.00000000
      0.53226513	      0.39955901	      0.43715211	      0.00000000
      0.53386833	      0.43839656	      0.45586519	      0.00000000
      0.53547154	      0.47412798	      0.47413698	      0.00000000
      0.53707475	      0.50727518	      0.49199974	      0.00000000
      0.53867796	      0.53841406	      0.50945573	      0.00000000
      0.54028117	      0.56785731	      0.52651338	      0.00000000
      0.54188437	      0.59598118	      0.54316154	      0.00000000
      0.54348758	      0.62299614	      0.55940324	      0.00000000
      0.54509079	      0.64915431	      0.57522666	      0.00000000
      0.54669400	      0.67460162	      0.59063299	      0.00000000
      0.54829721	      0.69950950	      0.60561231	      0.00000000
      0.54990042	      0.72397859	      0.62016421	      0.00000000
      0.55150362	      0.74812555	      0.63428017	      0.00000000
      0.55310683	      0.77201822	      0.64795786	      0.00000000
      0.55471004	      0.79573469	      0.66118905	      0.00000000
      0.55631325	      0.81931933	      0.67396963	      0.00000000
      0.55791646	      0.84282289	      0.68629100	      0.00000000
      0.55951967	      0.86627389	      0.69814786	      0.00000000
      0.56112287	      0.88970477	      0.70953125	      0.00000000
      0.56272608	      0.91313370	      0.72043542	      0.00000000
      0.56432929	      0.93658100	      0.73085148	      0.00000000
      0.56593250	      0.96005834	      0.74077405	      0.00000000
      0.56753571	      0.98357840	      0.75019500	      0.00000000
      0.56913891	      1.00714873	      0.75911011	      0.00000000
      0.57074212	      1.03077721	      0.76751285	      0.00000000
      0.57234533	      1.05446867	      0.77540063	      0.00000000
      0.57394854	      1.07822723	      0.78276991	      0.00000000
      0.57555175	      1.10205609	      0.78961953	      0.00000000
      0.57715496	      1.12595669	      0.79594801	      0.00000000
      0.57875816	      1.14993749	      0.80174553	      0.00000000
      0.58036137	      1.17400810	      0.80699939	      0.00000000
      0.58196458	      1.19818084	      0.81169669	      0.00000000
      0.58356779	      1.22246577	      0.81582472	      0.00000000
      0.58517100	      1.24687185	      0.81937293	      0.00000000
      0.58677420	      1.27140777	      0.82232955	      0.00000000
      0.58837741	      1.29608033	      0.82468539	      0.00000000
      0.58998062	      1.32089655	      0.82643008	      0.00000000
      0.59158383	      1.34586134	      0.82755570	      0.00000000
      0.59318704	      1.37098007	      0.82805337	      0.00000000
      0.59479025	      1.39625593	      0.82791648	      0.00000000
      0.59639345	      1.42169273	      0.82713774	      0.00000000
      0.59799666	      1.44729208	      0.82571190	      0.00000000
      0.59959987	      1.47305640	      0.82363331	      0.00000000
      0.60120308	      1.49898594	      0.82089819	      0.00000000
      0.60280629	      1.52508188	      0.81750254	      0.00000000
      0.60440949	      1.55134336	      0.81344414	      0.00000000
      0.60601270	      1.57777052	      0.80872070	      0.00000000
      0.60761591	      1.60436160	      0.80333160	      0.00000000
      0.60921912	      1.63111595	      0.79727625	      0.00000000
      0.61082233	      1.65803108	      0.79055581	      0.00000000
      0.61242554	      1.68510589	      0.78317110	      0.00000000
      0.61402874	      1.71233722	      0.77512537	      0.00000000
      0.61563195	      1.73972313	      0.76642267	      0.00000000
      0.61723516	      1.76725839	      0.75707123	      0.00000000
      0.61883837	      1.79493921	      0.74707934	      0.00000000
      0.62044158	      1.82276002	      0.73645691	      0.00000000
      0.62204479	      1.85071710	      0.72521404	      0.00000000
      0.62364799	      1.87880466	      0.71336244	      0.00000000
      0.62525120	      1.90702015	      0.70091334	      0.00000000
      0.62685441	      1.93535534	      0.68788160	      0.00000000
      0.62845762	      1.96381365	      0.67427669	      0.00000000
      0.63006083	      1.99237250	      0.66012376	      0.00000000
      0.63166403	      2.02108993	      0.64540396	      0.00000000
      0.63326724	      2.05022014	      0.63001538	      0.00000000
      0.63487045	      2.07970059	      0.61403152	      0.00000000
      0.63647366	      2.10917723	      0.59768827	      0.00000000
      0.63807687	      2.13862154	      0.58103332	      0.00000000
      0.63968008	      2.16807637	      0.56403979	      0.00000000
      0.64128328	      2.19751463	      0.54673995	      0.00000000
      0.64288649	      2.22694876	      0.52914373	      0.00000000
      0.64448970	      2.25637075	      0.51127110	      0.00000000
      0.64609291	      2.28578274	      0.49313810	      0.00000000
      0.64769612	      2.31518250	      0.47476284	      0.00000000
      0.64929932	      2.34456943	      0.45616268	      0.00000000
      0.65090253	      2.37394224	      0.43735557	      0.00000000
      0.65250574	      2.40329980	      0.41835921	      0.00000000
      0.65410895	      2.43264128	      0.39919162	      0.00000000
      0.65571216	      2.46196554	      0.37987055	      0.00000000
      0.65731537	      2.49127188	      0.36041404	      0.00000000
      0.65891857	      2.52055897	      0.34083984	      0.00000000
      0.66052178	      2.54982588	      0.32116594	      0.00000000
      0.66212499	      2.57907088	      0.30141007	      0.00000000
      0.66372820	      2.60829271	      0.28159018	      0.00000000
      0.66533141	      2.63748906	      0.26172389	      0.00000000
      0.66693462	      2.66665814	      0.24182903	      0.00000000
      0.66853782	      2.69579665	      0.22192309	      0.00000000
      0.67014103	      2.72490185	      0.20202376	      0.00000000
      0.67174424	      2.75396903	      0.18214831	      0.00000000
      0.67334745	      2.78299397	      0.16231417	      0.00000000
      0.67495066	      2.81197043	      0.14253843	      0.00000000
      0.67655386	      2.84089254	      0.12283830	      0.00000000
      0.67815707	      2.86975276	      0.10323067	      0.00000000
      0.67976028	      2.89854384	      0.08373254	      0.00000000
      0.68136349	      2.92725740	      0.06436069	      0.00000000
      0.68296670	      2.95588524	      0.04513189	      0.00000000
      0.68456991	      2.98441840	      0.02606264	      0.00000000
      0.68617311	      3.01284801	      0.00716939	      0.00000000
      0.68777632	      3.04116461	     -0.01153170	      0.00000000
      0.68937953	      3.06935872	     -0.03002459	      0.00000000
      0.69098274	      3.09742039	     -0.04829362	      0.00000000
      0.69258595	      3.12533955	     -0.06632330	      0.00000000
      0.69418915	      3.15310582	     -0.08409856	      0.00000000
      0.69579236	      3.18070858	     -0.10160455	      0.00000000
      0.69739557	      3.20813709	     -0.11882690	      0.00000000
      0.69899878	      3.23538027	     -0.13575150	      0.00000000
      0.70060199	      3.26242713	     -0.15236478	      0.00000000
      0.70220520	      3.28926625	     -0.16865351	      0.00000000
      0.70380840	      3.31588646	     -0.18460503	      0.00000000
      0.70541161	      3.34227614	     -0.20020706	      0.00000000
      0.70701482	      3.36842411	     -0.21544799	      0.00000000
      0.70861803	      3.39431864	     -0.23031660	      0.00000000
      0.71022124	      3.41994864	     -0.24480243	      0.00000000
      0.71182444	      3.44530245	     -0.25889544	      0.00000000
      0.71342765	      3.47036921	     -0.27258640	      0.00000000
      0.71503086	      3.49513742	     -0.28586654	      0.00000000
      0.71663407	      3.51959661	     -0.29872800	      0.00000000
      0.71823728	      3.54373560	     -0.31116334	      0.00000000
      0.71984049	      3.56754443	     -0.32316613	      0.00000000
      0.72144369	      3.59101244	     -0.33473045	      0.00000000
      0.72304690	      3.61413036	     -0.34585145	      0.00000000
      0.72465011	      3.63688820	     -0.35652471	      0.00000000
      0.72625332	      3.65927745	     -0.36674690	      0.00000000
      0.72785653	      3.68128886	     -0.37651509	      0.00000000
      0.72945974	      3.70291483	     -0.38582747	      0.00000000
      0.73106294	      3.72414700	     -0.39468261	      0.00000000
      0.73266615	      3.74497878	     -0.40308026	      0.00000000
      0.73426936	      3.76540282	     -0.41102048	      0.00000000
      0.73587257	      3.78541363	     -0.41850457	      0.00000000
      0.73747578	      3.80500502	     -0.42553405	      0.00000000
      0.73907898	      3.82417267	     -0.43211173	      0.00000000
      0.74068219	      3.84291158	     -0.43824055	      0.00000000
      0.74228540	      3.86121871	     -0.44392473	      0.00000000
      0.74388861	      3.87909032	     -0.44916858	      0.00000000
      0.74549182	      3.89652464	     -0.45397766	      0.00000000
      0.74709503	      3.91351928	     -0.45835754	      0.00000000
      0.74869823	      3.93007377	     -0.46231497	      0.00000000
      0.75030144	      3.94618706	     -0.46585668	      0.00000000
      0.75190465	      3.96185996	     -0.46899052	      0.00000000
      0.75350786	      3.97709276	     -0.47172422	      0.00000000
      0.75511107	      3.99188753	     -0.47406655	      0.00000000
      0.75671427	      4.00624587	     -0.47602613	      0.00000000
      0.75831748	      4.02017105	     -0.47761249	      0.00000000
      0.75992069	      4.03366591	     -0.47883495	      0.00000000
      0.76152390	      4.04673483	     -0.47970365	      0.00000000
      0.76312711	      4.05938179	     -0.48022847	      0.00000000
      0.76473032	      4.07161214	     -0.48041996	      0.00000000
      0.76633352	      4.08343092	     -0.48028840	      0.00000000
      0.76793673	      4.09484427	     -0.47984462	      0.00000000
      0.76953994	      4.10585814	     -0.47909916	      0.00000000
      0.77114315	      4.11647933	     -0.47806300	      0.00000000
      0.77274636	      4.12671454	     -0.47674678	      0.00000000
      0.77434957	      4.13657112	     -0.47516142	      0.00000000
      0.77595277	      4.14605642	     -0.47331751	      0.00000000
      0.77755598	      4.15517814	     -0.47122589	      0.00000000
      0.77915919	      4.16394401	     -0.46889707	      0.00000000
      0.78076240	      4.17236199	     -0.46634160	      0.00000000
      0.78236561	      4.18044014	     -0.46356967	      0.00000000
      0.78396881	      4.18818646	     -0.46059161	      0.00000000
      0.78557202	      4.19560906	     -0.45741736	      0.00000000
      0.78717523	      4.20271593	     -0.45405681	      0.00000000
      0.78877844	      4.20951525	     -0.45051950	      0.00000000
      0.79038165	      4.21601492	     -0.44681491	      0.00000000
      0.79198486	      4.22222300	     -0.44295217	      0.00000000
      0.79358806	      4.22814719	     -0.43894025	      0.00000000
      0.79519127	      4.23379544	     -0.43478777	      0.00000000
      0.79679448	      4.23917514	     -0.43050329	      0.00000000
      0.79839769	      4.24429389	     -0.42609506	      0.00000000
      0.80000090	      4.24915882	     -0.42157109	      0.00000000
      0.80160410	      4.25377734	     -0.41693904	      0.00000000
      0.80320731	      4.25815627	     -0.41220650	      0.00000000
      0.80481052	      4.26230265	     -0.40738072	      0.00000000
      0.80641373	      4.26622302	     -0.40246876	      0.00000000
      0.80801694	      4.26992414	     -0.39747737	      0.00000000
      0.80962015	      4.27341228	     -0.39241314	      0.00000000
      0.81122335	      4.27669391	     -0.38728237	      0.00000000
      0.81282656	      4.27977501	     -0.38209122	      0.00000000
      0.81442977	      4.28266177	     -0.37684556	      0.00000000
      0.81603298	      4.28535983	     -0.37155107	      0.00000000
      0.81763619	      4.28787505	     -0.36621313	      0.00000000
      0.81923939	      4.29021273	     -0.36083704	      0.00000000
      0.82084260	      4.29237838	     -0.35542780	      0.00000000
      0.82244581	      4.29437698	     -0.34999039	      0.00000000
      0.82404902	      4.29621373	     -0.34452944	      0.00000000
      0.82565223	      4.29789325	     -0.33904966	      0.00000000
      0.82725544	      4.29942042	     -0.33355537	      0.00000000
      0.82885864	      4.30079941	     -0.32805102	      0.00000000
      0.83046185	      4.30203466	     -0.32254070	      0.00000000
      0.83206506	      4.30312984	     -0.31702866	      0.00000000
      0.83366827	      4.30408888	     -0.31151880	      0.00000000
      0.83527148	      4.30491480	     -0.30601515	      0.00000000
      0.83687469	      4.30561100	     -0.30052144	      0.00000000
      0.83847789	      4.30617968	     -0.29504152	      0.00000000
      0.84008110	      4.30662352	     -0.28957893	      0.00000000
      0.84168431	      4.30694369	     -0.28413740	      0.00000000
      0.84328752	      4.30714178	     -0.27872044	      0.00000000
      0.84489073	      4.30721781	     -0.27333156	      0.00000000
      0.84649393	      4.30717236	     -0.26797405	      0.00000000
      0.84809714	      4.30700411	     -0.26265108	      0.00000000
      0.84970035	      4.30671241	     -0.25736572	      0.00000000
      0.85130356	      4.30629425	     -0.25212087	      0.00000000
      0.85290677	      4.30574735	     -0.24691947	      0.00000000
      0.85450998	      4.30506672	     -0.24176412	      0.00000000
      0.85611318	      4.30424814	     -0.23665763	      0.00000000
      0.85771639	      4.30328438	     -0.23160224	      0.00000000
      0.85931960	      4.30216907	     -0.22660055	      0.00000000
      0.86092281	      4.30089253	     -0.22165437	      0.00000000
      0.86252602	      4.29944601	     -0.21676599	      0.00000000
      0.86412922	      4.29781708	     -0.21193677	      0.00000000
      0.86573243	      4.29599425	     -0.20716879	      0.00000000
      0.86733564	      4.29396223	     -0.20246289	      0.00000000
      0.86893885	      4.29170666	     -0.19782083	      0.00000000
      0.87054206	      4.28920945	     -0.19324285	      0.00000000
      0.87214527	      4.28645339	     -0.18873041	      0.00000000
      0.87374847	      4.28341773	     -0.18428321	      0.00000000
      0.87535168	      4.28008254	     -0.17990237	      0.00000000
      0.87695489	      4.27642464	     -0.17558712	      0.00000000
      0.87855810	      4.27242152	     -0.17133832	      0.00000000
      0.88016131	      4.26804802	     -0.16715481	      0.00000000
      0.88176452	      4.26327942	     -0.16303726	      0.00000000
      0.88336772	      4.25808937	     -0.15898399	      0.00000000
      0.88497093	      4.25245180	     -0.15499514	      0.00000000
      0.88657414	      4.24633966	     -0.15106887	      0.00000000
      0.88817735	      4.23972577	     -0.14720542	      0.00000000
      0.88978056	      4.23258304	     -0.14340308	      0.00000000
      0.89138376	      4.22488398	     -0.13966228	      0.00000000
      0.89298697	      4.21660245	     -0.13598143	      0.00000000
      0.89459018	      4.20771161	     -0.13236100	      0.00000000
      0.89619339	      4.19818714	     -0.12879974	      0.00000000
      0.89779660	      4.18800364	     -0.12529837	      0.00000000
      0.89939981	      4.17713947	     -0.12185631	      0.00000000
      0.90100301	      4.16557136	     -0.11847470	      0.00000000
      0.90260622	      4.15328171	     -0.11515372	      0.00000000
      0.90420943	      4.14024981	     -0.11189395	      0.00000000
      0.90581264	      4.12646433	     -0.10869922	      0.00000000
      0.90741585	      4.11188401	     -0.10556975	      0.00000000
      0.90901905	      4.09623258	     -0.10247821	      0.00000000
      0.91062226	      4.07939516	     -0.09944145	      0.00000000
      0.91222547	      4.06159822	     -0.09648586	      0.00000000
      0.91382868	      4.04287498	     -0.09360013	      0.00000000
      0.91543189	      4.02319116	     -0.09079474	      0.00000000
      0.91703510	      4.00255968	     -0.08808606	      0.00000000
      0.91863830	      3.98097945	     -0.08549183	      0.00000000
      0.92024151	      3.95845684	     -0.08302896	      0.00000000
      0.92184472	      3.93499880	     -0.08071780	      0.00000000
      0.92344793	      3.91061308	     -0.07857739	      0.00000000
      0.92505114	      3.88530995	     -0.07663073	      0.00000000
      0.92665435	      3.85909912	     -0.07489912	      0.00000000
      0.92825755	      3.83199329	     -0.07340762	      0.00000000
      0.92986076	      3.80400579	     -0.07217919	      0.00000000
      0.93146397	      3.77515084	     -0.07124151	      0.00000000
      0.93306718	      3.74544260	     -0.07061967	      0.00000000
      0.93467039	      3.71489365	     -0.07034281	      0.00000000
      0.93627359	      3.68351749	     -0.07043731	      0.00000000
      0.93787680	      3.65132408	     -0.07093358	      0.00000000
      0.93948001	      3.61832495	     -0.07185913	      0.00000000
      0.94108322	      3.58452573	     -0.07324633	      0.00000000
      0.94268643	      3.54993392	     -0.07512541	      0.00000000
      0.94428964	      3.51454836	     -0.07752602	      0.00000000
      0.94589284	      3.47837234	     -0.08047189	      0.00000000
      0.94749605	      3.44139444	     -0.08400297	      0.00000000
      0.94909926	      3.40360783	     -0.08815750	      0.00000000
      0.95070247	      3.36498882	     -0.09296740	      0.00000000
      0.95230568	      3.32554542	     -0.09842474	      0.00000000
      0.95390888	      3.28519226	     -0.10464589	      0.00000000
      0.95551209	      3.24388133	     -0.11171732	      0.00000000
      0.95711530	      3.20150683	     -0.11962374	      0.00000000
      0.95871851	      3.15863685	     -0.12733509	      0.00000000
      0.96032172	      3.11397560	     -0.13716775	      0.00000000
      0.96192493	      3.06724777	     -0.15030263	      0.00000000
