PointAcceleration
version=1
nRows=601
nColumns=4
inDegrees=no
No description.
endheader
time	state_0	state_1	state_2
      0.00000000	     -2.40298531	   -199.12702663	      0.00000000
      0.00119498	      3.57086038	   -204.82694762	      0.00000000
      0.00238997	      9.98745079	   -208.38756648	      0.00000000
      0.00358495	     15.35950799	   -212.49274902	      0.00000000
      0.00477994	     19.63334985	   -217.23731821	      0.00000000
      0.00597492	     22.96535519	   -222.07096702	      0.00000000
      0.00716991	     25.41788181	   -226.88504997	      0.00000000
      0.00836489	     27.10947685	   -231.42094626	      0.00000000
      0.00955988	     28.18356979	   -235.47736210	      0.00000000
      0.01075486	     28.72040685	   -238.94803703	      0.00000000
      0.01194985	     28.87994406	   -241.62560793	      0.00000000
      0.01314483	     28.68916930	   -243.54393345	      0.00000000
      0.01433982	     28.23268620	   -244.66706781	      0.00000000
      0.01553480	     27.55697137	   -245.01053236	      0.00000000
      0.01672979	     26.74159110	   -244.55814406	      0.00000000
      0.01792477	     25.80468105	   -243.38440439	      0.00000000
      0.01911976	     24.77562225	   -241.54634626	      0.00000000
      0.02031474	     23.66366920	   -239.10451500	      0.00000000
      0.02150973	     22.47805630	   -236.13937291	      0.00000000
      0.02270471	     21.22579283	   -232.73335155	      0.00000000
      0.02389970	     19.91952414	   -228.95849946	      0.00000000
      0.02509468	     18.57328495	   -224.87144017	      0.00000000
      0.02628967	     17.19738742	   -220.53350527	      0.00000000
      0.02748465	     15.80543021	   -215.98936250	      0.00000000
      0.02867964	     14.40792108	   -211.28765301	      0.00000000
      0.02987462	     13.01683458	   -206.46618316	      0.00000000
      0.03106961	     11.64037213	   -201.56682366	      0.00000000
      0.03226459	     10.28788474	   -196.62083290	      0.00000000
      0.03345957	      8.96510853	   -191.66265583	      0.00000000
      0.03465456	      7.67841826	   -186.71664652	      0.00000000
      0.03584954	      6.43157165	   -181.80867333	      0.00000000
      0.03704453	      5.22744341	   -176.95852715	      0.00000000
      0.03823951	      4.06731344	   -172.18612451	      0.00000000
      0.03943450	      2.95182963	   -167.50713104	      0.00000000
      0.04062948	      1.88075253	   -162.93639303	      0.00000000
      0.04182447	      0.85416078	   -158.48466642	      0.00000000
      0.04301945	     -0.12817414	   -154.16108204	      0.00000000
      0.04421444	     -1.06585844	   -149.97072665	      0.00000000
      0.04540942	     -1.95881994	   -145.91738932	      0.00000000
      0.04660441	     -2.80666921	   -142.00179502	      0.00000000
      0.04779939	     -3.60896313	   -138.22311188	      0.00000000
      0.04899438	     -4.36576297	   -134.57922367	      0.00000000
      0.05018936	     -5.07683676	   -131.06646232	      0.00000000
      0.05138435	     -5.74323940	   -127.68194969	      0.00000000
      0.05257933	     -6.36556789	   -124.42130408	      0.00000000
      0.05377432	     -6.94575480	   -121.28193795	      0.00000000
      0.05496930	     -7.48512725	   -118.25967990	      0.00000000
      0.05616429	     -7.98585613	   -115.35193139	      0.00000000
      0.05735927	     -8.44954117	   -112.55463193	      0.00000000
      0.05855426	     -8.87822123	   -109.86491827	      0.00000000
      0.05974924	     -9.27338531	   -107.27855056	      0.00000000
      0.06094423	     -9.63681498	   -104.79229677	      0.00000000
      0.06213921	     -9.96976961	   -102.40167665	      0.00000000
      0.06333419	    -10.27376731	   -100.10301048	      0.00000000
      0.06452918	    -10.54988803	    -97.89162444	      0.00000000
      0.06572416	    -10.79957936	    -95.76377259	      0.00000000
      0.06691915	    -11.02384453	    -93.71482718	      0.00000000
      0.06811413	    -11.22411059	    -91.74114813	      0.00000000
      0.06930912	    -11.40140464	    -89.83837716	      0.00000000
      0.07050410	    -11.55725033	    -88.00332288	      0.00000000
      0.07169909	    -11.69278539	    -86.23215579	      0.00000000
      0.07289407	    -11.80963344	    -84.52228446	      0.00000000
      0.07408906	    -11.90908074	    -82.87057956	      0.00000000
      0.07528404	    -11.99279018	    -81.27504921	      0.00000000
      0.07647903	    -12.06215554	    -79.73327014	      0.00000000
      0.07767401	    -12.11877517	    -78.24370364	      0.00000000
      0.07886900	    -12.16406102	    -76.80449860	      0.00000000
      0.08006398	    -12.19944999	    -75.41437223	      0.00000000
      0.08125897	    -12.22628195	    -74.07186307	      0.00000000
      0.08245395	    -12.24577343	    -72.77578908	      0.00000000
      0.08364894	    -12.25911945	    -71.52491459	      0.00000000
      0.08484392	    -12.26728849	    -70.31805085	      0.00000000
      0.08603891	    -12.27128782	    -69.15406634	      0.00000000
      0.08723389	    -12.27186385	    -68.03173592	      0.00000000
      0.08842888	    -12.26984225	    -66.94995619	      0.00000000
      0.08962386	    -12.26577743	    -65.90745401	      0.00000000
      0.09081885	    -12.26034052	    -64.90315306	      0.00000000
      0.09201383	    -12.25394067	    -63.93582634	      0.00000000
      0.09320882	    -12.24710864	    -63.00447847	      0.00000000
      0.09440380	    -12.24010243	    -62.10790896	      0.00000000
      0.09559878	    -12.23331425	    -61.24516500	      0.00000000
      0.09679377	    -12.22688048	    -60.41503156	      0.00000000
      0.09798875	    -12.22106627	    -59.61654464	      0.00000000
      0.09918374	    -12.21593162	    -58.84847935	      0.00000000
      0.10037872	    -12.21164549	    -58.10982571	      0.00000000
      0.10157371	    -12.20824995	    -57.39943093	      0.00000000
      0.10276869	    -12.20589202	    -56.71637744	      0.00000000
      0.10396368	    -12.20457693	    -56.05959279	      0.00000000
      0.10515866	    -12.20440793	    -55.42822224	      0.00000000
      0.10635365	    -12.20534873	    -54.82123532	      0.00000000
      0.10754863	    -12.20744877	    -54.23778727	      0.00000000
      0.10874362	    -12.21063247	    -53.67686062	      0.00000000
      0.10993860	    -12.21497800	    -53.13773903	      0.00000000
      0.11113359	    -12.22025896	    -52.61924326	      0.00000000
      0.11232857	    -12.22689617	    -52.12134501	      0.00000000
      0.11352356	    -12.23549749	    -51.64461193	      0.00000000
      0.11471854	    -12.24449669	    -51.18627533	      0.00000000
      0.11591353	    -12.25335628	    -50.74417530	      0.00000000
      0.11710851	    -12.26358669	    -50.32011288	      0.00000000
      0.11830350	    -12.27502149	    -49.91350887	      0.00000000
      0.11949848	    -12.28723914	    -49.52318766	      0.00000000
      0.12069347	    -12.30018327	    -49.14849182	      0.00000000
      0.12188845	    -12.31370891	    -48.78864614	      0.00000000
      0.12308344	    -12.32782918	    -48.44315726	      0.00000000
      0.12427842	    -12.34253668	    -48.11155221	      0.00000000
      0.12547340	    -12.35776258	    -47.79330823	      0.00000000
      0.12666839	    -12.37341811	    -47.48788694	      0.00000000
      0.12786337	    -12.38938329	    -47.19468613	      0.00000000
      0.12905836	    -12.40552884	    -46.91310471	      0.00000000
      0.13025334	    -12.42177023	    -46.64258223	      0.00000000
      0.13144833	    -12.43801141	    -46.38256836	      0.00000000
      0.13264331	    -12.45420357	    -46.13257163	      0.00000000
      0.13383830	    -12.47027528	    -45.89209309	      0.00000000
      0.13503328	    -12.48618089	    -45.66066505	      0.00000000
      0.13622827	    -12.50184675	    -45.43780134	      0.00000000
      0.13742325	    -12.51721576	    -45.22303071	      0.00000000
      0.13861824	    -12.53219760	    -45.01585440	      0.00000000
      0.13981322	    -12.54673057	    -44.81580596	      0.00000000
      0.14100821	    -12.56070954	    -44.62237472	      0.00000000
      0.14220319	    -12.57410299	    -44.43515575	      0.00000000
      0.14339818	    -12.58683828	    -44.25370146	      0.00000000
      0.14459316	    -12.59893659	    -44.07771291	      0.00000000
      0.14578815	    -12.61038879	    -43.90686190	      0.00000000
      0.14698313	    -12.62123225	    -43.74090949	      0.00000000
      0.14817812	    -12.63146960	    -43.57957654	      0.00000000
      0.14937310	    -12.64112006	    -43.42263154	      0.00000000
      0.15056809	    -12.65017205	    -43.26980547	      0.00000000
      0.15176307	    -12.65862605	    -43.12086956	      0.00000000
      0.15295806	    -12.66646034	    -42.97556825	      0.00000000
      0.15415304	    -12.67367078	    -42.83369470	      0.00000000
      0.15534803	    -12.68023379	    -42.69501780	      0.00000000
      0.15654301	    -12.68613702	    -42.55934628	      0.00000000
      0.15773799	    -12.69135590	    -42.42647369	      0.00000000
      0.15893298	    -12.69586670	    -42.29621749	      0.00000000
      0.16012796	    -12.69963340	    -42.16837909	      0.00000000
      0.16132295	    -12.70259811	    -42.04274692	      0.00000000
      0.16251793	    -12.70469311	    -41.91909651	      0.00000000
      0.16371292	    -12.70578687	    -41.79712404	      0.00000000
      0.16490790	    -12.70577678	    -41.67656613	      0.00000000
      0.16610289	    -12.70458305	    -41.55720710	      0.00000000
      0.16729787	    -12.70207288	    -41.43875527	      0.00000000
      0.16849286	    -12.69810269	    -41.32092063	      0.00000000
      0.16968784	    -12.69254041	    -41.20342821	      0.00000000
      0.17088283	    -12.68519372	    -41.08593935	      0.00000000
      0.17207781	    -12.67593215	    -40.96819842	      0.00000000
      0.17327280	    -12.66463393	    -40.84998535	      0.00000000
      0.17446778	    -12.65112593	    -40.73100495	      0.00000000
      0.17566277	    -12.63512761	    -40.61081961	      0.00000000
      0.17685775	    -12.61640567	    -40.48905492	      0.00000000
      0.17805274	    -12.59465007	    -40.36522504	      0.00000000
      0.17924772	    -12.56956959	    -40.23887119	      0.00000000
      0.18044271	    -12.54081396	    -40.10943738	      0.00000000
      0.18163769	    -12.50804302	    -39.97638571	      0.00000000
      0.18283268	    -12.47087021	    -39.83909209	      0.00000000
      0.18402766	    -12.42891948	    -39.69695290	      0.00000000
      0.18522265	    -12.38182148	    -39.54935227	      0.00000000
      0.18641763	    -12.32919839	    -39.39566946	      0.00000000
      0.18761262	    -12.27072217	    -39.23533955	      0.00000000
      0.18880760	    -12.20606876	    -39.06780999	      0.00000000
      0.19000258	    -12.13496862	    -38.89260213	      0.00000000
      0.19119757	    -12.05715487	    -38.70924605	      0.00000000
      0.19239255	    -11.97239254	    -38.51731964	      0.00000000
      0.19358754	    -11.88044310	    -38.31639877	      0.00000000
      0.19478252	    -11.78110280	    -38.10610878	      0.00000000
      0.19597751	    -11.67416738	    -37.88607610	      0.00000000
      0.19717249	    -11.55949302	    -37.65600781	      0.00000000
      0.19836748	    -11.43693789	    -37.41561511	      0.00000000
      0.19956246	    -11.30644933	    -37.16472768	      0.00000000
      0.20075745	    -11.16795702	    -36.90315311	      0.00000000
      0.20195243	    -11.02145611	    -36.63078778	      0.00000000
      0.20314742	    -10.86695426	    -36.34754520	      0.00000000
      0.20434240	    -10.70455223	    -36.05346745	      0.00000000
      0.20553739	    -10.53434177	    -35.74858402	      0.00000000
      0.20673237	    -10.35652085	    -35.43307284	      0.00000000
      0.20792736	    -10.17126001	    -35.10707405	      0.00000000
      0.20912234	     -9.97878719	    -34.77081380	      0.00000000
      0.21031733	     -9.77934832	    -34.42453890	      0.00000000
      0.21151231	     -9.57329607	    -34.06864705	      0.00000000
      0.21270730	     -9.36094603	    -33.70348367	      0.00000000
      0.21390228	     -9.14267190	    -33.32948147	      0.00000000
      0.21509727	     -8.91885051	    -32.94707278	      0.00000000
      0.21629225	     -8.68991925	    -32.55677885	      0.00000000
      0.21748724	     -8.45630509	    -32.15910259	      0.00000000
      0.21868222	     -8.21850451	    -31.75464443	      0.00000000
      0.21987720	     -7.97697766	    -31.34395336	      0.00000000
      0.22107219	     -7.73218888	    -30.92758868	      0.00000000
      0.22226717	     -7.48461163	    -30.50611732	      0.00000000
      0.22346216	     -7.23473805	    -30.08013091	      0.00000000
      0.22465714	     -6.98303393	    -29.65018315	      0.00000000
      0.22585213	     -6.72996569	    -29.21682800	      0.00000000
      0.22704711	     -6.47598257	    -28.78059451	      0.00000000
      0.22824210	     -6.22152028	    -28.34199407	      0.00000000
      0.22943708	     -5.96700138	    -27.90151914	      0.00000000
      0.23063207	     -5.71281960	    -27.45962316	      0.00000000
      0.23182705	     -5.45935261	    -27.01673673	      0.00000000
      0.23302204	     -5.20693580	    -26.57323130	      0.00000000
      0.23421702	     -4.95589149	    -26.12945964	      0.00000000
      0.23541201	     -4.70649200	    -25.68570452	      0.00000000
      0.23660699	     -4.45900169	    -25.24223744	      0.00000000
      0.23780198	     -4.21361193	    -24.79923135	      0.00000000
      0.23899696	     -3.97051401	    -24.35686004	      0.00000000
      0.24019195	     -3.72977423	    -23.91512886	      0.00000000
      0.24138693	     -3.49142277	    -23.47400234	      0.00000000
      0.24258192	     -3.25537285	    -23.03327096	      0.00000000
      0.24377690	     -3.02118000	    -22.59228121	      0.00000000
      0.24497189	     -2.78896166	    -22.15104093	      0.00000000
      0.24616687	     -2.55666898	    -21.70682774	      0.00000000
      0.24736186	     -2.32725531	    -21.26318702	      0.00000000
      0.24855684	     -2.09000334	    -20.80576239	      0.00000000
      0.24975183	     -1.83946756	    -20.31004849	      0.00000000
      0.25094681	     -1.57951152	    -19.81694207	      0.00000000
      0.25214179	     -1.34531952	    -19.35283200	      0.00000000
      0.25333678	     -1.11102045	    -18.88504479	      0.00000000
      0.25453176	     -0.87414547	    -18.41065495	      0.00000000
      0.25572675	     -0.63813218	    -17.93388515	      0.00000000
      0.25692173	     -0.40000016	    -17.45092795	      0.00000000
      0.25811672	     -0.16034554	    -16.96242038	      0.00000000
      0.25931170	      0.08150001	    -16.46739026	      0.00000000
      0.26050669	      0.32562104	    -15.96557256	      0.00000000
      0.26170167	      0.57103988	    -15.45802000	      0.00000000
      0.26289666	      0.81685368	    -14.94568851	      0.00000000
      0.26409164	      1.06010176	    -14.43055568	      0.00000000
      0.26528663	      1.30063034	    -13.91558662	      0.00000000
      0.26648161	      1.53502800	    -13.40329914	      0.00000000
      0.26767660	      1.76167645	    -12.89542855	      0.00000000
      0.26887158	      1.98004155	    -12.39237105	      0.00000000
      0.27006657	      2.18934621	    -11.89481914	      0.00000000
      0.27126155	      2.39036680	    -11.40155891	      0.00000000
      0.27245654	      2.58359035	    -10.91176977	      0.00000000
      0.27365152	      2.77021904	    -10.42372192	      0.00000000
      0.27484651	      2.95122504	     -9.93601933	      0.00000000
      0.27604149	      3.12774385	     -9.44698021	      0.00000000
      0.27723648	      3.30092737	     -8.95495157	      0.00000000
      0.27843146	      3.47158163	     -8.45862870	      0.00000000
      0.27962645	      3.64055161	     -7.95670020	      0.00000000
      0.28082143	      3.80823207	     -7.44836609	      0.00000000
      0.28201641	      3.97503174	     -6.93277819	      0.00000000
      0.28321140	      4.14100466	     -6.40941371	      0.00000000
      0.28440638	      4.30608618	     -5.87767019	      0.00000000
      0.28560137	      4.46985273	     -5.33696496	      0.00000000
      0.28679635	      4.63110641	     -4.78697292	      0.00000000
      0.28799134	      4.78911784	     -4.22594601	      0.00000000
      0.28918632	      4.94214515	     -3.65232182	      0.00000000
      0.29038131	      5.09003432	     -3.06245118	      0.00000000
      0.29157629	      5.23365382	     -2.45276324	      0.00000000
      0.29277128	      5.37474412	     -1.82240676	      0.00000000
      0.29396626	      5.51372053	     -1.17353798	      0.00000000
      0.29516125	      5.64744088	     -0.50324995	      0.00000000
      0.29635623	      5.76458987	      0.19953134	      0.00000000
      0.29755122	      5.85471223	      0.93838125	      0.00000000
      0.29874620	      5.93496428	      1.70838627	      0.00000000
      0.29994119	      6.01938052	      2.48070225	      0.00000000
      0.30113617	      6.11148048	      3.22494276	      0.00000000
      0.30233116	      6.21428603	      3.93492169	      0.00000000
      0.30352614	      6.32034253	      4.60831787	      0.00000000
      0.30472113	      6.43223180	      5.25580779	      0.00000000
      0.30591611	      6.54911308	      5.88706691	      0.00000000
      0.30711110	      6.66925845	      6.50252008	      0.00000000
      0.30830608	      6.78618672	      7.08991481	      0.00000000
      0.30950107	      6.93174811	      7.65669442	      0.00000000
      0.31069605	      7.06256992	      8.20367265	      0.00000000
      0.31189104	      7.19284756	      8.70519674	      0.00000000
      0.31308602	      7.30178109	      9.13788549	      0.00000000
      0.31428100	      7.47471653	      9.47507303	      0.00000000
      0.31547599	      7.53285500	      9.76504569	      0.00000000
      0.31667097	      7.56896918	      9.98929686	      0.00000000
      0.31786596	      7.57561229	     10.11822879	      0.00000000
      0.31906094	      7.53894903	     10.15390322	      0.00000000
      0.32025593	      7.47151801	     10.09737878	      0.00000000
      0.32145091	      7.36457376	      9.94478466	      0.00000000
      0.32264590	      7.22128724	      9.69608450	      0.00000000
      0.32384088	      7.03395675	      9.34357484	      0.00000000
      0.32503587	      6.79779301	      8.88148325	      0.00000000
      0.32623085	      6.51025285	      8.30796088	      0.00000000
      0.32742584	      6.16956633	      7.62280820	      0.00000000
      0.32862082	      5.78499784	      6.84169463	      0.00000000
      0.32981581	      5.36296977	      5.97866713	      0.00000000
      0.33101079	      4.90720281	      5.04600303	      0.00000000
      0.33220578	      4.41347906	      4.04293190	      0.00000000
      0.33340076	      3.85257220	      2.96419695	      0.00000000
      0.33459575	      3.55297287	      2.58336406	      0.00000000
      0.33579073	      4.02178200	      3.89804287	      0.00000000
      0.33698572	      4.68013474	      5.58251911	      0.00000000
      0.33818070	      5.24610335	      7.05220489	      0.00000000
      0.33937569	      5.74082687	      8.35271156	      0.00000000
      0.34057067	      6.17838146	      9.51139549	      0.00000000
      0.34176566	      6.54796921	     10.50248436	      0.00000000
      0.34296064	      6.83571582	     11.29203370	      0.00000000
      0.34415563	      7.02882000	     11.84779575	      0.00000000
      0.34535061	      7.11791308	     12.14436992	      0.00000000
      0.34654559	      7.09919916	     12.16896658	      0.00000000
      0.34774058	      6.97188977	     11.91655774	      0.00000000
      0.34893556	      6.73978832	     11.39797796	      0.00000000
      0.35013055	      6.40855691	     10.62686506	      0.00000000
      0.35132553	      5.98960936	      9.62979597	      0.00000000
      0.35252052	      5.49228428	      8.43042279	      0.00000000
      0.35371550	      4.92927482	      7.06083932	      0.00000000
      0.35491049	      4.31029580	      5.54724190	      0.00000000
      0.35610547	      3.64696268	      3.92024904	      0.00000000
      0.35730046	      2.94851679	      2.20472716	      0.00000000
      0.35849544	      2.22522242	      0.42732153	      0.00000000
      0.35969043	      1.48605949	     -1.38916568	      0.00000000
      0.36088541	      0.74050207	     -3.22168238	      0.00000000
      0.36208040	     -0.00229499	     -5.04876951	      0.00000000
      0.36327538	     -0.73320289	     -6.84981201	      0.00000000
      0.36447037	     -1.44271753	     -8.60410051	      0.00000000
      0.36566535	     -2.12199981	    -10.29297636	      0.00000000
      0.36686034	     -2.76175103	    -11.89727694	      0.00000000
      0.36805532	     -3.35429777	    -13.40155396	      0.00000000
      0.36925031	     -3.89229711	    -14.79080231	      0.00000000
      0.37044529	     -4.37073806	    -16.05528177	      0.00000000
      0.37164028	     -4.78345383	    -17.18778718	      0.00000000
      0.37283526	     -5.12865319	    -18.18631266	      0.00000000
      0.37403025	     -5.40723344	    -19.05121425	      0.00000000
      0.37522523	     -5.62184627	    -19.78651860	      0.00000000
      0.37642021	     -5.63188736	    -20.27565031	      0.00000000
      0.37761520	     -5.55389506	    -20.62946952	      0.00000000
      0.37881018	     -5.47391574	    -20.92621676	      0.00000000
      0.38000517	     -5.39286950	    -21.16889998	      0.00000000
      0.38120015	     -5.31156049	    -21.36120707	      0.00000000
      0.38239514	     -5.23083486	    -21.50677000	      0.00000000
      0.38359012	     -5.15138614	    -21.60968477	      0.00000000
      0.38478511	     -5.07404264	    -21.67357969	      0.00000000
      0.38598009	     -4.99947778	    -21.70235272	      0.00000000
      0.38717508	     -4.92841138	    -21.69957016	      0.00000000
      0.38837006	     -4.86161113	    -21.66857058	      0.00000000
      0.38956505	     -4.80030718	    -21.61182292	      0.00000000
      0.39076003	     -4.74622992	    -21.53123857	      0.00000000
      0.39195502	     -4.70107561	    -21.42908311	      0.00000000
      0.39315000	     -4.66454260	    -21.30962393	      0.00000000
      0.39434499	     -4.63350307	    -21.17914297	      0.00000000
      0.39553997	     -4.60481721	    -21.04319699	      0.00000000
      0.39673496	     -4.57591160	    -20.90545944	      0.00000000
      0.39792994	     -4.54533983	    -20.76760091	      0.00000000
      0.39912493	     -4.51257784	    -20.63017823	      0.00000000
      0.40031991	     -4.47760593	    -20.49331214	      0.00000000
      0.40151490	     -4.44050067	    -20.35710545	      0.00000000
      0.40270988	     -4.40128874	    -20.22167082	      0.00000000
      0.40390487	     -4.36006339	    -20.08708691	      0.00000000
      0.40509985	     -4.31699485	    -19.95344846	      0.00000000
      0.40629484	     -4.27218854	    -19.82093061	      0.00000000
      0.40748982	     -4.22568281	    -19.68972544	      0.00000000
      0.40868480	     -4.17755217	    -19.56000951	      0.00000000
      0.40987979	     -4.12790675	    -19.43191130	      0.00000000
      0.41107477	     -4.07684636	    -19.30557491	      0.00000000
      0.41226976	     -4.02447380	    -19.18109430	      0.00000000
      0.41346474	     -3.97089369	    -19.05856702	      0.00000000
      0.41465973	     -3.91621359	    -18.93804175	      0.00000000
      0.41585471	     -3.86053896	    -18.81956600	      0.00000000
      0.41704970	     -3.80408132	    -18.70310039	      0.00000000
      0.41824468	     -3.74705832	    -18.58859092	      0.00000000
      0.41943967	     -3.68956354	    -18.47602956	      0.00000000
      0.42063465	     -3.63168394	    -18.36539890	      0.00000000
      0.42182964	     -3.57350144	    -18.25669303	      0.00000000
      0.42302462	     -3.51509236	    -18.14989285	      0.00000000
      0.42421961	     -3.45652872	    -18.04500925	      0.00000000
      0.42541459	     -3.39787894	    -17.94203430	      0.00000000
      0.42660958	     -3.33921001	    -17.84100805	      0.00000000
      0.42780456	     -3.28058676	    -17.74191985	      0.00000000
      0.42899955	     -3.22207544	    -17.64483717	      0.00000000
      0.43019453	     -3.13097015	    -17.51487845	      0.00000000
      0.43138952	     -3.07324053	    -17.42192924	      0.00000000
      0.43258450	     -3.01578362	    -17.33115857	      0.00000000
      0.43377949	     -2.95868749	    -17.24260787	      0.00000000
      0.43497447	     -2.90204628	    -17.15634288	      0.00000000
      0.43616946	     -2.84595675	    -17.07241387	      0.00000000
      0.43736444	     -2.79051964	    -16.99087190	      0.00000000
      0.43855942	     -2.73583819	    -16.91175611	      0.00000000
      0.43975441	     -2.68201886	    -16.83510434	      0.00000000
      0.44094939	     -2.62916963	    -16.76094124	      0.00000000
      0.44214438	     -2.57740095	    -16.68928987	      0.00000000
      0.44333936	     -2.52682306	    -16.62015816	      0.00000000
      0.44453435	     -2.47754774	    -16.55355245	      0.00000000
      0.44572933	     -2.42968450	    -16.48946271	      0.00000000
      0.44692432	     -2.38334308	    -16.42787741	      0.00000000
      0.44811930	     -2.33862896	    -16.36876869	      0.00000000
      0.44931429	     -2.29564641	    -16.31210723	      0.00000000
      0.45050927	     -2.25449394	    -16.25784857	      0.00000000
      0.45170426	     -2.21526770	    -16.20594695	      0.00000000
      0.45289924	     -2.17805711	    -16.15634343	      0.00000000
      0.45409423	     -2.14294790	    -16.10897789	      0.00000000
      0.45528921	     -2.11001814	    -16.06377908	      0.00000000
      0.45648420	     -2.07934097	    -16.02067466	      0.00000000
      0.45767918	     -2.05098132	    -15.97958321	      0.00000000
      0.45887417	     -2.02499811	    -15.94042243	      0.00000000
      0.46006915	     -2.00144169	    -15.90310403	      0.00000000
      0.46126414	     -1.98035547	    -15.86753897	      0.00000000
      0.46245912	     -1.96177456	    -15.83363421	      0.00000000
      0.46365411	     -1.94572632	    -15.80129620	      0.00000000
      0.46484909	     -1.93223062	    -15.77042977	      0.00000000
      0.46604408	     -1.92129894	    -15.74093950	      0.00000000
      0.46723906	     -1.91293656	    -15.71273236	      0.00000000
      0.46843405	     -1.90714008	    -15.68571520	      0.00000000
      0.46962903	     -1.90390160	    -15.65979922	      0.00000000
      0.47082401	     -1.90320454	    -15.63489568	      0.00000000
      0.47201900	     -1.90502967	    -15.61092249	      0.00000000
      0.47321398	     -1.90934950	    -15.58779768	      0.00000000
      0.47440897	     -1.91613574	    -15.56544723	      0.00000000
      0.47560395	     -1.92535266	    -15.54379711	      0.00000000
      0.47679894	     -1.93696553	    -15.52278161	      0.00000000
      0.47799392	     -1.95093339	    -15.50233466	      0.00000000
      0.47918891	     -1.96721810	    -15.48239836	      0.00000000
      0.48038389	     -1.98577677	    -15.46291394	      0.00000000
      0.48157888	     -2.00657086	    -15.44382997	      0.00000000
      0.48277386	     -2.02955865	    -15.42509374	      0.00000000
      0.48396885	     -2.05470355	    -15.40665906	      0.00000000
      0.48516383	     -2.08196664	    -15.38847868	      0.00000000
      0.48635882	     -2.11131342	    -15.37051185	      0.00000000
      0.48755380	     -2.14270636	    -15.35271835	      0.00000000
      0.48874879	     -2.17611009	    -15.33506589	      0.00000000
      0.48994377	     -2.21148417	    -15.31752533	      0.00000000
      0.49113876	     -2.24878766	    -15.30007624	      0.00000000
      0.49233374	     -2.28797349	    -15.28270288	      0.00000000
      0.49352873	     -2.32899397	    -15.26539807	      0.00000000
      0.49472371	     -2.37179641	    -15.24815845	      0.00000000
      0.49591870	     -2.41632951	    -15.23098804	      0.00000000
      0.49711368	     -2.46253682	    -15.21389443	      0.00000000
      0.49830867	     -2.51036508	    -15.19688917	      0.00000000
      0.49950365	     -2.55976124	    -15.17998350	      0.00000000
      0.50069864	     -2.61067553	    -15.16319271	      0.00000000
      0.50189362	     -2.66305672	    -15.14653292	      0.00000000
      0.50308860	     -2.71685743	    -15.13002454	      0.00000000
      0.50428359	     -2.77202904	    -15.11368874	      0.00000000
      0.50547857	     -2.82852656	    -15.09755009	      0.00000000
      0.50667356	     -2.88630405	    -15.08163385	      0.00000000
      0.50786854	     -2.94531926	    -15.06596841	      0.00000000
      0.50906353	     -3.00552928	    -15.05058272	      0.00000000
      0.51025851	     -3.06689503	    -15.03550867	      0.00000000
      0.51145350	     -3.12937698	    -15.02077861	      0.00000000
      0.51264848	     -3.19293907	    -15.00642694	      0.00000000
      0.51384347	     -3.25754514	    -14.99248849	      0.00000000
      0.51503845	     -3.32316270	    -14.97900015	      0.00000000
      0.51623344	     -3.38975936	    -14.96599917	      0.00000000
      0.51742842	     -3.45730646	    -14.95352491	      0.00000000
      0.51862341	     -3.52577560	    -14.94161709	      0.00000000
      0.51981839	     -3.59514117	    -14.93031646	      0.00000000
      0.52101338	     -3.66537810	    -14.91966417	      0.00000000
      0.52220836	     -3.73646425	    -14.90970274	      0.00000000
      0.52340335	     -3.80837814	    -14.90047517	      0.00000000
      0.52459833	     -3.88110064	    -14.89202541	      0.00000000
      0.52579332	     -3.95461344	    -14.88439799	      0.00000000
      0.52698830	     -4.02889998	    -14.87763811	      0.00000000
      0.52818329	     -4.10394463	    -14.87179162	      0.00000000
      0.52937827	     -4.17973306	    -14.86690487	      0.00000000
      0.53057326	     -4.25625190	    -14.86302493	      0.00000000
      0.53176824	     -4.33348861	    -14.86019922	      0.00000000
      0.53296322	     -4.41143167	    -14.85847591	      0.00000000
      0.53415821	     -4.49007000	    -14.85790343	      0.00000000
      0.53535319	     -4.56939355	    -14.85853107	      0.00000000
      0.53654818	     -4.64939235	    -14.86040823	      0.00000000
      0.53774316	     -4.73005741	    -14.86358524	      0.00000000
      0.53893815	     -4.81137955	    -14.86811248	      0.00000000
      0.54013313	     -4.89335052	    -14.87404131	      0.00000000
      0.54132812	     -4.97596162	    -14.88142310	      0.00000000
      0.54252310	     -5.05920500	    -14.89031023	      0.00000000
      0.54371809	     -5.14307218	    -14.90075510	      0.00000000
      0.54491307	     -5.22755709	    -14.91281033	      0.00000000
      0.54610806	     -5.31265349	    -14.92652816	      0.00000000
      0.54730304	     -5.39835387	    -14.94196292	      0.00000000
      0.54849803	     -5.48464962	    -14.95916888	      0.00000000
      0.54969301	     -5.57153264	    -14.97820150	      0.00000000
      0.55088800	     -5.65899345	    -14.99911600	      0.00000000
      0.55208298	     -5.74702293	    -15.02196887	      0.00000000
      0.55327797	     -5.83561005	    -15.04681595	      0.00000000
      0.55447295	     -5.92474414	    -15.07371427	      0.00000000
      0.55566794	     -6.01441369	    -15.10272133	      0.00000000
      0.55686292	     -6.10460722	    -15.13389582	      0.00000000
      0.55805791	     -6.19531095	    -15.16729598	      0.00000000
      0.55925289	     -6.28651095	    -15.20298130	      0.00000000
      0.56044788	     -6.37819036	    -15.24101026	      0.00000000
      0.56164286	     -6.47033210	    -15.28144248	      0.00000000
      0.56283785	     -6.56291829	    -15.32433810	      0.00000000
      0.56403283	     -6.65593047	    -15.36975842	      0.00000000
      0.56522781	     -6.74934767	    -15.41776402	      0.00000000
      0.56642280	     -6.84314838	    -15.46841663	      0.00000000
      0.56761778	     -6.93730905	    -15.52177769	      0.00000000
      0.56881277	     -7.03180554	    -15.57790979	      0.00000000
      0.57000775	     -7.12661046	    -15.63687470	      0.00000000
      0.57120274	     -7.22169623	    -15.69873534	      0.00000000
      0.57239772	     -7.31703032	    -15.76355365	      0.00000000
      0.57359271	     -7.41258064	    -15.83139267	      0.00000000
      0.57478769	     -7.50830738	    -15.90231482	      0.00000000
      0.57598268	     -7.60417174	    -15.97638374	      0.00000000
      0.57717766	     -7.70011368	    -16.05365564	      0.00000000
      0.57837265	     -7.79607637	    -16.13418730	      0.00000000
      0.57956763	     -7.89197909	    -16.21802914	      0.00000000
      0.58076262	     -7.98774557	    -16.30523094	      0.00000000
      0.58195760	     -8.08326576	    -16.39583346	      0.00000000
      0.58315259	     -8.17843504	    -16.48987535	      0.00000000
      0.58434757	     -8.27309488	    -16.58737597	      0.00000000
      0.58554256	     -8.36709383	    -16.68834929	      0.00000000
      0.58673754	     -8.46022659	    -16.79279066	      0.00000000
      0.58793253	     -8.55229418	    -16.90068596	      0.00000000
      0.58912751	     -8.64303945	    -17.01199720	      0.00000000
      0.59032250	     -8.73221058	    -17.12667219	      0.00000000
      0.59151748	     -8.81950601	    -17.24463388	      0.00000000
      0.59271247	     -8.90462713	    -17.36578587	      0.00000000
      0.59390745	     -8.98724427	    -17.49000879	      0.00000000
      0.59510243	     -9.06702757	    -17.61715930	      0.00000000
      0.59629742	     -9.14364284	    -17.74707567	      0.00000000
      0.59749240	     -9.21675256	    -17.87956906	      0.00000000
      0.59868739	     -9.28604754	    -18.01444011	      0.00000000
      0.59988237	     -9.35121315	    -18.15146180	      0.00000000
      0.60107736	     -9.41199587	    -18.29040702	      0.00000000
      0.60227234	     -9.46813893	    -18.43102476	      0.00000000
      0.60346733	     -9.51947010	    -18.57307516	      0.00000000
      0.60466231	     -9.56583267	    -18.71630793	      0.00000000
      0.60585730	     -9.60714064	    -18.86049036	      0.00000000
      0.60705228	     -9.64343011	    -19.00542511	      0.00000000
      0.60824727	     -9.67472256	    -19.15093371	      0.00000000
      0.60944225	     -9.71713004	    -19.34915405	      0.00000000
      0.61063724	     -9.73909563	    -19.49796837	      0.00000000
      0.61183222	     -9.75665567	    -19.64740632	      0.00000000
      0.61302721	     -9.77048695	    -19.79780320	      0.00000000
      0.61422219	     -9.78135537	    -19.94973678	      0.00000000
      0.61541718	     -9.79046942	    -20.10423555	      0.00000000
      0.61661216	     -9.79938172	    -20.26288463	      0.00000000
      0.61780715	     -9.81025212	    -20.42808668	      0.00000000
      0.61900213	     -9.82591620	    -20.60332051	      0.00000000
      0.62019712	     -9.85007860	    -20.79349925	      0.00000000
      0.62139210	     -9.88761293	    -21.00543597	      0.00000000
      0.62258709	     -9.94457902	    -21.24829054	      0.00000000
      0.62378207	    -10.02881779	    -21.53426372	      0.00000000
      0.62497706	    -10.14967349	    -21.87902659	      0.00000000
      0.62617204	    -10.31887258	    -22.30254546	      0.00000000
      0.62736702	    -10.54952377	    -22.82917969	      0.00000000
      0.62856201	    -10.85720880	    -23.48830058	      0.00000000
      0.62975699	    -11.25797299	    -24.31348597	      0.00000000
      0.63095198	    -11.76923840	    -25.34225748	      0.00000000
      0.63214696	    -12.40660840	    -26.61361565	      0.00000000
      0.63334195	    -13.18406525	    -28.16600037	      0.00000000
      0.63453693	    -14.11001874	    -30.03274494	      0.00000000
      0.63573192	    -15.18637599	    -32.23775607	      0.00000000
      0.63692690	    -16.40538656	    -34.78992722	      0.00000000
      0.63812189	    -17.74783775	    -37.67756156	      0.00000000
      0.63931687	    -19.18337380	    -40.86536058	      0.00000000
      0.64051186	    -20.66892860	    -44.29076221	      0.00000000
      0.64170684	    -22.15484364	    -47.86867356	      0.00000000
      0.64290183	    -23.58451014	    -51.49309531	      0.00000000
      0.64409681	    -24.90541933	    -55.05140578	      0.00000000
      0.64529180	    -26.06918454	    -58.43043713	      0.00000000
      0.64648678	    -27.04228879	    -61.53398293	      0.00000000
      0.64768177	    -27.80433459	    -64.28729439	      0.00000000
      0.64887675	    -28.35290905	    -66.64709200	      0.00000000
      0.65007174	    -28.69920339	    -68.59934547	      0.00000000
      0.65126672	    -28.86594272	    -70.15705859	      0.00000000
      0.65246171	    -28.88276795	    -71.35349672	      0.00000000
      0.65365669	    -28.78109092	    -72.23290337	      0.00000000
      0.65485168	    -28.59195113	    -72.84524129	      0.00000000
      0.65604666	    -28.34181706	    -73.23756834	      0.00000000
      0.65724165	    -28.05333359	    -73.45341291	      0.00000000
      0.65843663	    -27.74328977	    -73.52813319	      0.00000000
      0.65963161	    -27.42480994	    -73.49165199	      0.00000000
      0.66082660	    -27.10672849	    -73.36686470	      0.00000000
      0.66202158	    -26.79575493	    -73.17313203	      0.00000000
      0.66321657	    -26.49628327	    -72.92581635	      0.00000000
      0.66441155	    -26.21192487	    -72.63902876	      0.00000000
      0.66560654	    -25.94523373	    -72.32514260	      0.00000000
      0.66680152	    -25.69860449	    -71.99650251	      0.00000000
      0.66799651	    -25.47406840	    -71.66484639	      0.00000000
      0.66919149	    -25.27383415	    -71.34240487	      0.00000000
      0.67038648	    -25.09995141	    -71.04125339	      0.00000000
      0.67158146	    -24.95469193	    -70.77399108	      0.00000000
      0.67277645	    -24.84026596	    -70.55321767	      0.00000000
      0.67397143	    -24.75914478	    -70.39210182	      0.00000000
      0.67516642	    -24.71384619	    -70.30406109	      0.00000000
      0.67636140	    -24.70724037	    -70.30331225	      0.00000000
      0.67755639	    -24.74240840	    -70.40480992	      0.00000000
      0.67875137	    -24.82294646	    -70.62480225	      0.00000000
      0.67994636	    -24.95289352	    -70.98107040	      0.00000000
      0.68114134	    -25.13704961	    -71.49350111	      0.00000000
      0.68233633	    -25.38097439	    -72.18470296	      0.00000000
      0.68353131	    -25.69134026	    -73.08058944	      0.00000000
      0.68472630	    -26.07602351	    -74.21158618	      0.00000000
      0.68592128	    -26.54451138	    -75.61311921	      0.00000000
      0.68711627	    -27.10812785	    -77.32794485	      0.00000000
      0.68831125	    -27.78051501	    -79.40620842	      0.00000000
      0.68950623	    -28.57807066	    -81.90996571	      0.00000000
      0.69070122	    -29.52050746	    -84.91223430	      0.00000000
      0.69189620	    -30.63118986	    -88.50493597	      0.00000000
      0.69309119	    -31.93814759	    -92.79685293	      0.00000000
      0.69428617	    -33.47418620	    -97.92498719	      0.00000000
      0.69548116	    -35.27853770	   -104.05378568	      0.00000000
      0.69667614	    -37.39647673	   -111.38248104	      0.00000000
      0.69787113	    -39.88203943	   -120.15092195	      0.00000000
      0.69906611	    -42.79654405	   -130.62659171	      0.00000000
      0.70026110	    -46.21180410	   -143.11754876	      0.00000000
      0.70145608	    -50.20305071	   -157.93453553	      0.00000000
      0.70265107	    -54.84960829	   -175.41333506	      0.00000000
      0.70384605	    -60.21504545	   -195.82261540	      0.00000000
      0.70504104	    -66.33799966	   -219.36448619	      0.00000000
      0.70623602	    -73.18982746	   -245.98639176	      0.00000000
      0.70743101	    -80.62820891	   -275.27700713	      0.00000000
      0.70862599	    -88.36105979	   -306.33663096	      0.00000000
      0.70982098	    -95.78954891	   -337.36340838	      0.00000000
      0.71101596	   -102.25459799	   -366.48412447	      0.00000000
      0.71221095	   -106.32903805	   -389.69893109	      0.00000000
      0.71340593	    -75.82775083	   -322.91992207	      0.00000000
      0.71460092	    -14.36946765	   -183.68943638	      0.00000000
      0.71579590	    -10.88260066	   -197.80906603	      0.00000000
      0.71699089	     -3.17296099	   -200.99815188	      0.00000000
