PointVelocity
version=1
nRows=601
nColumns=4
inDegrees=no
No description.
endheader
time	state_0	state_1	state_2
      0.00000000	     -0.07164386	      0.20309207	      0.00000000
      0.00119498	     -0.06977745	      0.20940891	      0.00000000
      0.00238997	     -0.06764637	      0.21608113	      0.00000000
      0.00358495	     -0.06518274	      0.22297648	      0.00000000
      0.00477994	     -0.06248683	      0.23001957	      0.00000000
      0.00597492	     -0.05944512	      0.23709248	      0.00000000
      0.00716991	     -0.05598009	      0.24414855	      0.00000000
      0.00836489	     -0.05203898	      0.25121114	      0.00000000
      0.00955988	     -0.04765993	      0.25825036	      0.00000000
      0.01075486	     -0.04272860	      0.26535879	      0.00000000
      0.01194985	     -0.03757451	      0.27249152	      0.00000000
      0.01314483	     -0.03132484	      0.27998763	      0.00000000
      0.01433982	     -0.02425122	      0.28789793	      0.00000000
      0.01553480	     -0.01222240	      0.29722829	      0.00000000
      0.01672979	      0.01133197	      0.30913354	      0.00000000
      0.01792477	      0.05298134	      0.32370680	      0.00000000
      0.01911976	      0.11987997	      0.34048167	      0.00000000
      0.02031474	      0.20926677	      0.35900529	      0.00000000
      0.02150973	      0.31569402	      0.37910061	      0.00000000
      0.02270471	      0.43114407	      0.39906242	      0.00000000
      0.02389970	      0.55059749	      0.41786639	      0.00000000
      0.02509468	      0.66918875	      0.43471476	      0.00000000
      0.02628967	      0.78098760	      0.44908025	      0.00000000
      0.02748465	      0.88311789	      0.46094590	      0.00000000
      0.02867964	      0.97279858	      0.47031319	      0.00000000
      0.02987462	      1.05106976	      0.47762861	      0.00000000
      0.03106961	      1.11852819	      0.48317420	      0.00000000
      0.03226459	      1.17744658	      0.48738215	      0.00000000
      0.03345957	      1.22963653	      0.49054146	      0.00000000
      0.03465456	      1.27675719	      0.49290514	      0.00000000
      0.03584954	      1.32035632	      0.49466612	      0.00000000
      0.03704453	      1.36127388	      0.49594006	      0.00000000
      0.03823951	      1.40044232	      0.49683055	      0.00000000
      0.03943450	      1.43817708	      0.49738167	      0.00000000
      0.04062948	      1.47491336	      0.49764031	      0.00000000
      0.04182447	      1.51071434	      0.49762066	      0.00000000
      0.04301945	      1.54572908	      0.49734106	      0.00000000
      0.04421444	      1.57993634	      0.49680664	      0.00000000
      0.04540942	      1.61336026	      0.49602434	      0.00000000
      0.04660441	      1.64597004	      0.49499798	      0.00000000
      0.04779939	      1.67774999	      0.49373083	      0.00000000
      0.04899438	      1.70868491	      0.49222740	      0.00000000
      0.05018936	      1.73876128	      0.49049055	      0.00000000
      0.05138435	      1.76798966	      0.48852586	      0.00000000
      0.05257933	      1.79637711	      0.48633700	      0.00000000
      0.05377432	      1.82395837	      0.48393017	      0.00000000
      0.05496930	      1.85076346	      0.48130992	      0.00000000
      0.05616429	      1.87684234	      0.47848245	      0.00000000
      0.05735927	      1.90224123	      0.47545284	      0.00000000
      0.05855426	      1.92701528	      0.47222671	      0.00000000
      0.05974924	      1.95121810	      0.46880952	      0.00000000
      0.06094423	      1.97490225	      0.46520504	      0.00000000
      0.06213921	      1.99812039	      0.46141628	      0.00000000
      0.06333419	      2.02091775	      0.45744453	      0.00000000
      0.06452918	      2.04334039	      0.45329136	      0.00000000
      0.06572416	      2.06542531	      0.44895750	      0.00000000
      0.06691915	      2.08721090	      0.44444365	      0.00000000
      0.06811413	      2.10872874	      0.43975012	      0.00000000
      0.06930912	      2.13001118	      0.43487715	      0.00000000
      0.07050410	      2.15108818	      0.42982504	      0.00000000
      0.07169909	      2.17199013	      0.42459401	      0.00000000
      0.07289407	      2.19274932	      0.41918488	      0.00000000
      0.07408906	      2.21339882	      0.41359845	      0.00000000
      0.07528404	      2.23397390	      0.40783628	      0.00000000
      0.07647903	      2.25451131	      0.40190009	      0.00000000
      0.07767401	      2.27504418	      0.39579191	      0.00000000
      0.07886900	      2.29560716	      0.38951402	      0.00000000
      0.08006398	      2.31622373	      0.38306843	      0.00000000
      0.08125897	      2.33691838	      0.37645731	      0.00000000
      0.08245395	      2.35770372	      0.36968252	      0.00000000
      0.08364894	      2.37859597	      0.36274628	      0.00000000
      0.08484392	      2.39960152	      0.35565062	      0.00000000
      0.08603891	      2.42073473	      0.34839831	      0.00000000
      0.08723389	      2.44198779	      0.34099076	      0.00000000
      0.08842888	      2.46334818	      0.33342893	      0.00000000
      0.08962386	      2.48478653	      0.32571256	      0.00000000
      0.09081885	      2.50626630	      0.31784049	      0.00000000
      0.09201383	      2.52777921	      0.30981411	      0.00000000
      0.09320882	      2.54932230	      0.30163525	      0.00000000
      0.09440380	      2.57093812	      0.29331037	      0.00000000
      0.09559878	      2.59266901	      0.28484640	      0.00000000
      0.09679377	      2.61457020	      0.27625239	      0.00000000
      0.09798875	      2.63669841	      0.26753821	      0.00000000
      0.09918374	      2.65907734	      0.25871118	      0.00000000
      0.10037872	      2.68172231	      0.24977827	      0.00000000
      0.10157371	      2.70461985	      0.24074396	      0.00000000
      0.10276869	      2.72776976	      0.23161420	      0.00000000
      0.10396368	      2.75116060	      0.22239429	      0.00000000
      0.10515866	      2.77479217	      0.21309072	      0.00000000
      0.10635365	      2.79863447	      0.20370755	      0.00000000
      0.10754863	      2.82265916	      0.19424863	      0.00000000
      0.10874362	      2.84679762	      0.18471413	      0.00000000
      0.10993860	      2.87099731	      0.17510481	      0.00000000
      0.11113359	      2.89516184	      0.16541759	      0.00000000
      0.11232857	      2.91932779	      0.15566169	      0.00000000
      0.11352356	      2.94409499	      0.14591516	      0.00000000
      0.11471854	      2.96940936	      0.13619231	      0.00000000
      0.11591353	      2.99460297	      0.12643100	      0.00000000
      0.11710851	      3.01977486	      0.11665150	      0.00000000
      0.11830350	      3.04516487	      0.10689149	      0.00000000
      0.11949848	      3.07075178	      0.09715933	      0.00000000
      0.12069347	      3.09646838	      0.08745611	      0.00000000
      0.12188845	      3.12222085	      0.07777861	      0.00000000
      0.12308344	      3.14795606	      0.06812790	      0.00000000
      0.12427842	      3.17364920	      0.05850843	      0.00000000
      0.12547340	      3.19933643	      0.04893327	      0.00000000
      0.12666839	      3.22504420	      0.03941483	      0.00000000
      0.12786337	      3.25079559	      0.02996532	      0.00000000
      0.12905836	      3.27660183	      0.02059578	      0.00000000
      0.13025334	      3.30245507	      0.01131427	      0.00000000
      0.13144833	      3.32835057	      0.00212948	      0.00000000
      0.13264331	      3.35427996	     -0.00695060	      0.00000000
      0.13383830	      3.38023824	     -0.01591736	      0.00000000
      0.13503328	      3.40622214	     -0.02476196	      0.00000000
      0.13622827	      3.43222902	     -0.03347533	      0.00000000
      0.13742325	      3.45825440	     -0.04204873	      0.00000000
      0.13861824	      3.48429372	     -0.05047342	      0.00000000
      0.13981322	      3.51033800	     -0.05874155	      0.00000000
      0.14100821	      3.53637862	     -0.06684531	      0.00000000
      0.14220319	      3.56240343	     -0.07477778	      0.00000000
      0.14339818	      3.58840084	     -0.08253213	      0.00000000
      0.14459316	      3.61435787	     -0.09010208	      0.00000000
      0.14578815	      3.64026188	     -0.09748158	      0.00000000
      0.14698313	      3.66610021	     -0.10466486	      0.00000000
      0.14817812	      3.69186027	     -0.11164652	      0.00000000
      0.14937310	      3.71752976	     -0.11842141	      0.00000000
      0.15056809	      3.74309631	     -0.12498481	      0.00000000
      0.15176307	      3.76854763	     -0.13133234	      0.00000000
      0.15295806	      3.79387139	     -0.13746007	      0.00000000
      0.15415304	      3.81905507	     -0.14336454	      0.00000000
      0.15534803	      3.84408615	     -0.14904275	      0.00000000
      0.15654301	      3.86895191	     -0.15449218	      0.00000000
      0.15773799	      3.89363962	     -0.15971088	      0.00000000
      0.15893298	      3.91813653	     -0.16469730	      0.00000000
      0.16012796	      3.94242990	     -0.16945050	      0.00000000
      0.16132295	      3.96650726	     -0.17396990	      0.00000000
      0.16251793	      3.99035610	     -0.17825556	      0.00000000
      0.16371292	      4.01396467	     -0.18230771	      0.00000000
      0.16490790	      4.03732109	     -0.18612726	      0.00000000
      0.16610289	      4.06041476	     -0.18971525	      0.00000000
      0.16729787	      4.08323486	     -0.19307342	      0.00000000
      0.16849286	      4.10577212	     -0.19620332	      0.00000000
      0.16968784	      4.12801698	     -0.19910722	      0.00000000
      0.17088283	      4.14996175	     -0.20178696	      0.00000000
      0.17207781	      4.17159843	     -0.20424505	      0.00000000
      0.17327280	      4.19292122	     -0.20648357	      0.00000000
      0.17446778	      4.21392397	     -0.20850518	      0.00000000
      0.17566277	      4.23460264	     -0.21031196	      0.00000000
      0.17685775	      4.25495286	     -0.21190649	      0.00000000
      0.17805274	      4.27497221	     -0.21329075	      0.00000000
      0.17924772	      4.29465801	     -0.21446711	      0.00000000
      0.18044271	      4.31400912	     -0.21543742	      0.00000000
      0.18163769	      4.33302427	     -0.21620380	      0.00000000
      0.18283268	      4.35170318	     -0.21676795	      0.00000000
      0.18402766	      4.37004557	     -0.21713172	      0.00000000
      0.18522265	      4.38805141	     -0.21729678	      0.00000000
      0.18641763	      4.40572084	     -0.21726484	      0.00000000
      0.18761262	      4.42305340	     -0.21703767	      0.00000000
      0.18880760	      4.44004895	     -0.21661704	      0.00000000
      0.19000258	      4.45670586	     -0.21600507	      0.00000000
      0.19119757	      4.47302305	     -0.21520386	      0.00000000
      0.19239255	      4.48899715	     -0.21421616	      0.00000000
      0.19358754	      4.50462553	     -0.21304474	      0.00000000
      0.19478252	      4.51990267	     -0.21169331	      0.00000000
      0.19597751	      4.53482391	     -0.21016566	      0.00000000
      0.19717249	      4.54938135	     -0.20846674	      0.00000000
      0.19836748	      4.56356806	     -0.20660169	      0.00000000
      0.19956246	      4.57737374	     -0.20457690	      0.00000000
      0.20075745	      4.59078914	     -0.20239915	      0.00000000
      0.20195243	      4.60380193	     -0.20007625	      0.00000000
      0.20314742	      4.61640077	     -0.19761662	      0.00000000
      0.20434240	      4.62857210	     -0.19502931	      0.00000000
      0.20553739	      4.64030316	     -0.19232421	      0.00000000
      0.20673237	      4.65158013	     -0.18951114	      0.00000000
      0.20792736	      4.66238976	     -0.18660100	      0.00000000
      0.20912234	      4.67271905	     -0.18360373	      0.00000000
      0.21031733	      4.68255529	     -0.18053047	      0.00000000
      0.21151231	      4.69188742	     -0.17739047	      0.00000000
      0.21270730	      4.70070435	     -0.17419427	      0.00000000
      0.21390228	      4.70899770	     -0.17094967	      0.00000000
      0.21509727	      4.71675875	     -0.16766568	      0.00000000
      0.21629225	      4.72398220	     -0.16434801	      0.00000000
      0.21748724	      4.73066214	     -0.16100344	      0.00000000
      0.21868222	      4.73679613	     -0.15763531	      0.00000000
      0.21987720	      4.74238090	     -0.15424785	      0.00000000
      0.22107219	      4.74741609	     -0.15084226	      0.00000000
      0.22226717	      4.75190050	     -0.14742028	      0.00000000
      0.22346216	      4.75583484	     -0.14398158	      0.00000000
      0.22465714	      4.75921908	     -0.14052606	      0.00000000
      0.22585213	      4.76205378	     -0.13705288	      0.00000000
      0.22704711	      4.76433892	     -0.13356117	      0.00000000
      0.22824210	      4.76607396	     -0.13005079	      0.00000000
      0.22943708	      4.76725793	     -0.12652139	      0.00000000
      0.23063207	      4.76788857	     -0.12297471	      0.00000000
      0.23182705	      4.76796341	     -0.11941213	      0.00000000
      0.23302204	      4.76747843	     -0.11583811	      0.00000000
      0.23421702	      4.76642953	     -0.11225676	      0.00000000
      0.23541201	      4.76481138	     -0.10867576	      0.00000000
      0.23660699	      4.76261858	     -0.10510250	      0.00000000
      0.23780198	      4.75984531	     -0.10154800	      0.00000000
      0.23899696	      4.75648562	     -0.09802305	      0.00000000
      0.24019195	      4.75253434	     -0.09454175	      0.00000000
      0.24138693	      4.74798600	     -0.09111806	      0.00000000
      0.24258192	      4.74283738	     -0.08776863	      0.00000000
      0.24377690	      4.73708450	     -0.08451016	      0.00000000
      0.24497189	      4.73072753	     -0.08136092	      0.00000000
      0.24616687	      4.72376496	     -0.07833948	      0.00000000
      0.24736186	      4.71620288	     -0.07546369	      0.00000000
      0.24855684	      4.70804523	     -0.07275051	      0.00000000
      0.24975183	      4.69930719	     -0.07021565	      0.00000000
      0.25094681	      4.69000060	     -0.06787479	      0.00000000
      0.25214179	      4.68015213	     -0.06574206	      0.00000000
      0.25333678	      4.66978371	     -0.06383056	      0.00000000
      0.25453176	      4.65893630	     -0.06214867	      0.00000000
      0.25572675	      4.64764471	     -0.06070329	      0.00000000
      0.25692173	      4.63596658	     -0.05949487	      0.00000000
      0.25811672	      4.62395013	     -0.05852552	      0.00000000
      0.25931170	      4.61167534	     -0.05777923	      0.00000000
      0.26050669	      4.59921314	     -0.05723832	      0.00000000
      0.26170167	      4.58667158	     -0.05685565	      0.00000000
      0.26289666	      4.57412225	     -0.05663141	      0.00000000
      0.26409164	      4.56152454	     -0.05676544	      0.00000000
      0.26528663	      4.54897018	     -0.05722419	      0.00000000
      0.26648161	      4.53673836	     -0.05767586	      0.00000000
      0.26767660	      4.52495172	     -0.05803733	      0.00000000
      0.26887158	      4.51370202	     -0.05827823	      0.00000000
      0.27006657	      4.50312227	     -0.05827735	      0.00000000
      0.27126155	      4.49330608	     -0.05795681	      0.00000000
      0.27245654	      4.48435142	     -0.05722773	      0.00000000
      0.27365152	      4.47630834	     -0.05602840	      0.00000000
      0.27484651	      4.46923367	     -0.05429232	      0.00000000
      0.27604149	      4.46313961	     -0.05193377	      0.00000000
      0.27723648	      4.45805421	     -0.04885643	      0.00000000
      0.27843146	      4.45394936	     -0.04492588	      0.00000000
      0.27962645	      4.45082986	     -0.04001211	      0.00000000
      0.28082143	      4.44858268	     -0.03395470	      0.00000000
      0.28201641	      4.44719834	     -0.02658037	      0.00000000
      0.28321140	      4.44632948	     -0.01773543	      0.00000000
      0.28440638	      4.44587816	     -0.00721235	      0.00000000
      0.28560137	      4.44483059	      0.00498279	      0.00000000
      0.28679635	      4.44261443	      0.01905438	      0.00000000
      0.28799134	      4.43664210	      0.03420537	      0.00000000
      0.28918632	      4.42450791	      0.04954670	      0.00000000
      0.29038131	      4.40129823	      0.06238271	      0.00000000
      0.29157629	      4.36196124	      0.06920286	      0.00000000
      0.29277128	      4.30197591	      0.06729017	      0.00000000
      0.29396626	      4.22001552	      0.05635455	      0.00000000
      0.29516125	      4.11291961	      0.03447208	      0.00000000
      0.29635623	      3.97199253	     -0.00627534	      0.00000000
      0.29755122	      3.78349645	     -0.07669337	      0.00000000
      0.29874620	      3.53222628	     -0.18773095	      0.00000000
      0.29994119	      3.22973860	     -0.32547044	      0.00000000
      0.30113617	      2.89228436	     -0.46970136	      0.00000000
      0.30233116	      2.54453511	     -0.59842094	      0.00000000
      0.30352614	      2.20670612	     -0.69373283	      0.00000000
      0.30472113	      1.88629925	     -0.75446483	      0.00000000
      0.30591611	      1.59071316	     -0.77827797	      0.00000000
      0.30711110	      1.31682552	     -0.77219155	      0.00000000
      0.30830608	      1.06365165	     -0.74034908	      0.00000000
      0.30950107	      0.82870832	     -0.69136062	      0.00000000
      0.31069605	      0.61241597	     -0.63242708	      0.00000000
      0.31189104	      0.41242525	     -0.57475476	      0.00000000
      0.31308602	      0.23664809	     -0.51755078	      0.00000000
      0.31428100	      0.13119474	     -0.43123199	      0.00000000
      0.31547599	      0.09669690	     -0.33571819	      0.00000000
      0.31667097	      0.07528022	     -0.27530702	      0.00000000
      0.31786596	      0.05678094	     -0.24557252	      0.00000000
      0.31906094	      0.04561416	     -0.22999970	      0.00000000
      0.32025593	      0.03606440	     -0.22394551	      0.00000000
      0.32145091	      0.02942077	     -0.22102678	      0.00000000
      0.32264590	      0.02360341	     -0.21803327	      0.00000000
      0.32384088	      0.01881352	     -0.21412142	      0.00000000
      0.32503587	      0.01440772	     -0.20848329	      0.00000000
      0.32623085	      0.01048418	     -0.20173679	      0.00000000
      0.32742584	      0.00689768	     -0.19415321	      0.00000000
      0.32862082	      0.00370274	     -0.18626775	      0.00000000
      0.32981581	      0.00087969	     -0.17846506	      0.00000000
      0.33101079	     -0.00156550	     -0.17096019	      0.00000000
      0.33220578	     -0.00364548	     -0.16397673	      0.00000000
      0.33340076	     -0.00538019	     -0.15750948	      0.00000000
      0.33459575	     -0.00679185	     -0.15157762	      0.00000000
      0.33579073	     -0.00790540	     -0.14606785	      0.00000000
      0.33698572	     -0.00875295	     -0.14087722	      0.00000000
      0.33818070	     -0.00937364	     -0.13589717	      0.00000000
      0.33937569	     -0.00980811	     -0.13102374	      0.00000000
      0.34057067	     -0.01008390	     -0.12625026	      0.00000000
      0.34176566	     -0.01023187	     -0.12156639	      0.00000000
      0.34296064	     -0.01026642	     -0.11703951	      0.00000000
      0.34415563	     -0.01020605	     -0.11273388	      0.00000000
      0.34535061	     -0.01005724	     -0.10871238	      0.00000000
      0.34654559	     -0.00983106	     -0.10503043	      0.00000000
      0.34774058	     -0.00953487	     -0.10170040	      0.00000000
      0.34893556	     -0.00917867	     -0.09873624	      0.00000000
      0.35013055	     -0.00877151	     -0.09611382	      0.00000000
      0.35132553	     -0.00832370	     -0.09381380	      0.00000000
      0.35252052	     -0.00784417	     -0.09180084	      0.00000000
      0.35371550	     -0.00734249	     -0.09004371	      0.00000000
      0.35491049	     -0.00682597	     -0.08850987	      0.00000000
      0.35610547	     -0.00630256	     -0.08716731	      0.00000000
      0.35730046	     -0.00577796	     -0.08598957	      0.00000000
      0.35849544	     -0.00525833	     -0.08494907	      0.00000000
      0.35969043	     -0.00474813	     -0.08402654	      0.00000000
      0.36088541	     -0.00425209	     -0.08320108	      0.00000000
      0.36208040	     -0.00377370	     -0.08246015	      0.00000000
      0.36327538	     -0.00331651	     -0.08178989	      0.00000000
      0.36447037	     -0.00288321	     -0.08118261	      0.00000000
      0.36566535	     -0.00247646	     -0.08062928	      0.00000000
      0.36686034	     -0.00209827	     -0.08012498	      0.00000000
      0.36805532	     -0.00175057	     -0.07966377	      0.00000000
      0.36925031	     -0.00143456	     -0.07924299	      0.00000000
      0.37044529	     -0.00115134	     -0.07885928	      0.00000000
      0.37164028	     -0.00090126	     -0.07851262	      0.00000000
      0.37283526	     -0.00068454	     -0.07820261	      0.00000000
      0.37403025	     -0.00050060	     -0.07793177	      0.00000000
      0.37522523	     -0.00034873	     -0.07770250	      0.00000000
      0.37642021	     -0.00022750	     -0.07751861	      0.00000000
      0.37761520	     -0.00013532	     -0.07738411	      0.00000000
      0.37881018	     -0.00007021	     -0.07730234	      0.00000000
      0.38000517	     -0.00003002	     -0.07727716	      0.00000000
      0.38120015	     -0.00001262	     -0.07731005	      0.00000000
      0.38239514	     -0.00001562	     -0.07740352	      0.00000000
      0.38359012	     -0.00003703	     -0.07755600	      0.00000000
      0.38478511	     -0.00007460	     -0.07776702	      0.00000000
      0.38598009	     -0.00012678	     -0.07803192	      0.00000000
      0.38717508	     -0.00019157	     -0.07834857	      0.00000000
      0.38837006	     -0.00026769	     -0.07870561	      0.00000000
      0.38956505	     -0.00035382	     -0.07909011	      0.00000000
      0.39076003	     -0.00045007	     -0.07948952	      0.00000000
      0.39195502	     -0.00055636	     -0.07988929	      0.00000000
      0.39315000	     -0.00067393	     -0.08029744	      0.00000000
      0.39434499	     -0.00080107	     -0.08074382	      0.00000000
      0.39553997	     -0.00093123	     -0.08117678	      0.00000000
      0.39673496	     -0.00106604	     -0.08148158	      0.00000000
      0.39792994	     -0.00122327	     -0.08172536	      0.00000000
      0.39912493	     -0.00140487	     -0.08208076	      0.00000000
      0.40031991	     -0.00158090	     -0.08249251	      0.00000000
      0.40151490	     -0.00174319	     -0.08276693	      0.00000000
      0.40270988	     -0.00192571	     -0.08296617	      0.00000000
      0.40390487	     -0.00213865	     -0.08329497	      0.00000000
      0.40509985	     -0.00234799	     -0.08373303	      0.00000000
      0.40629484	     -0.00254130	     -0.08414651	      0.00000000
      0.40748982	     -0.00273994	     -0.08452143	      0.00000000
      0.40868480	     -0.00295078	     -0.08490958	      0.00000000
      0.40987979	     -0.00316459	     -0.08533044	      0.00000000
      0.41107477	     -0.00337829	     -0.08578127	      0.00000000
      0.41226976	     -0.00359190	     -0.08625496	      0.00000000
      0.41346474	     -0.00380446	     -0.08674722	      0.00000000
      0.41465973	     -0.00401578	     -0.08725391	      0.00000000
      0.41585471	     -0.00422532	     -0.08777254	      0.00000000
      0.41704970	     -0.00443223	     -0.08829907	      0.00000000
      0.41824468	     -0.00463581	     -0.08882902	      0.00000000
      0.41943967	     -0.00483546	     -0.08935820	      0.00000000
      0.42063465	     -0.00503051	     -0.08988245	      0.00000000
      0.42182964	     -0.00522027	     -0.09039793	      0.00000000
      0.42302462	     -0.00540406	     -0.09090051	      0.00000000
      0.42421961	     -0.00558122	     -0.09138675	      0.00000000
      0.42541459	     -0.00575109	     -0.09185289	      0.00000000
      0.42660958	     -0.00591306	     -0.09229605	      0.00000000
      0.42780456	     -0.00606650	     -0.09271298	      0.00000000
      0.42899955	     -0.00621088	     -0.09310144	      0.00000000
      0.43019453	     -0.00634563	     -0.09345883	      0.00000000
      0.43138952	     -0.00647036	     -0.09378354	      0.00000000
      0.43258450	     -0.00658462	     -0.09407354	      0.00000000
      0.43377949	     -0.00668809	     -0.09432780	      0.00000000
      0.43497447	     -0.00678042	     -0.09454487	      0.00000000
      0.43616946	     -0.00686148	     -0.09472419	      0.00000000
      0.43736444	     -0.00693108	     -0.09486484	      0.00000000
      0.43855942	     -0.00698925	     -0.09496663	      0.00000000
      0.43975441	     -0.00703596	     -0.09502904	      0.00000000
      0.44094939	     -0.00707141	     -0.09505216	      0.00000000
      0.44214438	     -0.00709574	     -0.09503577	      0.00000000
      0.44333936	     -0.00710930	     -0.09498012	      0.00000000
      0.44453435	     -0.00711240	     -0.09488522	      0.00000000
      0.44572933	     -0.00710551	     -0.09475142	      0.00000000
      0.44692432	     -0.00708909	     -0.09457891	      0.00000000
      0.44811930	     -0.00706370	     -0.09436810	      0.00000000
      0.44931429	     -0.00702992	     -0.09411930	      0.00000000
      0.45050927	     -0.00698841	     -0.09383295	      0.00000000
      0.45170426	     -0.00693983	     -0.09350942	      0.00000000
      0.45289924	     -0.00688488	     -0.09314918	      0.00000000
      0.45409423	     -0.00682431	     -0.09275263	      0.00000000
      0.45528921	     -0.00675888	     -0.09232021	      0.00000000
      0.45648420	     -0.00668938	     -0.09185235	      0.00000000
      0.45767918	     -0.00661661	     -0.09134946	      0.00000000
      0.45887417	     -0.00654142	     -0.09081199	      0.00000000
      0.46006915	     -0.00646464	     -0.09024038	      0.00000000
      0.46126414	     -0.00638713	     -0.08963511	      0.00000000
      0.46245912	     -0.00630981	     -0.08899670	      0.00000000
      0.46365411	     -0.00623357	     -0.08832569	      0.00000000
      0.46484909	     -0.00615937	     -0.08762270	      0.00000000
      0.46604408	     -0.00608817	     -0.08688839	      0.00000000
      0.46723906	     -0.00602096	     -0.08612356	      0.00000000
      0.46843405	     -0.00595876	     -0.08532903	      0.00000000
      0.46962903	     -0.00590259	     -0.08450573	      0.00000000
      0.47082401	     -0.00585354	     -0.08365467	      0.00000000
      0.47201900	     -0.00581262	     -0.08277694	      0.00000000
      0.47321398	     -0.00578095	     -0.08187367	      0.00000000
      0.47440897	     -0.00575951	     -0.08094607	      0.00000000
      0.47560395	     -0.00574936	     -0.07999542	      0.00000000
      0.47679894	     -0.00575137	     -0.07902296	      0.00000000
      0.47799392	     -0.00576652	     -0.07803004	      0.00000000
      0.47918891	     -0.00579538	     -0.07701794	      0.00000000
      0.48038389	     -0.00583874	     -0.07598801	      0.00000000
      0.48157888	     -0.00589679	     -0.07494156	      0.00000000
      0.48277386	     -0.00596992	     -0.07387995	      0.00000000
      0.48396885	     -0.00605786	     -0.07280454	      0.00000000
      0.48516383	     -0.00616050	     -0.07171672	      0.00000000
      0.48635882	     -0.00627709	     -0.07061795	      0.00000000
      0.48755380	     -0.00640703	     -0.06950971	      0.00000000
      0.48874879	     -0.00654936	     -0.06839353	      0.00000000
      0.48994377	     -0.00670319	     -0.06727096	      0.00000000
      0.49113876	     -0.00686772	     -0.06614352	      0.00000000
      0.49233374	     -0.00704218	     -0.06501274	      0.00000000
      0.49352873	     -0.00722607	     -0.06388001	      0.00000000
      0.49472371	     -0.00741891	     -0.06274674	      0.00000000
      0.49591870	     -0.00762037	     -0.06161416	      0.00000000
      0.49711368	     -0.00783014	     -0.06048352	      0.00000000
      0.49830867	     -0.00804795	     -0.05935592	      0.00000000
      0.49950365	     -0.00827349	     -0.05823247	      0.00000000
      0.50069864	     -0.00850641	     -0.05711417	      0.00000000
      0.50189362	     -0.00874637	     -0.05600204	      0.00000000
      0.50308860	     -0.00899296	     -0.05489700	      0.00000000
      0.50428359	     -0.00924578	     -0.05379997	      0.00000000
      0.50547857	     -0.00950443	     -0.05271176	      0.00000000
      0.50667356	     -0.00976851	     -0.05163319	      0.00000000
      0.50786854	     -0.01003765	     -0.05056497	      0.00000000
      0.50906353	     -0.01031146	     -0.04950782	      0.00000000
      0.51025851	     -0.01058958	     -0.04846234	      0.00000000
      0.51145350	     -0.01087166	     -0.04742914	      0.00000000
      0.51264848	     -0.01115739	     -0.04640872	      0.00000000
      0.51384347	     -0.01144645	     -0.04540159	      0.00000000
      0.51503845	     -0.01173856	     -0.04440818	      0.00000000
      0.51623344	     -0.01203344	     -0.04342889	      0.00000000
      0.51742842	     -0.01233083	     -0.04246405	      0.00000000
      0.51862341	     -0.01263047	     -0.04151400	      0.00000000
      0.51981839	     -0.01293216	     -0.04057897	      0.00000000
      0.52101338	     -0.01323569	     -0.03965924	      0.00000000
      0.52220836	     -0.01354088	     -0.03875500	      0.00000000
      0.52340335	     -0.01384753	     -0.03786645	      0.00000000
      0.52459833	     -0.01415551	     -0.03699371	      0.00000000
      0.52579332	     -0.01446466	     -0.03613691	      0.00000000
      0.52698830	     -0.01477487	     -0.03529612	      0.00000000
      0.52818329	     -0.01508603	     -0.03447139	      0.00000000
      0.52937827	     -0.01539806	     -0.03366274	      0.00000000
      0.53057326	     -0.01571087	     -0.03287017	      0.00000000
      0.53176824	     -0.01602441	     -0.03209364	      0.00000000
      0.53296322	     -0.01633863	     -0.03133311	      0.00000000
      0.53415821	     -0.01665349	     -0.03058849	      0.00000000
      0.53535319	     -0.01696895	     -0.02985970	      0.00000000
      0.53654818	     -0.01728500	     -0.02914660	      0.00000000
      0.53774316	     -0.01760163	     -0.02844908	      0.00000000
      0.53893815	     -0.01791882	     -0.02776696	      0.00000000
      0.54013313	     -0.01823659	     -0.02710009	      0.00000000
      0.54132812	     -0.01855493	     -0.02644828	      0.00000000
      0.54252310	     -0.01887385	     -0.02581132	      0.00000000
      0.54371809	     -0.01919338	     -0.02518900	      0.00000000
      0.54491307	     -0.01951352	     -0.02458109	      0.00000000
      0.54610806	     -0.01983431	     -0.02398733	      0.00000000
      0.54730304	     -0.02015576	     -0.02340748	      0.00000000
      0.54849803	     -0.02047792	     -0.02284124	      0.00000000
      0.54969301	     -0.02080080	     -0.02228834	      0.00000000
      0.55088800	     -0.02112445	     -0.02174847	      0.00000000
      0.55208298	     -0.02144890	     -0.02122131	      0.00000000
      0.55327797	     -0.02177422	     -0.02070655	      0.00000000
      0.55447295	     -0.02210043	     -0.02020386	      0.00000000
      0.55566794	     -0.02242759	     -0.01971291	      0.00000000
      0.55686292	     -0.02275571	     -0.01923330	      0.00000000
      0.55805791	     -0.02308488	     -0.01876465	      0.00000000
      0.55925289	     -0.02341515	     -0.01830653	      0.00000000
      0.56044788	     -0.02374660	     -0.01785853	      0.00000000
      0.56164286	     -0.02407932	     -0.01742023	      0.00000000
      0.56283785	     -0.02441334	     -0.01699119	      0.00000000
      0.56403283	     -0.02474873	     -0.01657093	      0.00000000
      0.56522781	     -0.02508557	     -0.01615896	      0.00000000
      0.56642280	     -0.02542394	     -0.01575481	      0.00000000
      0.56761778	     -0.02576390	     -0.01535798	      0.00000000
      0.56881277	     -0.02610553	     -0.01496794	      0.00000000
      0.57000775	     -0.02644891	     -0.01458417	      0.00000000
      0.57120274	     -0.02679412	     -0.01420615	      0.00000000
      0.57239772	     -0.02714123	     -0.01383332	      0.00000000
      0.57359271	     -0.02749032	     -0.01346511	      0.00000000
      0.57478769	     -0.02784140	     -0.01310090	      0.00000000
      0.57598268	     -0.02819454	     -0.01273998	      0.00000000
      0.57717766	     -0.02854990	     -0.01238172	      0.00000000
      0.57837265	     -0.02890756	     -0.01202552	      0.00000000
      0.57956763	     -0.02926756	     -0.01167082	      0.00000000
      0.58076262	     -0.02962994	     -0.01131703	      0.00000000
      0.58195760	     -0.02999468	     -0.01096347	      0.00000000
      0.58315259	     -0.03036180	     -0.01060940	      0.00000000
      0.58434757	     -0.03073144	     -0.01025414	      0.00000000
      0.58554256	     -0.03110371	     -0.00989707	      0.00000000
      0.58673754	     -0.03147859	     -0.00953754	      0.00000000
      0.58793253	     -0.03185614	     -0.00917484	      0.00000000
      0.58912751	     -0.03223644	     -0.00880826	      0.00000000
      0.59032250	     -0.03261956	     -0.00843708	      0.00000000
      0.59151748	     -0.03300556	     -0.00806060	      0.00000000
      0.59271247	     -0.03339453	     -0.00767812	      0.00000000
      0.59390745	     -0.03378653	     -0.00728896	      0.00000000
      0.59510243	     -0.03418165	     -0.00689243	      0.00000000
      0.59629742	     -0.03457997	     -0.00648785	      0.00000000
      0.59749240	     -0.03498159	     -0.00607457	      0.00000000
      0.59868739	     -0.03538658	     -0.00565192	      0.00000000
      0.59988237	     -0.03579505	     -0.00521929	      0.00000000
      0.60107736	     -0.03620715	     -0.00477597	      0.00000000
      0.60227234	     -0.03662309	     -0.00432127	      0.00000000
      0.60346733	     -0.03704298	     -0.00385453	      0.00000000
      0.60466231	     -0.03746693	     -0.00337515	      0.00000000
      0.60585730	     -0.03789502	     -0.00288254	      0.00000000
      0.60705228	     -0.03832736	     -0.00237615	      0.00000000
      0.60824727	     -0.03876396	     -0.00185537	      0.00000000
      0.60944225	     -0.03920499	     -0.00131966	      0.00000000
      0.61063724	     -0.03965044	     -0.00076847	      0.00000000
      0.61183222	     -0.04010034	     -0.00020120	      0.00000000
      0.61302721	     -0.04055470	      0.00038288	      0.00000000
      0.61422219	     -0.04101361	      0.00098436	      0.00000000
      0.61541718	     -0.04147698	      0.00160396	      0.00000000
      0.61661216	     -0.04194481	      0.00224236	      0.00000000
      0.61780715	     -0.04241701	      0.00290035	      0.00000000
      0.61900213	     -0.04289359	      0.00357869	      0.00000000
      0.62019712	     -0.04337442	      0.00427817	      0.00000000
      0.62139210	     -0.04385947	      0.00499964	      0.00000000
      0.62258709	     -0.04434861	      0.00574394	      0.00000000
      0.62378207	     -0.04484179	      0.00651195	      0.00000000
      0.62497706	     -0.04533887	      0.00730452	      0.00000000
      0.62617204	     -0.04583981	      0.00812256	      0.00000000
      0.62736702	     -0.04634447	      0.00896687	      0.00000000
      0.62856201	     -0.04685281	      0.00983830	      0.00000000
      0.62975699	     -0.04736471	      0.01073756	      0.00000000
      0.63095198	     -0.04788017	      0.01166544	      0.00000000
      0.63214696	     -0.04839912	      0.01262253	      0.00000000
      0.63334195	     -0.04892158	      0.01360946	      0.00000000
      0.63453693	     -0.04944754	      0.01462669	      0.00000000
      0.63573192	     -0.04997708	      0.01567463	      0.00000000
      0.63692690	     -0.05051021	      0.01675357	      0.00000000
      0.63812189	     -0.05104706	      0.01786369	      0.00000000
      0.63931687	     -0.05158763	      0.01900510	      0.00000000
      0.64051186	     -0.05213204	      0.02017779	      0.00000000
      0.64170684	     -0.05268022	      0.02138181	      0.00000000
      0.64290183	     -0.05323222	      0.02261708	      0.00000000
      0.64409681	     -0.05378789	      0.02388371	      0.00000000
      0.64529180	     -0.05434721	      0.02518174	      0.00000000
      0.64648678	     -0.05490996	      0.02651138	      0.00000000
      0.64768177	     -0.05547604	      0.02787286	      0.00000000
      0.64887675	     -0.05604519	      0.02926652	      0.00000000
      0.65007174	     -0.05661728	      0.03069285	      0.00000000
      0.65126672	     -0.05719209	      0.03215223	      0.00000000
      0.65246171	     -0.05776947	      0.03364528	      0.00000000
      0.65365669	     -0.05834927	      0.03517234	      0.00000000
      0.65485168	     -0.05893138	      0.03673404	      0.00000000
      0.65604666	     -0.05951570	      0.03833061	      0.00000000
      0.65724165	     -0.06010212	      0.03996260	      0.00000000
      0.65843663	     -0.06069058	      0.04163015	      0.00000000
      0.65963161	     -0.06128095	      0.04333371	      0.00000000
      0.66082660	     -0.06187311	      0.04507339	      0.00000000
      0.66202158	     -0.06246687	      0.04684957	      0.00000000
      0.66321657	     -0.06306207	      0.04866237	      0.00000000
      0.66441155	     -0.06365841	      0.05051222	      0.00000000
      0.66560654	     -0.06425566	      0.05239931	      0.00000000
      0.66680152	     -0.06485346	      0.05432412	      0.00000000
      0.66799651	     -0.06545156	      0.05628692	      0.00000000
      0.66919149	     -0.06604948	      0.05828830	      0.00000000
      0.67038648	     -0.06664690	      0.06032874	      0.00000000
      0.67158146	     -0.06724324	      0.06240902	      0.00000000
      0.67277645	     -0.06783805	      0.06452988	      0.00000000
      0.67397143	     -0.06843063	      0.06669233	      0.00000000
      0.67516642	     -0.06902036	      0.06889746	      0.00000000
      0.67636140	     -0.06960634	      0.07114658	      0.00000000
      0.67755639	     -0.07018776	      0.07344119	      0.00000000
      0.67875137	     -0.07076349	      0.07578303	      0.00000000
      0.67994636	     -0.07133250	      0.07817409	      0.00000000
      0.68114134	     -0.07189344	      0.08061661	      0.00000000
      0.68233633	     -0.07244507	      0.08311317	      0.00000000
      0.68353131	     -0.07298584	      0.08566654	      0.00000000
      0.68472630	     -0.07351430	      0.08828005	      0.00000000
      0.68592128	     -0.07402872	      0.09095715	      0.00000000
      0.68711627	     -0.07452745	      0.09370207	      0.00000000
      0.68831125	     -0.07500862	      0.09651918	      0.00000000
      0.68950623	     -0.07547028	      0.09941381	      0.00000000
      0.69070122	     -0.07591041	      0.10239144	      0.00000000
      0.69189620	     -0.07632666	      0.10545854	      0.00000000
      0.69309119	     -0.07671675	      0.10862177	      0.00000000
      0.69428617	     -0.07707792	      0.11188841	      0.00000000
      0.69548116	     -0.07740755	      0.11526583	      0.00000000
      0.69667614	     -0.07770263	      0.11876181	      0.00000000
      0.69787113	     -0.07796047	      0.12238402	      0.00000000
      0.69906611	     -0.07817813	      0.12614077	      0.00000000
      0.70026110	     -0.07835329	      0.13004084	      0.00000000
      0.70145608	     -0.07848231	      0.13409287	      0.00000000
      0.70265107	     -0.07856200	      0.13830522	      0.00000000
      0.70384605	     -0.07858695	      0.14268577	      0.00000000
      0.70504104	     -0.07855277	      0.14724249	      0.00000000
      0.70623602	     -0.07845196	      0.15198429	      0.00000000
      0.70743101	     -0.07827988	      0.15692304	      0.00000000
      0.70862599	     -0.07802355	      0.16206962	      0.00000000
      0.70982098	     -0.07767828	      0.16744821	      0.00000000
      0.71101596	     -0.07722312	      0.17305479	      0.00000000
      0.71221095	     -0.07666624	      0.17892346	      0.00000000
      0.71340593	     -0.07587740	      0.18490254	      0.00000000
      0.71460092	     -0.07465256	      0.19079930	      0.00000000
      0.71579590	     -0.07315079	      0.19677371	      0.00000000
      0.71699089	     -0.07159157	      0.20308382	      0.00000000
