moco_WoC_Solution_iter01_metabolic
nRows=601
nColumns=6
inDegrees=no
Body mass(kg)=80.0000
Distance(m)=1.9777
Total metabolic energy(J)=818.5669
Avg metabolic rate(W)=675.2968
endheader
time	met_rate_W	act_rate_W	maint_rate_W	short_rate_W	mech_rate_W
0.000000	1023.204315	218.713548	227.096210	111.984286	369.410272
0.002020	1027.352283	215.569907	222.713268	115.666296	377.402812
0.004041	1031.403059	212.516920	218.405208	119.137312	385.343658
0.006061	1044.785653	213.712351	219.544367	122.214700	393.314263
0.008081	1058.661650	214.931767	220.693633	125.624911	401.411343
0.010101	1069.751391	214.688452	220.162234	129.381612	409.519094
0.012122	1080.767916	214.465218	219.643580	133.155679	417.503438
0.014142	1092.055763	214.424376	219.375993	136.885401	425.369994
0.016162	1103.278948	214.405707	219.118501	140.611785	433.142955
0.018182	1113.735646	214.078668	218.577496	144.292388	440.787094
0.020203	1123.996563	213.774554	218.047503	147.911237	448.263270
0.022223	1133.478057	213.207156	217.318939	151.413655	455.538307
0.024243	1142.653918	212.663720	216.601364	154.806650	462.582185
0.026263	1150.773012	211.774500	215.624699	158.028503	469.345310
0.028284	1158.626055	210.909208	214.660209	161.278167	475.778471
0.030304	1165.819488	209.686946	213.450328	164.868637	481.813578
0.032324	1172.366312	208.488704	212.255007	168.236580	487.386022
0.034344	1177.471307	207.010546	210.923921	171.143521	492.393320
0.036365	1181.750451	205.557706	209.612112	173.835245	496.745388
0.038385	1184.575778	203.853587	208.214132	176.083019	500.425040
0.040405	1187.633706	202.174756	206.778315	178.349884	504.330752
0.042426	1187.867588	200.220265	205.383907	179.643289	506.620127
0.044446	1187.051946	198.298190	204.021951	180.482783	508.249023
0.046466	1184.179647	196.383879	203.009797	179.796127	508.989845
0.048486	1180.054839	194.534753	202.065415	178.772277	508.682394
0.050507	1174.775971	192.680234	201.339542	177.419320	507.336874
0.052527	1168.850215	190.918150	200.707158	176.242980	504.981927
0.054547	1160.894051	188.831371	199.908785	174.453024	501.700870
0.056567	1151.693744	186.847427	199.211230	172.078694	497.556394
0.058588	1140.675514	184.605443	198.259165	169.201490	492.609417
0.060608	1128.578400	182.468519	197.234631	165.891233	486.984017
0.062628	1114.660874	179.579871	195.182418	163.111508	480.787076
0.064648	1097.831516	176.790121	192.962198	159.585044	472.506469
0.066669	1079.341511	173.431384	190.105303	157.707644	462.106347
0.068689	1064.616792	170.176057	187.157777	160.029413	451.253563
0.070709	1054.251614	166.336754	183.576356	169.632020	438.706484
0.072730	1043.134950	162.620365	180.041558	180.600141	423.872886
0.074750	1030.314713	158.432137	176.003043	192.920249	406.959285
0.076770	1016.665271	154.393773	172.035724	205.967417	388.268357
0.078790	1001.135034	149.962115	167.532933	219.356338	368.283649
0.080811	984.745918	145.711005	163.127947	232.369239	347.537727
0.082831	966.682862	141.165435	158.205642	244.535247	326.776539
0.084851	951.449520	136.831974	153.408320	258.575329	306.633897
0.086871	938.989547	132.066638	148.156082	274.739276	288.027551
0.088892	926.105221	127.541278	143.065398	288.296798	271.201747
0.090912	912.179667	122.504013	137.585143	299.979536	256.110975
0.092932	897.873426	117.755097	132.321560	309.611760	242.185009
0.094952	882.523584	112.657519	126.511908	318.866660	228.487497
0.096973	866.661215	107.927628	120.994993	327.315309	214.423285
0.098993	849.248661	103.113380	114.895006	335.890672	199.349603
0.101013	831.314547	98.806646	109.334755	342.726107	184.447038
0.103033	807.674171	94.552138	104.047055	343.638963	169.436015
0.105054	797.848332	91.093526	99.385109	351.459075	159.911911
0.107074	788.248786	90.366960	98.104493	339.274484	164.178184
0.109094	760.473174	89.915345	97.062613	284.719251	192.026570
0.111115	744.567095	111.908438	119.003994	225.344065	191.331655
0.113135	773.048674	147.430204	146.432447	284.493163	97.771222
0.115155	658.690760	118.597944	124.647247	303.924194	14.835640
0.117175	565.390843	96.804213	105.597194	272.447391	-6.137305
0.119196	536.569902	93.697490	102.421072	237.971790	5.654035
0.121216	524.400648	90.724208	99.312090	206.155694	31.251830
0.123236	525.881887	89.236271	97.937026	182.757577	58.902615
0.125256	534.971573	87.786287	96.575402	165.281594	87.188098
0.127277	555.573674	87.094311	95.862425	161.950108	113.983084
0.129297	575.848973	86.427418	95.160150	158.410194	139.456682
0.131317	594.319937	86.057335	94.895748	154.698304	162.547924
0.133337	609.895364	85.710766	94.666527	150.538434	182.990816
0.135358	622.567108	85.530840	94.706571	145.877673	200.452512
0.137378	631.688358	85.372345	94.759337	140.728077	214.828612
0.139398	637.032118	85.224920	94.865077	134.841666	226.100456
0.141419	637.824039	85.092661	94.977967	127.831715	233.921697
0.143439	632.440847	84.835666	94.984861	119.127738	237.492581
0.145459	623.162149	84.587670	94.989753	111.448981	236.135746
0.147479	606.919714	84.049206	94.730275	102.605950	229.534283
0.149500	586.571917	83.517676	94.461466	94.438930	218.153845
0.151520	561.271034	82.624022	93.867873	85.883841	202.895297
0.153540	533.462164	81.739367	93.265080	77.407058	185.050660
0.155560	504.473310	80.486331	92.338710	69.497472	166.150836
0.157581	476.679658	79.247799	91.409536	62.429920	147.593405
0.159601	450.996583	77.680707	90.212831	56.482990	130.632298
0.161621	429.014096	76.138279	89.023270	51.797353	116.037527
0.163641	410.843254	74.434131	87.741602	48.187676	104.239712
0.165662	398.157902	72.766579	86.476675	47.256700	95.225806
0.167682	392.451125	71.152042	85.318449	51.242448	88.739549
0.169702	391.456732	69.580892	84.181903	57.345686	84.348991
0.171722	393.010192	68.205196	83.252347	63.981583	81.571447
0.173743	397.229930	66.871551	82.336185	72.075786	79.946606
0.175763	402.313820	65.804200	81.647868	79.786023	79.075834
0.177783	407.426791	64.769989	80.975043	87.030262	78.651553
0.179804	412.622927	64.016300	80.524573	93.638471	78.443618
0.181824	417.201043	63.283701	80.083455	99.520140	78.313769
0.183844	421.683042	62.855995	79.873694	104.733931	78.219439
0.185864	425.450944	62.436154	79.667778	109.305703	78.041321
0.187885	428.543491	62.144945	79.544207	113.414263	77.440089
0.189905	430.743280	61.856933	79.422796	116.990248	76.473315
0.191925	432.270839	61.569354	79.303933	120.003018	75.394546
0.193945	433.296001	61.285813	79.186674	122.479562	74.343963
0.195966	433.958986	61.038910	79.110946	124.377216	73.431924
0.197986	434.282584	60.796755	79.036725	125.743551	72.705562
0.200006	434.385088	60.588931	79.001671	126.596181	72.198312
0.202026	434.231521	60.387251	78.968321	126.969745	71.906210
0.204047	433.943135	60.229493	78.981101	126.914103	71.818443
0.206067	433.443384	60.079421	78.995953	126.462499	71.905515
0.208087	432.845309	59.983747	79.065476	125.657637	72.138452
0.210108	432.058812	59.896964	79.131498	124.547146	72.483206
0.212128	431.201329	59.869490	79.248364	123.170301	72.913176
0.214148	430.191578	59.851532	79.367319	121.569734	73.402995
0.216168	429.151069	59.889526	79.537520	119.788761	73.935262
0.218189	427.997049	59.937190	79.709788	117.863175	74.486897
0.220209	426.821917	60.034142	79.927365	115.813991	75.046419
0.222229	425.571748	60.140595	80.146888	113.675749	75.608516
0.224249	424.303983	60.288346	80.404935	111.440130	76.170571
0.226270	422.993465	60.445300	80.664769	109.151317	76.732079
0.228290	421.693302	60.630060	80.947180	106.820243	77.295820
0.230310	420.380356	60.823692	81.231162	104.461542	77.863961
0.232330	419.115159	61.027017	81.515147	102.131939	78.441056
0.234351	417.869337	61.238844	81.801610	99.799751	79.029132
0.236371	416.698718	61.446603	82.077273	97.544748	79.630094
0.238391	415.574584	61.662474	82.353813	95.314484	80.243814
0.240411	414.516367	61.867617	82.610042	93.170579	80.868129
0.242432	413.497750	62.080377	82.845670	91.071050	81.500653
0.244452	412.603493	62.278128	82.993484	89.195116	82.136765
0.246472	411.815996	62.482818	83.145245	87.415255	82.772678
0.248493	411.042630	62.663405	83.271539	85.704282	83.403405
0.250513	410.333825	62.850181	83.401254	84.057875	84.024516
0.252533	409.639300	63.001879	83.492857	82.513065	84.631499
0.254553	409.003501	63.159142	83.587434	81.037201	85.219724
0.256574	408.352393	63.278476	83.643641	79.647923	85.782353
0.258594	407.748147	63.402717	83.702433	78.329452	86.313544
0.260614	407.044785	63.490978	83.734002	77.018460	86.801345
0.262634	406.355392	63.583098	83.767675	75.767449	87.237170
0.264655	405.478327	63.640318	83.782436	74.447146	87.608426
0.266675	404.560130	63.700461	83.798950	73.157873	87.902846
0.268695	403.425694	63.727728	83.796985	71.788749	88.112232
0.270715	402.200501	63.757460	83.796630	70.412833	88.233577
0.272736	400.771519	63.752764	83.769820	68.977766	88.271170
0.274756	399.229573	63.750204	83.744456	67.507303	88.227610
0.276776	397.495077	63.710206	83.685878	65.991241	88.107752
0.278797	395.622509	63.672072	83.606847	64.429362	87.914228
0.280817	393.560581	63.597795	83.491541	62.822047	87.649197
0.282837	391.472819	63.525183	83.378381	61.255762	87.313494
0.284857	389.283652	63.415474	83.206838	59.753936	86.907405
0.286878	386.986430	63.307301	83.028339	58.220102	86.430688
0.288898	384.535330	63.161618	82.817657	56.674114	85.881941
0.290918	382.005390	63.017416	82.610248	55.117251	85.260474
0.292938	379.338953	62.834656	82.366250	53.572054	84.565993
0.294959	376.587832	62.653372	82.118644	52.017136	83.798681
0.296979	374.087116	62.431255	81.832241	50.863784	82.959836
0.298999	371.640387	62.210669	81.548421	49.830728	82.050569
0.301019	369.110968	61.945826	81.220391	48.872052	81.072700
0.303040	366.558891	61.682669	80.894926	47.953300	80.027996
0.305060	363.959789	61.368312	80.512949	47.157631	78.920896
0.307080	361.364221	61.056014	80.133596	46.419672	77.754939
0.309100	358.760784	60.696756	79.701717	45.827749	76.534562
0.311121	356.192448	60.340205	79.272723	45.314835	75.264686
0.313141	353.615965	59.955996	78.824002	44.891269	73.944699
0.315161	351.087191	59.574837	78.378435	44.555604	72.578315
0.317182	348.534451	59.170551	77.923091	44.273965	71.166845
0.319202	346.018357	58.769520	77.471147	44.063071	69.714620
0.321222	343.463100	58.349718	77.014996	43.872501	68.225887
0.323242	340.915859	57.933474	76.562527	43.714371	66.705488
0.325263	338.312688	57.493668	76.103670	43.561293	65.154058
0.327283	335.865987	57.057751	75.648756	43.585502	63.573979
0.329303	333.352909	56.606167	75.183106	43.583445	61.980192
0.331323	330.802942	56.159100	74.721711	43.537546	60.384585
0.333344	328.124720	55.696427	74.261831	43.381133	58.785329
0.335364	325.381093	55.238767	73.806471	43.152221	57.183635
0.337384	322.545696	54.770145	73.344746	42.836660	55.594146
0.339404	319.640462	54.307128	72.887775	42.417118	54.028442
0.341425	316.673825	53.842295	72.432203	41.899244	52.500083
0.343445	313.653731	53.383642	71.981624	41.268672	51.019792
0.345465	310.554780	52.919218	71.531653	40.512588	49.591321
0.347486	307.406223	52.461449	71.086840	39.638637	48.219296
0.349506	304.177426	51.994402	70.635042	38.637463	46.910519
0.351526	300.900835	51.534391	70.188487	37.507299	45.670659
0.353546	297.601320	51.079395	69.745473	36.264173	44.512279
0.355567	294.275993	50.631746	69.307833	34.893294	43.443120
0.357587	290.911770	50.185233	68.874033	33.390580	42.461925
0.359607	288.775550	49.746280	68.445628	33.016220	41.567421
0.361627	287.097385	49.312250	68.022537	33.002373	40.760226
0.363648	285.557008	48.886035	67.604924	33.027376	40.038673
0.365668	284.235199	48.459658	67.186876	33.189356	39.399308
0.367688	283.155225	48.041450	66.774412	33.502144	38.837218
0.369708	282.236938	47.638972	66.383107	33.870969	38.343889
0.371729	281.458345	47.245092	65.997600	34.305842	37.909810
0.373749	280.799439	46.851927	65.612607	34.809154	37.525750
0.375769	280.263716	46.467923	65.233645	35.381093	37.181056
0.377789	279.836076	46.089077	64.859670	36.021826	36.865503
0.379810	279.511531	45.720093	64.492062	36.731352	36.568025
0.381830	279.317798	45.375252	64.151975	37.512672	36.277985
0.383850	279.208785	45.041029	63.818678	38.366563	35.984993
0.385871	279.407572	44.710100	63.490690	39.536967	35.670924
0.387891	281.077470	44.390197	63.169452	42.194712	35.323109
0.389911	284.701528	44.141404	62.921998	46.686097	34.952029
0.391931	288.677778	43.903907	62.681705	51.525649	34.566517
0.393952	292.775101	43.713473	62.496706	56.409794	34.155128
0.395972	296.950748	43.533480	62.318118	61.383177	33.715973
0.397992	301.272006	43.449737	62.246699	66.313209	33.262360
0.400012	305.655651	43.375344	62.181116	71.289031	32.810160
0.402033	310.128382	43.391741	62.218678	76.149991	32.367973
0.404053	314.635538	43.416294	62.261179	81.010267	31.947798
0.406073	319.250908	43.553567	62.428844	85.699852	31.568646
0.408093	323.889650	43.698589	62.595006	90.347229	31.248826
0.410114	328.688891	43.930683	62.858897	94.912972	30.986340
0.412134	333.689623	44.170776	63.126900	99.612362	30.779584
0.414154	338.644236	44.497924	63.495027	104.026382	30.624903
0.416175	343.500610	44.834341	63.867160	108.282513	30.516595
0.418195	348.265650	45.252808	64.331884	112.234948	30.446009
0.420215	352.996156	45.682686	64.800924	116.109508	30.403038
0.422235	357.715925	46.198813	65.366771	119.776609	30.373732
0.424256	362.204523	46.729380	65.937685	123.192174	30.345283
0.426276	366.583617	47.362099	66.622932	126.293519	30.305066
0.428296	370.686714	48.013323	67.314709	129.114101	30.244582
0.430316	374.706530	48.783745	68.141545	131.629072	30.152168
0.432337	378.384554	49.577896	68.976972	133.804998	30.024687
0.434357	382.155730	50.524903	69.986273	135.779307	29.865247
0.436377	385.712371	51.502053	71.007147	137.515785	29.687386
0.438397	389.250510	52.655199	72.230118	138.860168	29.505026
0.440418	392.371263	53.845895	73.468120	139.714605	29.342643
0.442438	395.437178	55.242128	74.943490	140.026309	29.225251
0.444458	398.025827	56.683493	76.437780	139.699865	29.204689
0.446478	400.543070	58.343673	78.187509	138.668924	29.342964
0.448499	402.572608	60.055617	79.959656	136.848362	29.708973
0.450519	404.525967	61.989095	81.995444	134.165803	30.375625
0.452539	406.012256	63.978680	84.055696	130.561568	31.416311
0.454560	407.435179	66.188289	86.388124	125.948275	32.910490
0.456580	408.464621	68.455273	88.739788	120.339130	34.930431
0.458600	409.460608	70.928863	91.322373	113.662448	37.546926
0.460620	410.217034	73.458353	93.922794	106.020532	40.817159
0.462641	411.249150	76.148368	96.728273	97.407858	44.774428
0.464661	412.471697	78.892616	99.548934	87.966031	49.436078
0.466681	423.591913	81.703408	102.481028	87.033394	54.773790
0.468701	437.456670	84.568164	105.427099	89.679328	60.768700
0.470722	455.237760	87.370066	108.323581	95.358320	67.391980
0.472742	474.319746	90.225237	111.232289	101.711952	74.614407
0.474762	494.141812	92.867376	113.909369	108.703652	82.419679
0.476782	514.974281	95.560095	116.575374	116.053500	90.798878
0.478803	536.247451	97.874911	118.815849	123.780903	99.775931
0.480823	558.564070	100.234698	121.062848	131.891340	109.375398
0.482843	580.163696	102.067763	122.741187	139.728795	119.625990
0.484864	601.614036	103.937175	124.423025	146.732294	130.521546
0.486884	621.308629	105.159623	125.421365	152.726544	142.001098
0.488904	640.226445	106.410086	126.422004	157.456719	153.937637
0.490924	660.729111	106.942783	126.671628	164.982695	166.132005
0.492945	683.039632	107.498615	126.924974	174.286079	178.329963
0.494965	702.722398	107.323954	126.434426	182.725060	190.238958
0.496985	720.745512	107.170404	125.951256	190.038582	201.585270
0.499005	735.483741	106.336833	125.014294	196.061189	212.071425
0.501026	747.814693	105.524890	124.101467	200.741066	221.447271
0.503046	756.334658	104.123084	122.631681	204.160029	229.419864
0.505066	762.087318	102.747266	121.169146	206.415995	235.754912
0.507086	764.117789	100.915836	119.355333	207.795435	240.051184
0.509107	763.193230	99.123949	117.557443	208.471731	242.040107
0.511127	760.091190	97.616610	116.464296	209.442686	240.567598
0.513147	753.854348	96.277548	115.471588	210.925003	235.180210
0.515167	746.362878	95.988467	115.888365	212.553106	225.932941
0.517188	735.443362	96.187500	116.603992	212.496278	214.155592
0.519208	716.480412	95.033086	115.587316	205.811281	204.048731
0.521228	692.893401	94.103582	114.701585	191.153267	196.934977
0.523249	660.299949	91.010356	111.371223	169.801986	192.116637
0.525269	626.018694	88.016008	108.110892	146.077520	187.827164
0.527289	590.326379	84.250288	104.039559	123.269164	182.544281
0.529309	555.646116	80.601729	100.003308	102.394734	176.123904
0.531330	522.205670	76.551336	95.514678	84.720260	168.634105
0.533350	490.784900	72.641677	91.148198	69.776553	160.236562
0.535370	464.064256	68.712890	86.887251	59.678336	151.016796
0.537390	444.675086	64.947643	82.756656	59.871034	141.067763
0.539411	429.889413	61.674553	79.344970	62.319481	130.462617
0.541431	422.072867	58.592782	76.076388	71.959194	119.328932
0.543451	415.303517	56.213998	73.800332	81.213281	107.920172
0.545471	408.370552	54.040864	71.659781	89.881687	96.503395
0.547492	402.226493	52.967800	70.689271	96.808519	85.428471
0.549512	396.585950	52.043751	69.816508	103.387915	74.991025
0.551532	392.554456	52.272559	70.010583	108.418094	65.391380
0.553553	390.207227	52.633806	70.293088	114.547696	56.732638
0.555573	393.480422	53.900517	71.435551	123.153303	48.991052
0.557593	398.101394	55.339083	72.681495	131.705521	42.375296
0.559613	405.279059	57.665617	74.755806	140.091874	36.765762
0.561634	413.544973	60.190387	76.941332	148.252369	32.160885
0.563654	422.648288	62.962537	79.269737	155.913517	28.502497
0.565674	432.344676	65.945397	81.708805	162.951577	25.738899
0.567694	442.213032	69.039250	84.194910	169.122996	23.855882
0.569715	452.329815	72.328302	86.778916	174.414503	22.808110
0.571735	462.156737	75.617602	89.313801	178.672141	22.553220
0.573755	471.990221	79.072705	91.931403	181.954133	23.032034
0.575775	481.403420	82.479183	94.485271	184.271549	24.167423
0.577796	490.729213	86.022848	97.110335	185.721635	25.874396
0.579816	500.177306	89.792657	100.090430	186.147599	28.146621
0.581836	509.596012	93.668683	103.132074	185.859725	30.935530
0.583856	521.299166	97.851059	106.712549	186.611078	34.124480
0.585877	534.229286	102.136104	110.363015	188.132785	37.597382
0.587897	547.212574	106.328680	114.125320	189.791901	40.966674
0.589917	560.508982	110.641414	117.972296	191.964277	43.930995
0.591938	573.311678	114.557956	121.717029	195.137239	45.899454
0.593958	586.314887	118.604739	125.553945	199.806658	46.349546
0.595978	602.657324	123.921899	131.359315	208.037538	43.338571
0.597998	619.921189	129.694373	137.441632	221.530583	35.254602
0.600019	636.613264	135.295549	143.420358	240.268349	21.629009
0.602039	653.753136	141.607368	149.773252	263.568265	2.804250
0.604059	667.428909	146.419532	154.888690	287.845668	-17.724980
0.606079	680.952614	151.673477	160.233692	309.881932	-36.836488
0.608100	691.937898	155.903654	164.812410	327.383588	-52.161754
0.610120	702.927717	160.568431	169.648516	338.718283	-62.007513
0.612140	707.222294	162.343142	171.843914	342.802479	-65.767241
0.614160	710.809939	164.512347	174.288571	339.739799	-63.730779
0.616181	703.425883	161.281425	171.770924	331.647391	-57.273856
0.618201	695.525885	158.439795	169.245777	320.735966	-48.895652
0.620221	687.704744	154.227844	165.652031	313.321220	-41.496352
0.622242	677.211181	150.527872	162.294115	306.694750	-38.305556
0.624262	661.572148	146.352393	158.564415	303.044587	-42.389247
0.626282	642.157542	142.715207	155.100178	303.955073	-55.612917
0.628302	629.941782	142.375356	155.637898	315.496510	-79.567982
0.630323	625.270746	142.536166	156.439061	329.909485	-99.613966
0.632343	641.109243	143.754738	158.566174	336.880323	-94.091993
0.634363	658.396472	145.497679	161.028134	339.395447	-83.524788
0.636383	665.240315	146.020475	162.111528	341.437793	-80.329480
0.638404	671.727752	146.701186	163.277947	345.452484	-79.703863
0.640424	674.108969	146.404763	162.956762	352.646120	-83.898674
0.642444	675.264087	146.146391	162.648181	362.277535	-91.808016
0.644464	663.101315	141.415050	157.094677	370.094233	-101.502639
0.646485	648.362652	136.931672	151.668485	373.801002	-110.038498
0.648505	632.810734	133.175283	146.490360	379.171632	-122.026531
0.650525	620.247172	130.428416	142.049071	392.787898	-141.018202
0.652545	612.802078	127.696099	138.786205	405.873496	-155.553701
0.654566	607.841088	125.109010	135.596791	408.388296	-157.252944
0.656586	606.886597	124.422147	134.272165	404.129891	-151.937501
0.658606	606.266678	124.166929	133.248045	394.396913	-141.545097
0.660627	603.290715	122.942155	132.198168	373.375433	-121.225020
0.662647	599.596093	121.872573	131.198470	345.447603	-94.922540
0.664667	596.263045	120.844883	130.452728	319.091937	-70.126487
0.666687	595.524000	119.914224	129.766374	299.252287	-49.408864
0.668708	602.365598	120.092367	130.747218	287.340512	-31.814475
0.670728	606.871974	120.328598	131.791132	274.439165	-15.686895
0.672748	606.615037	117.645284	129.576238	263.882574	-0.489033
0.674768	605.021281	115.022706	127.403953	252.685155	13.909494
0.676789	603.614515	112.413345	125.196519	242.236414	27.768274
0.678809	601.730610	109.854450	123.013478	231.694734	41.168002
0.680829	601.820477	109.188524	122.608175	219.724810	54.299048
0.682849	602.129905	108.570297	122.233021	207.891289	67.435421
0.684870	602.979661	108.248312	122.166829	196.041405	80.523282
0.686890	603.993585	107.958247	122.122479	184.383366	93.529720
0.688910	603.618392	106.760000	121.196800	173.465002	106.196887
0.690931	602.962574	105.577986	120.284885	162.828347	118.271742
0.692951	600.163626	103.870621	118.946534	151.715021	129.631946
0.694971	596.779891	102.191160	117.623353	140.808308	140.157696
0.696991	592.524266	100.397724	116.160268	130.102123	149.864931
0.699012	587.708826	98.633222	114.711978	119.585734	158.778845
0.701032	583.109480	97.222342	113.603964	109.312334	166.972022
0.703052	578.169470	95.835464	112.509395	99.295833	174.530216
0.705072	576.593800	95.113838	112.179365	91.776763	181.525652
0.707093	582.342668	94.416244	111.862710	92.009632	188.056335
0.709113	589.020599	94.353875	112.309019	92.172509	194.188048
0.711133	595.473936	94.331186	112.775336	92.358097	200.012852
0.713153	603.129841	94.884109	113.923826	92.707847	205.618401
0.715174	610.722940	95.512576	115.116114	92.989314	211.110550
0.717194	619.700329	96.693156	116.907968	93.493019	216.592778
0.719214	629.080596	98.005856	118.775365	93.784409	222.166285
0.721234	639.498771	99.887509	121.215731	93.863628	227.903868
0.723255	650.011388	101.955401	123.758236	93.600843	233.837338
0.725275	660.970408	104.407019	126.635264	92.925862	239.954910
0.727295	672.088767	107.066027	129.618892	91.945644	246.220749
0.729316	685.080533	109.790696	132.593721	92.366839	252.574810
0.731336	698.290602	112.707073	135.658688	94.350385	258.950114
0.733356	711.200258	115.431511	138.478301	96.022544	265.278133
0.735376	724.728552	118.314921	141.364510	97.542043	271.507163
0.737397	737.203458	120.939755	143.971671	98.698678	277.593542
0.739417	749.416168	123.698254	146.481793	99.726462	283.510197
0.741437	760.664046	126.293973	148.773922	100.363418	289.233970
0.743457	771.761141	129.015966	151.117096	100.884384	294.746547
0.745478	781.990735	131.638599	153.340883	100.992683	300.024103
0.747498	793.148683	134.391070	155.594350	102.134335	305.038479
0.749518	803.669244	137.010064	157.667188	103.246810	309.757944
0.751538	813.962818	139.765643	159.790973	104.273001	314.147124
0.753559	823.473133	142.338084	161.686769	105.292212	318.169644
0.755579	832.800049	145.054288	163.635642	106.337679	321.785395
0.757599	840.994514	147.531358	165.276078	107.232066	324.968415
0.759620	848.778133	150.159158	166.972227	107.967453	327.693196
0.761640	855.258520	152.672242	168.540667	108.154909	329.902135
0.763660	861.192482	155.342482	170.169218	108.139648	331.547249
0.765680	865.835335	157.661074	171.378973	108.289610	332.507485
0.767701	870.305076	160.137931	172.565916	108.267978	333.333552
0.769721	873.477666	162.551017	173.720216	107.573545	333.632913
0.771741	876.089049	165.120493	174.939039	106.661113	333.368406
0.773761	877.261495	167.391735	175.821706	105.488014	332.560041
0.775782	878.205497	169.811142	176.768930	104.389767	331.235658
0.777802	878.227518	171.969515	177.495233	103.325128	329.437642
0.779822	879.363748	174.261432	178.284014	103.615117	327.203186
0.781842	880.291413	176.376965	179.037703	104.272343	324.604401
0.783863	880.973199	178.592254	179.840233	104.822103	321.718612
0.785883	880.755587	180.761094	180.896245	104.397020	318.701239
0.787903	880.961450	182.980761	181.977104	104.299442	315.704186
0.789923	881.049624	184.971268	183.113073	104.153474	312.811953
0.791944	881.643108	186.993723	184.267770	104.279090	310.102935
0.793964	881.958764	188.658120	185.283702	104.384455	307.633405
0.795984	883.254859	190.345808	186.317017	105.147427	305.446341
0.798005	884.112634	191.529638	187.001055	105.969544	303.614919
0.800025	885.442060	192.727808	187.699345	106.838699	302.179844
0.802045	886.380955	193.278369	187.798864	108.044973	301.258750
0.804065	887.738103	193.835410	187.908099	109.079216	300.915379
0.806086	888.663426	193.987184	187.565698	109.932433	301.178110
0.808106	889.979762	194.146948	187.233839	110.549849	302.049126
0.810126	891.954384	194.444812	187.086801	111.065288	303.357482
0.812146	894.251278	194.746204	186.948874	111.579127	304.977073
0.814167	897.181998	195.172636	186.961278	112.242019	306.806064
0.816187	900.355113	195.601981	186.983524	113.007581	308.762028
0.818207	903.869238	196.054283	187.046615	113.976303	310.792038
0.820227	907.528001	196.511477	187.121535	115.043090	312.851899
0.822248	911.363717	196.991649	187.240809	116.219186	314.912073
0.824268	915.253599	197.477958	187.373183	117.456352	316.946106
0.826288	919.185273	197.987257	187.551285	118.710385	318.936346
0.828309	923.093010	198.502543	187.742636	119.980173	320.867657
0.830329	927.017471	199.041285	187.983373	121.267132	322.725681
0.832349	931.039719	199.585495	188.237205	122.718272	324.498748
0.834369	934.998708	200.153158	188.549635	124.127621	326.168294
0.836390	938.868816	200.726252	188.875412	125.548208	327.718945
0.838410	942.658759	201.326135	189.278126	126.928321	329.126176
0.840430	946.332933	201.932344	189.695187	128.333309	330.372093
0.842450	949.923740	202.579543	190.214778	129.698854	331.430565
0.844471	953.376896	203.235043	190.720561	131.135736	332.285556
0.846491	956.753895	203.948108	191.381445	132.510408	332.913934
0.848511	959.981560	204.672737	192.063247	133.940153	333.305423
0.850531	963.174895	205.458090	192.905145	135.365546	333.446114
0.852552	966.231948	206.260000	193.771229	136.863290	333.337429
0.854572	969.280177	207.142392	194.824605	138.337423	332.975758
0.856592	972.212626	208.049206	195.907180	139.883382	332.372859
0.858612	975.088255	209.053353	197.207248	141.283299	331.544355
0.860633	977.848813	210.092219	198.538681	142.699444	330.518470
0.862653	980.450077	211.179632	200.024302	143.901903	329.344240
0.864673	982.942613	212.311571	201.551736	145.003001	328.076306
0.866694	985.108579	213.393067	203.116600	145.811446	326.787466
0.868714	987.162680	214.525147	204.727027	146.363558	325.546949
0.870734	988.698719	215.484150	206.235650	146.548624	324.430295
0.872754	990.866140	216.495530	207.783184	147.083602	323.503824
0.874775	992.780841	217.234162	209.129857	147.588563	322.828260
0.876795	994.934132	218.024676	210.523126	147.931573	322.454757
0.878815	996.611899	218.478034	211.679233	148.040699	322.413934
0.880835	998.917414	218.982196	212.880743	148.326539	322.727935
0.882856	1000.756727	219.080074	213.797087	148.489580	323.389986
0.884876	1002.931149	219.228351	214.757290	148.558356	324.387153
0.886896	1005.415214	218.890908	215.363650	149.496946	325.676655
0.888916	1009.830003	218.605247	216.012218	151.997328	327.215503
0.890937	1013.531397	217.747175	216.233222	154.614185	328.936815
0.892957	1017.683823	216.944209	216.493921	157.465072	330.780621
0.894977	1020.703707	215.451632	216.227300	160.339061	332.685714
0.896998	1023.815114	214.019030	215.995603	163.200752	334.599728
0.899018	1025.492748	211.749819	215.109961	166.118340	336.514628
0.901038	1027.070733	209.548357	214.251798	168.850521	338.420057
0.903058	1026.861827	206.354690	212.606384	171.528333	340.372421
0.905079	1026.343528	203.243781	210.980054	173.721995	342.397698
0.907099	1023.655796	199.020907	208.476558	175.631786	344.526545
0.909119	1020.433593	194.911587	205.988238	176.795289	346.738478
0.911139	1014.690586	189.677657	202.647610	177.456686	348.908634
0.913160	1008.151522	184.622345	199.336575	177.317429	350.875174
0.915180	998.706958	178.515741	195.232001	176.614592	352.344624
0.917200	988.206616	172.716102	191.210785	175.253487	353.026244
0.919220	976.669051	165.867400	186.239071	175.945404	352.617176
0.921241	966.779031	159.518363	181.443306	178.964885	350.852476
0.923261	952.897603	152.142501	175.430021	181.787650	347.537431
0.925281	938.579362	145.524951	169.710703	184.818766	342.524942
0.927301	928.355827	138.301708	162.959482	195.372107	335.722530
0.929322	917.876771	132.156357	156.706651	205.922657	327.091106
0.931342	904.763645	125.636500	149.366206	217.102041	316.658897
0.933362	892.347504	120.634538	142.839866	228.371491	304.501609
0.935383	892.578461	119.920701	140.913505	244.709058	291.035197
0.937403	892.099815	119.707542	139.281348	260.476066	276.634859
0.939423	892.108451	122.144167	141.519110	271.554830	260.890344
0.941443	892.615040	124.729290	143.839393	284.469305	243.577052
0.943464	893.839863	127.634333	146.898802	298.434812	224.871917
0.945484	896.048503	130.719918	150.063286	314.054445	205.210853
0.947504	895.907890	132.463210	151.587766	329.157797	186.699118
0.949524	896.760249	134.242852	153.106555	342.603167	170.807676
0.951545	913.956455	143.399276	162.651932	369.468960	142.436286
0.953565	938.268582	155.780293	173.681065	417.225736	95.581488
0.955585	933.739140	153.090484	169.218371	448.062321	67.367964
0.957605	929.205684	150.916103	165.093181	439.800924	77.395482
0.959626	933.064341	154.925117	166.833549	404.446602	110.871959
0.961646	932.968385	159.407355	168.784858	356.448145	151.407027
0.963666	954.585487	158.760155	166.982381	350.478406	182.364544
0.965686	978.219219	158.166264	165.615555	356.592027	201.845373
0.967707	998.758105	159.426384	166.010546	360.920787	216.400388
0.969727	1013.088666	160.733255	166.449029	362.849769	227.056613
0.971747	1021.850657	162.032392	167.180009	362.398597	234.239660
0.973768	1025.538374	163.385454	167.998722	359.258015	238.896182
0.975788	1024.569803	164.149310	168.954707	353.650986	241.814799
0.977808	1013.923456	164.974390	170.026479	343.460214	239.298077
0.979828	1007.920898	162.483397	170.360078	358.338687	220.738736
0.981849	1017.435768	160.319826	170.943305	418.113617	172.059020
0.983869	1029.306640	156.123204	170.658277	520.784946	85.740213
0.985889	1027.653789	152.770077	170.584471	585.596912	22.702328
0.987909	955.765893	149.318052	168.100464	475.593345	66.754177
0.989930	826.054395	145.924126	165.552112	277.970187	140.608039
0.991950	780.401941	142.896945	162.787585	230.081999	148.645339
0.993970	796.448881	140.000395	159.987982	250.889640	149.576186
0.995990	799.291522	135.378791	156.130473	247.219772	164.567080
0.998011	804.975664	130.911591	152.308947	240.467169	185.292801
1.000031	812.667561	125.845620	147.617570	233.633651	209.576699
1.002051	817.919271	120.998520	142.985633	224.353543	233.572627
1.004072	823.438534	115.887350	137.987872	217.129692	256.441531
1.006092	824.787565	110.970364	133.061922	207.646469	277.117088
1.008112	821.550655	105.601493	127.581229	196.800149	295.568944
1.010132	814.188446	100.460149	122.210116	184.119977	311.398297
1.012153	802.582476	95.100574	116.536441	170.074821	324.503371
1.014173	799.047446	90.029424	111.027608	167.382350	334.608064
1.016193	792.187874	84.661455	105.114157	164.839241	341.573021
1.018213	782.299965	79.693303	99.452544	161.935672	345.218447
1.020234	769.957669	75.245421	94.368951	158.690116	345.653181
1.022254	757.059172	71.113976	89.594055	157.319874	343.031266
1.024274	742.052973	68.017424	86.399347	153.831897	337.804305
1.026294	724.800837	65.036250	83.276357	150.010265	330.477965
1.028315	705.728883	62.079324	80.482921	145.889911	321.276728
1.030335	685.070109	59.269834	77.766139	141.573403	310.460739
1.032355	663.075227	56.703673	75.333785	136.680315	298.357454
1.034375	641.071044	54.311784	72.994478	132.439087	285.325695
1.036396	618.692510	52.234419	70.767910	127.901679	271.788502
1.038416	596.829738	50.319539	68.636054	123.762651	258.111550
1.040436	581.516813	48.764842	66.968446	125.378347	244.417892
1.042457	571.387565	47.367895	65.382565	131.588723	230.777213
1.044477	561.891255	46.559608	64.363839	138.186786	216.792669
1.046497	557.337070	45.968615	63.455770	149.425607	202.106192
1.048517	555.854642	46.301833	62.931775	164.770585	185.850449
1.050538	558.379812	47.012202	62.325238	185.617211	167.425161
1.052558	564.600742	47.432164	61.300296	212.191061	147.677221
1.054578	575.038669	48.230008	60.597438	242.868831	127.342392
1.056598	583.678894	48.433300	59.660905	272.245119	107.339570
1.058619	589.313568	48.913302	58.996030	297.139001	88.265235
1.060639	593.230040	50.274797	60.349740	316.714230	69.891273
1.062659	593.199278	51.773776	61.811628	331.365565	52.261053
1.064679	597.714354	56.773739	68.104214	342.108879	34.711149
1.066700	597.200379	62.656099	74.871608	345.670368	18.004090
1.068720	604.250095	73.708800	87.335765	343.865652	2.516545
1.070740	642.658736	86.747015	100.769692	370.043655	-10.901625
1.072761	665.964373	92.345292	107.128335	390.879382	-20.388636
1.074781	685.405868	98.321829	113.638164	402.938525	-25.492650
1.076801	713.727656	107.378000	123.544703	414.307107	-27.502153
1.078821	739.865393	117.134041	133.799653	419.437867	-26.506169
1.080842	783.550958	133.995585	150.212716	422.586803	-19.244146
1.082862	840.687899	152.077801	167.193464	416.146480	9.270154
1.084882	881.112612	167.925375	181.606783	370.713488	64.866966
1.086902	877.719929	184.465588	196.495826	310.707767	90.050814
1.088923	834.713790	196.189293	209.756337	282.649868	50.118292
1.090943	783.148617	209.833080	224.369293	280.388417	-27.442173
1.092963	742.592942	210.519115	225.555402	309.882450	-99.364024
1.094983	741.872280	214.328314	228.723095	378.341514	-175.520644
1.097004	722.865900	210.404945	225.872254	432.651475	-242.062775
1.099024	724.524631	206.621943	222.807010	430.615546	-231.519869
1.101044	714.749975	201.259078	219.222326	377.967516	-179.698946
1.103064	707.766286	196.893118	215.614919	315.514172	-116.255923
1.105085	699.098227	196.398821	215.492681	269.097078	-77.890342
1.107105	692.779755	195.924579	215.265245	240.281197	-54.691099
1.109125	685.691003	194.949782	214.221323	222.256723	-41.732955
1.111146	681.336230	193.992560	213.188065	208.917171	-30.748642
1.113166	676.583189	193.196388	212.352409	196.591113	-21.573774
1.115186	673.166315	192.414804	211.526752	185.053821	-11.911183
1.117206	669.314454	191.736060	210.857902	173.313520	-2.745972
1.119227	666.266724	191.068453	210.189953	161.944621	6.872453
1.121247	663.085396	190.457842	209.613076	150.617824	16.174178
1.123267	660.489470	189.856936	208.935219	139.813245	25.650383
1.125287	658.116888	189.326608	208.286503	129.470805	34.794853
1.127308	656.301398	188.806193	207.583733	119.769145	43.913489
1.129328	654.983732	188.379693	206.971077	110.697782	52.722045
1.131348	654.195957	187.963227	206.364994	102.254188	61.426529
1.133368	653.985911	187.669780	205.880784	94.406191	69.874567
1.135389	654.227704	187.386425	205.403018	87.121861	78.203021
1.137409	655.062325	187.233944	205.053103	80.382041	86.326064
1.139429	656.956805	187.091885	204.709540	74.799273	94.334920
1.141450	661.315228	187.083044	204.496818	71.560567	102.182935
1.143470	665.920343	187.085439	204.290622	68.626795	109.931507
1.145490	670.965746	187.221210	204.216062	65.982844	117.555129
1.147510	676.186921	187.369452	204.148474	63.579123	125.096278
1.149531	681.812690	187.656323	204.222176	61.398848	132.542390
1.151551	687.577395	187.956978	204.303337	59.403422	139.923639
1.153571	693.949860	188.396554	204.532131	57.797921	147.236275
1.155591	700.881897	188.850862	204.684331	56.861215	154.499398
1.157612	708.204981	189.429968	204.960094	56.112470	161.714313
1.159632	715.693457	190.024494	205.244401	55.528223	168.902848
1.161652	723.645297	190.741018	205.659605	55.186622	176.070819
1.163672	731.994663	191.473335	206.083546	55.204111	183.233857
1.165693	740.679392	192.314908	206.626519	55.337673	190.400294
1.167713	749.541072	193.172524	207.178505	55.605434	197.584611
1.169733	758.721974	194.117626	207.825021	55.980629	204.798706
1.171753	768.438479	195.078939	208.480915	56.821736	212.056889
1.173774	778.625728	196.099983	209.199300	57.954095	219.372350
1.175794	789.026626	197.137181	209.926815	59.205037	226.757592
1.177814	799.637647	198.200587	210.677215	60.536642	234.223204
1.179835	811.031591	199.279757	211.437517	62.537362	241.776955
1.181855	823.389209	200.351477	212.185637	65.428911	249.423184
1.183875	835.931781	201.438350	212.943805	68.386941	257.162685
1.185895	848.546822	202.493750	213.666286	71.394898	264.991888
1.187916	861.316788	203.563725	214.399038	74.449686	272.904339
1.189936	874.088179	204.583040	215.079471	77.535558	280.890110
1.191956	886.974269	205.616502	215.770540	80.649192	288.938035
1.193976	899.841877	206.599325	216.428182	83.778832	297.035538
1.195997	912.790293	207.596373	217.095409	86.927560	305.170952
1.198017	925.447894	208.441254	217.596543	90.084624	313.325474
1.200037	938.126916	209.300110	218.107921	93.240534	321.478351
1.202057	951.350556	210.399391	218.935487	96.383815	329.631863
1.204078	964.635266	211.514007	219.774032	99.550579	337.796648
1.206098	974.763103	211.187876	218.910181	102.771303	345.893744
1.208118	984.678242	210.882976	218.067138	105.905102	353.823026
1.210139	1005.103330	215.407521	223.393432	108.669327	361.633049
1.212159	1025.975567	220.033484	228.766447	111.765363	369.410272
