PointAcceleration
version=1
nRows=601
nColumns=4
inDegrees=no
No description.
endheader
time	state_0	state_1	state_2
      0.00000000	      1.45203507	    -11.31239490	      0.00000000
      0.00072147	      1.45676338	    -11.30294426	      0.00000000
      0.00144293	      1.46231412	    -11.29384902	      0.00000000
      0.00216440	      1.46909632	    -11.28592585	      0.00000000
      0.00288587	      1.47711386	    -11.27965458	      0.00000000
      0.00360734	      1.48624118	    -11.27528865	      0.00000000
      0.00432880	      1.49639613	    -11.27331725	      0.00000000
      0.00505027	      1.50739652	    -11.27384848	      0.00000000
      0.00577174	      1.51911698	    -11.27708091	      0.00000000
      0.00649321	      1.53136576	    -11.28283284	      0.00000000
      0.00721467	      1.54367457	    -11.29079661	      0.00000000
      0.00793614	      1.55646819	    -11.30091380	      0.00000000
      0.00865761	      1.56931521	    -11.31277954	      0.00000000
      0.00937908	      1.58208344	    -11.32620757	      0.00000000
      0.01010054	      1.59458521	    -11.34096321	      0.00000000
      0.01082201	      1.60655815	    -11.35690260	      0.00000000
      0.01154348	      1.61752600	    -11.37377617	      0.00000000
      0.01226495	      1.62660726	    -11.39127600	      0.00000000
      0.01298641	      1.63207622	    -11.40874549	      0.00000000
      0.01370788	      1.63050085	    -11.42497404	      0.00000000
      0.01442935	      1.61545757	    -11.43751249	      0.00000000
      0.01515082	      1.57520778	    -11.44184195	      0.00000000
      0.01587228	      1.49078066	    -11.43020763	      0.00000000
      0.01659375	      1.33615646	    -11.39139402	      0.00000000
      0.01731522	      1.08989519	    -11.31486632	      0.00000000
      0.01803669	      0.75750888	    -11.19958259	      0.00000000
      0.01875815	      0.32801249	    -11.03803107	      0.00000000
      0.01947962	     -0.46360867	    -10.71392347	      0.00000000
      0.02020109	     -1.98371400	    -10.06574593	      0.00000000
      0.02092256	     -4.01452957	     -9.18887310	      0.00000000
      0.02164402	     -5.90559342	     -8.39531649	      0.00000000
      0.02236549	     -6.22453091	     -8.53477656	      0.00000000
      0.02308696	     -6.25310548	     -8.73743913	      0.00000000
      0.02380843	     -8.36783417	     -7.30243998	      0.00000000
      0.02452989	     -8.75019759	     -6.92033548	      0.00000000
      0.02525136	     -9.12088502	     -6.41176099	      0.00000000
      0.02597283	     -9.02002261	     -6.17782699	      0.00000000
      0.02669430	     -8.69009212	     -6.07919890	      0.00000000
      0.02741576	     -8.21178152	     -6.09400190	      0.00000000
      0.02813723	     -7.64030145	     -6.20107831	      0.00000000
      0.02885870	     -7.06363319	     -6.34578574	      0.00000000
      0.02958017	     -6.49696565	     -6.52121805	      0.00000000
      0.03030163	     -5.98288482	     -6.69363994	      0.00000000
      0.03102310	     -5.51982168	     -6.86224538	      0.00000000
      0.03174457	     -5.12050585	     -7.01197731	      0.00000000
      0.03246604	     -4.77779168	     -7.14488852	      0.00000000
      0.03318750	     -4.49052246	     -7.25665996	      0.00000000
      0.03390897	     -4.25136881	     -7.34986422	      0.00000000
      0.03463044	     -4.05446504	     -7.42505931	      0.00000000
      0.03535190	     -3.89389864	     -7.48447002	      0.00000000
      0.03607337	     -3.76335289	     -7.53023301	      0.00000000
      0.03679484	     -3.65843108	     -7.56409875	      0.00000000
      0.03751631	     -3.57388655	     -7.58829980	      0.00000000
      0.03823777	     -3.50656303	     -7.60416889	      0.00000000
      0.03895924	     -3.45254395	     -7.61354390	      0.00000000
      0.03968071	     -3.40960742	     -7.61741738	      0.00000000
      0.04040218	     -3.37497526	     -7.61716622	      0.00000000
      0.04112364	     -3.34711378	     -7.61351345	      0.00000000
      0.04184511	     -3.32416454	     -7.60743139	      0.00000000
      0.04256658	     -3.30525371	     -7.59940676	      0.00000000
      0.04328805	     -3.28938842	     -7.59008122	      0.00000000
      0.04400951	     -3.27597021	     -7.57983463	      0.00000000
      0.04473098	     -3.26383446	     -7.56925449	      0.00000000
      0.04545245	     -3.25214582	     -7.55869910	      0.00000000
      0.04617392	     -3.24018701	     -7.54854305	      0.00000000
      0.04689538	     -3.22762082	     -7.53897973	      0.00000000
      0.04761685	     -3.21408445	     -7.53024487	      0.00000000
      0.04833832	     -3.19935563	     -7.52248777	      0.00000000
      0.04905979	     -3.18316625	     -7.51589098	      0.00000000
      0.04978125	     -3.16533752	     -7.51058073	      0.00000000
      0.05050272	     -3.14566424	     -7.50670314	      0.00000000
      0.05122419	     -3.12401893	     -7.50435658	      0.00000000
      0.05194566	     -3.10025999	     -7.50365064	      0.00000000
      0.05266712	     -3.07431633	     -7.50465165	      0.00000000
      0.05338859	     -3.04610794	     -7.50743255	      0.00000000
      0.05411006	     -3.01561111	     -7.51203080	      0.00000000
      0.05483153	     -2.98279634	     -7.51848727	      0.00000000
      0.05555299	     -2.94767418	     -7.52681607	      0.00000000
      0.05627446	     -2.91025326	     -7.53703144	      0.00000000
      0.05699593	     -2.87056929	     -7.54912770	      0.00000000
      0.05771740	     -2.82865940	     -7.56309658	      0.00000000
      0.05843886	     -2.78457866	     -7.57891481	      0.00000000
      0.05916033	     -2.73838587	     -7.59655462	      0.00000000
      0.05988180	     -2.69015115	     -7.61597694	      0.00000000
      0.06060327	     -2.63994996	     -7.63713686	      0.00000000
      0.06132473	     -2.58786400	     -7.65998135	      0.00000000
      0.06204620	     -2.53398128	     -7.68445061	      0.00000000
      0.06276767	     -2.47839202	     -7.71047945	      0.00000000
      0.06348914	     -2.42119310	     -7.73799541	      0.00000000
      0.06421060	     -2.36248119	     -7.76692265	      0.00000000
      0.06493207	     -2.30235959	     -7.79717784	      0.00000000
      0.06565354	     -2.24093099	     -7.82867537	      0.00000000
      0.06637500	     -2.17830444	     -7.86132203	      0.00000000
      0.06709647	     -2.11458845	     -7.89502228	      0.00000000
      0.06781794	     -2.04989762	     -7.92967311	      0.00000000
      0.06853941	     -1.98434843	     -7.96517182	      0.00000000
      0.06926087	     -1.91806273	     -8.00140827	      0.00000000
      0.06998234	     -1.85116295	     -8.03827429	      0.00000000
      0.07070381	     -1.78377616	     -8.07565462	      0.00000000
      0.07142528	     -1.71602797	     -8.11343917	      0.00000000
      0.07214674	     -1.64804814	     -8.15151115	      0.00000000
      0.07286821	     -1.57996192	     -8.18976259	      0.00000000
      0.07358968	     -1.51189839	     -8.22807937	      0.00000000
      0.07431115	     -1.44397848	     -8.26635990	      0.00000000
      0.07503261	     -1.37632665	     -8.30449715	      0.00000000
      0.07575408	     -1.30905532	     -8.34240010	      0.00000000
      0.07647555	     -1.24228015	     -8.37997315	      0.00000000
      0.07719702	     -1.17610126	     -8.41713942	      0.00000000
      0.07791848	     -1.11062183	     -8.45381839	      0.00000000
      0.07863995	     -1.04592704	     -8.48994975	      0.00000000
      0.07936142	     -0.98210597	     -8.52547153	      0.00000000
      0.08008289	     -0.91922852	     -8.56034236	      0.00000000
      0.08080435	     -0.85736552	     -8.59451857	      0.00000000
      0.08152582	     -0.79657009	     -8.62797529	      0.00000000
      0.08224729	     -0.73689733	     -8.66068729	      0.00000000
      0.08296876	     -0.67838626	     -8.69264644	      0.00000000
      0.08369022	     -0.62107724	     -8.72384541	      0.00000000
      0.08441169	     -0.56499639	     -8.75429163	      0.00000000
      0.08513316	     -0.51017062	     -8.78399431	      0.00000000
      0.08585463	     -0.45661450	     -8.81297484	      0.00000000
      0.08657609	     -0.40434290	     -8.84125725	      0.00000000
      0.08729756	     -0.35336063	     -8.86887576	      0.00000000
      0.08801903	     -0.30367224	     -8.89586798	      0.00000000
      0.08874050	     -0.25527442	     -8.92227987	      0.00000000
      0.08946196	     -0.20816313	     -8.94816155	      0.00000000
      0.09018343	     -0.16232828	     -8.97356896	      0.00000000
      0.09090490	     -0.11775859	     -8.99856295	      0.00000000
      0.09162637	     -0.07443849	     -9.02320727	      0.00000000
      0.09234783	     -0.03235082	     -9.04757125	      0.00000000
      0.09306930	      0.00852395	     -9.07172401	      0.00000000
      0.09379077	      0.04820721	     -9.09574096	      0.00000000
      0.09451224	      0.08672060	     -9.11969349	      0.00000000
      0.09523370	      0.12407809	     -9.14366621	      0.00000000
      0.09595517	      0.16029687	     -9.16773098	      0.00000000
      0.09667664	      0.19540429	     -9.19196021	      0.00000000
      0.09739811	      0.22942379	     -9.21641435	      0.00000000
      0.09811957	      0.26238070	     -9.24115971	      0.00000000
      0.09884104	      0.29429483	     -9.26624719	      0.00000000
      0.09956251	      0.32518721	     -9.29173227	      0.00000000
      0.10028397	      0.35507308	     -9.31765320	      0.00000000
      0.10100544	      0.38396795	     -9.34405100	      0.00000000
      0.10172691	      0.41188295	     -9.37095065	      0.00000000
      0.10244838	      0.43882857	     -9.39837778	      0.00000000
      0.10316984	      0.46481385	     -9.42634641	      0.00000000
      0.10389131	      0.48984642	     -9.45486922	      0.00000000
      0.10461278	      0.51393584	     -9.48395382	      0.00000000
      0.10533425	      0.53708996	     -9.51360522	      0.00000000
      0.10605571	      0.55932047	     -9.54382968	      0.00000000
      0.10677718	      0.58063790	     -9.57463087	      0.00000000
      0.10749865	      0.60105483	     -9.60601646	      0.00000000
      0.10822012	      0.62058398	     -9.63799297	      0.00000000
      0.10894158	      0.63923276	     -9.67056642	      0.00000000
      0.10966305	      0.65700973	     -9.70374326	      0.00000000
      0.11038452	      0.67390489	     -9.73751632	      0.00000000
      0.11110599	      0.68990759	     -9.77187732	      0.00000000
      0.11182745	      0.70497310	     -9.80678827	      0.00000000
      0.11254892	      0.71904772	     -9.84220185	      0.00000000
      0.11327039	      0.73204963	     -9.87802720	      0.00000000
      0.11399186	      0.74388005	     -9.91414423	      0.00000000
      0.11471332	      0.75435850	     -9.95040252	      0.00000000
      0.11543479	      0.76323651	     -9.98659795	      0.00000000
      0.11615626	      0.77015288	    -10.02247075	      0.00000000
      0.11687773	      0.77459880	    -10.05765022	      0.00000000
      0.11759919	      0.77583818	    -10.09161754	      0.00000000
      0.11832066	      0.77284837	    -10.12363318	      0.00000000
      0.11904213	      0.76417939	    -10.15260412	      0.00000000
      0.11976360	      0.74790713	    -10.17703866	      0.00000000
      0.12048506	      0.72145161	    -10.19479183	      0.00000000
      0.12120653	      0.68163923	    -10.20312806	      0.00000000
      0.12192800	      0.62462773	    -10.19844275	      0.00000000
      0.12264947	      0.54628603	    -10.17659793	      0.00000000
      0.12337093	      0.44256334	    -10.13294371	      0.00000000
      0.12409240	      0.31046343	    -10.06319552	      0.00000000
      0.12481387	      0.14912339	     -9.96419574	      0.00000000
      0.12553534	     -0.03892429	     -9.83524395	      0.00000000
      0.12625680	     -0.24717582	     -9.67896254	      0.00000000
      0.12697827	     -0.46643163	     -9.50072926	      0.00000000
      0.12769974	     -0.68894217	     -9.30565876	      0.00000000
      0.12842121	     -0.91573008	     -9.09188703	      0.00000000
      0.12914267	     -1.16249179	     -8.84399423	      0.00000000
      0.12986414	     -1.45872418	     -8.53160191	      0.00000000
      0.13058561	     -1.83435259	     -8.11989363	      0.00000000
      0.13130708	     -2.30222642	     -7.58693460	      0.00000000
      0.13202854	     -2.84980197	     -6.93426086	      0.00000000
      0.13275001	     -3.44328375	     -6.18632493	      0.00000000
      0.13347148	     -4.04376950	     -5.37745408	      0.00000000
      0.13419294	     -4.61555659	     -4.54314802	      0.00000000
      0.13491441	     -5.13614748	     -3.71023034	      0.00000000
      0.13563588	     -5.59400093	     -2.89651970	      0.00000000
      0.13635735	     -5.98747412	     -2.11104274	      0.00000000
      0.13707881	     -6.32082516	     -1.35644238	      0.00000000
      0.13780028	     -6.60289049	     -0.62994278	      0.00000000
      0.13852175	     -6.84641994	      0.07614264	      0.00000000
      0.13924322	     -7.06619619	      0.77311480	      0.00000000
      0.13996468	     -7.27042433	      1.46879237	      0.00000000
      0.14068615	     -7.46670231	      2.17317974	      0.00000000
      0.14140762	     -7.64676266	      2.87797823	      0.00000000
      0.14212909	     -7.11576472	      3.00447187	      0.00000000
      0.14285055	     -5.94737963	      2.68844125	      0.00000000
      0.14357202	     -6.42345032	      3.86532067	      0.00000000
      0.14429349	     -6.90205276	      5.13111388	      0.00000000
      0.14501496	     -7.23327274	      6.33488102	      0.00000000
      0.14573642	     -7.45409726	      7.43761887	      0.00000000
      0.14645789	     -7.65591432	      8.48494465	      0.00000000
      0.14717936	     -7.88415977	      9.51179823	      0.00000000
      0.14790083	     -8.12498506	     10.51185095	      0.00000000
      0.14862229	     -8.37201225	     11.47963371	      0.00000000
      0.14934376	     -8.61981413	     12.40839682	      0.00000000
      0.15006523	     -8.86253393	     13.29267338	      0.00000000
      0.15078670	     -9.09774918	     14.12805932	      0.00000000
      0.15150816	     -9.32074936	     14.91026540	      0.00000000
      0.15222963	     -9.52963438	     15.63595269	      0.00000000
      0.15295110	     -9.72099643	     16.30208799	      0.00000000
      0.15367257	     -9.89367521	     16.90647566	      0.00000000
      0.15439403	    -10.04561636	     17.44736128	      0.00000000
      0.15511550	    -10.17642236	     17.92372079	      0.00000000
      0.15583697	    -10.28519250	     18.33502479	      0.00000000
      0.15655844	    -10.37212172	     18.68133805	      0.00000000
      0.15727990	    -10.43715294	     18.96323045	      0.00000000
      0.15800137	    -10.48089040	     19.18171525	      0.00000000
      0.15872284	    -10.50383750	     19.33829121	      0.00000000
      0.15944431	    -10.50686920	     19.43475260	      0.00000000
      0.16016577	    -10.49084086	     19.47333803	      0.00000000
      0.16088724	    -10.45679567	     19.45644371	      0.00000000
      0.16160871	    -10.40579613	     19.38685578	      0.00000000
      0.16233018	    -10.33897599	     19.26739594	      0.00000000
      0.16305164	    -10.25750309	     19.10121332	      0.00000000
      0.16377311	    -10.16254128	     18.89139178	      0.00000000
      0.16449458	    -10.05529069	     18.64127660	      0.00000000
      0.16521604	     -9.93689778	     18.35407040	      0.00000000
      0.16593751	     -9.80854172	     18.03317163	      0.00000000
      0.16665898	     -9.67131347	     17.68178091	      0.00000000
      0.16738045	     -9.52633171	     17.30323249	      0.00000000
      0.16810191	     -9.37460576	     16.90063245	      0.00000000
      0.16882338	     -9.21716701	     16.47716327	      0.00000000
      0.16954485	     -9.05492613	     16.03577136	      0.00000000
      0.17026632	     -8.88881064	     15.57943371	      0.00000000
      0.17098778	     -8.71962237	     15.11088824	      0.00000000
      0.17170925	     -8.54817553	     14.63288160	      0.00000000
      0.17243072	     -8.37515744	     14.14787105	      0.00000000
      0.17315219	     -8.20126294	     13.65831762	      0.00000000
      0.17387365	     -8.02706302	     13.16626073	      0.00000000
      0.17459512	     -7.85313117	     12.67372775	      0.00000000
      0.17531659	     -7.67993104	     12.18222988	      0.00000000
      0.17603806	     -7.50792416	     11.69326572	      0.00000000
      0.17675952	     -7.33748004	     11.20790183	      0.00000000
      0.17748099	     -7.16895118	     10.72719766	      0.00000000
      0.17820246	     -7.00259711	     10.25195443	      0.00000000
      0.17892393	     -6.83872779	      9.78300108	      0.00000000
      0.17964539	     -6.67798482	      9.32144180	      0.00000000
      0.18036686	     -6.52133664	      8.86880199	      0.00000000
      0.18108833	     -6.36852918	      8.42547625	      0.00000000
      0.18180980	     -6.21883775	      7.99110128	      0.00000000
      0.18253126	     -6.07218296	      7.56585713	      0.00000000
      0.18325273	     -5.92870729	      7.15009978	      0.00000000
      0.18397420	     -5.78852325	      6.74414417	      0.00000000
      0.18469567	     -5.65171223	      6.34821985	      0.00000000
      0.18541713	     -5.51831927	      5.96248384	      0.00000000
      0.18613860	     -5.38837565	      5.58703422	      0.00000000
      0.18686007	     -5.26189074	      5.22190989	      0.00000000
      0.18758154	     -5.13886326	      4.86710223	      0.00000000
      0.18830300	     -5.01927721	      4.52255961	      0.00000000
      0.18902447	     -4.90310604	      4.18818799	      0.00000000
      0.18974594	     -4.79031319	      3.86386825	      0.00000000
      0.19046741	     -4.68085166	      3.54944249	      0.00000000
      0.19118887	     -4.57466819	      3.24474413	      0.00000000
      0.19191034	     -4.47169931	      2.94957078	      0.00000000
      0.19263181	     -4.37187828	      2.66372334	      0.00000000
      0.19335328	     -4.27512857	      2.38696975	      0.00000000
      0.19407474	     -4.18137301	      2.11908875	      0.00000000
      0.19479621	     -4.09052514	      1.85982920	      0.00000000
      0.19551768	     -4.00250036	      1.60895511	      0.00000000
      0.19623915	     -3.91720527	      1.36620394	      0.00000000
      0.19696061	     -3.83455086	      1.13133116	      0.00000000
      0.19768208	     -3.75443979	      0.90406892	      0.00000000
      0.19840355	     -3.67678194	      0.68417012	      0.00000000
      0.19912501	     -3.60147918	      0.47136728	      0.00000000
      0.19984648	     -3.52844248	      0.26541507	      0.00000000
      0.20056795	     -3.45757528	      0.06605067	      0.00000000
      0.20128942	     -3.38879298	     -0.12696398	      0.00000000
      0.20201088	     -3.32200366	     -0.31388214	      0.00000000
      0.20273235	     -3.25712754	     -0.49493283	      0.00000000
      0.20345382	     -3.19407813	     -0.67035782	      0.00000000
      0.20417529	     -3.13277979	     -0.84037686	      0.00000000
      0.20489675	     -3.07315108	     -1.00522010	      0.00000000
      0.20561822	     -3.01512762	     -1.16508912	      0.00000000
      0.20633969	     -2.95863849	     -1.32019537	      0.00000000
      0.20706116	     -2.90362085	     -1.47073278	      0.00000000
      0.20778262	     -2.85000773	     -1.61690186	      0.00000000
      0.20850409	     -2.79774461	     -1.75888108	      0.00000000
      0.20922556	     -2.74677217	     -1.89685544	      0.00000000
      0.20994703	     -2.69704600	     -2.03098574	      0.00000000
      0.21066849	     -2.64851681	     -2.16143887	      0.00000000
      0.21138996	     -2.60114651	     -2.28836168	      0.00000000
      0.21211143	     -2.55488564	     -2.41190336	      0.00000000
      0.21283290	     -2.50968675	     -2.53221167	      0.00000000
      0.21355436	     -2.46550448	     -2.64943601	      0.00000000
      0.21427583	     -2.42230242	     -2.76370951	      0.00000000
      0.21499730	     -2.38004131	     -2.87516850	      0.00000000
      0.21571877	     -2.33869178	     -2.98393237	      0.00000000
      0.21644023	     -2.29822175	     -3.09012354	      0.00000000
      0.21716170	     -2.25860291	     -3.19385478	      0.00000000
      0.21788317	     -2.21980586	     -3.29524021	      0.00000000
      0.21860464	     -2.18179847	     -3.39439174	      0.00000000
      0.21932610	     -2.14454902	     -3.49142109	      0.00000000
      0.22004757	     -2.10803081	     -3.58642943	      0.00000000
      0.22076904	     -2.07221616	     -3.67951916	      0.00000000
      0.22149051	     -2.03707784	     -3.77078737	      0.00000000
      0.22221197	     -2.00258886	     -3.86033120	      0.00000000
      0.22293344	     -1.96872226	     -3.94824320	      0.00000000
      0.22365491	     -1.93545209	     -4.03461613	      0.00000000
      0.22437638	     -1.90275340	     -4.11953663	      0.00000000
      0.22509784	     -1.87060122	     -4.20309116	      0.00000000
      0.22581931	     -1.83897126	     -4.28536150	      0.00000000
      0.22654078	     -1.80783984	     -4.36642907	      0.00000000
      0.22726225	     -1.77718427	     -4.44637040	      0.00000000
      0.22798371	     -1.74698246	     -4.52526159	      0.00000000
      0.22870518	     -1.71721345	     -4.60317390	      0.00000000
      0.22942665	     -1.68785697	     -4.68017805	      0.00000000
      0.23014811	     -1.65889380	     -4.75634017	      0.00000000
      0.23086958	     -1.63030550	     -4.83172571	      0.00000000
      0.23159105	     -1.60207498	     -4.90639541	      0.00000000
      0.23231252	     -1.57418593	     -4.98040927	      0.00000000
      0.23303398	     -1.54662373	     -5.05382242	      0.00000000
      0.23375545	     -1.51937448	     -5.12668925	      0.00000000
      0.23447692	     -1.49242597	     -5.19905938	      0.00000000
      0.23519839	     -1.46576675	     -5.27098162	      0.00000000
      0.23591985	     -1.43938734	     -5.34249987	      0.00000000
      0.23664132	     -1.41327896	     -5.41365718	      0.00000000
      0.23736279	     -1.38743449	     -5.48449211	      0.00000000
      0.23808426	     -1.36184756	     -5.55504222	      0.00000000
      0.23880572	     -1.33651350	     -5.62534063	      0.00000000
      0.23952719	     -1.31142832	     -5.69541943	      0.00000000
      0.24024866	     -1.28658918	     -5.76530682	      0.00000000
      0.24097013	     -1.26199397	     -5.83502982	      0.00000000
      0.24169159	     -1.23764256	     -5.90461082	      0.00000000
      0.24241306	     -1.21353529	     -5.97407114	      0.00000000
      0.24313453	     -1.18967429	     -6.04342767	      0.00000000
      0.24385600	     -1.16606206	     -6.11269625	      0.00000000
      0.24457746	     -1.14270310	     -6.18188814	      0.00000000
      0.24529893	     -1.11960211	     -6.25101364	      0.00000000
      0.24602040	     -1.09676506	     -6.32007913	      0.00000000
      0.24674187	     -1.07419812	     -6.38908990	      0.00000000
      0.24746333	     -1.05190928	     -6.45804689	      0.00000000
      0.24818480	     -1.02990645	     -6.52695011	      0.00000000
      0.24890627	     -1.00819900	     -6.59579555	      0.00000000
      0.24962774	     -0.98679609	     -6.66457829	      0.00000000
      0.25034920	     -0.96570866	     -6.73328916	      0.00000000
      0.25107067	     -0.94494723	     -6.80191830	      0.00000000
      0.25179214	     -0.92452368	     -6.87045197	      0.00000000
      0.25251361	     -0.90444937	     -6.93887578	      0.00000000
      0.25323507	     -0.88473705	     -7.00717161	      0.00000000
      0.25395654	     -0.86539877	     -7.07532081	      0.00000000
      0.25467801	     -0.84644754	     -7.14330156	      0.00000000
      0.25539948	     -0.82789557	     -7.21109152	      0.00000000
      0.25612094	     -0.80975585	     -7.27866557	      0.00000000
      0.25684241	     -0.79204044	     -7.34599818	      0.00000000
      0.25756388	     -0.77476194	     -7.41306145	      0.00000000
      0.25828535	     -0.75793197	     -7.47982723	      0.00000000
      0.25900681	     -0.74156233	     -7.54626545	      0.00000000
      0.25972828	     -0.72566384	     -7.61234587	      0.00000000
      0.26044975	     -0.71024716	     -7.67803685	      0.00000000
      0.26117122	     -0.69532471	     -7.74330758	      0.00000000
      0.26189268	     -0.68091013	     -7.80812697	      0.00000000
      0.26261415	     -0.66701183	     -7.87246240	      0.00000000
      0.26333562	     -0.65363739	     -7.93628079	      0.00000000
      0.26405708	     -0.64079346	     -7.99954905	      0.00000000
      0.26477855	     -0.62848576	     -8.06223406	      0.00000000
      0.26550002	     -0.61671902	     -8.12430277	      0.00000000
      0.26622149	     -0.60549694	     -8.18572236	      0.00000000
      0.26694295	     -0.59482195	     -8.24646001	      0.00000000
      0.26766442	     -0.58469557	     -8.30648346	      0.00000000
      0.26838589	     -0.57511858	     -8.36576066	      0.00000000
      0.26910736	     -0.56609043	     -8.42426033	      0.00000000
      0.26982882	     -0.55760977	     -8.48195141	      0.00000000
      0.27055029	     -0.54967398	     -8.53880373	      0.00000000
      0.27127176	     -0.54227968	     -8.59478737	      0.00000000
      0.27199323	     -0.53542236	     -8.64987337	      0.00000000
      0.27271469	     -0.52909673	     -8.70403317	      0.00000000
      0.27343616	     -0.52329643	     -8.75723917	      0.00000000
      0.27415763	     -0.51801442	     -8.80946432	      0.00000000
      0.27487910	     -0.51324261	     -8.86068261	      0.00000000
      0.27560056	     -0.50897227	     -8.91086867	      0.00000000
      0.27632203	     -0.50519375	     -8.95999822	      0.00000000
      0.27704350	     -0.50189677	     -9.00804776	      0.00000000
      0.27776497	     -0.49907027	     -9.05499488	      0.00000000
      0.27848643	     -0.49670266	     -9.10081810	      0.00000000
      0.27920790	     -0.49478161	     -9.14549702	      0.00000000
      0.27992937	     -0.49329507	     -9.18901173	      0.00000000
      0.28065084	     -0.49195777	     -9.23141907	      0.00000000
      0.28137230	     -0.49133318	     -9.27256091	      0.00000000
      0.28209377	     -0.49110029	     -9.31248604	      0.00000000
      0.28281524	     -0.49124496	     -9.35117943	      0.00000000
      0.28353671	     -0.49175358	     -9.38862621	      0.00000000
      0.28425817	     -0.49261103	     -9.42481345	      0.00000000
      0.28497964	     -0.49380227	     -9.45972832	      0.00000000
      0.28570111	     -0.49531206	     -9.49335834	      0.00000000
      0.28642258	     -0.49712490	     -9.52569046	      0.00000000
      0.28714404	     -0.49922560	     -9.55671018	      0.00000000
      0.28786551	     -0.50159849	     -9.58640083	      0.00000000
      0.28858698	     -0.50422881	     -9.61474103	      0.00000000
      0.28930845	     -0.50710093	     -9.64170432	      0.00000000
      0.29002991	     -0.51020090	     -9.66725429	      0.00000000
      0.29075138	     -0.51351312	     -9.69134503	      0.00000000
      0.29147285	     -0.51702451	     -9.71391361	      0.00000000
      0.29219432	     -0.52071938	     -9.73488234	      0.00000000
      0.29291578	     -0.52458482	     -9.75415053	      0.00000000
      0.29363725	     -0.52860457	     -9.77160051	      0.00000000
      0.29435872	     -0.53276369	     -9.78709488	      0.00000000
      0.29508019	     -0.53704409	     -9.80048954	      0.00000000
      0.29580165	     -0.54142469	     -9.81164636	      0.00000000
      0.29652312	     -0.54588317	     -9.82045369	      0.00000000
      0.29724459	     -0.55038822	     -9.82685776	      0.00000000
      0.29796605	     -0.55491209	     -9.83087799	      0.00000000
      0.29868752	     -0.55941519	     -9.83263775	      0.00000000
      0.29940899	     -0.56386797	     -9.83234967	      0.00000000
      0.30013046	     -0.56823393	     -9.83031427	      0.00000000
      0.30085192	     -0.57248954	     -9.82687279	      0.00000000
      0.30157339	     -0.57661356	     -9.82237555	      0.00000000
      0.30229486	     -0.58059291	     -9.81714138	      0.00000000
      0.30301633	     -0.58442262	     -9.81143053	      0.00000000
      0.30373779	     -0.58809746	     -9.80544067	      0.00000000
      0.30445926	     -0.59162045	     -9.79930033	      0.00000000
      0.30518073	     -0.59498933	     -9.79308944	      0.00000000
      0.30590220	     -0.59820743	     -9.78684324	      0.00000000
      0.30662366	     -0.60127272	     -9.78057387	      0.00000000
      0.30734513	     -0.60418602	     -9.77427471	      0.00000000
      0.30806660	     -0.60694506	     -9.76793302	      0.00000000
      0.30878807	     -0.60954861	     -9.76153236	      0.00000000
      0.30950953	     -0.61199449	     -9.75505733	      0.00000000
      0.31023100	     -0.61428061	     -9.74849475	      0.00000000
      0.31095247	     -0.61640513	     -9.74183405	      0.00000000
      0.31167394	     -0.61836602	     -9.73506804	      0.00000000
      0.31239540	     -0.62016192	     -9.72819166	      0.00000000
      0.31311687	     -0.62179121	     -9.72120257	      0.00000000
      0.31383834	     -0.62325308	     -9.71409971	      0.00000000
      0.31455981	     -0.62454652	     -9.70688384	      0.00000000
      0.31528127	     -0.62567116	     -9.69955628	      0.00000000
      0.31600274	     -0.62662655	     -9.69211947	      0.00000000
      0.31672421	     -0.62741272	     -9.68457605	      0.00000000
      0.31744568	     -0.62802967	     -9.67692935	      0.00000000
      0.31816714	     -0.62847786	     -9.66918270	      0.00000000
      0.31888861	     -0.62875769	     -9.66133991	      0.00000000
      0.31961008	     -0.62887002	     -9.65340473	      0.00000000
      0.32033155	     -0.62881566	     -9.64538128	      0.00000000
      0.32105301	     -0.62859579	     -9.63727355	      0.00000000
      0.32177448	     -0.62821159	     -9.62908590	      0.00000000
      0.32249595	     -0.62766455	     -9.62082253	      0.00000000
      0.32321742	     -0.62695617	     -9.61248796	      0.00000000
      0.32393888	     -0.62608831	     -9.60408656	      0.00000000
      0.32466035	     -0.62506281	     -9.59562302	      0.00000000
      0.32538182	     -0.62388183	     -9.58710187	      0.00000000
      0.32610329	     -0.62254750	     -9.57852799	      0.00000000
      0.32682475	     -0.62106226	     -9.56990607	      0.00000000
      0.32754622	     -0.61942852	     -9.56124114	      0.00000000
      0.32826769	     -0.61764894	     -9.55253810	      0.00000000
      0.32898915	     -0.61572615	     -9.54380217	      0.00000000
      0.32971062	     -0.61366299	     -9.53503842	      0.00000000
      0.33043209	     -0.61146225	     -9.52625227	      0.00000000
      0.33115356	     -0.60912690	     -9.51744901	      0.00000000
      0.33187502	     -0.60665985	     -9.50863429	      0.00000000
      0.33259649	     -0.60406411	     -9.49981359	      0.00000000
      0.33331796	     -0.60134264	     -9.49099282	      0.00000000
      0.33403943	     -0.59849848	     -9.48217773	      0.00000000
      0.33476089	     -0.59553457	     -9.47337446	      0.00000000
      0.33548236	     -0.59245391	     -9.46458907	      0.00000000
      0.33620383	     -0.58925935	     -9.45582800	      0.00000000
      0.33692530	     -0.58595386	     -9.44709763	      0.00000000
      0.33764676	     -0.58254018	     -9.43840476	      0.00000000
      0.33836823	     -0.57902125	     -9.42975615	      0.00000000
      0.33908970	     -0.57539974	     -9.42115899	      0.00000000
      0.33981117	     -0.57167859	     -9.41262047	      0.00000000
      0.34053263	     -0.56786039	     -9.40414824	      0.00000000
      0.34125410	     -0.56394820	     -9.39574999	      0.00000000
      0.34197557	     -0.55994459	     -9.38743389	      0.00000000
      0.34269704	     -0.55585276	     -9.37920815	      0.00000000
      0.34341850	     -0.55167536	     -9.37108151	      0.00000000
      0.34413997	     -0.54741588	     -9.36306277	      0.00000000
      0.34486144	     -0.54307716	     -9.35516128	      0.00000000
      0.34558291	     -0.53866311	     -9.34738643	      0.00000000
      0.34630437	     -0.53417689	     -9.33974823	      0.00000000
      0.34702584	     -0.52962293	     -9.33225666	      0.00000000
      0.34774731	     -0.52500478	     -9.32492238	      0.00000000
      0.34846878	     -0.52032747	     -9.31775598	      0.00000000
      0.34919024	     -0.51559501	     -9.31076871	      0.00000000
      0.34991171	     -0.51081314	     -9.30397172	      0.00000000
      0.35063318	     -0.50598650	     -9.29737684	      0.00000000
      0.35135465	     -0.50112155	     -9.29099567	      0.00000000
      0.35207611	     -0.49622356	     -9.28484055	      0.00000000
      0.35279758	     -0.49129967	     -9.27892347	      0.00000000
      0.35351905	     -0.48635577	     -9.27325716	      0.00000000
      0.35424052	     -0.48139953	     -9.26785386	      0.00000000
      0.35496198	     -0.47643742	     -9.26272651	      0.00000000
      0.35568345	     -0.47147819	     -9.25788768	      0.00000000
      0.35640492	     -0.46653435	     -9.25335217	      0.00000000
      0.35712639	     -0.46161611	     -9.24913331	      0.00000000
      0.35784785	     -0.45673109	     -9.24524472	      0.00000000
      0.35856932	     -0.45188868	     -9.24169888	      0.00000000
      0.35929079	     -0.44709698	     -9.23850921	      0.00000000
      0.36001226	     -0.44236530	     -9.23568783	      0.00000000
      0.36073372	     -0.43770158	     -9.23324782	      0.00000000
      0.36145519	     -0.43311468	     -9.23120085	      0.00000000
      0.36217666	     -0.42861211	     -9.22955956	      0.00000000
      0.36289812	     -0.42420188	     -9.22833515	      0.00000000
      0.36361959	     -0.41989068	     -9.22753974	      0.00000000
      0.36434106	     -0.41568519	     -9.22718406	      0.00000000
      0.36506253	     -0.41159080	     -9.22727975	      0.00000000
      0.36578399	     -0.40761247	     -9.22783714	      0.00000000
      0.36650546	     -0.40375385	     -9.22886741	      0.00000000
      0.36722693	     -0.40001759	     -9.23038061	      0.00000000
      0.36794840	     -0.39640506	     -9.23238763	      0.00000000
      0.36866986	     -0.39291594	     -9.23489842	      0.00000000
      0.36939133	     -0.38954867	     -9.23792374	      0.00000000
      0.37011280	     -0.38629943	     -9.24147364	      0.00000000
      0.37083427	     -0.38316314	     -9.24555897	      0.00000000
      0.37155573	     -0.38013206	     -9.25019006	      0.00000000
      0.37227720	     -0.37719712	     -9.25537807	      0.00000000
      0.37299867	     -0.37434637	     -9.26113377	      0.00000000
      0.37372014	     -0.37156641	     -9.26746877	      0.00000000
      0.37444160	     -0.36884098	     -9.27439438	      0.00000000
      0.37516307	     -0.36615226	     -9.28192279	      0.00000000
      0.37588454	     -0.36347973	     -9.29006583	      0.00000000
      0.37660601	     -0.36080121	     -9.29883625	      0.00000000
      0.37732747	     -0.35809217	     -9.30824629	      0.00000000
      0.37804894	     -0.35532630	     -9.31830917	      0.00000000
      0.37877041	     -0.35247529	     -9.32903736	      0.00000000
      0.37949188	     -0.34950899	     -9.34044442	      0.00000000
      0.38021334	     -0.34639565	     -9.35254280	      0.00000000
      0.38093481	     -0.34310167	     -9.36534615	      0.00000000
      0.38165628	     -0.33959231	     -9.37886665	      0.00000000
      0.38237775	     -0.33583104	     -9.39311771	      0.00000000
      0.38309921	     -0.33178037	     -9.40811109	      0.00000000
      0.38382068	     -0.32740115	     -9.42385972	      0.00000000
      0.38454215	     -0.32265350	     -9.44037472	      0.00000000
      0.38526362	     -0.31749604	     -9.45766837	      0.00000000
      0.38598508	     -0.31188710	     -9.47575083	      0.00000000
      0.38670655	     -0.30578371	     -9.49463339	      0.00000000
      0.38742802	     -0.29914310	     -9.51432496	      0.00000000
      0.38814949	     -0.29192145	     -9.53483551	      0.00000000
      0.38887095	     -0.28407541	     -9.55617247	      0.00000000
      0.38959242	     -0.27556095	     -9.57834418	      0.00000000
      0.39031389	     -0.26633518	     -9.60135615	      0.00000000
      0.39103536	     -0.25635486	     -9.62521457	      0.00000000
      0.39175682	     -0.24557872	     -9.64992248	      0.00000000
      0.39247829	     -0.23396556	     -9.67548330	      0.00000000
      0.39319976	     -0.22147680	     -9.70189713	      0.00000000
      0.39392123	     -0.20807472	     -9.72916418	      0.00000000
      0.39464269	     -0.19372444	     -9.75728120	      0.00000000
      0.39536416	     -0.17839230	     -9.78624426	      0.00000000
      0.39608563	     -0.16204787	     -9.81604617	      0.00000000
      0.39680709	     -0.14466276	     -9.84667845	      0.00000000
      0.39752856	     -0.12621188	     -9.87812954	      0.00000000
      0.39825003	     -0.10667301	     -9.91038592	      0.00000000
      0.39897150	     -0.08602722	     -9.94343112	      0.00000000
      0.39969296	     -0.06425939	     -9.97724610	      0.00000000
      0.40041443	     -0.04135783	    -10.01180870	      0.00000000
      0.40113590	     -0.01731537	    -10.04709385	      0.00000000
      0.40185737	      0.00787092	    -10.08307258	      0.00000000
      0.40257883	      0.03419979	    -10.11971379	      0.00000000
      0.40330030	      0.06172582	    -10.15695244	      0.00000000
      0.40402177	      0.09049473	    -10.19471846	      0.00000000
      0.40474324	      0.12048722	    -10.23295628	      0.00000000
      0.40546470	      0.15167927	    -10.27160961	      0.00000000
      0.40618617	      0.18403833	    -10.31061434	      0.00000000
      0.40690764	      0.21752546	    -10.34990515	      0.00000000
      0.40762911	      0.25209105	    -10.38940693	      0.00000000
      0.40835057	      0.28767882	    -10.42904456	      0.00000000
      0.40907204	      0.32422134	    -10.46873290	      0.00000000
      0.40979351	      0.36164490	    -10.50838862	      0.00000000
      0.41051498	      0.39987063	    -10.54792374	      0.00000000
      0.41123644	      0.43881537	    -10.58725483	      0.00000000
      0.41195791	      0.47839500	    -10.62629771	      0.00000000
      0.41267938	      0.51852610	    -10.66497762	      0.00000000
      0.41340085	      0.55911331	    -10.70320976	      0.00000000
      0.41412231	      0.60007268	    -10.74092911	      0.00000000
      0.41484378	      0.64126889	    -10.77802686	      0.00000000
      0.41556525	      0.68259584	    -10.81443305	      0.00000000
      0.41628672	      0.72381790	    -10.84996764	      0.00000000
      0.41700818	      0.76473257	    -10.88450329	      0.00000000
      0.41772965	      0.80493868	    -10.91774232	      0.00000000
      0.41845112	      0.84400681	    -10.94940828	      0.00000000
      0.41917259	      0.88144226	    -10.97915072	      0.00000000
      0.41989405	      0.91667626	    -11.00661401	      0.00000000
      0.42061552	      0.94944539	    -11.03165412	      0.00000000
      0.42133699	      0.97941696	    -11.05410942	      0.00000000
      0.42205846	      1.00678386	    -11.07421111	      0.00000000
      0.42277992	      1.03158811	    -11.09209193	      0.00000000
      0.42350139	      1.05438166	    -11.10824826	      0.00000000
      0.42422286	      1.07551034	    -11.12306323	      0.00000000
      0.42494433	      1.09598074	    -11.13726005	      0.00000000
      0.42566579	      1.11628060	    -11.15144582	      0.00000000
      0.42638726	      1.13852551	    -11.16669075	      0.00000000
      0.42710873	      1.16207367	    -11.18334666	      0.00000000
      0.42783019	      1.19655668	    -11.20514416	      0.00000000
      0.42855166	      1.25904556	    -11.24057425	      0.00000000
      0.42927313	      1.36459432	    -11.30005852	      0.00000000
      0.42999460	      1.45597086	    -11.35280382	      0.00000000
      0.43071606	      1.44694439	    -11.34127528	      0.00000000
      0.43143753	      1.44446868	    -11.33040814	      0.00000000
      0.43215900	      1.44800436	    -11.32172370	      0.00000000
      0.43288047	      1.45221724	    -11.31282686	      0.00000000
