PointPosition
version=1
nRows=601
nColumns=4
inDegrees=no
No description.
endheader
time	state_0	state_1	state_2
      0.00000000	     -0.06810869	      1.08463845	      0.00000000
      0.00072147	     -0.06730571	      1.08476297	      0.00000000
      0.00144293	     -0.06650104	      1.08488158	      0.00000000
      0.00216440	     -0.06569471	      1.08499429	      0.00000000
      0.00288587	     -0.06488672	      1.08510110	      0.00000000
      0.00360734	     -0.06407711	      1.08520206	      0.00000000
      0.00432880	     -0.06326589	      1.08529721	      0.00000000
      0.00505027	     -0.06245307	      1.08538660	      0.00000000
      0.00577174	     -0.06163866	      1.08547029	      0.00000000
      0.00649321	     -0.06082267	      1.08554832	      0.00000000
      0.00721467	     -0.06000508	      1.08562073	      0.00000000
      0.00793614	     -0.05918589	      1.08568754	      0.00000000
      0.00865761	     -0.05836510	      1.08574877	      0.00000000
      0.00937908	     -0.05754269	      1.08580444	      0.00000000
      0.01010054	     -0.05671863	      1.08585456	      0.00000000
      0.01082201	     -0.05589292	      1.08589914	      0.00000000
      0.01154348	     -0.05506553	      1.08593816	      0.00000000
      0.01226495	     -0.05423643	      1.08597165	      0.00000000
      0.01298641	     -0.05340561	      1.08599958	      0.00000000
      0.01370788	     -0.05257303	      1.08602196	      0.00000000
      0.01442935	     -0.05173869	      1.08603879	      0.00000000
      0.01515082	     -0.05090257	      1.08605006	      0.00000000
      0.01587228	     -0.05006467	      1.08605577	      0.00000000
      0.01659375	     -0.04922500	      1.08605593	      0.00000000
      0.01731522	     -0.04838362	      1.08605056	      0.00000000
      0.01803669	     -0.04754062	      1.08603970	      0.00000000
      0.01875815	     -0.04669612	      1.08602342	      0.00000000
      0.01947962	     -0.04585030	      1.08600180	      0.00000000
      0.02020109	     -0.04500355	      1.08597506	      0.00000000
      0.02092256	     -0.04415652	      1.08594354	      0.00000000
      0.02164402	     -0.04331011	      1.08590775	      0.00000000
      0.02236549	     -0.04246500	      1.08586815	      0.00000000
      0.02308696	     -0.04162128	      1.08582490	      0.00000000
      0.02380843	     -0.04077906	      1.08577827	      0.00000000
      0.02452989	     -0.03993863	      1.08572887	      0.00000000
      0.02525136	     -0.03910010	      1.08567725	      0.00000000
      0.02597283	     -0.03826324	      1.08562385	      0.00000000
      0.02669430	     -0.03742767	      1.08556907	      0.00000000
      0.02741576	     -0.03659285	      1.08551320	      0.00000000
      0.02813723	     -0.03575820	      1.08545649	      0.00000000
      0.02885870	     -0.03492309	      1.08539908	      0.00000000
      0.02958017	     -0.03408694	      1.08534111	      0.00000000
      0.03030163	     -0.03324919	      1.08528264	      0.00000000
      0.03102310	     -0.03240937	      1.08522374	      0.00000000
      0.03174457	     -0.03156708	      1.08516442	      0.00000000
      0.03246604	     -0.03072195	      1.08510468	      0.00000000
      0.03318750	     -0.02987372	      1.08504453	      0.00000000
      0.03390897	     -0.02902215	      1.08498394	      0.00000000
      0.03463044	     -0.02816707	      1.08492290	      0.00000000
      0.03535190	     -0.02730832	      1.08486138	      0.00000000
      0.03607337	     -0.02644580	      1.08479936	      0.00000000
      0.03679484	     -0.02557943	      1.08473682	      0.00000000
      0.03751631	     -0.02470916	      1.08467372	      0.00000000
      0.03823777	     -0.02383493	      1.08461003	      0.00000000
      0.03895924	     -0.02295673	      1.08454574	      0.00000000
      0.03968071	     -0.02207454	      1.08448082	      0.00000000
      0.04040218	     -0.02118836	      1.08441524	      0.00000000
      0.04112364	     -0.02029818	      1.08434897	      0.00000000
      0.04184511	     -0.01940401	      1.08428200	      0.00000000
      0.04256658	     -0.01850586	      1.08421429	      0.00000000
      0.04328805	     -0.01760375	      1.08414582	      0.00000000
      0.04400951	     -0.01669769	      1.08407657	      0.00000000
      0.04473098	     -0.01578770	      1.08400652	      0.00000000
      0.04545245	     -0.01487380	      1.08393564	      0.00000000
      0.04617392	     -0.01395601	      1.08386391	      0.00000000
      0.04689538	     -0.01303435	      1.08379130	      0.00000000
      0.04761685	     -0.01210883	      1.08371779	      0.00000000
      0.04833832	     -0.01117947	      1.08364336	      0.00000000
      0.04905979	     -0.01024631	      1.08356797	      0.00000000
      0.04978125	     -0.00930935	      1.08349161	      0.00000000
      0.05050272	     -0.00836863	      1.08341422	      0.00000000
      0.05122419	     -0.00742416	      1.08333580	      0.00000000
      0.05194566	     -0.00647598	      1.08325628	      0.00000000
      0.05266712	     -0.00552410	      1.08317565	      0.00000000
      0.05338859	     -0.00456857	      1.08309385	      0.00000000
      0.05411006	     -0.00360940	      1.08301085	      0.00000000
      0.05483153	     -0.00264663	      1.08292659	      0.00000000
      0.05555299	     -0.00168030	      1.08284103	      0.00000000
      0.05627446	     -0.00071044	      1.08275412	      0.00000000
      0.05699593	      0.00026293	      1.08266581	      0.00000000
      0.05771740	      0.00123975	      1.08257603	      0.00000000
      0.05843886	      0.00222000	      1.08248474	      0.00000000
      0.05916033	      0.00320363	      1.08239186	      0.00000000
      0.05988180	      0.00419060	      1.08229735	      0.00000000
      0.06060327	      0.00518088	      1.08220113	      0.00000000
      0.06132473	      0.00617442	      1.08210315	      0.00000000
      0.06204620	      0.00717118	      1.08200333	      0.00000000
      0.06276767	      0.00817110	      1.08190160	      0.00000000
      0.06348914	      0.00917416	      1.08179789	      0.00000000
      0.06421060	      0.01018029	      1.08169214	      0.00000000
      0.06493207	      0.01118946	      1.08158426	      0.00000000
      0.06565354	      0.01220161	      1.08147418	      0.00000000
      0.06637500	      0.01321669	      1.08136183	      0.00000000
      0.06709647	      0.01423466	      1.08124712	      0.00000000
      0.06781794	      0.01525547	      1.08112998	      0.00000000
      0.06853941	      0.01627905	      1.08101033	      0.00000000
      0.06926087	      0.01730537	      1.08088808	      0.00000000
      0.06998234	      0.01833436	      1.08076316	      0.00000000
      0.07070381	      0.01936598	      1.08063549	      0.00000000
      0.07142528	      0.02040017	      1.08050498	      0.00000000
      0.07214674	      0.02143687	      1.08037156	      0.00000000
      0.07286821	      0.02247605	      1.08023514	      0.00000000
      0.07358968	      0.02351763	      1.08009564	      0.00000000
      0.07431115	      0.02456158	      1.07995299	      0.00000000
      0.07503261	      0.02560784	      1.07980710	      0.00000000
      0.07575408	      0.02665635	      1.07965790	      0.00000000
      0.07647555	      0.02770706	      1.07950531	      0.00000000
      0.07719702	      0.02875994	      1.07934926	      0.00000000
      0.07791848	      0.02981492	      1.07918967	      0.00000000
      0.07863995	      0.03087196	      1.07902648	      0.00000000
      0.07936142	      0.03193102	      1.07885962	      0.00000000
      0.08008289	      0.03299204	      1.07868902	      0.00000000
      0.08080435	      0.03405499	      1.07851462	      0.00000000
      0.08152582	      0.03511981	      1.07833635	      0.00000000
      0.08224729	      0.03618647	      1.07815415	      0.00000000
      0.08296876	      0.03725493	      1.07796797	      0.00000000
      0.08369022	      0.03832515	      1.07777776	      0.00000000
      0.08441169	      0.03939708	      1.07758345	      0.00000000
      0.08513316	      0.04047070	      1.07738501	      0.00000000
      0.08585463	      0.04154596	      1.07718238	      0.00000000
      0.08657609	      0.04262283	      1.07697552	      0.00000000
      0.08729756	      0.04370128	      1.07676439	      0.00000000
      0.08801903	      0.04478127	      1.07654894	      0.00000000
      0.08874050	      0.04586278	      1.07632914	      0.00000000
      0.08946196	      0.04694577	      1.07610495	      0.00000000
      0.09018343	      0.04803023	      1.07587635	      0.00000000
      0.09090490	      0.04911611	      1.07564329	      0.00000000
      0.09162637	      0.05020339	      1.07540575	      0.00000000
      0.09234783	      0.05129206	      1.07516371	      0.00000000
      0.09306930	      0.05238209	      1.07491713	      0.00000000
      0.09379077	      0.05347345	      1.07466600	      0.00000000
      0.09451224	      0.05456612	      1.07441030	      0.00000000
      0.09523370	      0.05566009	      1.07415000	      0.00000000
      0.09595517	      0.05675533	      1.07388508	      0.00000000
      0.09667664	      0.05785183	      1.07361554	      0.00000000
      0.09739811	      0.05894957	      1.07334135	      0.00000000
      0.09811957	      0.06004853	      1.07306251	      0.00000000
      0.09884104	      0.06114871	      1.07277898	      0.00000000
      0.09956251	      0.06225007	      1.07249078	      0.00000000
      0.10028397	      0.06335262	      1.07219787	      0.00000000
      0.10100544	      0.06445634	      1.07190025	      0.00000000
      0.10172691	      0.06556121	      1.07159791	      0.00000000
      0.10244838	      0.06666722	      1.07129083	      0.00000000
      0.10316984	      0.06777436	      1.07097901	      0.00000000
      0.10389131	      0.06888262	      1.07066242	      0.00000000
      0.10461278	      0.06999198	      1.07034107	      0.00000000
      0.10533425	      0.07110243	      1.07001492	      0.00000000
      0.10605571	      0.07221396	      1.06968398	      0.00000000
      0.10677718	      0.07332655	      1.06934822	      0.00000000
      0.10749865	      0.07444018	      1.06900764	      0.00000000
      0.10822012	      0.07555484	      1.06866221	      0.00000000
      0.10894158	      0.07667052	      1.06831194	      0.00000000
      0.10966305	      0.07778718	      1.06795679	      0.00000000
      0.11038452	      0.07890482	      1.06759676	      0.00000000
      0.11110599	      0.08002341	      1.06723184	      0.00000000
      0.11182745	      0.08114293	      1.06686200	      0.00000000
      0.11254892	      0.08226334	      1.06648724	      0.00000000
      0.11327039	      0.08338464	      1.06610754	      0.00000000
      0.11399186	      0.08450680	      1.06572289	      0.00000000
      0.11471332	      0.08562979	      1.06533328	      0.00000000
      0.11543479	      0.08675359	      1.06493868	      0.00000000
      0.11615626	      0.08787817	      1.06453910	      0.00000000
      0.11687773	      0.08900351	      1.06413450	      0.00000000
      0.11759919	      0.09012959	      1.06372489	      0.00000000
      0.11832066	      0.09125638	      1.06331025	      0.00000000
      0.11904213	      0.09238386	      1.06289059	      0.00000000
      0.11976360	      0.09351200	      1.06246588	      0.00000000
      0.12048506	      0.09464076	      1.06203614	      0.00000000
      0.12120653	      0.09577012	      1.06160137	      0.00000000
      0.12192800	      0.09690005	      1.06116158	      0.00000000
      0.12264947	      0.09803048	      1.06071678	      0.00000000
      0.12337093	      0.09916139	      1.06026698	      0.00000000
      0.12409240	      0.10029269	      1.05981223	      0.00000000
      0.12481387	      0.10142433	      1.05935256	      0.00000000
      0.12553534	      0.10255621	      1.05888801	      0.00000000
      0.12625680	      0.10368825	      1.05841866	      0.00000000
      0.12697827	      0.10482035	      1.05794456	      0.00000000
      0.12769974	      0.10595240	      1.05746579	      0.00000000
      0.12842121	      0.10708432	      1.05698245	      0.00000000
      0.12914267	      0.10821599	      1.05649461	      0.00000000
      0.12986414	      0.10934730	      1.05600241	      0.00000000
      0.13058561	      0.11047813	      1.05550597	      0.00000000
      0.13130708	      0.11160829	      1.05500550	      0.00000000
      0.13202854	      0.11273759	      1.05450123	      0.00000000
      0.13275001	      0.11386577	      1.05399349	      0.00000000
      0.13347148	      0.11499258	      1.05348260	      0.00000000
      0.13419294	      0.11611775	      1.05296894	      0.00000000
      0.13491441	      0.11724107	      1.05245288	      0.00000000
      0.13563588	      0.11836234	      1.05193478	      0.00000000
      0.13635735	      0.11948140	      1.05141501	      0.00000000
      0.13707881	      0.12059813	      1.05089390	      0.00000000
      0.13780028	      0.12171244	      1.05037177	      0.00000000
      0.13852175	      0.12282427	      1.04984893	      0.00000000
      0.13924322	      0.12393355	      1.04932567	      0.00000000
      0.13996468	      0.12504025	      1.04880231	      0.00000000
      0.14068615	      0.12614433	      1.04827913	      0.00000000
      0.14140762	      0.12724576	      1.04775647	      0.00000000
      0.14212909	      0.12834455	      1.04723468	      0.00000000
      0.14285055	      0.12944104	      1.04671385	      0.00000000
      0.14357202	      0.13053567	      1.04619408	      0.00000000
      0.14429349	      0.13162834	      1.04567607	      0.00000000
      0.14501496	      0.13271878	      1.04516074	      0.00000000
      0.14573642	      0.13380683	      1.04464906	      0.00000000
      0.14645789	      0.13489236	      1.04414195	      0.00000000
      0.14717936	      0.13597530	      1.04364020	      0.00000000
      0.14790083	      0.13705554	      1.04314453	      0.00000000
      0.14862229	      0.13813300	      1.04265557	      0.00000000
      0.14934376	      0.13920757	      1.04217390	      0.00000000
      0.15006523	      0.14027917	      1.04170006	      0.00000000
      0.15078670	      0.14134772	      1.04123455	      0.00000000
      0.15150816	      0.14241312	      1.04077783	      0.00000000
      0.15222963	      0.14347530	      1.04033034	      0.00000000
      0.15295110	      0.14453419	      1.03989245	      0.00000000
      0.15367257	      0.14558974	      1.03946454	      0.00000000
      0.15439403	      0.14664189	      1.03904693	      0.00000000
      0.15511550	      0.14769061	      1.03863990	      0.00000000
      0.15583697	      0.14873585	      1.03824371	      0.00000000
      0.15655844	      0.14977761	      1.03785859	      0.00000000
      0.15727990	      0.15081587	      1.03748470	      0.00000000
      0.15800137	      0.15185062	      1.03712221	      0.00000000
      0.15872284	      0.15288188	      1.03677122	      0.00000000
      0.15944431	      0.15390966	      1.03643182	      0.00000000
      0.16016577	      0.15493399	      1.03610405	      0.00000000
      0.16088724	      0.15595489	      1.03578795	      0.00000000
      0.16160871	      0.15697240	      1.03548348	      0.00000000
      0.16233018	      0.15798658	      1.03519063	      0.00000000
      0.16305164	      0.15899746	      1.03490931	      0.00000000
      0.16377311	      0.16000511	      1.03463944	      0.00000000
      0.16449458	      0.16100959	      1.03438090	      0.00000000
      0.16521604	      0.16201096	      1.03413356	      0.00000000
      0.16593751	      0.16300929	      1.03389726	      0.00000000
      0.16665898	      0.16400464	      1.03367182	      0.00000000
      0.16738045	      0.16499710	      1.03345706	      0.00000000
      0.16810191	      0.16598674	      1.03325277	      0.00000000
      0.16882338	      0.16697362	      1.03305872	      0.00000000
      0.16954485	      0.16795784	      1.03287469	      0.00000000
      0.17026632	      0.16893946	      1.03270045	      0.00000000
      0.17098778	      0.16991855	      1.03253572	      0.00000000
      0.17170925	      0.17089520	      1.03238027	      0.00000000
      0.17243072	      0.17186947	      1.03223382	      0.00000000
      0.17315219	      0.17284143	      1.03209609	      0.00000000
      0.17387365	      0.17381114	      1.03196682	      0.00000000
      0.17459512	      0.17477868	      1.03184572	      0.00000000
      0.17531659	      0.17574409	      1.03173251	      0.00000000
      0.17603806	      0.17670745	      1.03162692	      0.00000000
      0.17675952	      0.17766880	      1.03152866	      0.00000000
      0.17748099	      0.17862822	      1.03143747	      0.00000000
      0.17820246	      0.17958575	      1.03135309	      0.00000000
      0.17892393	      0.18054146	      1.03127525	      0.00000000
      0.17964539	      0.18149540	      1.03120371	      0.00000000
      0.18036686	      0.18244763	      1.03113824	      0.00000000
      0.18108833	      0.18339821	      1.03107859	      0.00000000
      0.18180980	      0.18434719	      1.03102454	      0.00000000
      0.18253126	      0.18529462	      1.03097588	      0.00000000
      0.18325273	      0.18624056	      1.03093238	      0.00000000
      0.18397420	      0.18718505	      1.03089384	      0.00000000
      0.18469567	      0.18812813	      1.03086006	      0.00000000
      0.18541713	      0.18906985	      1.03083084	      0.00000000
      0.18613860	      0.19001026	      1.03080600	      0.00000000
      0.18686007	      0.19094940	      1.03078534	      0.00000000
      0.18758154	      0.19188729	      1.03076870	      0.00000000
      0.18830300	      0.19282398	      1.03075590	      0.00000000
      0.18902447	      0.19375950	      1.03074677	      0.00000000
      0.18974594	      0.19469389	      1.03074116	      0.00000000
      0.19046741	      0.19562717	      1.03073892	      0.00000000
      0.19118887	      0.19655937	      1.03073990	      0.00000000
      0.19191034	      0.19749052	      1.03074396	      0.00000000
      0.19263181	      0.19842064	      1.03075096	      0.00000000
      0.19335328	      0.19934976	      1.03076078	      0.00000000
      0.19407474	      0.20027790	      1.03077329	      0.00000000
      0.19479621	      0.20120507	      1.03078837	      0.00000000
      0.19551768	      0.20213129	      1.03080591	      0.00000000
      0.19623915	      0.20305658	      1.03082580	      0.00000000
      0.19696061	      0.20398095	      1.03084794	      0.00000000
      0.19768208	      0.20490442	      1.03087223	      0.00000000
      0.19840355	      0.20582699	      1.03089857	      0.00000000
      0.19912501	      0.20674868	      1.03092688	      0.00000000
      0.19984648	      0.20766948	      1.03095706	      0.00000000
      0.20056795	      0.20858942	      1.03098904	      0.00000000
      0.20128942	      0.20950848	      1.03102273	      0.00000000
      0.20201088	      0.21042669	      1.03105806	      0.00000000
      0.20273235	      0.21134403	      1.03109495	      0.00000000
      0.20345382	      0.21226051	      1.03113335	      0.00000000
      0.20417529	      0.21317614	      1.03117318	      0.00000000
      0.20489675	      0.21409091	      1.03121438	      0.00000000
      0.20561822	      0.21500482	      1.03125690	      0.00000000
      0.20633969	      0.21591788	      1.03130067	      0.00000000
      0.20706116	      0.21683008	      1.03134565	      0.00000000
      0.20778262	      0.21774141	      1.03139178	      0.00000000
      0.20850409	      0.21865189	      1.03143901	      0.00000000
      0.20922556	      0.21956149	      1.03148731	      0.00000000
      0.20994703	      0.22047024	      1.03153662	      0.00000000
      0.21066849	      0.22137811	      1.03158691	      0.00000000
      0.21138996	      0.22228512	      1.03163814	      0.00000000
      0.21211143	      0.22319126	      1.03169027	      0.00000000
      0.21283290	      0.22409652	      1.03174327	      0.00000000
      0.21355436	      0.22500091	      1.03179711	      0.00000000
      0.21427583	      0.22590443	      1.03185175	      0.00000000
      0.21499730	      0.22680707	      1.03190718	      0.00000000
      0.21571877	      0.22770883	      1.03196336	      0.00000000
      0.21644023	      0.22860972	      1.03202028	      0.00000000
      0.21716170	      0.22950974	      1.03207790	      0.00000000
      0.21788317	      0.23040888	      1.03213621	      0.00000000
      0.21860464	      0.23130715	      1.03219520	      0.00000000
      0.21932610	      0.23220454	      1.03225484	      0.00000000
      0.22004757	      0.23310107	      1.03231512	      0.00000000
      0.22076904	      0.23399673	      1.03237603	      0.00000000
      0.22149051	      0.23489152	      1.03243755	      0.00000000
      0.22221197	      0.23578545	      1.03249967	      0.00000000
      0.22293344	      0.23667852	      1.03256238	      0.00000000
      0.22365491	      0.23757074	      1.03262568	      0.00000000
      0.22437638	      0.23846210	      1.03268956	      0.00000000
      0.22509784	      0.23935261	      1.03275400	      0.00000000
      0.22581931	      0.24024227	      1.03281901	      0.00000000
      0.22654078	      0.24113108	      1.03288458	      0.00000000
      0.22726225	      0.24201906	      1.03295070	      0.00000000
      0.22798371	      0.24290620	      1.03301738	      0.00000000
      0.22870518	      0.24379250	      1.03308461	      0.00000000
      0.22942665	      0.24467797	      1.03315239	      0.00000000
      0.23014811	      0.24556261	      1.03322072	      0.00000000
      0.23086958	      0.24644643	      1.03328960	      0.00000000
      0.23159105	      0.24732942	      1.03335902	      0.00000000
      0.23231252	      0.24821159	      1.03342900	      0.00000000
      0.23303398	      0.24909294	      1.03349953	      0.00000000
      0.23375545	      0.24997348	      1.03357061	      0.00000000
      0.23447692	      0.25085320	      1.03364225	      0.00000000
      0.23519839	      0.25173210	      1.03371444	      0.00000000
      0.23591985	      0.25261020	      1.03378720	      0.00000000
      0.23664132	      0.25348748	      1.03386051	      0.00000000
      0.23736279	      0.25436395	      1.03393440	      0.00000000
      0.23808426	      0.25523961	      1.03400885	      0.00000000
      0.23880572	      0.25611446	      1.03408388	      0.00000000
      0.23952719	      0.25698850	      1.03415948	      0.00000000
      0.24024866	      0.25786172	      1.03423566	      0.00000000
      0.24097013	      0.25873414	      1.03431242	      0.00000000
      0.24169159	      0.25960573	      1.03438977	      0.00000000
      0.24241306	      0.26047651	      1.03446771	      0.00000000
      0.24313453	      0.26134647	      1.03454625	      0.00000000
      0.24385600	      0.26221561	      1.03462538	      0.00000000
      0.24457746	      0.26308392	      1.03470511	      0.00000000
      0.24529893	      0.26395140	      1.03478544	      0.00000000
      0.24602040	      0.26481804	      1.03486639	      0.00000000
      0.24674187	      0.26568385	      1.03494794	      0.00000000
      0.24746333	      0.26654882	      1.03503010	      0.00000000
      0.24818480	      0.26741294	      1.03511288	      0.00000000
      0.24890627	      0.26827620	      1.03519628	      0.00000000
      0.24962774	      0.26913861	      1.03528030	      0.00000000
      0.25034920	      0.27000015	      1.03536495	      0.00000000
      0.25107067	      0.27086082	      1.03545022	      0.00000000
      0.25179214	      0.27172061	      1.03553611	      0.00000000
      0.25251361	      0.27257951	      1.03562264	      0.00000000
      0.25323507	      0.27343752	      1.03570980	      0.00000000
      0.25395654	      0.27429464	      1.03579759	      0.00000000
      0.25467801	      0.27515084	      1.03588602	      0.00000000
      0.25539948	      0.27600613	      1.03597509	      0.00000000
      0.25612094	      0.27686050	      1.03606480	      0.00000000
      0.25684241	      0.27771394	      1.03615515	      0.00000000
      0.25756388	      0.27856644	      1.03624614	      0.00000000
      0.25828535	      0.27941800	      1.03633777	      0.00000000
      0.25900681	      0.28026860	      1.03643005	      0.00000000
      0.25972828	      0.28111825	      1.03652298	      0.00000000
      0.26044975	      0.28196693	      1.03661656	      0.00000000
      0.26117122	      0.28281463	      1.03671079	      0.00000000
      0.26189268	      0.28366135	      1.03680567	      0.00000000
      0.26261415	      0.28450709	      1.03690121	      0.00000000
      0.26333562	      0.28535183	      1.03699741	      0.00000000
      0.26405708	      0.28619557	      1.03709427	      0.00000000
      0.26477855	      0.28703831	      1.03719179	      0.00000000
      0.26550002	      0.28788003	      1.03728997	      0.00000000
      0.26622149	      0.28872074	      1.03738882	      0.00000000
      0.26694295	      0.28956043	      1.03748834	      0.00000000
      0.26766442	      0.29039909	      1.03758854	      0.00000000
      0.26838589	      0.29123672	      1.03768941	      0.00000000
      0.26910736	      0.29207332	      1.03779097	      0.00000000
      0.26982882	      0.29290887	      1.03789321	      0.00000000
      0.27055029	      0.29374339	      1.03799613	      0.00000000
      0.27127176	      0.29457686	      1.03809975	      0.00000000
      0.27199323	      0.29540929	      1.03820407	      0.00000000
      0.27271469	      0.29624067	      1.03830908	      0.00000000
      0.27343616	      0.29707099	      1.03841481	      0.00000000
      0.27415763	      0.29790027	      1.03852124	      0.00000000
      0.27487910	      0.29872849	      1.03862840	      0.00000000
      0.27560056	      0.29955565	      1.03873627	      0.00000000
      0.27632203	      0.30038176	      1.03884488	      0.00000000
      0.27704350	      0.30120682	      1.03895422	      0.00000000
      0.27776497	      0.30203083	      1.03906430	      0.00000000
      0.27848643	      0.30285377	      1.03917513	      0.00000000
      0.27920790	      0.30367567	      1.03928671	      0.00000000
      0.27992937	      0.30449652	      1.03939906	      0.00000000
      0.28065084	      0.30531631	      1.03951218	      0.00000000
      0.28137230	      0.30613506	      1.03962607	      0.00000000
      0.28209377	      0.30695277	      1.03974075	      0.00000000
      0.28281524	      0.30776944	      1.03985623	      0.00000000
      0.28353671	      0.30858506	      1.03997251	      0.00000000
      0.28425817	      0.30939966	      1.04008960	      0.00000000
      0.28497964	      0.31021322	      1.04020751	      0.00000000
      0.28570111	      0.31102576	      1.04032625	      0.00000000
      0.28642258	      0.31183728	      1.04044583	      0.00000000
      0.28714404	      0.31264778	      1.04056626	      0.00000000
      0.28786551	      0.31345727	      1.04068755	      0.00000000
      0.28858698	      0.31426576	      1.04080972	      0.00000000
      0.28930845	      0.31507324	      1.04093276	      0.00000000
      0.29002991	      0.31587974	      1.04105669	      0.00000000
      0.29075138	      0.31668525	      1.04118153	      0.00000000
      0.29147285	      0.31748979	      1.04130728	      0.00000000
      0.29219432	      0.31829336	      1.04143396	      0.00000000
      0.29291578	      0.31909596	      1.04156157	      0.00000000
      0.29363725	      0.31989761	      1.04169014	      0.00000000
      0.29435872	      0.32069831	      1.04181966	      0.00000000
      0.29508019	      0.32149808	      1.04195016	      0.00000000
      0.29580165	      0.32229692	      1.04208165	      0.00000000
      0.29652312	      0.32309484	      1.04221414	      0.00000000
      0.29724459	      0.32389185	      1.04234765	      0.00000000
      0.29796605	      0.32468796	      1.04248219	      0.00000000
      0.29868752	      0.32548318	      1.04261778	      0.00000000
      0.29940899	      0.32627752	      1.04275444	      0.00000000
      0.30013046	      0.32707099	      1.04289217	      0.00000000
      0.30085192	      0.32786360	      1.04303101	      0.00000000
      0.30157339	      0.32865536	      1.04317097	      0.00000000
      0.30229486	      0.32944628	      1.04331205	      0.00000000
      0.30301633	      0.33023637	      1.04345429	      0.00000000
      0.30373779	      0.33102565	      1.04359770	      0.00000000
      0.30445926	      0.33181412	      1.04374229	      0.00000000
      0.30518073	      0.33260179	      1.04388809	      0.00000000
      0.30590220	      0.33338868	      1.04403509	      0.00000000
      0.30662366	      0.33417480	      1.04418333	      0.00000000
      0.30734513	      0.33496015	      1.04433281	      0.00000000
      0.30806660	      0.33574475	      1.04448355	      0.00000000
      0.30878807	      0.33652861	      1.04463557	      0.00000000
      0.30950953	      0.33731175	      1.04478886	      0.00000000
      0.31023100	      0.33809416	      1.04494345	      0.00000000
      0.31095247	      0.33887586	      1.04509934	      0.00000000
      0.31167394	      0.33965687	      1.04525656	      0.00000000
      0.31239540	      0.34043719	      1.04541510	      0.00000000
      0.31311687	      0.34121683	      1.04557498	      0.00000000
      0.31383834	      0.34199580	      1.04573621	      0.00000000
      0.31455981	      0.34277412	      1.04589880	      0.00000000
      0.31528127	      0.34355180	      1.04606276	      0.00000000
      0.31600274	      0.34432884	      1.04622809	      0.00000000
      0.31672421	      0.34510525	      1.04639481	      0.00000000
      0.31744568	      0.34588105	      1.04656292	      0.00000000
      0.31816714	      0.34665625	      1.04673243	      0.00000000
      0.31888861	      0.34743085	      1.04690336	      0.00000000
      0.31961008	      0.34820487	      1.04707569	      0.00000000
      0.32033155	      0.34897831	      1.04724945	      0.00000000
      0.32105301	      0.34975118	      1.04742464	      0.00000000
      0.32177448	      0.35052350	      1.04760126	      0.00000000
      0.32249595	      0.35129527	      1.04777933	      0.00000000
      0.32321742	      0.35206651	      1.04795884	      0.00000000
      0.32393888	      0.35283721	      1.04813980	      0.00000000
      0.32466035	      0.35360740	      1.04832223	      0.00000000
      0.32538182	      0.35437708	      1.04850611	      0.00000000
      0.32610329	      0.35514626	      1.04869146	      0.00000000
      0.32682475	      0.35591495	      1.04887828	      0.00000000
      0.32754622	      0.35668315	      1.04906657	      0.00000000
      0.32826769	      0.35745088	      1.04925634	      0.00000000
      0.32898915	      0.35821815	      1.04944759	      0.00000000
      0.32971062	      0.35898496	      1.04964033	      0.00000000
      0.33043209	      0.35975132	      1.04983455	      0.00000000
      0.33115356	      0.36051723	      1.05003026	      0.00000000
      0.33187502	      0.36128272	      1.05022747	      0.00000000
      0.33259649	      0.36204778	      1.05042616	      0.00000000
      0.33331796	      0.36281242	      1.05062635	      0.00000000
      0.33403943	      0.36357666	      1.05082804	      0.00000000
      0.33476089	      0.36434049	      1.05103123	      0.00000000
      0.33548236	      0.36510393	      1.05123591	      0.00000000
      0.33620383	      0.36586698	      1.05144209	      0.00000000
      0.33692530	      0.36662965	      1.05164977	      0.00000000
      0.33764676	      0.36739194	      1.05185894	      0.00000000
      0.33836823	      0.36815386	      1.05206961	      0.00000000
      0.33908970	      0.36891543	      1.05228178	      0.00000000
      0.33981117	      0.36967664	      1.05249544	      0.00000000
      0.34053263	      0.37043750	      1.05271060	      0.00000000
      0.34125410	      0.37119801	      1.05292724	      0.00000000
      0.34197557	      0.37195819	      1.05314537	      0.00000000
      0.34269704	      0.37271803	      1.05336499	      0.00000000
      0.34341850	      0.37347754	      1.05358609	      0.00000000
      0.34413997	      0.37423673	      1.05380867	      0.00000000
      0.34486144	      0.37499560	      1.05403273	      0.00000000
      0.34558291	      0.37575415	      1.05425825	      0.00000000
      0.34630437	      0.37651240	      1.05448524	      0.00000000
      0.34702584	      0.37727034	      1.05471369	      0.00000000
      0.34774731	      0.37802798	      1.05494360	      0.00000000
      0.34846878	      0.37878532	      1.05517496	      0.00000000
      0.34919024	      0.37954237	      1.05540776	      0.00000000
      0.34991171	      0.38029913	      1.05564200	      0.00000000
      0.35063318	      0.38105561	      1.05587767	      0.00000000
      0.35135465	      0.38181181	      1.05611477	      0.00000000
      0.35207611	      0.38256774	      1.05635328	      0.00000000
      0.35279758	      0.38332339	      1.05659320	      0.00000000
      0.35351905	      0.38407879	      1.05683453	      0.00000000
      0.35424052	      0.38483393	      1.05707724	      0.00000000
      0.35496198	      0.38558881	      1.05732135	      0.00000000
      0.35568345	      0.38634345	      1.05756683	      0.00000000
      0.35640492	      0.38709786	      1.05781368	      0.00000000
      0.35712639	      0.38785203	      1.05806189	      0.00000000
      0.35784785	      0.38860598	      1.05831145	      0.00000000
      0.35856932	      0.38935972	      1.05856236	      0.00000000
      0.35929079	      0.39011325	      1.05881459	      0.00000000
      0.36001226	      0.39086659	      1.05906814	      0.00000000
      0.36073372	      0.39161974	      1.05932300	      0.00000000
      0.36145519	      0.39237272	      1.05957917	      0.00000000
      0.36217666	      0.39312554	      1.05983661	      0.00000000
      0.36289812	      0.39387820	      1.06009534	      0.00000000
      0.36361959	      0.39463072	      1.06035533	      0.00000000
      0.36434106	      0.39538311	      1.06061657	      0.00000000
      0.36506253	      0.39613539	      1.06087905	      0.00000000
      0.36578399	      0.39688758	      1.06114276	      0.00000000
      0.36650546	      0.39763967	      1.06140767	      0.00000000
      0.36722693	      0.39839169	      1.06167379	      0.00000000
      0.36794840	      0.39914366	      1.06194108	      0.00000000
      0.36866986	      0.39989559	      1.06220954	      0.00000000
      0.36939133	      0.40064749	      1.06247915	      0.00000000
      0.37011280	      0.40139939	      1.06274990	      0.00000000
      0.37083427	      0.40215130	      1.06302175	      0.00000000
      0.37155573	      0.40290323	      1.06329471	      0.00000000
      0.37227720	      0.40365520	      1.06356873	      0.00000000
      0.37299867	      0.40440723	      1.06384382	      0.00000000
      0.37372014	      0.40515934	      1.06411994	      0.00000000
      0.37444160	      0.40591154	      1.06439706	      0.00000000
      0.37516307	      0.40666385	      1.06467518	      0.00000000
      0.37588454	      0.40741628	      1.06495425	      0.00000000
      0.37660601	      0.40816886	      1.06523425	      0.00000000
      0.37732747	      0.40892159	      1.06551516	      0.00000000
      0.37804894	      0.40967450	      1.06579695	      0.00000000
      0.37877041	      0.41042759	      1.06607957	      0.00000000
      0.37949188	      0.41118088	      1.06636301	      0.00000000
      0.38021334	      0.41193438	      1.06664722	      0.00000000
      0.38093481	      0.41268811	      1.06693217	      0.00000000
      0.38165628	      0.41344208	      1.06721782	      0.00000000
      0.38237775	      0.41419629	      1.06750412	      0.00000000
      0.38309921	      0.41495077	      1.06779104	      0.00000000
      0.38382068	      0.41570551	      1.06807854	      0.00000000
      0.38454215	      0.41646054	      1.06836655	      0.00000000
      0.38526362	      0.41721585	      1.06865505	      0.00000000
      0.38598508	      0.41797145	      1.06894396	      0.00000000
      0.38670655	      0.41872735	      1.06923325	      0.00000000
      0.38742802	      0.41948356	      1.06952286	      0.00000000
      0.38814949	      0.42024008	      1.06981272	      0.00000000
      0.38887095	      0.42099691	      1.07010278	      0.00000000
      0.38959242	      0.42175406	      1.07039297	      0.00000000
      0.39031389	      0.42251153	      1.07068324	      0.00000000
      0.39103536	      0.42326932	      1.07097350	      0.00000000
      0.39175682	      0.42402743	      1.07126370	      0.00000000
      0.39247829	      0.42478586	      1.07155376	      0.00000000
      0.39319976	      0.42554461	      1.07184360	      0.00000000
      0.39392123	      0.42630368	      1.07213314	      0.00000000
      0.39464269	      0.42706306	      1.07242231	      0.00000000
      0.39536416	      0.42782275	      1.07271101	      0.00000000
      0.39608563	      0.42858275	      1.07299918	      0.00000000
      0.39680709	      0.42934305	      1.07328671	      0.00000000
      0.39752856	      0.43010366	      1.07357352	      0.00000000
      0.39825003	      0.43086456	      1.07385951	      0.00000000
      0.39897150	      0.43162575	      1.07414459	      0.00000000
      0.39969296	      0.43238722	      1.07442866	      0.00000000
      0.40041443	      0.43314898	      1.07471163	      0.00000000
      0.40113590	      0.43391103	      1.07499338	      0.00000000
      0.40185737	      0.43467335	      1.07527383	      0.00000000
      0.40257883	      0.43543594	      1.07555286	      0.00000000
      0.40330030	      0.43619881	      1.07583037	      0.00000000
      0.40402177	      0.43696195	      1.07610626	      0.00000000
      0.40474324	      0.43772537	      1.07638041	      0.00000000
      0.40546470	      0.43848906	      1.07665271	      0.00000000
      0.40618617	      0.43925304	      1.07692306	      0.00000000
      0.40690764	      0.44001730	      1.07719135	      0.00000000
      0.40762911	      0.44078186	      1.07745745	      0.00000000
      0.40835057	      0.44154673	      1.07772128	      0.00000000
      0.40907204	      0.44231191	      1.07798270	      0.00000000
      0.40979351	      0.44307742	      1.07824161	      0.00000000
      0.41051498	      0.44384327	      1.07849790	      0.00000000
      0.41123644	      0.44460949	      1.07875145	      0.00000000
      0.41195791	      0.44537608	      1.07900215	      0.00000000
      0.41267938	      0.44614307	      1.07924990	      0.00000000
      0.41340085	      0.44691049	      1.07949457	      0.00000000
      0.41412231	      0.44767835	      1.07973606	      0.00000000
      0.41484378	      0.44844669	      1.07997427	      0.00000000
      0.41556525	      0.44921554	      1.08020908	      0.00000000
      0.41628672	      0.44998493	      1.08044039	      0.00000000
      0.41700818	      0.45075491	      1.08066811	      0.00000000
      0.41772965	      0.45152551	      1.08089214	      0.00000000
      0.41845112	      0.45229682	      1.08111239	      0.00000000
      0.41917259	      0.45306889	      1.08132879	      0.00000000
      0.41989405	      0.45384183	      1.08154128	      0.00000000
      0.42061552	      0.45461571	      1.08174981	      0.00000000
      0.42133699	      0.45539066	      1.08195432	      0.00000000
      0.42205846	      0.45616680	      1.08215479	      0.00000000
      0.42277992	      0.45694423	      1.08235119	      0.00000000
      0.42350139	      0.45772307	      1.08254350	      0.00000000
      0.42422286	      0.45850342	      1.08273168	      0.00000000
      0.42494433	      0.45928536	      1.08291571	      0.00000000
      0.42566579	      0.46006898	      1.08309555	      0.00000000
      0.42638726	      0.46085432	      1.08327117	      0.00000000
      0.42710873	      0.46164142	      1.08344250	      0.00000000
      0.42783019	      0.46243028	      1.08360949	      0.00000000
      0.42855166	      0.46322091	      1.08377198	      0.00000000
      0.42927313	      0.46401332	      1.08392974	      0.00000000
      0.42999460	      0.46480752	      1.08408250	      0.00000000
      0.43071606	      0.46560354	      1.08422994	      0.00000000
      0.43143753	      0.46640134	      1.08437185	      0.00000000
      0.43215900	      0.46720089	      1.08450805	      0.00000000
      0.43288047	      0.46800216	      1.08463845	      0.00000000
