PointVelocity
version=1
nRows=601
nColumns=4
inDegrees=no
No description.
endheader
time	state_0	state_1	state_2
      0.00000000	      3.55740686	     -1.87060454	      0.00000000
      0.00072147	      3.57162240	     -1.88649030	      0.00000000
      0.00144293	      3.58603800	     -1.90199717	      0.00000000
      0.00216440	      3.60067090	     -1.91719102	      0.00000000
      0.00288587	      3.61552214	     -1.93205485	      0.00000000
      0.00360734	      3.63059561	     -1.94657240	      0.00000000
      0.00432880	      3.64590099	     -1.96072570	      0.00000000
      0.00505027	      3.66143749	     -1.97450487	      0.00000000
      0.00577174	      3.67723436	     -1.98788807	      0.00000000
      0.00649321	      3.69327798	     -2.00086785	      0.00000000
      0.00721467	      3.70945206	     -2.01347039	      0.00000000
      0.00793614	      3.72574047	     -2.02568641	      0.00000000
      0.00865761	      3.74223901	     -2.03747339	      0.00000000
      0.00937908	      3.75893331	     -2.04881524	      0.00000000
      0.01010054	      3.77584446	     -2.05969653	      0.00000000
      0.01082201	      3.79283920	     -2.07011939	      0.00000000
      0.01154348	      3.80998268	     -2.08006373	      0.00000000
      0.01226495	      3.82675925	     -2.08958049	      0.00000000
      0.01298641	      3.84324695	     -2.09865455	      0.00000000
      0.01370788	      3.85765022	     -2.10750823	      0.00000000
      0.01442935	      3.86947982	     -2.11623498	      0.00000000
      0.01515082	      3.87326093	     -2.12555911	      0.00000000
      0.01587228	      3.86483847	     -2.13618779	      0.00000000
      0.01659375	      3.83085804	     -2.14989500	      0.00000000
      0.01731522	      3.75879820	     -2.16876746	      0.00000000
      0.01803669	      3.62981315	     -2.19480631	      0.00000000
      0.01875815	      3.43573054	     -2.22966621	      0.00000000
      0.01947962	      3.14098539	     -2.27526651	      0.00000000
      0.02020109	      2.63576461	     -2.34469953	      0.00000000
      0.02092256	      1.89935812	     -2.42369388	      0.00000000
      0.02164402	      0.99649825	     -2.47570748	      0.00000000
      0.02236549	      0.33376266	     -2.41656161	      0.00000000
      0.02308696	      0.21163988	     -2.21350289	      0.00000000
      0.02380843	      0.23126699	     -1.97171801	      0.00000000
      0.02452989	      0.18782561	     -1.73695523	      0.00000000
      0.02525136	      0.16861830	     -1.50613518	      0.00000000
      0.02597283	      0.14645715	     -1.29224142	      0.00000000
      0.02669430	      0.12888927	     -1.09767055	      0.00000000
      0.02741576	      0.11454554	     -0.92639396	      0.00000000
      0.02813723	      0.10199508	     -0.77744653	      0.00000000
      0.02885870	      0.09235622	     -0.65066620	      0.00000000
      0.02958017	      0.08378868	     -0.54350173	      0.00000000
      0.03030163	      0.07724406	     -0.45404603	      0.00000000
      0.03102310	      0.07136921	     -0.37973489	      0.00000000
      0.03174457	      0.06679000	     -0.31834062	      0.00000000
      0.03246604	      0.06264386	     -0.26784874	      0.00000000
      0.03318750	      0.05926903	     -0.22633829	      0.00000000
      0.03390897	      0.05619281	     -0.19237087	      0.00000000
      0.03463044	      0.05354885	     -0.16448564	      0.00000000
      0.03535190	      0.05111548	     -0.14169634	      0.00000000
      0.03607337	      0.04892101	     -0.12295914	      0.00000000
      0.03679484	      0.04687315	     -0.10761120	      0.00000000
      0.03751631	      0.04496414	     -0.09493127	      0.00000000
      0.03823777	      0.04315742	     -0.08447886	      0.00000000
      0.03895924	      0.04144005	     -0.07576520	      0.00000000
      0.03968071	      0.03979701	     -0.06849936	      0.00000000
      0.04040218	      0.03821868	     -0.06235397	      0.00000000
      0.04112364	      0.03669819	     -0.05713737	      0.00000000
      0.04184511	      0.03522963	     -0.05263176	      0.00000000
      0.04256658	      0.03380937	     -0.04871082	      0.00000000
      0.04328805	      0.03243395	     -0.04523009	      0.00000000
      0.04400951	      0.03110121	     -0.04210607	      0.00000000
      0.04473098	      0.02980909	     -0.03924317	      0.00000000
      0.04545245	      0.02855613	     -0.03658577	      0.00000000
      0.04617392	      0.02734101	     -0.03407035	      0.00000000
      0.04689538	      0.02616258	     -0.03165844	      0.00000000
      0.04761685	      0.02501990	     -0.02930639	      0.00000000
      0.04833832	      0.02391204	     -0.02698594	      0.00000000
      0.04905979	      0.02283824	     -0.02466531	      0.00000000
      0.04978125	      0.02179773	     -0.02232303	      0.00000000
      0.05050272	      0.02078988	     -0.01993534	      0.00000000
      0.05122419	      0.01981396	     -0.01748695	      0.00000000
      0.05194566	      0.01886939	     -0.01496108	      0.00000000
      0.05266712	      0.01795544	     -0.01234836	      0.00000000
      0.05338859	      0.01707148	     -0.00963823	      0.00000000
      0.05411006	      0.01621680	     -0.00682592	      0.00000000
      0.05483153	      0.01539072	     -0.00390569	      0.00000000
      0.05555299	      0.01459250	     -0.00087582	      0.00000000
      0.05627446	      0.01382142	      0.00226602	      0.00000000
      0.05699593	      0.01307672	      0.00551950	      0.00000000
      0.05771740	      0.01235761	      0.00888455	      0.00000000
      0.05843886	      0.01166328	      0.01235947	      0.00000000
      0.05916033	      0.01099289	      0.01594249	      0.00000000
      0.05988180	      0.01034554	      0.01963089	      0.00000000
      0.06060327	      0.00972033	      0.02342171	      0.00000000
      0.06132473	      0.00911628	      0.02731152	      0.00000000
      0.06204620	      0.00853239	      0.03129648	      0.00000000
      0.06276767	      0.00796759	      0.03537274	      0.00000000
      0.06348914	      0.00742077	      0.03953588	      0.00000000
      0.06421060	      0.00689074	      0.04378170	      0.00000000
      0.06493207	      0.00637629	      0.04810540	      0.00000000
      0.06565354	      0.00587608	      0.05250241	      0.00000000
      0.06637500	      0.00538878	      0.05696751	      0.00000000
      0.06709647	      0.00491291	      0.06149556	      0.00000000
      0.06781794	      0.00444699	      0.06608071	      0.00000000
      0.06853941	      0.00398938	      0.07071708	      0.00000000
      0.06926087	      0.00353842	      0.07539802	      0.00000000
      0.06998234	      0.00309226	      0.08011681	      0.00000000
      0.07070381	      0.00264906	      0.08486594	      0.00000000
      0.07142528	      0.00220671	      0.08963793	      0.00000000
      0.07214674	      0.00176313	      0.09442447	      0.00000000
      0.07286821	      0.00131594	      0.09921749	      0.00000000
      0.07358968	      0.00086276	      0.10400802	      0.00000000
      0.07431115	      0.00040086	      0.10878766	      0.00000000
      0.07503261	     -0.00007244	      0.11354706	      0.00000000
      0.07575408	     -0.00056029	      0.11827778	      0.00000000
      0.07647555	     -0.00106576	      0.12297042	      0.00000000
      0.07719702	     -0.00159244	      0.12761687	      0.00000000
      0.07791848	     -0.00214383	      0.13220804	      0.00000000
      0.07863995	     -0.00272403	      0.13673642	      0.00000000
      0.07936142	     -0.00333702	      0.14119355	      0.00000000
      0.08008289	     -0.00398741	      0.14557277	      0.00000000
      0.08080435	     -0.00467971	      0.14986650	      0.00000000
      0.08152582	     -0.00541903	      0.15406885	      0.00000000
      0.08224729	     -0.00621037	      0.15817305	      0.00000000
      0.08296876	     -0.00705932	      0.16217391	      0.00000000
      0.08369022	     -0.00797134	      0.16606551	      0.00000000
      0.08441169	     -0.00895237	      0.16984332	      0.00000000
      0.08513316	     -0.01000828	      0.17350222	      0.00000000
      0.08585463	     -0.01114520	      0.17703835	      0.00000000
      0.08657609	     -0.01236922	      0.18044733	      0.00000000
      0.08729756	     -0.01368641	      0.18372594	      0.00000000
      0.08801903	     -0.01510289	      0.18687051	      0.00000000
      0.08874050	     -0.01662434	      0.18987846	      0.00000000
      0.08946196	     -0.01825662	      0.19274687	      0.00000000
      0.09018343	     -0.02000461	      0.19547380	      0.00000000
      0.09090490	     -0.02187354	      0.19805710	      0.00000000
      0.09162637	     -0.02386712	      0.20049555	      0.00000000
      0.09234783	     -0.02598953	      0.20278785	      0.00000000
      0.09306930	     -0.02824291	      0.20493351	      0.00000000
      0.09379077	     -0.03062997	      0.20693212	      0.00000000
      0.09451224	     -0.03315096	      0.20878398	      0.00000000
      0.09523370	     -0.03580678	      0.21048962	      0.00000000
      0.09595517	     -0.03859558	      0.21205011	      0.00000000
      0.09667664	     -0.04151620	      0.21346690	      0.00000000
      0.09739811	     -0.04456462	      0.21474179	      0.00000000
      0.09811957	     -0.04773755	      0.21587706	      0.00000000
      0.09884104	     -0.05102892	      0.21687512	      0.00000000
      0.09956251	     -0.05443335	      0.21773900	      0.00000000
      0.10028397	     -0.05794304	      0.21847156	      0.00000000
      0.10100544	     -0.06155076	      0.21907640	      0.00000000
      0.10172691	     -0.06524740	      0.21955669	      0.00000000
      0.10244838	     -0.06902428	      0.21991642	      0.00000000
      0.10316984	     -0.07287144	      0.22015892	      0.00000000
      0.10389131	     -0.07677921	      0.22028835	      0.00000000
      0.10461278	     -0.08073730	      0.22030803	      0.00000000
      0.10533425	     -0.08473554	      0.22022213	      0.00000000
      0.10605571	     -0.08876372	      0.22003384	      0.00000000
      0.10677718	     -0.09281166	      0.21974716	      0.00000000
      0.10749865	     -0.09686958	      0.21936499	      0.00000000
      0.10822012	     -0.10092763	      0.21889105	      0.00000000
      0.10894158	     -0.10497671	      0.21832785	      0.00000000
      0.10966305	     -0.10900753	      0.21767867	      0.00000000
      0.11038452	     -0.11301176	      0.21694550	      0.00000000
      0.11110599	     -0.11698083	      0.21613107	      0.00000000
      0.11182745	     -0.12090716	      0.21523677	      0.00000000
      0.11254892	     -0.12478293	      0.21426467	      0.00000000
      0.11327039	     -0.12860134	      0.21321559	      0.00000000
      0.11399186	     -0.13235535	      0.21209098	      0.00000000
      0.11471332	     -0.13603900	      0.21089126	      0.00000000
      0.11543479	     -0.13964612	      0.20961740	      0.00000000
      0.11615626	     -0.14317164	      0.20826961	      0.00000000
      0.11687773	     -0.14661031	      0.20684854	      0.00000000
      0.11759919	     -0.14995799	      0.20535443	      0.00000000
      0.11832066	     -0.15321032	      0.20378778	      0.00000000
      0.11904213	     -0.15636413	      0.20214901	      0.00000000
      0.11976360	     -0.15941593	      0.20043864	      0.00000000
      0.12048506	     -0.16236361	      0.19865756	      0.00000000
      0.12120653	     -0.16520464	      0.19680653	      0.00000000
      0.12192800	     -0.16793816	      0.19488732	      0.00000000
      0.12264947	     -0.17056287	      0.19290138	      0.00000000
      0.12337093	     -0.17307932	      0.19085162	      0.00000000
      0.12409240	     -0.17548774	      0.18874063	      0.00000000
      0.12481387	     -0.17778951	      0.18657195	      0.00000000
      0.12553534	     -0.17998583	      0.18434873	      0.00000000
      0.12625680	     -0.18207726	      0.18207345	      0.00000000
      0.12697827	     -0.18406344	      0.17974714	      0.00000000
      0.12769974	     -0.18594328	      0.17737086	      0.00000000
      0.12842121	     -0.18771359	      0.17494270	      0.00000000
      0.12914267	     -0.18937704	      0.17246961	      0.00000000
      0.12986414	     -0.19093632	      0.16995764	      0.00000000
      0.13058561	     -0.19240568	      0.16742875	      0.00000000
      0.13130708	     -0.19380138	      0.16490533	      0.00000000
      0.13202854	     -0.19513856	      0.16241036	      0.00000000
      0.13275001	     -0.19643204	      0.15996441	      0.00000000
      0.13347148	     -0.19768001	      0.15757084	      0.00000000
      0.13419294	     -0.19888080	      0.15523257	      0.00000000
      0.13491441	     -0.20001900	      0.15293838	      0.00000000
      0.13563588	     -0.20108138	      0.15068041	      0.00000000
      0.13635735	     -0.20205377	      0.14844944	      0.00000000
      0.13707881	     -0.20292323	      0.14623869	      0.00000000
      0.13780028	     -0.20368228	      0.14404541	      0.00000000
      0.13852175	     -0.20432303	      0.14186694	      0.00000000
      0.13924322	     -0.20484489	      0.13970769	      0.00000000
      0.13996468	     -0.20524984	      0.13757574	      0.00000000
      0.14068615	     -0.20553916	      0.13547875	      0.00000000
      0.14140762	     -0.20573266	      0.13345071	      0.00000000
      0.14212909	     -0.20577207	      0.13142332	      0.00000000
      0.14285055	     -0.20553792	      0.12924165	      0.00000000
      0.14357202	     -0.20516249	      0.12710303	      0.00000000
      0.14429349	     -0.20482251	      0.12526101	      0.00000000
      0.14501496	     -0.20449380	      0.12372070	      0.00000000
      0.14573642	     -0.20414702	      0.12247845	      0.00000000
      0.14645789	     -0.20373647	      0.12149763	      0.00000000
      0.14717936	     -0.20322518	      0.12075262	      0.00000000
      0.14790083	     -0.20260006	      0.12022600	      0.00000000
      0.14862229	     -0.20184738	      0.11990505	      0.00000000
      0.14934376	     -0.20096494	      0.11978484	      0.00000000
      0.15006523	     -0.19994696	      0.11986034	      0.00000000
      0.15078670	     -0.19879165	      0.12013011	      0.00000000
      0.15150816	     -0.19749557	      0.12059276	      0.00000000
      0.15222963	     -0.19605692	      0.12124771	      0.00000000
      0.15295110	     -0.19447309	      0.12209483	      0.00000000
      0.15367257	     -0.19274266	      0.12313351	      0.00000000
      0.15439403	     -0.19086357	      0.12436374	      0.00000000
      0.15511550	     -0.18883505	      0.12578448	      0.00000000
      0.15583697	     -0.18665569	      0.12739524	      0.00000000
      0.15655844	     -0.18432554	      0.12919424	      0.00000000
      0.15727990	     -0.18184395	      0.13118012	      0.00000000
      0.15800137	     -0.17921187	      0.13335013	      0.00000000
      0.15872284	     -0.17642957	      0.13570173	      0.00000000
      0.15944431	     -0.17349881	      0.13823102	      0.00000000
      0.16016577	     -0.17042087	      0.14093400	      0.00000000
      0.16088724	     -0.16719778	      0.14380585	      0.00000000
      0.16160871	     -0.16383162	      0.14684114	      0.00000000
      0.16233018	     -0.16032310	      0.15003508	      0.00000000
      0.16305164	     -0.15667398	      0.15338149	      0.00000000
      0.16377311	     -0.15288030	      0.15687770	      0.00000000
      0.16449458	     -0.14894082	      0.16051848	      0.00000000
      0.16521604	     -0.14484104	      0.16430689	      0.00000000
      0.16593751	     -0.14057203	      0.16824160	      0.00000000
      0.16665898	     -0.13609952	      0.17233686	      0.00000000
      0.16738045	     -0.13139924	      0.17659973	      0.00000000
      0.16810191	     -0.12640255	      0.18106368	      0.00000000
      0.16882338	     -0.12105642	      0.18575138	      0.00000000
      0.16954485	     -0.11523534	      0.19072679	      0.00000000
      0.17026632	     -0.10883063	      0.19604190	      0.00000000
      0.17098778	     -0.10163562	      0.20180136	      0.00000000
      0.17170925	     -0.09344272	      0.20810710	      0.00000000
      0.17243072	     -0.08397803	      0.21509079	      0.00000000
      0.17315219	     -0.07293716	      0.22289729	      0.00000000
      0.17387365	     -0.06009801	      0.23161341	      0.00000000
      0.17459512	     -0.04521176	      0.24133859	      0.00000000
      0.17531659	     -0.02828064	      0.25202078	      0.00000000
      0.17603806	     -0.00929505	      0.26361629	      0.00000000
      0.17675952	      0.01150291	      0.27593881	      0.00000000
      0.17748099	      0.03389297	      0.28881645	      0.00000000
      0.17820246	      0.05756344	      0.30203969	      0.00000000
      0.17892393	      0.08224791	      0.31540786	      0.00000000
      0.17964539	      0.10771660	      0.32880111	      0.00000000
      0.18036686	      0.13372439	      0.34213235	      0.00000000
      0.18108833	      0.15999387	      0.35536454	      0.00000000
      0.18180980	      0.18623451	      0.36842168	      0.00000000
      0.18253126	      0.21230887	      0.38124219	      0.00000000
      0.18325273	      0.23807554	      0.39377081	      0.00000000
      0.18397420	      0.26347860	      0.40598719	      0.00000000
      0.18469567	      0.28843855	      0.41786622	      0.00000000
      0.18541713	      0.31291451	      0.42940108	      0.00000000
      0.18613860	      0.33685451	      0.44057997	      0.00000000
      0.18686007	      0.36022259	      0.45139810	      0.00000000
      0.18758154	      0.38297715	      0.46184781	      0.00000000
      0.18830300	      0.40508534	      0.47192458	      0.00000000
      0.18902447	      0.42651079	      0.48162202	      0.00000000
      0.18974594	      0.44722750	      0.49093752	      0.00000000
      0.19046741	      0.46720656	      0.49986682	      0.00000000
      0.19118887	      0.48643347	      0.50841135	      0.00000000
      0.19191034	      0.50489067	      0.51657074	      0.00000000
      0.19263181	      0.52257702	      0.52435128	      0.00000000
      0.19335328	      0.53948814	      0.53175734	      0.00000000
      0.19407474	      0.55563504	      0.53879952	      0.00000000
      0.19479621	      0.57102565	      0.54548665	      0.00000000
      0.19551768	      0.58568031	      0.55183237	      0.00000000
      0.19623915	      0.59961682	      0.55784894	      0.00000000
      0.19696061	      0.61286175	      0.56355178	      0.00000000
      0.19768208	      0.62543985	      0.56895536	      0.00000000
      0.19840355	      0.63738134	      0.57407583	      0.00000000
      0.19912501	      0.64871531	      0.57892879	      0.00000000
      0.19984648	      0.65947364	      0.58353040	      0.00000000
      0.20056795	      0.66968767	      0.58789657	      0.00000000
      0.20128942	      0.67938949	      0.59204291	      0.00000000
      0.20201088	      0.68861114	      0.59598505	      0.00000000
      0.20273235	      0.69738392	      0.59973772	      0.00000000
      0.20345382	      0.70573939	      0.60331586	      0.00000000
      0.20417529	      0.71370729	      0.60673313	      0.00000000
      0.20489675	      0.72131784	      0.61000348	      0.00000000
      0.20561822	      0.72859871	      0.61313925	      0.00000000
      0.20633969	      0.73557824	      0.61615317	      0.00000000
      0.20706116	      0.74228159	      0.61905623	      0.00000000
      0.20778262	      0.74873470	      0.62185989	      0.00000000
      0.20850409	      0.75496004	      0.62457372	      0.00000000
      0.20922556	      0.76098092	      0.62720773	      0.00000000
      0.20994703	      0.76681705	      0.62977004	      0.00000000
      0.21066849	      0.77248900	      0.63226921	      0.00000000
      0.21138996	      0.77801380	      0.63471195	      0.00000000
      0.21211143	      0.78340930	      0.63710535	      0.00000000
      0.21283290	      0.78869001	      0.63945491	      0.00000000
      0.21355436	      0.79387118	      0.64176643	      0.00000000
      0.21427583	      0.79896505	      0.64404426	      0.00000000
      0.21499730	      0.80398452	      0.64629300	      0.00000000
      0.21571877	      0.80893993	      0.64851598	      0.00000000
      0.21644023	      0.81384214	      0.65071674	      0.00000000
      0.21716170	      0.81869991	      0.65289783	      0.00000000
      0.21788317	      0.82352244	      0.65506196	      0.00000000
      0.21860464	      0.82831719	      0.65721113	      0.00000000
      0.21932610	      0.83309200	      0.65934747	      0.00000000
      0.22004757	      0.83785338	      0.66147246	      0.00000000
      0.22076904	      0.84260816	      0.66358766	      0.00000000
      0.22149051	      0.84736212	      0.66569420	      0.00000000
      0.22221197	      0.85212125	      0.66779325	      0.00000000
      0.22293344	      0.85689077	      0.66988563	      0.00000000
      0.22365491	      0.86167604	      0.67197222	      0.00000000
      0.22437638	      0.86648182	      0.67405357	      0.00000000
      0.22509784	      0.87131299	      0.67613028	      0.00000000
      0.22581931	      0.87617389	      0.67820269	      0.00000000
      0.22654078	      0.88106898	      0.68027116	      0.00000000
      0.22726225	      0.88600223	      0.68233584	      0.00000000
      0.22798371	      0.89097774	      0.68439686	      0.00000000
      0.22870518	      0.89599913	      0.68645417	      0.00000000
      0.22942665	      0.90107012	      0.68850770	      0.00000000
      0.23014811	      0.90619401	      0.69055722	      0.00000000
      0.23086958	      0.91137415	      0.69260245	      0.00000000
      0.23159105	      0.91661352	      0.69464296	      0.00000000
      0.23231252	      0.92191513	      0.69667829	      0.00000000
      0.23303398	      0.92728161	      0.69870781	      0.00000000
      0.23375545	      0.93271565	      0.70073088	      0.00000000
      0.23447692	      0.93821958	      0.70274668	      0.00000000
      0.23519839	      0.94379575	      0.70475438	      0.00000000
      0.23591985	      0.94944619	      0.70675300	      0.00000000
      0.23664132	      0.95517295	      0.70874154	      0.00000000
      0.23736279	      0.96097776	      0.71071886	      0.00000000
      0.23808426	      0.96686240	      0.71268378	      0.00000000
      0.23880572	      0.97282831	      0.71463503	      0.00000000
      0.23952719	      0.97887701	      0.71657130	      0.00000000
      0.24024866	      0.98500968	      0.71849117	      0.00000000
      0.24097013	      0.99122755	      0.72039321	      0.00000000
      0.24169159	      0.99753158	      0.72227589	      0.00000000
      0.24241306	      1.00392277	      0.72413763	      0.00000000
      0.24313453	      1.01040181	      0.72597679	      0.00000000
      0.24385600	      1.01696947	      0.72779170	      0.00000000
      0.24457746	      1.02362620	      0.72958057	      0.00000000
      0.24529893	      1.03037253	      0.73134164	      0.00000000
      0.24602040	      1.03720866	      0.73307303	      0.00000000
      0.24674187	      1.04413484	      0.73477287	      0.00000000
      0.24746333	      1.05115102	      0.73643919	      0.00000000
      0.24818480	      1.05825719	      0.73807003	      0.00000000
      0.24890627	      1.06545298	      0.73966332	      0.00000000
      0.24962774	      1.07273811	      0.74121700	      0.00000000
      0.25034920	      1.08011191	      0.74272892	      0.00000000
      0.25107067	      1.08757379	      0.74419693	      0.00000000
      0.25179214	      1.09512273	      0.74561877	      0.00000000
      0.25251361	      1.10275784	      0.74699223	      0.00000000
      0.25323507	      1.11047778	      0.74831497	      0.00000000
      0.25395654	      1.11828131	      0.74958468	      0.00000000
      0.25467801	      1.12616679	      0.75079897	      0.00000000
      0.25539948	      1.13413264	      0.75195547	      0.00000000
      0.25612094	      1.14217695	      0.75305178	      0.00000000
      0.25684241	      1.15029786	      0.75408546	      0.00000000
      0.25756388	      1.15849323	      0.75505412	      0.00000000
      0.25828535	      1.16676095	      0.75595533	      0.00000000
      0.25900681	      1.17509873	      0.75678672	      0.00000000
      0.25972828	      1.18350430	      0.75754589	      0.00000000
      0.26044975	      1.19197528	      0.75823055	      0.00000000
      0.26117122	      1.20050928	      0.75883837	      0.00000000
      0.26189268	      1.20910390	      0.75936725	      0.00000000
      0.26261415	      1.21775669	      0.75981502	      0.00000000
      0.26333562	      1.22646525	      0.76017972	      0.00000000
      0.26405708	      1.23522716	      0.76045935	      0.00000000
      0.26477855	      1.24404006	      0.76065207	      0.00000000
      0.26550002	      1.25290159	      0.76075602	      0.00000000
      0.26622149	      1.26180944	      0.76076953	      0.00000000
      0.26694295	      1.27076130	      0.76069088	      0.00000000
      0.26766442	      1.27975493	      0.76051855	      0.00000000
      0.26838589	      1.28878806	      0.76025099	      0.00000000
      0.26910736	      1.29785852	      0.75988683	      0.00000000
      0.26982882	      1.30696411	      0.75942467	      0.00000000
      0.27055029	      1.31610273	      0.75886331	      0.00000000
      0.27127176	      1.32527226	      0.75820150	      0.00000000
      0.27199323	      1.33447069	      0.75743821	      0.00000000
      0.27271469	      1.34369597	      0.75657236	      0.00000000
      0.27343616	      1.35294613	      0.75560305	      0.00000000
      0.27415763	      1.36221916	      0.75452935	      0.00000000
      0.27487910	      1.37151303	      0.75335049	      0.00000000
      0.27560056	      1.38082573	      0.75206565	      0.00000000
      0.27632203	      1.39015518	      0.75067420	      0.00000000
      0.27704350	      1.39949931	      0.74917541	      0.00000000
      0.27776497	      1.40885618	      0.74756884	      0.00000000
      0.27848643	      1.41822390	      0.74585387	      0.00000000
      0.27920790	      1.42760079	      0.74403048	      0.00000000
      0.27992937	      1.43698708	      0.74209815	      0.00000000
      0.28065084	      1.44639525	      0.74005751	      0.00000000
      0.28137230	      1.45582794	      0.73791023	      0.00000000
      0.28209377	      1.46527280	      0.73565831	      0.00000000
      0.28281524	      1.47472837	      0.73330249	      0.00000000
      0.28353671	      1.48419721	      0.73084316	      0.00000000
      0.28425817	      1.49367879	      0.72828108	      0.00000000
      0.28497964	      1.50317431	      0.72561716	      0.00000000
      0.28570111	      1.51268444	      0.72285234	      0.00000000
      0.28642258	      1.52221070	      0.71998786	      0.00000000
      0.28714404	      1.53175445	      0.71702492	      0.00000000
      0.28786551	      1.54131754	      0.71396499	      0.00000000
      0.28858698	      1.55090178	      0.71080947	      0.00000000
      0.28930845	      1.56050918	      0.70755995	      0.00000000
      0.29002991	      1.57014177	      0.70421799	      0.00000000
      0.29075138	      1.57980156	      0.70078524	      0.00000000
      0.29147285	      1.58949059	      0.69726330	      0.00000000
      0.29219432	      1.59921075	      0.69365383	      0.00000000
      0.29291578	      1.60896399	      0.68995847	      0.00000000
      0.29363725	      1.61875197	      0.68617885	      0.00000000
      0.29435872	      1.62857650	      0.68231661	      0.00000000
      0.29508019	      1.63843901	      0.67837333	      0.00000000
      0.29580165	      1.64834110	      0.67435061	      0.00000000
      0.29652312	      1.65828396	      0.67024999	      0.00000000
      0.29724459	      1.66826893	      0.66607300	      0.00000000
      0.29796605	      1.67829681	      0.66182105	      0.00000000
      0.29868752	      1.68836862	      0.65749561	      0.00000000
      0.29940899	      1.69848461	      0.65309788	      0.00000000
      0.30013046	      1.70864526	      0.64862917	      0.00000000
      0.30085192	      1.71885009	      0.64409045	      0.00000000
      0.30157339	      1.72909888	      0.63948280	      0.00000000
      0.30229486	      1.73939035	      0.63480690	      0.00000000
      0.30301633	      1.74972347	      0.63006360	      0.00000000
      0.30373779	      1.76009618	      0.62525331	      0.00000000
      0.30445926	      1.77050668	      0.62037660	      0.00000000
      0.30518073	      1.78095229	      0.61543369	      0.00000000
      0.30590220	      1.79143055	      0.61042492	      0.00000000
      0.30662366	      1.80193833	      0.60535031	      0.00000000
      0.30734513	      1.81247270	      0.60021002	      0.00000000
      0.30806660	      1.82303024	      0.59500396	      0.00000000
      0.30878807	      1.83360767	      0.58973215	      0.00000000
      0.30950953	      1.84420142	      0.58439439	      0.00000000
      0.31023100	      1.85480799	      0.57899059	      0.00000000
      0.31095247	      1.86542372	      0.57352050	      0.00000000
      0.31167394	      1.87604502	      0.56798395	      0.00000000
      0.31239540	      1.88666822	      0.56238063	      0.00000000
      0.31311687	      1.89728969	      0.55671030	      0.00000000
      0.31383834	      1.90790580	      0.55097263	      0.00000000
      0.31455981	      1.91851297	      0.54516734	      0.00000000
      0.31528127	      1.92910769	      0.53929408	      0.00000000
      0.31600274	      1.93968646	      0.53335252	      0.00000000
      0.31672421	      1.95024596	      0.52734232	      0.00000000
      0.31744568	      1.96078285	      0.52126315	      0.00000000
      0.31816714	      1.97129406	      0.51511464	      0.00000000
      0.31888861	      1.98177646	      0.50889647	      0.00000000
      0.31961008	      1.99222730	      0.50260828	      0.00000000
      0.32033155	      2.00264372	      0.49624977	      0.00000000
      0.32105301	      2.01302333	      0.48982058	      0.00000000
      0.32177448	      2.02336362	      0.48332042	      0.00000000
      0.32249595	      2.03366257	      0.47674897	      0.00000000
      0.32321742	      2.04391806	      0.47010592	      0.00000000
      0.32393888	      2.05412851	      0.46339099	      0.00000000
      0.32466035	      2.06429220	      0.45660388	      0.00000000
      0.32538182	      2.07440798	      0.44974430	      0.00000000
      0.32610329	      2.08447458	      0.44281197	      0.00000000
      0.32682475	      2.09449127	      0.43580659	      0.00000000
      0.32754622	      2.10445721	      0.42872789	      0.00000000
      0.32826769	      2.11437210	      0.42157555	      0.00000000
      0.32898915	      2.12423554	      0.41434927	      0.00000000
      0.32971062	      2.13404762	      0.40704871	      0.00000000
      0.33043209	      2.14380834	      0.39967354	      0.00000000
      0.33115356	      2.15351817	      0.39222335	      0.00000000
      0.33187502	      2.16317748	      0.38469777	      0.00000000
      0.33259649	      2.17278707	      0.37709634	      0.00000000
      0.33331796	      2.18234764	      0.36941859	      0.00000000
      0.33403943	      2.19186026	      0.36166397	      0.00000000
      0.33476089	      2.20132595	      0.35383194	      0.00000000
      0.33548236	      2.21074598	      0.34592180	      0.00000000
      0.33620383	      2.22012160	      0.33793290	      0.00000000
      0.33692530	      2.22945428	      0.32986442	      0.00000000
      0.33764676	      2.23874544	      0.32171555	      0.00000000
      0.33836823	      2.24799665	      0.31348529	      0.00000000
      0.33908970	      2.25720947	      0.30517268	      0.00000000
      0.33981117	      2.26638554	      0.29677651	      0.00000000
      0.34053263	      2.27552651	      0.28829562	      0.00000000
      0.34125410	      2.28463403	      0.27972858	      0.00000000
      0.34197557	      2.29370979	      0.27107403	      0.00000000
      0.34269704	      2.30275545	      0.26233026	      0.00000000
      0.34341850	      2.31177271	      0.25349567	      0.00000000
      0.34413997	      2.32076322	      0.24456830	      0.00000000
      0.34486144	      2.32972867	      0.23554627	      0.00000000
      0.34558291	      2.33867073	      0.22642734	      0.00000000
      0.34630437	      2.34759109	      0.21720935	      0.00000000
      0.34702584	      2.35649145	      0.20788976	      0.00000000
      0.34774731	      2.36537353	      0.19846610	      0.00000000
      0.34846878	      2.37423910	      0.18893554	      0.00000000
      0.34919024	      2.38308993	      0.17929531	      0.00000000
      0.34991171	      2.39192793	      0.16954228	      0.00000000
      0.35063318	      2.40075497	      0.15967338	      0.00000000
      0.35135465	      2.40957313	      0.14968521	      0.00000000
      0.35207611	      2.41838445	      0.13957441	      0.00000000
      0.35279758	      2.42719119	      0.12933733	      0.00000000
      0.35351905	      2.43599562	      0.11897038	      0.00000000
      0.35424052	      2.44480021	      0.10846975	      0.00000000
      0.35496198	      2.45360746	      0.09783166	      0.00000000
      0.35568345	      2.46242009	      0.08705223	      0.00000000
      0.35640492	      2.47124081	      0.07612760	      0.00000000
      0.35712639	      2.48007256	      0.06505392	      0.00000000
      0.35784785	      2.48891827	      0.05382733	      0.00000000
      0.35856932	      2.49778104	      0.04244413	      0.00000000
      0.35929079	      2.50666402	      0.03090055	      0.00000000
      0.36001226	      2.51557041	      0.01919305	      0.00000000
      0.36073372	      2.52450351	      0.00731802	      0.00000000
      0.36145519	      2.53346659	     -0.00472797	      0.00000000
      0.36217666	      2.54246304	     -0.01694838	      0.00000000
      0.36289812	      2.55149612	     -0.02934662	      0.00000000
      0.36361959	      2.56056926	     -0.04192610	      0.00000000
      0.36434106	      2.56968563	     -0.05469032	      0.00000000
      0.36506253	      2.57884858	     -0.06764273	      0.00000000
      0.36578399	      2.58806104	     -0.08078697	      0.00000000
      0.36650546	      2.59732619	     -0.09412663	      0.00000000
      0.36722693	      2.60664656	     -0.10766545	      0.00000000
      0.36794840	      2.61602495	     -0.12140709	      0.00000000
      0.36866986	      2.62546326	     -0.13535521	      0.00000000
      0.36939133	      2.63496374	     -0.14951341	      0.00000000
      0.37011280	      2.64452742	     -0.16388502	      0.00000000
      0.37083427	      2.65415577	     -0.17847333	      0.00000000
      0.37155573	      2.66384877	     -0.19328115	      0.00000000
      0.37227720	      2.67360687	     -0.20831124	      0.00000000
      0.37299867	      2.68342893	     -0.22356572	      0.00000000
      0.37372014	      2.69331423	     -0.23904668	      0.00000000
      0.37444160	      2.70326042	     -0.25475553	      0.00000000
      0.37516307	      2.71326559	     -0.27069361	      0.00000000
      0.37588454	      2.72332622	     -0.28686163	      0.00000000
      0.37660601	      2.73343921	     -0.30326024	      0.00000000
      0.37732747	      2.74360002	     -0.31988945	      0.00000000
      0.37804894	      2.75380444	     -0.33674923	      0.00000000
      0.37877041	      2.76404711	     -0.35383897	      0.00000000
      0.37949188	      2.77432290	     -0.37115798	      0.00000000
      0.38021334	      2.78462588	     -0.38870499	      0.00000000
      0.38093481	      2.79495025	     -0.40647865	      0.00000000
      0.38165628	      2.80528979	     -0.42447704	      0.00000000
      0.38237775	      2.81563835	     -0.44269813	      0.00000000
      0.38309921	      2.82598976	     -0.46113922	      0.00000000
      0.38382068	      2.83633777	     -0.47979758	      0.00000000
      0.38454215	      2.84667657	     -0.49866970	      0.00000000
      0.38526362	      2.85700019	     -0.51775202	      0.00000000
      0.38598508	      2.86730344	     -0.53704020	      0.00000000
      0.38670655	      2.87758088	     -0.55652985	      0.00000000
      0.38742802	      2.88782823	     -0.57621573	      0.00000000
      0.38814949	      2.89804082	     -0.59609264	      0.00000000
      0.38887095	      2.90821545	     -0.61615450	      0.00000000
      0.38959242	      2.91834843	     -0.63639527	      0.00000000
      0.39031389	      2.92843775	     -0.65680808	      0.00000000
      0.39103536	      2.93848085	     -0.67738616	      0.00000000
      0.39175682	      2.94847698	     -0.69812193	      0.00000000
      0.39247829	      2.95842477	     -0.71900794	      0.00000000
      0.39319976	      2.96832471	     -0.74003603	      0.00000000
      0.39392123	      2.97817667	     -0.76119815	      0.00000000
      0.39464269	      2.98798227	     -0.78248566	      0.00000000
      0.39536416	      2.99774256	     -0.80389000	      0.00000000
      0.39608563	      3.00746020	     -0.82540216	      0.00000000
      0.39680709	      3.01713732	     -0.84701321	      0.00000000
      0.39752856	      3.02677746	     -0.86871394	      0.00000000
      0.39825003	      3.03638368	     -0.89049517	      0.00000000
      0.39897150	      3.04596027	     -0.91234759	      0.00000000
      0.39969296	      3.05551104	     -0.93426193	      0.00000000
      0.40041443	      3.06504084	     -0.95622897	      0.00000000
      0.40113590	      3.07455409	     -0.97823948	      0.00000000
      0.40185737	      3.08405604	     -1.00028446	      0.00000000
      0.40257883	      3.09355158	     -1.02235484	      0.00000000
      0.40330030	      3.10304621	     -1.04444192	      0.00000000
      0.40402177	      3.11254513	     -1.06653695	      0.00000000
      0.40474324	      3.12205400	     -1.08863156	      0.00000000
      0.40546470	      3.13157819	     -1.11071733	      0.00000000
      0.40618617	      3.14112335	     -1.13278612	      0.00000000
      0.40690764	      3.15069492	     -1.15482979	      0.00000000
      0.40762911	      3.16029844	     -1.17684032	      0.00000000
      0.40835057	      3.16993927	     -1.19880966	      0.00000000
      0.40907204	      3.17962278	     -1.22072983	      0.00000000
      0.40979351	      3.18935418	     -1.24259280	      0.00000000
      0.41051498	      3.19913864	     -1.26439057	      0.00000000
      0.41123644	      3.20898119	     -1.28611509	      0.00000000
      0.41195791	      3.21888688	     -1.30775850	      0.00000000
      0.41267938	      3.22886056	     -1.32931280	      0.00000000
      0.41340085	      3.23890724	     -1.35077059	      0.00000000
      0.41412231	      3.24903176	     -1.37212417	      0.00000000
      0.41484378	      3.25923919	     -1.39336699	      0.00000000
      0.41556525	      3.26953451	     -1.41449196	      0.00000000
      0.41628672	      3.27992308	     -1.43549394	      0.00000000
      0.41700818	      3.29041030	     -1.45636703	      0.00000000
      0.41772965	      3.30100201	     -1.47710791	      0.00000000
      0.41845112	      3.31170441	     -1.49771267	      0.00000000
      0.41917259	      3.32252374	     -1.51817935	      0.00000000
      0.41989405	      3.33346678	     -1.53850550	      0.00000000
      0.42061552	      3.34453939	     -1.55868779	      0.00000000
      0.42133699	      3.35574783	     -1.57872238	      0.00000000
      0.42205846	      3.36709702	     -1.59860184	      0.00000000
      0.42277992	      3.37859220	     -1.61831888	      0.00000000
      0.42350139	      3.39023803	     -1.63786270	      0.00000000
      0.42422286	      3.40203918	     -1.65722306	      0.00000000
      0.42494433	      3.41399990	     -1.67638540	      0.00000000
      0.42566579	      3.42612397	     -1.69533568	      0.00000000
      0.42638726	      3.43841653	     -1.71405889	      0.00000000
      0.42710873	      3.45088123	     -1.73254046	      0.00000000
      0.42783019	      3.46352525	     -1.75076732	      0.00000000
      0.42855166	      3.47635633	     -1.76872864	      0.00000000
      0.42927313	      3.48938098	     -1.78642141	      0.00000000
      0.42999460	      3.50260009	     -1.80384208	      0.00000000
      0.43071606	      3.51600936	     -1.82098270	      0.00000000
      0.43143753	      3.52960877	     -1.83783683	      0.00000000
      0.43215900	      3.54340914	     -1.85440471	      0.00000000
      0.43288047	      3.55740821	     -1.87060608	      0.00000000
