PointAcceleration
version=1
nRows=601
nColumns=4
inDegrees=no
No description.
endheader
time	state_0	state_1	state_2
      0.00000000	   -121.20252074	   -284.87779170	      0.00000000
      0.00156302	   -121.02740903	   -285.45279397	      0.00000000
      0.00312603	   -121.21388734	   -286.07333221	      0.00000000
      0.00468905	   -121.84832345	   -286.81467556	      0.00000000
      0.00625207	   -123.06778547	   -287.67112283	      0.00000000
      0.00781508	   -125.06056213	   -288.62848227	      0.00000000
      0.00937810	   -128.06065206	   -289.70458869	      0.00000000
      0.01094111	   -132.34030262	   -290.92326469	      0.00000000
      0.01250413	   -138.23126210	   -292.24990275	      0.00000000
      0.01406715	   -146.08115148	   -293.53603913	      0.00000000
      0.01563016	   -156.23974315	   -294.40358670	      0.00000000
      0.01719318	   -168.91070274	   -294.11754830	      0.00000000
      0.01875620	   -184.05854189	   -291.28366729	      0.00000000
      0.02031921	   -201.07837148	   -283.87672337	      0.00000000
      0.02188223	   -218.64301655	   -269.04160846	      0.00000000
      0.02344525	   -234.90333484	   -243.96583656	      0.00000000
      0.02500826	   -247.71328713	   -206.44831528	      0.00000000
      0.02657128	   -255.57100564	   -155.28829523	      0.00000000
      0.02813429	   -255.34042463	    -87.93479967	      0.00000000
      0.02969731	   -242.69496749	     -3.17447333	      0.00000000
      0.03126033	   -214.66481729	     65.49081185	      0.00000000
      0.03282334	    -15.98423059	    236.05377742	      0.00000000
      0.03438636	    -25.61715375	    190.01450922	      0.00000000
      0.03594938	    -18.36999402	    185.35966856	      0.00000000
      0.03751239	    -12.18994486	    183.27623069	      0.00000000
      0.03907541	    -17.72243362	    171.47297568	      0.00000000
      0.04063842	    -16.20425964	    167.38856302	      0.00000000
      0.04220144	    -21.04845498	    156.10237840	      0.00000000
      0.04376446	    -22.53235359	    148.19417415	      0.00000000
      0.04532747	    -26.44811229	    137.35261105	      0.00000000
      0.04689049	    -29.09932198	    127.82216692	      0.00000000
      0.04845351	    -32.55780537	    117.36318372	      0.00000000
      0.05001652	    -35.47771121	    107.59839390	      0.00000000
      0.05157954	    -38.60281067	     97.75752220	      0.00000000
      0.05314256	    -41.45492194	     88.43486701	      0.00000000
      0.05470557	    -44.30356772	     79.33422593	      0.00000000
      0.05626859	    -46.96813674	     70.64536750	      0.00000000
      0.05783160	    -49.53417944	     62.26902664	      0.00000000
      0.05939462	    -51.91264510	     54.28702939	      0.00000000
      0.06095764	    -54.13308731	     46.66450232	      0.00000000
      0.06252065	    -56.16583020	     39.43137948	      0.00000000
      0.06408367	    -58.01989763	     32.57674461	      0.00000000
      0.06564669	    -59.68899897	     26.10638672	      0.00000000
      0.06720970	    -61.17630316	     20.01602614	      0.00000000
      0.06877272	    -62.48546626	     14.30153855	      0.00000000
      0.07033574	    -63.62015315	      8.96055865	      0.00000000
      0.07189875	    -64.58769058	      3.98598222	      0.00000000
      0.07346177	    -65.39366163	     -0.62432746	      0.00000000
      0.07502478	    -66.04636781	     -4.87821704	      0.00000000
      0.07658780	    -66.55291909	     -8.77815819	      0.00000000
      0.07815082	    -66.92144391	    -12.33151962	      0.00000000
      0.07971383	    -67.15963214	    -15.54139445	      0.00000000
      0.08127685	    -67.27489939	    -18.41493010	      0.00000000
      0.08283987	    -67.27461776	    -20.95587548	      0.00000000
      0.08440288	    -67.16543289	    -23.17138722	      0.00000000
      0.08596590	    -66.95347581	    -25.06512073	      0.00000000
      0.08752892	    -66.64406535	    -26.64376256	      0.00000000
      0.08909193	    -66.24119938	    -27.90949235	      0.00000000
      0.09065495	    -65.74813628	    -28.86685409	      0.00000000
      0.09221796	    -65.16645511	    -29.51576335	      0.00000000
      0.09378098	    -64.49703681	    -29.85760010	      0.00000000
      0.09534400	    -63.73941435	    -29.89045752	      0.00000000
      0.09690701	    -62.89231334	    -29.61277416	      0.00000000
      0.09847003	    -61.95394144	    -29.02219595	      0.00000000
      0.10003305	    -60.92156480	    -28.11562997	      0.00000000
      0.10159606	    -59.79286986	    -26.89197824	      0.00000000
      0.10315908	    -58.56455388	    -25.34865721	      0.00000000
      0.10472209	    -57.23458129	    -23.48729821	      0.00000000
      0.10628511	    -55.80002683	    -21.30777017	      0.00000000
      0.10784813	    -54.25968373	    -18.81520707	      0.00000000
      0.10941114	    -52.61170702	    -16.01322344	      0.00000000
      0.11097416	    -50.85593954	    -12.91050561	      0.00000000
      0.11253718	    -48.99195072	     -9.51488906	      0.00000000
      0.11410019	    -47.02070622	     -5.83819201	      0.00000000
      0.11566321	    -44.94332877	     -1.89219350	      0.00000000
      0.11722623	    -42.76179264	      2.30889862	      0.00000000
      0.11878924	    -40.47860928	      6.75010501	      0.00000000
      0.12035226	    -38.09666372	     11.41546328	      0.00000000
      0.12191527	    -35.61963126	     16.28772442	      0.00000000
      0.12347829	    -33.05119260	     21.34968214	      0.00000000
      0.12504131	    -30.39594006	     26.58261408	      0.00000000
      0.12660432	    -27.65828039	     31.96846489	      0.00000000
      0.12816734	    -24.84353638	     37.48769800	      0.00000000
      0.12973036	    -21.95676364	     43.12188147	      0.00000000
      0.13129337	    -19.00384920	     48.85129796	      0.00000000
      0.13285639	    -15.99035521	     54.65783162	      0.00000000
      0.13441941	    -12.92253490	     60.52236770	      0.00000000
      0.13598242	     -9.80627796	     66.42788951	      0.00000000
      0.13754544	     -6.64799163	     72.35666893	      0.00000000
      0.13910845	     -3.45371457	     78.29347961	      0.00000000
      0.14067147	     -0.22982951	     84.22259037	      0.00000000
      0.14223449	      3.01772889	     90.13131055	      0.00000000
      0.14379750	      6.28283388	     96.00667075	      0.00000000
      0.14536052	      9.55989785	    101.83890119	      0.00000000
      0.14692354	     12.84331131	    107.61814891	      0.00000000
      0.14848655	     16.12792790	    113.33719450	      0.00000000
      0.15004957	     19.40869641	    118.98874630	      0.00000000
      0.15161259	     22.68105038	    124.56781083	      0.00000000
      0.15317560	     25.94055283	    130.06929353	      0.00000000
      0.15473862	     29.18329129	    135.49014756	      0.00000000
      0.15630163	     32.40547650	    140.82713069	      0.00000000
      0.15786465	     35.60389900	    146.07883062	      0.00000000
      0.15942767	     38.77542155	    151.24347977	      0.00000000
      0.16099068	     41.91757750	    156.32100166	      0.00000000
      0.16255370	     45.02786477	    161.31076623	      0.00000000
      0.16411672	     48.10458745	    166.21376631	      0.00000000
      0.16567973	     51.14586604	    171.03022770	      0.00000000
      0.16724275	     54.15076738	    175.76194859	      0.00000000
      0.16880576	     57.11800421	    180.40977120	      0.00000000
      0.17036878	     60.04733068	    184.97599720	      0.00000000
      0.17193180	     62.93800938	    189.46188207	      0.00000000
      0.17349481	     65.79039140	    193.86998901	      0.00000000
      0.17505783	     68.60431801	    198.20188675	      0.00000000
      0.17662085	     71.38063776	    202.46021057	      0.00000000
      0.17818386	     74.12001652	    206.64694232	      0.00000000
      0.17974688	     76.82352111	    210.76440628	      0.00000000
      0.18130990	     79.49303585	    214.81494542	      0.00000000
      0.18287291	     82.12918672	    218.79972719	      0.00000000
      0.18443593	     84.73476744	    222.72209092	      0.00000000
      0.18599894	     87.31084215	    226.58290260	      0.00000000
      0.18756196	     89.86157615	    230.38306210	      0.00000000
      0.18912498	     92.38734943	    234.12300102	      0.00000000
      0.19068799	     94.89136577	    237.80527421	      0.00000000
      0.19225101	     97.37548803	    241.43126173	      0.00000000
      0.19381403	     99.84095767	    245.00193653	      0.00000000
      0.19537704	    102.28971096	    248.51907450	      0.00000000
      0.19694006	    104.72175849	    251.98288634	      0.00000000
      0.19850308	    107.13885171	    255.39496488	      0.00000000
      0.20006609	    109.54108039	    258.75566973	      0.00000000
      0.20162911	    111.92964101	    262.06586158	      0.00000000
      0.20319212	    114.30508814	    265.32620043	      0.00000000
      0.20475514	    116.66830911	    268.53721598	      0.00000000
      0.20631816	    119.02022150	    271.69971655	      0.00000000
      0.20788117	    121.36134019	    274.81371940	      0.00000000
      0.20944419	    123.69254082	    277.87983701	      0.00000000
      0.21100721	    126.01421019	    280.89795563	      0.00000000
      0.21257022	    128.32710158	    283.86856767	      0.00000000
      0.21413324	    130.63157672	    286.79156067	      0.00000000
      0.21569626	    132.92826449	    289.66733462	      0.00000000
      0.21725927	    135.21750371	    292.49576948	      0.00000000
      0.21882229	    137.49981832	    295.27719658	      0.00000000
      0.22038530	    139.77557700	    298.01156253	      0.00000000
      0.22194832	    142.04525826	    300.69917581	      0.00000000
      0.22351134	    144.30923435	    303.34001283	      0.00000000
      0.22507435	    146.56796439	    305.93438406	      0.00000000
      0.22663737	    148.82182517	    308.48228769	      0.00000000
      0.22820039	    151.07125515	    310.98400070	      0.00000000
      0.22976340	    153.31667013	    313.43959092	      0.00000000
      0.23132642	    155.55853394	    315.84936288	      0.00000000
      0.23288943	    157.79727554	    318.21342049	      0.00000000
      0.23445245	    160.03338322	    320.53208911	      0.00000000
      0.23601547	    162.26731374	    322.80551561	      0.00000000
      0.23757848	    164.49956732	    325.03401802	      0.00000000
      0.23914150	    166.73064583	    327.21785261	      0.00000000
      0.24070452	    168.96107958	    329.35739703	      0.00000000
      0.24226753	    171.19136959	    331.45301273	      0.00000000
      0.24383055	    173.42204995	    333.50515437	      0.00000000
      0.24539357	    175.65360212	    335.51427488	      0.00000000
      0.24695658	    177.88654934	    337.48090741	      0.00000000
      0.24851960	    180.12132691	    339.40555931	      0.00000000
      0.25008261	    182.35841165	    341.28878776	      0.00000000
      0.25164563	    184.59818939	    343.13115074	      0.00000000
      0.25320865	    186.84107961	    344.93323253	      0.00000000
      0.25477166	    189.08739932	    346.69561991	      0.00000000
      0.25633468	    191.33749878	    348.41890876	      0.00000000
      0.25789770	    193.59159749	    350.10365171	      0.00000000
      0.25946071	    195.84994380	    351.75038698	      0.00000000
      0.26102373	    198.11266960	    353.35964069	      0.00000000
      0.26258675	    200.37993091	    354.93191460	      0.00000000
      0.26414976	    202.65179902	    356.46775149	      0.00000000
      0.26571278	    204.92836372	    357.96765824	      0.00000000
      0.26727579	    207.20964350	    359.43218902	      0.00000000
      0.26883881	    209.49566764	    360.86184377	      0.00000000
      0.27040183	    211.78636818	    362.25713128	      0.00000000
      0.27196484	    214.08169132	    363.61850801	      0.00000000
      0.27352786	    216.38148690	    364.94644596	      0.00000000
      0.27509088	    218.68563022	    366.24138456	      0.00000000
      0.27665389	    220.99388951	    367.50373605	      0.00000000
      0.27821691	    223.30605302	    368.73386520	      0.00000000
      0.27977992	    225.62181680	    369.93210180	      0.00000000
      0.28134294	    227.94089062	    371.09873199	      0.00000000
      0.28290596	    230.26299048	    372.23410036	      0.00000000
      0.28446897	    232.58781645	    373.33847623	      0.00000000
      0.28603199	    234.91508862	    374.41220449	      0.00000000
      0.28759501	    237.24451332	    375.45556328	      0.00000000
      0.28915802	    239.57587035	    376.46895089	      0.00000000
      0.29072104	    241.90892910	    377.45271163	      0.00000000
      0.29228406	    244.24359803	    378.40732768	      0.00000000
      0.29384707	    246.57975914	    379.33321149	      0.00000000
      0.29541009	    248.91736383	    380.23079742	      0.00000000
      0.29697310	    251.25632303	    381.10041955	      0.00000000
      0.29853612	    253.59657993	    381.94245184	      0.00000000
      0.30009914	    255.93805309	    382.75723274	      0.00000000
      0.30166215	    258.28082647	    383.54519783	      0.00000000
      0.30322517	    260.62496027	    384.30668315	      0.00000000
      0.30478819	    262.97055256	    385.04205621	      0.00000000
      0.30635120	    265.31773355	    385.75165680	      0.00000000
      0.30791422	    267.66675243	    386.43602885	      0.00000000
      0.30947724	    270.01782129	    387.09563622	      0.00000000
      0.31104025	    272.37129666	    387.73115936	      0.00000000
      0.31260327	    274.72741752	    388.34313684	      0.00000000
      0.31416628	    277.08643240	    388.93201161	      0.00000000
      0.31572930	    279.44853187	    389.49804798	      0.00000000
      0.31729232	    281.81388144	    390.04147753	      0.00000000
      0.31885533	    284.18341940	    390.56300311	      0.00000000
      0.32041835	    286.55844141	    391.06407663	      0.00000000
      0.32198137	    288.94034874	    391.54366047	      0.00000000
      0.32354438	    291.32776074	    392.00182957	      0.00000000
      0.32510740	    293.72176266	    392.43877928	      0.00000000
      0.32667042	    296.12368567	    392.85547980	      0.00000000
      0.32823343	    298.53449708	    393.25264078	      0.00000000
      0.32979645	    300.95447028	    393.62986653	      0.00000000
      0.33135946	    303.38409905	    393.98683158	      0.00000000
      0.33292248	    305.82417192	    394.32341071	      0.00000000
      0.33448550	    308.27538275	    394.63942228	      0.00000000
      0.33604851	    310.73823713	    394.93463120	      0.00000000
      0.33761153	    313.21337916	    395.20886810	      0.00000000
      0.33917455	    315.70107254	    395.46170798	      0.00000000
      0.34073756	    318.20183220	    395.69286457	      0.00000000
      0.34230058	    320.71577868	    395.90172155	      0.00000000
      0.34386359	    323.24330553	    396.08781321	      0.00000000
      0.34542661	    325.78426613	    396.25026137	      0.00000000
      0.34698963	    328.33883905	    396.38840025	      0.00000000
      0.34855264	    330.90655335	    396.50111668	      0.00000000
      0.35011566	    333.48731767	    396.58755912	      0.00000000
      0.35167868	    336.08030216	    396.64637730	      0.00000000
      0.35324169	    338.68509473	    396.67651203	      0.00000000
      0.35480471	    341.30049177	    396.67636233	      0.00000000
      0.35636773	    343.92574785	    396.64465483	      0.00000000
      0.35793074	    346.55929896	    396.57955835	      0.00000000
      0.35949376	    349.20005377	    396.47958519	      0.00000000
      0.36105677	    351.84614468	    396.34274598	      0.00000000
      0.36261979	    354.49617138	    396.16740420	      0.00000000
      0.36418281	    357.14800820	    395.95148187	      0.00000000
      0.36574582	    359.79999040	    395.69325983	      0.00000000
      0.36730884	    362.44977887	    395.39062372	      0.00000000
      0.36887186	    365.09548128	    395.04181649	      0.00000000
      0.37043487	    367.73460765	    394.64474200	      0.00000000
      0.37199789	    370.36508265	    394.19764808	      0.00000000
      0.37356091	    372.98433173	    393.69850837	      0.00000000
      0.37512392	    375.59014440	    393.14561194	      0.00000000
      0.37668694	    378.17992980	    392.53704633	      0.00000000
      0.37824995	    380.75139017	    391.87116869	      0.00000000
      0.37981297	    383.30198973	    391.14621503	      0.00000000
      0.38137599	    385.82939946	    390.36063148	      0.00000000
      0.38293900	    388.33119219	    389.51281185	      0.00000000
      0.38450202	    390.80505219	    388.60129054	      0.00000000
      0.38606504	    393.24870955	    387.62461685	      0.00000000
      0.38762805	    395.65990418	    386.58140745	      0.00000000
      0.38919107	    398.03654364	    385.47034553	      0.00000000
      0.39075409	    400.37644042	    384.29010420	      0.00000000
      0.39231710	    402.67772829	    383.03950767	      0.00000000
      0.39388012	    404.93834686	    381.71730320	      0.00000000
      0.39544313	    407.15679058	    380.32254164	      0.00000000
      0.39700615	    409.33134925	    378.85421375	      0.00000000
      0.39856917	    411.46079154	    377.31154365	      0.00000000
      0.40013218	    413.54363946	    375.69366132	      0.00000000
      0.40169520	    415.57887370	    373.99990810	      0.00000000
      0.40325822	    417.56524967	    372.22956163	      0.00000000
      0.40482123	    419.50205887	    370.38219391	      0.00000000
      0.40638425	    421.38836814	    368.45734495	      0.00000000
      0.40794726	    423.22350248	    366.45467454	      0.00000000
      0.40951028	    425.00662349	    364.37384670	      0.00000000
      0.41107330	    426.73689853	    362.21447323	      0.00000000
      0.41263631	    428.41333906	    359.97617970	      0.00000000
      0.41419933	    430.03472803	    357.65839200	      0.00000000
      0.41576235	    431.59962898	    355.26050948	      0.00000000
      0.41732536	    433.10617276	    352.78161787	      0.00000000
      0.41888838	    434.55214065	    350.22067860	      0.00000000
      0.42045140	    435.93494210	    347.57641544	      0.00000000
      0.42201441	    437.25144915	    344.84729950	      0.00000000
      0.42357743	    438.49826742	    342.03169845	      0.00000000
      0.42514044	    439.67126013	    339.12758351	      0.00000000
      0.42670346	    440.76619139	    336.13301987	      0.00000000
      0.42826648	    441.77783639	    333.04555507	      0.00000000
      0.42982949	    442.70138218	    329.86313516	      0.00000000
      0.43139251	    443.53083624	    326.58304658	      0.00000000
      0.43295553	    444.26090171	    323.20325302	      0.00000000
      0.43451854	    444.88494312	    319.72099429	      0.00000000
      0.43608156	    445.39743901	    316.13451721	      0.00000000
      0.43764458	    445.79137173	    312.44127948	      0.00000000
      0.43920759	    446.06097758	    308.63985627	      0.00000000
      0.44077061	    446.19882718	    304.72797051	      0.00000000
      0.44233362	    446.19885110	    300.70454252	      0.00000000
      0.44389664	    446.05322124	    296.56762360	      0.00000000
      0.44545966	    445.75539911	    292.31643569	      0.00000000
      0.44702267	    445.29697469	    287.94930053	      0.00000000
      0.44858569	    444.67131890	    283.46594489	      0.00000000
      0.45014871	    443.86967222	    278.86513324	      0.00000000
      0.45171172	    442.88523723	    274.14710351	      0.00000000
      0.45327474	    441.70886862	    269.31107966	      0.00000000
      0.45483776	    440.33320051	    264.35766024	      0.00000000
      0.45640077	    438.74834594	    259.28640020	      0.00000000
      0.45796379	    436.94646012	    254.09837516	      0.00000000
      0.45952680	    434.91695129	    248.79358935	      0.00000000
      0.46108982	    432.65199475	    243.37396364	      0.00000000
      0.46265284	    430.14074334	    237.84032948	      0.00000000
      0.46421585	    427.37570244	    232.19571506	      0.00000000
      0.46577887	    424.34642048	    226.44225315	      0.00000000
      0.46734189	    421.04496296	    220.58375682	      0.00000000
      0.46890490	    417.46075097	    214.62342206	      0.00000000
      0.47046792	    413.58543144	    208.56567141	      0.00000000
      0.47203093	    409.40848599	    202.41469199	      0.00000000
      0.47359395	    404.92102617	    196.17545502	      0.00000000
      0.47515697	    400.11257291	    189.85336730	      0.00000000
      0.47671998	    394.97100725	    183.45365608	      0.00000000
      0.47828300	    389.48420143	    176.98304034	      0.00000000
      0.47984602	    383.63471392	    170.44732050	      0.00000000
      0.48140903	    377.40702312	    163.85503377	      0.00000000
      0.48297205	    370.77709936	    157.21319154	      0.00000000
      0.48453507	    363.72562318	    150.53253388	      0.00000000
      0.48609808	    356.22009734	    143.82059435	      0.00000000
      0.48766110	    348.23586401	    137.08889338	      0.00000000
      0.48922411	    339.73020098	    130.34421045	      0.00000000
      0.49078713	    330.67004792	    123.59698763	      0.00000000
      0.49235015	    321.00402648	    116.85381571	      0.00000000
      0.49391316	    310.69160178	    110.12360262	      0.00000000
      0.49547618	    299.67918919	    103.41430962	      0.00000000
      0.49703920	    287.91571229	     96.72460779	      0.00000000
      0.49860221	    275.36755740	     90.07410061	      0.00000000
      0.50016523	    261.98378253	     83.42829697	      0.00000000
      0.50172825	    247.79913152	     76.84758540	      0.00000000
      0.50329126	    233.28859284	     69.92197863	      0.00000000
      0.50485428	    218.02422333	     63.67664367	      0.00000000
      0.50641729	    202.00131150	     57.80128935	      0.00000000
      0.50798031	    185.20255044	     52.05083695	      0.00000000
      0.50954333	    168.20006134	     46.59120539	      0.00000000
      0.51110634	    149.86997017	     41.33564848	      0.00000000
      0.51266936	    131.86915773	     36.54625764	      0.00000000
      0.51423238	    107.95251955	     31.60218477	      0.00000000
      0.51579539	     75.39524070	     25.99849728	      0.00000000
      0.51735841	     43.56732071	     19.86175569	      0.00000000
      0.51892143	     37.01944225	     17.07085658	      0.00000000
      0.52048444	     36.41595949	     16.00864392	      0.00000000
      0.52204746	     34.65796753	     14.43477356	      0.00000000
      0.52361047	     32.99457715	     12.99565389	      0.00000000
      0.52517349	     31.66281416	     11.78444007	      0.00000000
      0.52673651	     30.57021874	     10.71379036	      0.00000000
      0.52829952	     29.75985227	      9.76020938	      0.00000000
      0.52986254	     29.15646892	      8.87514026	      0.00000000
      0.53142556	     28.70873517	      8.03463266	      0.00000000
      0.53298857	     28.36625270	      7.22179037	      0.00000000
      0.53455159	     28.07875565	      6.42809288	      0.00000000
      0.53611460	     27.82598830	      5.65087195	      0.00000000
      0.53767762	     27.57734521	      4.88974411	      0.00000000
      0.53924064	     27.32570237	      4.14782610	      0.00000000
      0.54080365	     27.05655423	      3.42790571	      0.00000000
      0.54236667	     26.76946330	      2.73325425	      0.00000000
      0.54392969	     26.46012743	      2.06652329	      0.00000000
      0.54549270	     26.13032348	      1.42963024	      0.00000000
      0.54705572	     25.77957204	      0.82384852	      0.00000000
      0.54861874	     25.40897603	      0.24956447	      0.00000000
      0.55018175	     25.01853133	     -0.29331163	      0.00000000
      0.55174477	     24.60885308	     -0.80534519	      0.00000000
      0.55330778	     24.18013969	     -1.28745631	      0.00000000
      0.55487080	     23.73360045	     -1.74069139	      0.00000000
      0.55643382	     23.27023933	     -2.16639296	      0.00000000
      0.55799683	     22.79240530	     -2.56583612	      0.00000000
      0.55955985	     22.30248253	     -2.94054812	      0.00000000
      0.56112287	     21.80381177	     -3.29192679	      0.00000000
      0.56268588	     21.29992491	     -3.62157510	      0.00000000
      0.56424890	     20.79436470	     -3.93095023	      0.00000000
      0.56581192	     20.29103274	     -4.22164796	      0.00000000
      0.56737493	     19.79280768	     -4.49509938	      0.00000000
      0.56893795	     19.30301338	     -4.75303675	      0.00000000
      0.57050096	     18.82306030	     -4.99837003	      0.00000000
      0.57206398	     18.35482970	     -5.23290026	      0.00000000
      0.57362700	     17.89794668	     -5.45794408	      0.00000000
      0.57519001	     17.45213236	     -5.67476338	      0.00000000
      0.57675303	     17.01535563	     -5.88435580	      0.00000000
      0.57831605	     16.58546090	     -6.08764008	      0.00000000
      0.57987906	     16.15954346	     -6.28528904	      0.00000000
      0.58144208	     15.73430446	     -6.47788550	      0.00000000
      0.58300510	     15.30678805	     -6.66581994	      0.00000000
      0.58456811	     14.87350452	     -6.84939690	      0.00000000
      0.58613113	     14.43215974	     -7.02879863	      0.00000000
      0.58769414	     13.97993627	     -7.20413887	      0.00000000
      0.58925716	     13.51555303	     -7.37547266	      0.00000000
      0.59082018	     13.03731524	     -7.54281156	      0.00000000
      0.59238319	     12.54485586	     -7.70614657	      0.00000000
      0.59394621	     12.03756112	     -7.86545076	      0.00000000
      0.59550923	     11.51555227	     -8.02068194	      0.00000000
      0.59707224	     10.97879541	     -8.17179459	      0.00000000
      0.59863526	     10.42744560	     -8.31871634	      0.00000000
      0.60019827	      9.86152560	     -8.46124399	      0.00000000
      0.60176129	      9.28122592	     -8.59900733	      0.00000000
      0.60332431	      8.68679382	     -8.73191135	      0.00000000
      0.60488732	      8.07857502	     -8.85986400	      0.00000000
      0.60645034	      7.45699219	     -8.98279419	      0.00000000
      0.60801336	      6.82231551	     -9.10061812	      0.00000000
      0.60957637	      6.17550446	     -9.21332098	      0.00000000
      0.61113939	      5.51597526	     -9.32077338	      0.00000000
      0.61270241	      4.84632967	     -9.42311329	      0.00000000
      0.61426542	      4.16481385	     -9.52013333	      0.00000000
      0.61582844	      3.77289756	     -9.66176592	      0.00000000
      0.61739145	      3.07520243	     -9.74467362	      0.00000000
      0.61895447	      2.36009437	     -9.82127944	      0.00000000
      0.62051749	      1.63312439	     -9.89213861	      0.00000000
      0.62208050	      0.89581039	     -9.95744976	      0.00000000
      0.62364352	      0.14937583	    -10.01740078	      0.00000000
      0.62520654	     -0.60465261	    -10.07223838	      0.00000000
      0.62676955	     -1.36516884	    -10.12218084	      0.00000000
      0.62833257	     -2.13117351	    -10.16745034	      0.00000000
      0.62989559	     -2.90162800	    -10.20828768	      0.00000000
      0.63145860	     -3.67494717	    -10.24501630	      0.00000000
      0.63302162	     -4.45014862	    -10.27789381	      0.00000000
      0.63458463	     -5.22637152	    -10.30717295	      0.00000000
      0.63614765	     -6.00376937	    -10.33297871	      0.00000000
      0.63771067	     -6.78263210	    -10.35542571	      0.00000000
      0.63927368	     -7.56337093	    -10.37461550	      0.00000000
      0.64083670	     -8.34630891	    -10.39067166	      0.00000000
      0.64239972	     -9.13123625	    -10.40379567	      0.00000000
      0.64396273	     -9.91777927	    -10.41422314	      0.00000000
      0.64552575	    -10.70565449	    -10.42218265	      0.00000000
      0.64708877	    -11.49494168	    -10.42786431	      0.00000000
      0.64865178	    -12.28576825	    -10.43145942	      0.00000000
      0.65021480	    -13.07819794	    -10.43318097	      0.00000000
      0.65177781	    -13.87207632	    -10.43328067	      0.00000000
      0.65334083	    -14.66725465	    -10.43202105	      0.00000000
      0.65490385	    -15.46350834	    -10.42968257	      0.00000000
      0.65646686	    -16.26067148	    -10.42654778	      0.00000000
      0.65802988	    -17.05859159	    -10.42290618	      0.00000000
      0.65959290	    -17.85704657	    -10.41906572	      0.00000000
      0.66115591	    -18.65603032	    -10.41531067	      0.00000000
      0.66271893	    -19.45556682	    -10.41192993	      0.00000000
      0.66428194	    -20.25595035	    -10.40918182	      0.00000000
      0.66584496	    -21.05746596	    -10.40733721	      0.00000000
      0.66740798	    -21.86050789	    -10.40666300	      0.00000000
      0.66897099	    -22.66538626	    -10.40744925	      0.00000000
      0.67053401	    -23.47259423	    -10.40997154	      0.00000000
      0.67209703	    -24.28264870	    -10.41451558	      0.00000000
      0.67366004	    -25.09632381	    -10.42134531	      0.00000000
      0.67522306	    -25.91448524	    -10.43074869	      0.00000000
      0.67678608	    -26.73797838	    -10.44304710	      0.00000000
      0.67834909	    -27.56770815	    -10.45853802	      0.00000000
      0.67991211	    -28.40421600	    -10.47758378	      0.00000000
      0.68147512	    -29.24808228	    -10.50055736	      0.00000000
      0.68303814	    -30.09943872	    -10.52790163	      0.00000000
      0.68460116	    -30.95842683	    -10.56006489	      0.00000000
      0.68616417	    -31.82494839	    -10.59753173	      0.00000000
      0.68772719	    -32.69888201	    -10.64078942	      0.00000000
      0.68929021	    -33.58018079	    -10.69031972	      0.00000000
      0.69085322	    -34.46875047	    -10.74660907	      0.00000000
      0.69241624	    -35.36477717	    -10.81011620	      0.00000000
      0.69397926	    -36.26840172	    -10.88130896	      0.00000000
      0.69554227	    -37.18004175	    -10.96063313	      0.00000000
      0.69710529	    -38.10008448	    -11.04854819	      0.00000000
      0.69866830	    -39.02903961	    -11.14551228	      0.00000000
      0.70023132	    -39.96740520	    -11.25199898	      0.00000000
      0.70179434	    -40.91563694	    -11.36849803	      0.00000000
      0.70335735	    -41.87419766	    -11.49551290	      0.00000000
      0.70492037	    -42.84342381	    -11.63356919	      0.00000000
      0.70648339	    -43.82366890	    -11.78320322	      0.00000000
      0.70804640	    -44.81516242	    -11.94496998	      0.00000000
      0.70960942	    -45.81815422	    -12.11943288	      0.00000000
      0.71117244	    -46.83280126	    -12.30716869	      0.00000000
      0.71273545	    -47.85927981	    -12.50876168	      0.00000000
      0.71429847	    -48.89767796	    -12.72480693	      0.00000000
      0.71586148	    -49.94810090	    -12.95590608	      0.00000000
      0.71742450	    -51.01053476	    -13.20267017	      0.00000000
      0.71898752	    -52.08497297	    -13.46571415	      0.00000000
      0.72055053	    -53.17125741	    -13.74565784	      0.00000000
      0.72211355	    -54.26921803	    -14.04311890	      0.00000000
      0.72367657	    -55.37855058	    -14.35870984	      0.00000000
      0.72523958	    -56.49891311	    -14.69303141	      0.00000000
      0.72680260	    -57.62992556	    -15.04666653	      0.00000000
      0.72836561	    -58.77114189	    -15.42017719	      0.00000000
      0.72992863	    -59.92224289	    -15.81410129	      0.00000000
      0.73149165	    -61.08282969	    -16.22895648	      0.00000000
      0.73305466	    -62.25280754	    -16.66524808	      0.00000000
      0.73461768	    -63.43202504	    -17.12347973	      0.00000000
      0.73618070	    -64.62071553	    -17.60417062	      0.00000000
      0.73774371	    -65.81912352	    -18.10786689	      0.00000000
      0.73930673	    -67.02772957	    -18.63515217	      0.00000000
      0.74086975	    -68.24710602	    -19.18665674	      0.00000000
      0.74243276	    -69.47765176	    -19.76304264	      0.00000000
      0.74399578	    -70.71988574	    -20.36501521	      0.00000000
      0.74555879	    -71.97371335	    -20.99327674	      0.00000000
      0.74712181	    -73.23908588	    -21.64854216	      0.00000000
      0.74868483	    -74.51525787	    -22.33148438	      0.00000000
      0.75024784	    -75.80143024	    -23.04274688	      0.00000000
      0.75181086	    -77.09652362	    -23.78292542	      0.00000000
      0.75337388	    -78.39946259	    -24.55257250	      0.00000000
      0.75493689	    -79.70932257	    -25.35222071	      0.00000000
      0.75649991	    -81.02519181	    -26.18236782	      0.00000000
      0.75806293	    -82.34620076	    -27.04348949	      0.00000000
      0.75962594	    -83.67131317	    -27.93600688	      0.00000000
      0.76118896	    -84.99939743	    -28.86029212	      0.00000000
      0.76275197	    -86.32916530	    -29.81664621	      0.00000000
      0.76431499	    -87.65954713	    -30.80535144	      0.00000000
      0.76587801	    -88.98930071	    -31.82661784	      0.00000000
      0.76744102	    -90.31778956	    -32.88070359	      0.00000000
      0.76900404	    -91.64416878	    -33.96781393	      0.00000000
      0.77056706	    -92.96851500	    -35.08828273	      0.00000000
      0.77213007	    -94.29111329	    -36.24251432	      0.00000000
      0.77369309	    -95.61261052	    -37.43101174	      0.00000000
      0.77525610	    -96.93381293	    -38.65438077	      0.00000000
      0.77681912	    -98.25465299	    -39.91310399	      0.00000000
      0.77838214	    -99.57458401	    -41.20758037	      0.00000000
      0.77994515	   -100.89307901	    -42.53819309	      0.00000000
      0.78150817	   -102.21057963	    -43.90555555	      0.00000000
      0.78307119	   -103.52658618	    -45.31010067	      0.00000000
      0.78463420	   -104.83952306	    -46.75197324	      0.00000000
      0.78619722	   -106.14815745	    -48.23132770	      0.00000000
      0.78776024	   -107.45192666	    -49.74845264	      0.00000000
      0.78932325	   -108.75106859	    -51.30385411	      0.00000000
      0.79088627	   -110.04612506	    -52.89818203	      0.00000000
      0.79244928	   -111.33644254	    -54.53178893	      0.00000000
      0.79401230	   -112.62022027	    -56.20464841	      0.00000000
      0.79557532	   -113.89619943	    -57.91680775	      0.00000000
      0.79713833	   -115.16410855	    -59.66859467	      0.00000000
      0.79870135	   -116.42410694	    -61.46050212	      0.00000000
      0.80026437	   -117.67576139	    -63.29286902	      0.00000000
      0.80182738	   -118.91881481	    -65.16609643	      0.00000000
      0.80339040	   -120.15308927	    -67.08064812	      0.00000000
      0.80495342	   -121.37894524	    -69.03721545	      0.00000000
      0.80651643	   -122.59701794	    -71.03669001	      0.00000000
      0.80807945	   -123.80785169	    -73.08001476	      0.00000000
      0.80964246	   -125.01200213	    -75.16824707	      0.00000000
      0.81120548	   -126.20947824	    -77.30229848	      0.00000000
      0.81276850	   -127.40041642	    -79.48320170	      0.00000000
      0.81433151	   -128.58441166	    -81.71181033	      0.00000000
      0.81589453	   -129.76114408	    -83.98904527	      0.00000000
      0.81745755	   -130.92991077	    -86.31568246	      0.00000000
      0.81902056	   -132.09011946	    -88.69255238	      0.00000000
      0.82058358	   -133.24074394	    -91.12029255	      0.00000000
      0.82214660	   -134.38064438	    -93.59942977	      0.00000000
      0.82370961	   -135.50842014	    -96.13033586	      0.00000000
      0.82527263	   -136.62228558	    -98.71312130	      0.00000000
      0.82683564	   -137.72135366	   -101.34829809	      0.00000000
      0.82839866	   -138.80547408	   -104.03678479	      0.00000000
      0.82996168	   -139.87407937	   -106.77934281	      0.00000000
      0.83152469	   -140.92627369	   -109.57655403	      0.00000000
      0.83308771	   -141.95982352	   -112.42820188	      0.00000000
      0.83465073	   -142.97228869	   -115.33374149	      0.00000000
      0.83621374	   -143.96090043	   -118.29224493	      0.00000000
      0.83777676	   -144.92313636	   -121.30263521	      0.00000000
      0.83933977	   -145.85654761	   -124.36366320	      0.00000000
      0.84090279	   -146.75869423	   -127.47374715	      0.00000000
      0.84246581	   -147.62700684	   -130.63093881	      0.00000000
      0.84402882	   -148.45860327	   -133.83260639	      0.00000000
      0.84559184	   -149.25149560	   -137.07630080	      0.00000000
      0.84715486	   -150.00420152	   -140.35940789	      0.00000000
      0.84871787	   -150.71643296	   -143.67977062	      0.00000000
      0.85028089	   -151.38850187	   -147.03519165	      0.00000000
      0.85184391	   -152.02101431	   -150.42331977	      0.00000000
      0.85340692	   -152.61468104	   -153.84125528	      0.00000000
      0.85496994	   -153.17110010	   -157.28625698	      0.00000000
      0.85653295	   -153.69236706	   -160.75524751	      0.00000000
      0.85809597	   -154.18273916	   -164.24640948	      0.00000000
      0.85965899	   -154.64751729	   -167.75833966	      0.00000000
      0.86122200	   -155.09300821	   -171.29037365	      0.00000000
      0.86278502	   -155.52591489	   -174.84207026	      0.00000000
      0.86434804	   -155.95112928	   -178.41153507	      0.00000000
      0.86591105	   -156.37154928	   -181.99477529	      0.00000000
      0.86747407	   -156.79013271	   -185.58783605	      0.00000000
      0.86903709	   -157.20777491	   -189.18489191	      0.00000000
      0.87060010	   -157.62827378	   -192.78376724	      0.00000000
      0.87216312	   -158.05093757	   -196.37968154	      0.00000000
      0.87372613	   -158.47915672	   -199.97472213	      0.00000000
      0.87528915	   -158.89465783	   -203.55059619	      0.00000000
      0.87685217	   -160.98540083	   -209.21381903	      0.00000000
      0.87841518	   -161.37125562	   -212.73820819	      0.00000000
      0.87997820	   -161.75326526	   -216.26654898	      0.00000000
      0.88154122	   -162.08459979	   -219.76423628	      0.00000000
      0.88310423	   -162.31976174	   -223.18412694	      0.00000000
      0.88466725	   -162.43995438	   -226.51165360	      0.00000000
      0.88623027	   -162.42925996	   -229.73537492	      0.00000000
      0.88779328	   -162.27421886	   -232.84673357	      0.00000000
      0.88935630	   -161.96454780	   -235.83783375	      0.00000000
      0.89091931	   -161.49416159	   -238.70319215	      0.00000000
      0.89248233	   -160.86211135	   -241.43953026	      0.00000000
      0.89404535	   -160.07254003	   -244.04748848	      0.00000000
      0.89560836	   -159.13374345	   -246.53052509	      0.00000000
      0.89717138	   -158.05704663	   -248.89450013	      0.00000000
      0.89873440	   -156.85568706	   -251.14637577	      0.00000000
      0.90029741	   -155.54415356	   -253.29399005	      0.00000000
      0.90186043	   -154.13713062	   -255.34492535	      0.00000000
      0.90342344	   -152.64932880	   -257.30664853	      0.00000000
      0.90498646	   -151.09465299	   -259.18580301	      0.00000000
      0.90654948	   -149.48639883	   -260.98821373	      0.00000000
      0.90811249	   -147.83673161	   -262.71886037	      0.00000000
      0.90967551	   -146.15705888	   -264.38160412	      0.00000000
      0.91123853	   -144.45773542	   -265.97977609	      0.00000000
      0.91280154	   -142.74844333	   -267.51558623	      0.00000000
      0.91436456	   -141.03804581	   -268.99119152	      0.00000000
      0.91592758	   -139.33488822	   -270.40787664	      0.00000000
      0.91749059	   -137.64680698	   -271.76728713	      0.00000000
      0.91905361	   -135.98143649	   -273.07054684	      0.00000000
      0.92061662	   -134.34600560	   -274.31924772	      0.00000000
      0.92217964	   -132.74759314	   -275.51503510	      0.00000000
      0.92374266	   -131.19379198	   -276.65964337	      0.00000000
      0.92530567	   -129.69256836	   -277.75517079	      0.00000000
      0.92686869	   -128.25322471	   -278.80314930	      0.00000000
      0.92843171	   -126.88608415	   -279.80637817	      0.00000000
      0.92999472	   -125.60405995	   -280.76379693	      0.00000000
      0.93155774	   -124.42309477	   -281.67392322	      0.00000000
      0.93312076	   -123.36339394	   -282.53692776	      0.00000000
      0.93468377	   -122.44160683	   -283.38915543	      0.00000000
      0.93624679	   -121.70112222	   -284.19074249	      0.00000000
      0.93780980	   -121.19630277	   -284.90213061	      0.00000000
