moco_WoC_Solution_iter01_metabolic
nRows=601
nColumns=6
inDegrees=no
Body mass(kg)=80.0000
Distance(m)=1.2772
Total metabolic energy(J)=617.0265
Avg metabolic rate(W)=861.8059
endheader
time	met_rate_W	act_rate_W	maint_rate_W	short_rate_W	mech_rate_W
0.000000	1364.505313	411.781183	409.985719	269.627958	176.996815
0.001193	1367.612975	410.713442	408.979185	273.704417	178.095964
0.002387	1370.237061	409.654183	407.977106	277.525372	178.951899
0.003580	1372.365252	408.549015	407.140890	280.916829	179.628185
0.004773	1374.073492	407.447383	406.304513	284.010915	180.176676
0.005966	1375.316262	406.353367	405.413239	286.804936	180.602536
0.007160	1376.116741	405.263797	404.522925	289.263700	180.913298
0.008353	1376.323055	404.139684	403.515095	291.366499	181.136310
0.009546	1375.998166	403.019875	402.396364	293.105641	181.296877
0.010740	1375.292390	401.917796	401.285402	294.477673	181.417163
0.011933	1374.207480	400.819762	400.178466	295.483864	181.515729
0.013126	1372.810367	399.746573	399.093187	296.131103	181.614666
0.014319	1371.090415	398.676949	398.011994	296.429520	181.732339
0.015513	1369.138962	397.641709	396.963629	296.394462	181.885407
0.016706	1366.926105	396.609785	395.919556	296.042055	182.087559
0.017899	1364.517367	395.599248	394.898463	295.391752	182.348186
0.019093	1361.903223	394.592064	393.881951	294.463053	182.674700
0.020286	1359.104297	393.586863	392.871032	293.276069	183.067962
0.021479	1356.141890	392.585147	391.864907	291.851020	183.528298
0.022672	1353.004533	391.572016	390.853552	290.204611	184.052410
0.023866	1349.760023	390.562508	389.817712	288.376407	184.672668
0.025059	1346.331582	389.518257	388.785462	286.374452	185.314480
0.026252	1342.783098	388.477806	387.758010	284.205196	185.995446
0.027445	1339.105252	387.424354	386.731317	281.887000	186.708665
0.028639	1335.332408	386.375071	385.709489	279.438989	187.448022
0.029832	1331.489812	385.327143	384.709892	276.880709	188.204614
0.031025	1327.575179	384.283934	383.715366	274.231111	188.970934
0.032219	1323.664066	383.263555	382.773871	271.512068	189.734552
0.033412	1319.700857	382.248721	381.837861	268.742851	190.485368
0.034605	1315.841827	381.289557	381.000998	265.960505	191.198772
0.035798	1311.942988	380.337373	380.171224	263.496788	191.539726
0.036992	1308.161871	379.444944	379.453205	260.578515	192.281433
0.038185	1304.350811	378.561700	378.743299	257.783128	192.852950
0.039378	1300.675130	377.735417	378.137426	255.034012	193.352575
0.040572	1297.006223	376.920677	377.534812	252.395625	193.733415
0.041765	1293.437257	376.141221	376.996416	249.839239	194.032699
0.042958	1289.900772	375.375028	376.467311	247.393881	194.230864
0.044151	1286.376123	374.600434	375.945168	245.042181	194.348669
0.045345	1282.893336	373.839837	375.432528	242.792260	194.383071
0.046538	1279.342145	373.032238	374.880253	240.628125	194.349988
0.047731	1275.834194	372.238593	374.337131	238.546387	194.254715
0.048925	1272.183597	371.361555	373.716456	236.529318	194.113219
0.050118	1269.171970	370.498005	373.104280	235.041414	193.935791
0.051311	1266.674998	369.513834	372.381530	234.579316	193.740355
0.052504	1264.361287	368.542523	371.666516	234.133837	193.540525
0.053698	1261.752086	367.416030	370.814176	233.683564	193.354897
0.054891	1259.167834	366.301789	369.968822	233.211619	193.197963
0.056084	1256.240344	365.000303	368.963556	232.698795	193.086312
0.057278	1253.332435	363.710564	367.964576	232.130124	193.032583
0.058471	1250.021214	362.201105	366.783247	231.490672	193.048943
0.059664	1246.723179	360.702987	365.607498	230.769308	193.144082
0.060857	1243.064009	359.012573	364.269971	229.956483	193.324204
0.062051	1239.411131	357.333269	362.937414	229.045609	193.593210
0.063244	1235.501684	355.525922	361.490152	228.032186	193.951508
0.064437	1231.591111	353.729679	360.047480	226.913825	194.398500
0.065631	1227.489643	351.847507	358.521274	225.689818	194.930202
0.066824	1223.379163	349.976547	356.999429	224.361097	195.542515
0.068017	1219.120462	348.048339	355.415986	222.929281	196.228932
0.069210	1214.845045	346.131494	353.836764	221.397424	196.983429
0.070404	1210.455082	344.180371	352.214044	219.768153	197.798771
0.071597	1206.041831	342.240796	350.595486	218.045473	198.668541
0.072790	1201.537821	340.283183	348.947128	216.231401	199.586221
0.073983	1197.005663	338.337389	347.302974	214.328961	200.546147
0.075177	1192.396590	336.383134	345.637953	212.338154	201.543152
0.076370	1187.756363	334.441013	343.977240	210.276878	202.572824
0.077563	1183.051508	332.497916	342.303729	208.192562	203.631570
0.078757	1178.313887	330.567189	340.634600	206.072880	204.716414
0.079950	1173.522089	328.641822	338.960329	203.879504	205.825182
0.081143	1168.692134	326.728731	337.290320	201.617052	206.956266
0.082336	1163.828926	324.824492	335.620168	199.284256	208.108512
0.083530	1159.032566	322.932036	333.953920	196.889683	209.281354
0.084723	1154.233939	321.053855	332.295212	194.425395	210.474691
0.085916	1149.406364	319.186456	330.639755	191.903848	211.689176
0.087110	1144.597385	317.350392	329.014303	189.316612	212.927067
0.088303	1139.783277	315.523350	327.391016	186.685913	214.190714
0.089496	1135.062317	313.746583	325.825004	184.011154	215.481997
0.090689	1130.322498	311.976883	324.259989	181.282977	216.803235
0.091883	1125.681685	310.265801	322.768679	178.493724	218.153525
0.093076	1121.013608	308.560709	321.277806	175.642421	219.532701
0.094269	1116.414452	306.900549	319.848684	172.730248	220.935323
0.095463	1111.777071	305.246906	318.420531	169.756069	222.357232
0.096656	1107.149416	303.619203	317.031116	166.717520	223.792623
0.097849	1102.485046	301.999654	315.643990	163.612516	225.237172
0.099042	1098.929572	300.376641	314.253591	161.155099	226.692903
0.100236	1096.369193	298.763011	312.866491	160.367599	228.162147
0.101429	1093.940392	297.119336	311.438823	159.607119	229.652320
0.102622	1091.713287	295.485402	310.014821	158.873203	231.169782
0.103816	1089.402769	293.796552	308.517061	158.165575	232.723285
0.105009	1087.173124	292.117103	307.022801	157.484693	234.319585
0.106202	1084.835935	290.361980	305.427864	156.830963	235.965440
0.107395	1082.591551	288.615639	303.836000	156.205298	237.665207
0.108589	1080.232786	286.785790	302.133212	155.607481	239.421350
0.109782	1077.970787	284.964282	300.433142	155.034102	241.234090
0.110975	1075.615064	283.068037	298.632917	154.500410	243.101088
0.112169	1073.348764	281.180024	296.835283	154.095046	245.018342
0.113362	1071.018138	279.237109	294.962612	153.749738	246.979759
0.114555	1068.795956	277.302524	293.092605	153.429181	248.978294
0.115748	1066.640389	275.333336	291.173979	153.136128	251.005785
0.116942	1064.554208	273.372629	289.258206	152.871423	253.053684
0.118135	1062.445873	271.389731	287.310863	152.632387	255.113152
0.119328	1060.374070	269.415489	285.366644	152.416713	257.175278
0.120521	1058.267876	267.421127	283.394977	152.220555	259.231252
0.121715	1056.175073	265.435653	281.426781	152.040401	261.272282
0.122908	1054.010311	263.424185	279.424981	151.871521	263.289683
0.124101	1051.833316	261.421911	277.427050	151.709676	265.274759
0.125295	1049.536208	259.383958	275.384206	151.549439	267.218712
0.126488	1047.199998	257.355572	273.345655	151.386234	269.112680
0.127681	1044.693089	255.281482	271.250170	151.214177	270.947451
0.128874	1042.118928	253.217399	269.159424	151.028628	272.713727
0.130068	1039.325762	251.099265	267.001626	150.823472	274.401727
0.131261	1036.436073	248.991659	264.849041	150.594205	276.001595
0.132454	1033.284031	246.824366	262.622484	150.334675	277.503058
0.133648	1030.005653	244.668213	260.401657	150.040690	278.895807
0.134841	1026.429075	242.450254	258.104088	149.706259	280.169390
0.136034	1022.696852	240.244141	255.812820	149.327708	281.313356
0.137227	1018.641235	237.978480	253.447297	148.899434	282.317514
0.138421	1014.402492	235.725455	251.088704	148.418511	283.171707
0.139614	1009.828067	233.419862	248.664205	147.879965	283.866399
0.140807	1005.046033	231.127740	246.247319	147.281807	284.392121
0.142001	999.927569	228.793610	243.777590	146.619867	284.740153
0.143194	994.580462	226.473774	241.316185	145.893102	284.901885
0.144387	988.901501	224.123188	238.816312	145.098162	284.869274
0.145580	982.974537	221.787645	236.324302	144.234687	284.634433
0.146774	976.714355	219.430518	233.801856	143.299932	284.189769
0.147967	970.184518	217.089103	231.282765	142.293791	283.527869
0.149160	963.290113	214.733254	228.711650	141.213804	282.641712
0.150354	956.120723	212.393765	226.154162	140.059905	281.524466
0.151547	948.625321	210.046362	223.591805	138.829657	280.170171
0.152740	940.842538	207.715996	221.043613	137.523331	278.573107
0.153933	932.728881	205.381536	218.494333	136.138264	276.728655
0.155127	924.315949	203.064765	215.959757	134.672626	274.632528
0.156320	915.790408	200.743377	213.421474	133.357198	272.281223
0.157513	907.582509	198.440231	210.898366	132.559259	269.671642
0.158707	899.557917	196.133491	208.371429	132.274419	266.800509
0.159900	891.255550	193.845469	205.860095	131.895773	263.662912
0.161093	882.580672	191.569427	203.366248	131.387700	260.258088
0.162286	873.577906	189.312285	200.888346	130.785588	256.586423
0.163480	863.992154	187.073770	198.466805	130.013871	252.426372
0.164673	854.162618	184.854222	196.033910	129.137422	248.125446
0.165866	844.006198	182.664956	193.652174	128.030546	243.556927
0.167059	833.689870	180.494795	191.287701	126.835609	238.717621
0.168253	823.155388	178.399261	189.050002	125.278712	233.586618
0.169446	812.273746	176.324534	186.832754	123.622572	228.148686
0.170639	801.241800	174.459538	184.961172	121.634959	222.342392
0.171833	790.054521	172.624767	183.122257	119.841901	216.122901
0.173026	778.528123	171.100900	181.777626	118.585741	209.437920
0.174219	767.842389	169.630017	180.489969	118.410832	202.257719
0.175412	757.415101	168.304141	179.424700	118.136631	194.632799
0.176606	746.768082	167.036953	178.423011	117.930531	186.615873
0.177799	736.052888	165.897791	177.620086	117.659909	178.287899
0.178992	725.135525	164.814457	176.879194	117.322612	169.726932
0.180186	714.381651	163.837247	176.312500	117.038883	161.027636
0.181379	703.723603	162.907826	175.712231	116.725246	152.277424
0.182572	693.162529	162.005071	175.158509	116.331058	143.557334
0.183765	682.493672	161.140392	174.652943	115.648945	134.937200
0.184959	671.801583	160.194087	173.956036	115.069383	126.465026
0.186152	661.002637	159.274861	173.021629	114.410486	118.175413
0.187345	650.107812	158.224977	171.910788	113.783194	110.065757
0.188539	639.080761	157.193719	170.796980	112.839880	102.123361
0.189732	627.949448	156.069634	169.578385	111.914508	94.257130
0.190925	616.671157	154.960754	168.362006	110.838978	86.377937
0.192118	605.733111	153.827240	167.133310	110.917808	77.728705
0.193312	594.673208	152.709715	165.912448	112.278057	67.672807
0.194505	584.053006	151.693880	164.831935	117.253049	54.153892
0.195698	575.028920	150.722698	163.781231	128.877518	35.587277
0.196892	566.043855	149.731649	162.684448	144.870511	12.727447
0.198085	557.198287	148.787631	161.620178	164.396379	-13.611794
0.199278	548.855163	147.980580	160.788804	186.515509	-42.421661
0.200471	541.418744	147.219928	159.993190	210.965022	-72.745973
0.201665	538.605773	146.916444	159.979387	239.409393	-103.685212
0.202858	536.498851	146.697467	160.039994	268.101878	-134.423041
0.204051	536.506016	146.914194	160.778939	296.781679	-164.056530
0.205245	537.080209	147.282653	161.628965	323.895806	-191.772240
0.206438	536.904240	147.165442	161.850493	348.034855	-216.142348
0.207631	536.982358	147.138969	162.145338	367.619002	-235.904448
0.208824	534.737537	146.102492	161.167977	381.279516	-249.806482
0.210018	532.333683	145.093105	160.220779	388.167604	-257.145446
0.211211	529.295160	143.984300	159.172591	388.293914	-258.154147
0.212404	525.906904	142.900114	158.147363	382.202084	-253.341600
0.213597	523.290490	142.431480	157.889006	370.595196	-243.624454
0.214791	520.273244	142.017382	157.659525	354.448937	-229.852113
0.215984	517.005165	141.610318	157.443134	334.729395	-212.777396
0.217177	513.709528	141.260729	157.247951	312.645401	-193.442502
0.218371	508.608191	140.158611	156.192664	289.024865	-173.046616
0.219564	503.785883	139.084083	155.145490	265.678395	-152.917589
0.220757	497.264524	137.259846	153.274255	243.736448	-134.129144
0.221950	500.731296	135.454719	151.419351	234.804134	-117.210097
0.223144	503.958072	133.349397	149.253132	227.699971	-102.336752
0.224337	505.555523	131.266012	147.113789	220.596809	-89.418091
0.225530	520.019536	129.382797	145.213072	227.710231	-78.285115
0.226724	535.531833	127.522732	143.339477	237.410787	-68.739746
0.227917	549.864213	126.187576	142.049687	246.211573	-60.582541
0.229110	561.738577	124.884428	140.783954	253.711715	-53.638136
0.230303	572.164424	124.268272	140.251345	259.441442	-47.790378
0.231497	579.360821	123.712192	139.754234	263.041803	-43.135712
0.232690	583.806458	123.693674	139.810446	264.133220	-39.819945
0.233883	583.769355	123.768653	139.922951	262.546785	-38.485250
0.235077	579.452889	123.672955	139.878087	258.248860	-40.275340
0.236270	582.925681	123.671711	139.855677	269.379034	-47.017607
0.237463	586.305222	121.996597	138.310698	290.727720	-61.225113
0.238656	588.812561	120.393879	136.876692	321.219192	-85.675342
0.239850	585.785868	116.579891	133.440284	362.310137	-122.530981
0.241043	580.585716	112.902541	130.149675	411.866279	-170.614560
0.242236	570.884749	108.574692	126.256437	471.455028	-232.243840
0.243430	559.365415	104.438483	122.488004	464.898601	-228.449953
0.244623	545.985389	100.849562	119.222796	384.698540	-154.778956
0.245816	532.430722	97.420298	116.005900	329.272498	-106.262862
0.247009	522.267571	96.626816	115.680324	298.419874	-84.455040
0.248203	510.319100	96.005405	115.457329	282.275127	-79.414496
0.249396	499.949269	97.492959	117.401319	276.771388	-87.712059
0.250589	487.850053	99.358980	119.592925	277.164157	-104.261392
0.251783	473.180841	100.900943	121.295725	280.566234	-125.576869
0.252976	457.410100	102.753167	123.205043	283.321836	-147.863107
0.254169	432.464148	100.292703	120.822705	282.780046	-167.419486
0.255362	414.289603	97.991759	118.526581	283.091280	-181.299721
0.256556	391.516760	91.690001	112.087676	279.000184	-187.250636
0.257749	373.783853	85.787382	105.797230	269.873745	-183.722092
0.258942	365.020978	83.376697	103.139215	253.617062	-171.294082
0.260135	358.160220	81.047578	100.504940	231.548405	-151.263956
0.261329	354.732697	81.277309	100.820938	199.636311	-123.424493
0.262522	351.284465	81.525457	101.135843	156.367528	-84.286840
0.263715	346.790692	81.408048	101.379431	108.076960	-41.234832
0.264909	345.318610	81.734424	101.857476	75.849785	-13.039253
0.266102	377.112612	80.724099	100.845397	99.632573	-0.653431
0.267295	397.813800	79.819948	99.891154	116.137803	5.387078
0.268488	406.713277	78.092796	97.910617	124.693588	9.510696
0.269682	409.820168	76.405784	95.952022	126.766950	14.382426
0.270875	410.358066	75.041708	94.364077	124.649431	20.126636
0.272068	409.151197	73.702004	92.789610	119.792444	26.702344
0.273262	407.111353	72.469531	91.346161	112.442815	34.683569
0.274455	404.475441	71.255084	89.915713	103.101716	44.033004
0.275648	401.530131	70.065172	88.505743	92.494016	54.295125
0.276841	398.402812	68.894787	87.110761	81.233032	64.993496
0.278035	395.248138	67.773327	85.769243	69.827441	75.705971
0.279228	392.067980	66.670529	84.442948	58.674982	86.104939
0.280421	391.991411	65.619695	83.174996	51.112869	95.906138
0.281615	394.065389	64.586325	81.921871	46.175352	105.100871
0.282808	398.222636	63.621526	80.753040	44.158734	113.516161
0.284001	402.146702	62.672112	79.597724	42.620433	121.085692
0.285194	408.094371	61.790366	78.527231	43.868494	127.773410
0.286388	413.779830	60.922293	77.468887	45.693436	133.571162
0.287581	418.732973	60.131050	76.508656	47.356029	138.497634
0.288774	422.704564	59.351463	75.558849	48.856525	142.589711
0.289968	425.870962	58.649964	74.707990	50.151177	145.900152
0.291161	428.183182	57.958189	73.865878	51.280431	148.491337
0.292354	429.870552	57.355871	73.139491	52.225925	150.425623
0.293547	430.834134	56.760978	72.419953	53.017790	151.770365
0.294741	431.366588	56.265947	71.833409	53.768676	152.580159
0.295934	431.289832	55.775930	71.251730	54.427634	152.912075
0.297127	430.900088	55.381004	70.798554	54.973742	152.812026
0.298321	429.995667	54.989597	70.348896	55.382214	152.325786
0.299514	428.813102	54.673266	70.000295	55.676895	151.500214
0.300707	427.219718	54.359912	69.654604	55.852853	150.378617
0.301900	425.373225	54.097749	69.377361	55.905324	149.010092
0.303094	423.229722	53.838375	69.102766	55.860600	147.438418
0.304287	420.895015	53.614100	68.876951	55.702303	145.707559
0.305480	419.229898	53.392578	68.653663	56.330388	143.856506
0.306674	417.523248	53.204192	68.479601	56.920848	141.921271
0.307867	415.629683	53.018510	68.307114	57.373664	139.934129
0.309060	413.580484	52.857108	68.170531	57.636029	137.923273
0.310253	411.383460	52.698324	68.036078	57.745532	135.914119
0.311447	409.030467	52.543855	67.908910	57.662964	133.930470
0.312640	406.578041	52.391691	67.783489	57.431165	131.993744
0.313833	404.016222	52.235239	67.650873	57.033946	130.124744
0.315026	401.406475	52.080667	67.519525	56.500424	128.341901
0.316220	398.752156	51.927461	67.386081	55.819881	126.661769
0.317413	396.091488	51.775852	67.253502	55.014250	125.098573
0.318606	393.430258	51.627886	67.120640	54.075249	123.664058
0.319800	390.795168	51.481457	66.988414	53.022433	122.367694
0.320993	388.165729	51.330834	66.845776	51.844424	121.216169
0.322186	385.591722	51.181860	66.703758	50.570340	120.213945
0.323379	383.126021	51.016266	66.536620	49.303263	119.361999
0.324573	381.370213	50.852493	66.368477	48.516313	118.659311
0.325766	379.855161	50.662642	66.164853	48.032034	118.100737
0.326959	378.561745	50.474771	65.962311	47.557653	117.679704
0.328153	377.346561	50.260669	65.727407	47.084280	117.385522
0.329346	376.258160	50.048721	65.494075	46.623125	117.207012
0.330539	375.236907	49.820248	65.242647	46.164093	117.129888
0.331732	374.321380	49.594198	64.993368	45.717266	117.140513
0.332926	373.479443	49.365342	64.743662	45.274151	117.224192
0.334119	372.715867	49.139285	64.496690	44.842139	117.367808
0.335312	372.028503	48.922282	64.262892	44.415256	117.559613
0.336506	371.397665	48.708430	64.032279	43.998051	117.789801
0.337699	370.843658	48.511395	63.822472	43.587126	118.051432
0.338892	370.333923	48.317660	63.616030	43.185165	118.339299
0.340085	369.903765	48.144862	63.433793	42.791640	118.650733
0.341279	369.514524	47.975265	63.254810	42.407762	118.984369
0.342472	369.210345	47.827973	63.100949	42.036384	119.339840
0.343665	368.948949	47.683633	62.950038	41.676689	119.717738
0.344859	368.775574	47.559996	62.822343	41.334665	120.118322
0.346052	368.648448	47.439042	62.697240	41.007513	120.542568
0.347245	368.604798	47.334107	62.590058	40.703589	120.990785
0.348438	368.610670	47.231652	62.485161	40.420953	121.463736
0.349632	368.690270	47.139380	62.391596	40.170249	121.961975
0.350825	368.822285	47.049456	62.300110	39.951479	122.486183
0.352018	369.021577	46.966170	62.216258	39.768558	123.037475
0.353212	369.276286	46.885133	62.134383	39.614967	123.616781
0.354405	369.603729	46.812401	62.062972	39.487285	124.225959
0.355598	369.990375	46.741806	61.993522	39.382873	124.866489
0.356791	370.472167	46.687779	61.945691	39.300644	125.541107
0.357985	371.018512	46.635723	61.899847	39.242042	126.252116
0.359178	371.696082	46.613156	61.892714	39.206258	127.003147
0.360371	372.445624	46.592318	61.887599	39.195548	127.797432
0.361564	373.360964	46.612031	61.935737	39.209326	128.639087
0.362758	374.357227	46.633205	61.985919	39.249742	129.531916
0.363951	375.538426	46.698719	62.094507	39.317098	130.479624
0.365144	376.809084	46.765459	62.205150	39.412797	131.485693
0.366338	378.263593	46.872040	62.369096	39.538172	132.552378
0.367531	379.812912	46.979643	62.535069	39.693293	133.681725
0.368724	381.519480	47.113578	62.737572	39.880046	134.873847
0.369917	383.320347	47.248375	62.942043	40.097013	136.128604
0.371111	385.236556	47.392577	63.161737	40.345744	137.443947
0.372304	387.239275	47.537505	63.383315	40.623779	138.817520
0.373497	389.318560	47.677879	63.602679	40.931657	140.245450
0.374691	391.479844	47.818842	63.823819	41.266364	141.723562
0.375884	393.690055	47.945372	64.030259	41.627754	143.246430
0.377077	395.973623	48.072339	64.238316	42.011957	144.808475
0.378270	398.267810	48.177942	64.422208	42.419742	146.403015
0.379464	400.610272	48.283819	64.607471	42.845133	148.023528
0.380657	402.931789	48.364753	64.762603	43.291737	149.662916
0.381850	405.278260	48.445828	64.918784	43.750354	151.314620
0.383044	407.590795	48.503792	65.045535	44.227526	152.972844
0.384237	409.910770	48.561845	65.173015	44.711838	154.632626
0.385430	412.199451	48.604193	65.279359	45.208595	156.291331
0.386623	414.477338	48.646646	65.386192	45.699102	157.947200
0.387817	416.829870	48.684503	65.485754	46.279686	159.601777
0.389010	419.301846	48.722498	65.585683	46.974020	161.257270
0.390203	421.822225	48.768555	65.694913	47.682752	162.920045
0.391397	424.429014	48.814768	65.804525	48.452496	164.596939
0.392590	427.126046	48.876587	65.933415	49.250639	166.296686
0.393783	429.865099	48.938595	66.062807	50.060439	168.028200
0.394976	432.673613	49.012015	66.205805	50.879905	169.797748
0.396170	435.542119	49.085683	66.349393	51.716602	171.611427
0.397363	438.461468	49.154624	66.485432	52.572461	173.470009
0.398556	441.445569	49.223847	66.621971	53.447663	175.373280
0.399750	444.430116	49.266673	66.723685	54.345769	177.315482
0.400943	447.464986	49.309774	66.825617	55.260535	179.290262
0.402136	450.441028	49.309151	66.871925	56.193928	181.287227
0.403329	453.439229	49.308824	66.918013	57.137727	183.295236
0.404523	456.217758	49.260142	66.785578	58.090353	185.302227
0.405716	458.982795	49.211868	66.650290	59.045114	187.295704
0.406909	461.633081	49.124337	66.466006	59.998190	189.265165
0.408102	464.242739	49.037375	66.281162	60.945127	191.200250
0.409296	466.749764	48.927945	66.067513	61.882721	193.094104
0.410489	469.196505	48.819204	65.853490	62.807708	194.940548
0.411682	471.559723	48.703104	65.627803	63.719269	196.736605
0.412876	473.853472	48.587745	65.401851	64.614372	198.480163
0.414069	476.072283	48.471266	65.171021	65.494299	200.170680
0.415262	478.219301	48.355562	64.940010	66.356080	201.808274
0.416455	480.280829	48.234551	64.699297	67.201571	203.392671
0.417649	482.269400	48.114375	64.458525	68.028069	204.923860
0.418842	484.146163	47.978300	64.196255	68.836491	206.400091
0.420035	485.945299	47.843161	63.934121	69.624533	207.819556
0.421229	487.596999	47.679446	63.636731	70.391276	209.178285
0.422422	489.160993	47.516812	63.339756	71.134891	210.472098
0.423615	490.540352	47.314449	62.995904	71.852389	211.695094
0.424808	491.817718	47.113373	62.652834	72.542565	212.841160
0.426002	492.878850	46.865179	62.255752	73.200699	213.903436
0.427195	493.822412	46.618557	61.859906	73.826356	214.874947
0.428388	494.531870	46.324085	61.410127	74.413759	215.749066
0.429582	495.107922	46.031537	60.962091	74.963366	216.519270
0.430775	495.440780	45.695002	60.464888	75.469127	217.179966
0.431968	495.623527	45.360775	59.969945	75.932309	217.725909
0.433161	495.561236	44.989748	59.433057	76.347466	218.152717
0.434355	495.335207	44.621416	58.898934	76.716210	218.456666
0.435548	494.901459	44.240510	58.345509	77.034497	218.635268
0.436741	494.298646	43.862587	57.795254	77.304509	218.687524
0.437935	493.496553	43.479187	57.230358	77.523038	218.611849
0.439128	492.524656	43.099211	56.669145	77.693078	218.408109
0.440321	491.299253	42.690653	56.068172	77.810764	218.071894
0.441514	489.898352	42.286363	55.471720	77.881997	217.597923
0.442708	488.115125	41.798323	54.779902	77.898181	216.977979
0.443901	486.138615	41.316100	54.093992	77.864479	216.202838
0.445094	483.640826	40.697056	53.260588	77.766625	215.259480
0.446288	480.919214	40.086973	52.435459	77.610656	214.133029
0.447481	477.648700	39.348239	51.472327	77.376333	212.809861
0.448674	474.124430	38.623039	50.520559	77.073901	211.275973
0.449867	470.159879	37.842538	49.507309	76.675742	209.523687
0.451061	465.927996	37.078737	48.507575	76.203527	207.547718
0.452254	461.447063	36.360958	47.555612	75.617030	205.351020
0.453447	456.710273	35.659134	46.617004	74.959196	202.941160
0.454640	451.886455	35.068438	45.800060	74.187110	200.332434
0.455834	446.900174	34.490817	44.994996	73.356194	197.544086
0.457027	442.136163	33.991921	44.276833	72.467390	194.598069
0.458220	437.286338	33.504211	43.569388	71.540761	191.519145
0.459414	432.286339	33.043481	42.910947	70.515456	188.326293
0.460607	427.186778	32.594236	42.263376	69.471768	185.037445
0.461800	421.859092	32.182567	41.713780	68.187922	181.667814
0.462993	416.467465	31.787716	41.178360	66.884476	178.232558
0.464187	411.582542	31.521860	40.848191	65.890930	174.750885
0.465380	406.823378	31.279478	40.536055	65.821158	171.254029
0.466573	403.192799	31.348353	40.640405	66.438205	167.767669
0.467767	400.533987	31.441898	40.762954	67.103884	164.336711
0.468960	399.419572	32.261562	41.773889	67.623113	160.987750
0.470153	398.430058	33.124449	42.813497	68.079546	157.751889
0.471346	398.830518	34.682252	44.665443	68.280676	154.646098
0.472540	399.384969	36.319653	46.566144	68.365113	151.668971
0.473733	400.597046	38.374273	48.920613	68.084293	148.822753
0.474926	402.293309	40.530455	51.336002	67.998508	146.077282
0.476120	405.995544	43.699999	54.727351	67.806902	143.428900
0.477313	410.001939	47.060315	58.224999	67.512488	140.874317
0.478506	415.520575	51.215169	62.393802	67.137063	138.442318
0.479699	421.494952	55.623035	66.694777	66.739496	136.110329
0.480893	427.746897	60.020191	70.904064	66.348544	134.168821
0.482086	434.633777	64.634192	75.227377	65.947968	132.560664
0.483279	441.089812	68.906088	79.176243	65.479127	131.326170
0.484473	448.065975	73.342435	83.212437	64.922612	130.463271
0.485666	454.811456	77.586221	87.012886	64.226258	129.944897
0.486859	461.958344	81.966279	90.885238	63.389729	129.735931
0.488052	469.095040	86.280911	94.634067	62.394322	129.797221
0.489246	476.602896	90.716344	98.445708	61.261251	130.103363
0.490439	483.987757	95.062545	102.121962	59.996518	130.631608
0.491632	491.614290	99.515100	105.852704	58.627158	131.367205
0.492826	499.055620	103.807178	109.397170	57.167423	132.296709
0.494019	506.814473	108.190437	112.987770	55.640963	133.407019
0.495212	514.222890	112.363752	116.354709	54.061438	134.685764
0.496405	521.837567	116.614113	119.760132	52.447518	136.119395
0.497599	529.077870	120.636679	122.926998	50.809943	137.695288
0.498792	536.511220	124.724379	126.125864	49.155578	139.400450
0.499985	544.493695	128.589670	129.091224	48.761183	141.223012
0.501178	553.708163	132.510563	132.083299	49.307795	143.151369
0.502372	562.819664	136.229709	134.863959	49.871728	145.175450
0.503565	572.092517	139.996919	137.667053	50.452117	147.285703
0.504758	581.097567	143.592001	140.294007	51.042228	149.474787
0.505952	590.234978	147.229027	142.939837	51.641225	151.735937
0.507145	599.181820	150.725251	145.450882	52.243925	154.065199
0.508338	608.289018	154.258147	147.977688	52.850031	156.459052
0.509531	617.254927	157.675266	150.407573	53.455529	158.916834
0.510725	626.309743	161.124244	152.850363	54.054456	161.437974
0.511918	635.270116	164.470359	155.221902	54.681252	164.023997
0.513111	644.443894	167.843846	157.603696	55.427866	166.676072
0.514305	653.500603	171.115355	159.924383	56.161999	169.396105
0.515498	662.637664	174.410153	162.252929	56.887995	172.185273
0.516691	671.634375	177.598774	164.519533	57.852353	175.044205
0.517884	680.923014	180.807125	166.791904	58.829058	177.972662
0.519078	690.251938	183.907046	168.997093	59.877338	180.968894
0.520271	699.690430	187.023731	171.206263	60.955437	184.030315
0.521464	709.020742	190.036010	173.347238	62.043016	187.150322
0.522658	718.437348	193.062742	175.490740	63.153058	190.320857
0.523851	727.766075	195.993260	177.572486	64.299650	193.527185
0.525044	737.176615	198.936695	179.655793	65.496199	196.752820
0.526237	746.484724	201.782085	181.674857	66.753138	199.979647
0.527431	755.861436	204.639395	183.694923	68.084747	203.189333
0.528624	765.108556	207.390973	185.646550	69.494348	206.367748
0.529817	774.407926	210.153541	187.597119	70.992771	209.502266
0.531011	783.554912	212.803448	189.479532	72.571216	212.588064
0.532204	792.735566	215.463171	191.361939	74.226023	215.622588
0.533397	801.898559	218.004612	193.178677	76.086897	218.611149
0.534590	811.223116	220.554484	194.986390	78.130015	221.561010
0.535784	820.334203	222.979345	196.669152	80.214686	224.484847
0.536977	829.486246	225.411231	198.352906	82.335273	227.396356
0.538170	838.448856	227.708658	199.961193	84.472208	230.311751
0.539364	847.435042	230.011826	201.569945	86.608316	233.247232
0.540557	856.196662	232.167816	203.087296	88.722875	236.219686
0.541750	864.975709	234.328420	204.604680	90.798005	239.245085
0.542943	873.500564	236.330518	206.017054	92.814053	242.339212
0.544137	882.035856	238.336265	207.429136	94.754480	245.516175
0.545330	890.301398	240.177790	208.732075	96.602591	248.789112
0.546523	898.570502	242.022177	210.034547	98.345037	252.168903
0.547716	906.557160	243.695582	211.227786	99.969948	255.664002
0.548910	914.540788	245.371256	212.420581	101.468749	259.280359
0.550103	922.220794	246.866064	213.499259	102.835137	263.020492
0.551296	929.891393	248.362719	214.577697	104.065913	266.885223
0.552490	937.307203	249.723086	215.549919	105.158766	270.875592
0.553683	944.714776	251.084908	216.519491	106.115745	274.994796
0.554876	952.025110	252.406051	217.433209	106.937847	279.248170
0.556069	959.347564	253.728294	218.347039	107.631634	283.640770
0.557263	966.664808	255.048295	219.244081	108.207181	288.165438
0.558456	974.004272	256.369448	220.141798	108.677947	292.815326
0.559649	981.415165	257.715597	221.057290	109.059992	297.582796
0.560843	988.858243	259.063233	221.974245	109.363919	302.458471
0.562036	996.371492	260.434602	222.910320	109.596825	307.435404
0.563229	1003.911330	261.807747	223.848522	109.762300	312.506400
0.564422	1011.554952	263.204704	224.813895	109.860872	317.667687
0.565616	1019.296593	264.603623	225.781897	109.900970	322.915770
0.566809	1027.141626	266.029694	226.788931	109.926461	328.249137
0.568002	1035.012979	267.457849	227.796639	109.946025	333.665474
0.569196	1042.967940	268.912289	228.832536	109.920120	339.161968
0.570389	1050.958480	270.369043	229.870892	109.845189	344.734691
0.571582	1059.033423	271.842931	230.945410	109.730020	350.377822
0.572775	1067.145017	273.319431	232.022981	109.582063	356.085089
0.573969	1075.299205	274.798060	233.114702	109.405421	361.848242
0.575162	1084.584991	276.279744	234.205893	109.456920	368.513108
0.576355	1092.895065	277.777726	235.348352	109.288442	374.355424
0.577549	1101.233625	279.279436	236.495418	109.110809	380.227822
0.578742	1110.359251	280.780337	237.667978	109.575565	386.121048
0.579935	1120.468139	282.285464	238.845916	111.213627	392.026955
0.581128	1130.750069	283.767934	240.020655	112.925858	397.934992
0.582322	1141.172121	285.255029	241.201499	114.786187	403.835808
0.583515	1151.594044	286.712565	242.376733	116.702621	409.717328
0.584708	1162.040757	288.175159	243.558844	118.667452	415.568890
0.585902	1172.473838	289.611218	244.748198	120.677505	421.375587
0.587095	1183.022564	291.052746	245.945200	122.754538	427.124309
0.588288	1193.567384	292.472365	247.164409	125.069768	432.794445
0.589481	1204.943492	293.897808	248.392030	128.239412	438.368038
0.590675	1216.277108	295.309045	249.660891	131.449411	443.818844
0.591868	1227.582147	296.726505	250.938993	134.760015	449.124461
0.593061	1239.109046	298.169382	252.321931	138.331427	454.260287
0.594254	1250.644646	299.619317	253.715256	142.082866	459.206697
0.595448	1262.298803	301.222646	255.392485	145.722458	463.945666
0.596641	1273.947027	302.837749	257.083606	149.546827	468.467627
0.597834	1285.990647	304.780308	259.282001	153.150143	472.770790
0.599028	1298.109504	306.753870	261.506315	156.979809	476.865422
0.600221	1310.551541	309.018830	264.179611	160.603242	480.748682
0.601414	1323.154803	311.340843	266.895363	164.491378	484.428638
0.602607	1335.874667	313.794173	269.846064	168.332882	487.905305
0.603801	1348.802575	316.320149	272.849654	172.452942	491.185748
0.604994	1361.773841	318.879747	275.965487	176.654013	494.282511
0.606187	1374.976520	321.519300	279.139158	181.115253	497.212569
0.607381	1388.207521	324.150453	282.386846	185.688838	499.992779
0.608574	1401.674833	326.864789	285.694602	190.483834	502.644337
0.609767	1415.103736	329.527508	289.033172	195.366433	505.190259
0.610960	1428.757508	332.274652	292.432613	200.405986	507.658238
0.612154	1442.235880	334.922535	295.812545	205.442848	510.071604
0.613347	1455.912864	337.655455	299.253664	210.555383	512.460984
0.614540	1469.502034	340.209877	302.593267	215.775471	514.934366
0.615734	1483.221964	342.842855	305.988800	220.819400	517.579808
0.616927	1496.723734	345.234717	309.228695	225.786035	520.481036
0.618120	1510.261383	347.698362	312.518821	230.351209	523.697805
0.619313	1523.342332	349.846165	315.574769	234.655236	527.269402
0.620507	1536.353966	352.059243	318.675214	238.407353	531.214243
0.621700	1548.631956	353.895910	321.479358	241.732981	535.525002
0.622893	1561.474442	355.792050	324.317367	244.953064	540.183399
0.624087	1574.978009	357.274250	326.829668	249.726703	545.157501
0.625280	1588.807262	358.810903	329.375861	254.209489	550.411299
0.626473	1601.922951	359.920039	331.602468	258.495841	555.904776
0.627666	1615.021725	361.079763	333.858202	262.487274	561.596594
0.628860	1627.338782	361.807060	335.812098	266.273504	567.446188
0.630053	1639.544038	362.582517	337.790662	269.758188	573.412715
0.631246	1654.065529	362.905107	339.463182	276.242704	579.454565
0.632440	1669.565609	363.275260	341.156351	283.602900	585.531119
0.633633	1684.142286	363.163717	342.520360	290.853626	591.604597
0.634826	1698.592411	363.100907	343.901252	297.950626	597.639635
0.636019	1711.869934	362.516105	344.904024	304.848810	603.601002
0.637213	1724.871579	361.983357	345.920410	311.511624	609.456193
0.638406	1736.460609	360.880980	346.497997	317.905033	615.176602
0.639599	1747.662677	359.836054	347.086075	324.005457	620.735093
0.640792	1757.197427	358.148629	347.154399	329.792751	626.101650
0.641986	1766.259158	356.527282	347.230510	335.255591	631.245777
0.643179	1773.498782	354.226557	346.746500	340.388418	636.137310
0.644372	1780.207447	352.004417	346.268144	345.190784	640.744103
0.645566	1784.997915	349.104053	345.206949	349.663989	645.022926
0.646759	1789.191192	346.301313	344.152272	353.809297	648.928311
0.647952	1791.679214	342.913607	342.616503	357.652234	652.496871
0.649145	1793.713036	339.640345	341.084302	361.225892	655.762497
0.650339	1793.985642	335.723634	338.963059	364.560878	658.738071
0.651532	1793.925591	331.949213	336.849282	367.693240	661.433856
0.652725	1792.022948	327.494224	334.148464	370.643741	663.736519
0.653919	1789.657743	323.224146	331.464889	373.433324	665.535384
0.655112	1789.109017	320.190016	330.891937	376.196911	665.830153
0.656305	1788.565653	317.820373	330.638692	380.416995	663.689592
0.657498	1785.701104	315.815973	330.694937	384.197231	658.992963
0.658692	1781.218967	314.702224	331.174678	387.634121	651.707944
0.659885	1771.665946	312.658982	330.387855	390.315642	642.303467
0.661078	1768.230090	311.382905	329.911273	399.711728	631.224184
0.662272	1767.414899	309.553265	328.891985	414.732356	618.237293
0.663465	1765.340443	308.439310	328.088790	429.746853	603.065490
0.664658	1755.556652	309.909462	331.988405	434.783456	582.875329
0.665851	1735.935063	313.516206	336.708073	437.168021	552.542764
0.667045	1723.580973	311.743312	334.513332	462.516433	518.807895
0.668238	1732.267574	310.715432	332.715301	506.304949	486.531892
0.669431	1738.242606	306.787468	327.740417	550.551124	457.163596
0.670625	1742.660721	303.572352	323.180325	589.014435	430.893609
0.671818	1741.785301	297.921232	315.107896	626.881027	405.875416
0.673011	1735.511865	293.860401	308.105865	663.584852	373.960746
0.674204	1711.218272	297.101228	309.797129	684.859512	323.344241
0.675398	1657.643520	301.271244	312.041139	649.310856	298.908651
0.676591	1591.673802	316.986979	328.508637	584.955702	265.222486
0.677784	1508.655880	337.379987	347.335251	562.143056	165.811496
0.678978	1414.951257	345.679216	354.597226	564.573290	53.952762
0.680171	1340.603120	354.115216	361.868037	563.427773	-34.916395
0.681364	1279.195905	355.656423	363.110391	550.158729	-85.796602
0.682557	1237.431589	357.714246	364.668009	522.422824	-103.411449
0.683751	1214.137049	361.632272	367.876864	488.396856	-99.792536
0.684944	1200.002207	365.677677	371.162503	451.621292	-84.477539
0.686137	1194.270520	371.009875	375.690121	415.431396	-63.879136
0.687330	1192.806180	376.376119	380.216026	381.420696	-41.228136
0.688524	1190.635608	380.067822	383.249586	349.301420	-18.009514
0.689717	1190.382625	383.800934	386.292115	319.549343	4.727445
0.690910	1189.421470	385.933307	387.908579	293.662883	25.862000
0.692104	1192.182198	388.226646	389.596087	273.366652	44.943637
0.693297	1197.196029	390.630009	391.431505	257.424802	61.652598
0.694490	1203.679622	393.124915	393.293069	244.850373	76.275801
0.695683	1212.775533	396.200722	395.806675	235.191850	89.078536
0.696877	1222.454490	399.274178	398.289209	227.747260	100.392012
0.698070	1233.336245	402.728748	401.238956	221.969207	110.456801
0.699263	1244.223021	406.189271	404.160175	217.317524	119.461880
0.700457	1255.622484	409.483465	406.961968	213.870623	127.556036
0.701650	1271.197264	412.793722	409.743264	215.980256	134.849135
0.702843	1284.955625	415.188819	411.713555	219.859028	141.423861
0.704036	1298.915461	417.579421	413.660354	224.072304	147.326785
0.705230	1309.614549	418.186935	414.174966	228.548072	152.589770
0.706423	1320.040238	418.794672	414.682477	233.218303	157.226868
0.707616	1327.631535	418.074457	414.174563	237.995082	161.267056
0.708810	1334.700286	417.359784	413.667864	242.806732	164.743606
0.710003	1340.820924	416.397819	412.998683	247.586076	167.714910
0.711196	1346.426172	415.440191	412.326962	252.291012	170.243994
0.712389	1351.633736	414.549342	411.666640	256.917358	172.375320
0.713583	1356.356050	413.663571	410.997022	261.414748	174.155163
0.714776	1360.611599	412.716497	410.511951	265.594113	175.670843
0.715969	1364.516346	411.776070	410.028052	269.604347	176.996815
