PointPosition
version=1
nRows=601
nColumns=4
inDegrees=no
No description.
endheader
time	state_0	state_1	state_2
      0.00000000	     -0.31748074	     -0.00936194	     -0.09478690
      0.00174686	     -0.31758258	     -0.00925833	     -0.09478690
      0.00349371	     -0.31768586	     -0.00915019	     -0.09478690
      0.00524057	     -0.31779062	     -0.00903695	     -0.09478690
      0.00698742	     -0.31789690	     -0.00891794	     -0.09478690
      0.00873428	     -0.31800472	     -0.00879243	     -0.09478690
      0.01048113	     -0.31811406	     -0.00865960	     -0.09478690
      0.01222799	     -0.31822487	     -0.00851869	     -0.09478690
      0.01397484	     -0.31833696	     -0.00836926	     -0.09478690
      0.01572170	     -0.31845025	     -0.00821090	     -0.09478690
      0.01746855	     -0.31856486	     -0.00804269	     -0.09478690
      0.01921541	     -0.31868091	     -0.00786347	     -0.09478690
      0.02096226	     -0.31879841	     -0.00767209	     -0.09478690
      0.02270912	     -0.31891732	     -0.00746740	     -0.09478690
      0.02445597	     -0.31903750	     -0.00724840	     -0.09478690
      0.02620283	     -0.31915880	     -0.00701416	     -0.09478690
      0.02794969	     -0.31928101	     -0.00676403	     -0.09478690
      0.02969654	     -0.31940395	     -0.00649742	     -0.09478690
      0.03144340	     -0.31952746	     -0.00621405	     -0.09478690
      0.03319025	     -0.31965137	     -0.00591375	     -0.09478690
      0.03493711	     -0.31977545	     -0.00559660	     -0.09478690
      0.03668396	     -0.31989946	     -0.00526272	     -0.09478690
      0.03843082	     -0.32002309	     -0.00491241	     -0.09478690
      0.04017767	     -0.32014597	     -0.00454601	     -0.09478690
      0.04192453	     -0.32026765	     -0.00416392	     -0.09478690
      0.04367138	     -0.32038762	     -0.00376657	     -0.09478690
      0.04541824	     -0.32050515	     -0.00335437	     -0.09478690
      0.04716509	     -0.32061941	     -0.00292768	     -0.09478690
      0.04891195	     -0.32072923	     -0.00248669	     -0.09478690
      0.05065880	     -0.32083336	     -0.00203150	     -0.09478690
      0.05240566	     -0.32093072	     -0.00156212	     -0.09478690
      0.05415251	     -0.32101995	     -0.00107845	     -0.09478690
      0.05589937	     -0.32109420	     -0.00057761	     -0.09478690
      0.05764623	     -0.32114292	     -0.00005524	     -0.09478690
      0.05939308	     -0.32113898	      0.00049701	     -0.09478690
      0.06113994	     -0.32103566	      0.00109034	     -0.09478690
      0.06288679	     -0.32077562	      0.00173843	     -0.09478690
      0.06463365	     -0.32032051	      0.00244911	     -0.09478690
      0.06638050	     -0.31967184	      0.00321719	     -0.09478690
      0.06812736	     -0.31884605	      0.00403272	     -0.09478690
      0.06987421	     -0.31787259	      0.00488268	     -0.09478690
      0.07162107	     -0.31678003	      0.00575563	     -0.09478690
      0.07336792	     -0.31559097	      0.00664276	     -0.09478690
      0.07511478	     -0.31432317	      0.00753733	     -0.09478690
      0.07686163	     -0.31298722	      0.00843510	     -0.09478690
      0.07860849	     -0.31159122	      0.00933278	     -0.09478690
      0.08035534	     -0.31013949	      0.01022830	     -0.09478690
      0.08210220	     -0.30863519	      0.01112004	     -0.09478690
      0.08384906	     -0.30707976	      0.01200691	     -0.09478690
      0.08559591	     -0.30547411	      0.01288801	     -0.09478690
      0.08734277	     -0.30381852	      0.01376269	     -0.09478690
      0.08908962	     -0.30211313	      0.01463032	     -0.09478690
      0.09083648	     -0.30035797	      0.01549038	     -0.09478690
      0.09258333	     -0.29855309	      0.01634235	     -0.09478690
      0.09433019	     -0.29669863	      0.01718573	     -0.09478690
      0.09607704	     -0.29479477	      0.01802004	     -0.09478690
      0.09782390	     -0.29284183	      0.01884479	     -0.09478690
      0.09957075	     -0.29084016	      0.01965952	     -0.09478690
      0.10131761	     -0.28879024	      0.02046378	     -0.09478690
      0.10306446	     -0.28669257	      0.02125710	     -0.09478690
      0.10481132	     -0.28454773	      0.02203906	     -0.09478690
      0.10655817	     -0.28235634	      0.02280924	     -0.09478690
      0.10830503	     -0.28011902	      0.02356722	     -0.09478690
      0.11005188	     -0.27783642	      0.02431262	     -0.09478690
      0.11179874	     -0.27550918	      0.02504509	     -0.09478690
      0.11354560	     -0.27313789	      0.02576426	     -0.09478690
      0.11529245	     -0.27072313	      0.02646983	     -0.09478690
      0.11703931	     -0.26826540	      0.02716149	     -0.09478690
      0.11878616	     -0.26576516	      0.02783898	     -0.09478690
      0.12053302	     -0.26322280	      0.02850205	     -0.09478690
      0.12227987	     -0.26063862	      0.02915047	     -0.09478690
      0.12402673	     -0.25801289	      0.02978406	     -0.09478690
      0.12577358	     -0.25534577	      0.03040263	     -0.09478690
      0.12752044	     -0.25263735	      0.03100605	     -0.09478690
      0.12926729	     -0.24988770	      0.03159418	     -0.09478690
      0.13101415	     -0.24709680	      0.03216693	     -0.09478690
      0.13276100	     -0.24426465	      0.03272419	     -0.09478690
      0.13450786	     -0.24139126	      0.03326590	     -0.09478690
      0.13625471	     -0.23847666	      0.03379196	     -0.09478690
      0.13800157	     -0.23552096	      0.03430230	     -0.09478690
      0.13974843	     -0.23252437	      0.03479682	     -0.09478690
      0.14149528	     -0.22948713	      0.03527546	     -0.09478690
      0.14324214	     -0.22640955	      0.03573810	     -0.09478690
      0.14498899	     -0.22329196	      0.03618469	     -0.09478690
      0.14673585	     -0.22013468	      0.03661514	     -0.09478690
      0.14848270	     -0.21693803	      0.03702940	     -0.09478690
      0.15022956	     -0.21370231	      0.03742743	     -0.09478690
      0.15197641	     -0.21042781	      0.03780918	     -0.09478690
      0.15372327	     -0.20711492	      0.03817463	     -0.09478690
      0.15547012	     -0.20376422	      0.03852370	     -0.09478690
      0.15721698	     -0.20037612	      0.03885635	     -0.09478690
      0.15896383	     -0.19695088	      0.03917263	     -0.09478690
      0.16071069	     -0.19348904	      0.03947249	     -0.09478690
      0.16245754	     -0.18999117	      0.03975591	     -0.09478690
      0.16420440	     -0.18645759	      0.04002294	     -0.09478690
      0.16595126	     -0.18288849	      0.04027364	     -0.09478690
      0.16769811	     -0.17928406	      0.04050810	     -0.09478690
      0.16944497	     -0.17564454	      0.04072641	     -0.09478690
      0.17119182	     -0.17197022	      0.04092866	     -0.09478690
      0.17293868	     -0.16826136	      0.04111494	     -0.09478690
      0.17468553	     -0.16451824	      0.04128536	     -0.09478690
      0.17643239	     -0.16074117	      0.04144003	     -0.09478690
      0.17817924	     -0.15693047	      0.04157907	     -0.09478690
      0.17992610	     -0.15308645	      0.04170261	     -0.09478690
      0.18167295	     -0.14920936	      0.04181079	     -0.09478690
      0.18341981	     -0.14529941	      0.04190379	     -0.09478690
      0.18516666	     -0.14135678	      0.04198180	     -0.09478690
      0.18691352	     -0.13738166	      0.04204502	     -0.09478690
      0.18866037	     -0.13337428	      0.04209363	     -0.09478690
      0.19040723	     -0.12933486	      0.04212786	     -0.09478690
      0.19215408	     -0.12526366	      0.04214791	     -0.09478690
      0.19390094	     -0.12116095	      0.04215398	     -0.09478690
      0.19564780	     -0.11702700	      0.04214629	     -0.09478690
      0.19739465	     -0.11286210	      0.04212507	     -0.09478690
      0.19914151	     -0.10866651	      0.04209054	     -0.09478690
      0.20088836	     -0.10444046	      0.04204296	     -0.09478690
      0.20263522	     -0.10018410	      0.04198260	     -0.09478690
      0.20438207	     -0.09589761	      0.04190974	     -0.09478690
      0.20612893	     -0.09158113	      0.04182468	     -0.09478690
      0.20787578	     -0.08723486	      0.04172771	     -0.09478690
      0.20962264	     -0.08285899	      0.04161911	     -0.09478690
      0.21136949	     -0.07845378	      0.04149917	     -0.09478690
      0.21311635	     -0.07401948	      0.04136815	     -0.09478690
      0.21486320	     -0.06955634	      0.04122635	     -0.09478690
      0.21661006	     -0.06506465	      0.04107403	     -0.09478690
      0.21835691	     -0.06054469	      0.04091148	     -0.09478690
      0.22010377	     -0.05599672	      0.04073898	     -0.09478690
      0.22185063	     -0.05142102	      0.04055681	     -0.09478690
      0.22359748	     -0.04681784	      0.04036526	     -0.09478690
      0.22534434	     -0.04218740	      0.04016465	     -0.09478690
      0.22709119	     -0.03752993	      0.03995529	     -0.09478690
      0.22883805	     -0.03284565	      0.03973748	     -0.09478690
      0.23058490	     -0.02813477	      0.03951156	     -0.09478690
      0.23233176	     -0.02339755	      0.03927783	     -0.09478690
      0.23407861	     -0.01863424	      0.03903661	     -0.09478690
      0.23582547	     -0.01384510	      0.03878819	     -0.09478690
      0.23757232	     -0.00903043	      0.03853289	     -0.09478690
      0.23931918	     -0.00419050	      0.03827101	     -0.09478690
      0.24106603	      0.00067441	      0.03800285	     -0.09478690
      0.24281289	      0.00556402	      0.03772872	     -0.09478690
      0.24455974	      0.01047807	      0.03744895	     -0.09478690
      0.24630660	      0.01541627	      0.03716384	     -0.09478690
      0.24805345	      0.02037839	      0.03687372	     -0.09478690
      0.24980031	      0.02536413	      0.03657892	     -0.09478690
      0.25154717	      0.03037324	      0.03627975	     -0.09478690
      0.25329402	      0.03540545	      0.03597655	     -0.09478690
      0.25504088	      0.04046047	      0.03566962	     -0.09478690
      0.25678773	      0.04553802	      0.03535930	     -0.09478690
      0.25853459	      0.05063782	      0.03504591	     -0.09478690
      0.26028144	      0.05575957	      0.03472976	     -0.09478690
      0.26202830	      0.06090298	      0.03441118	     -0.09478690
      0.26377515	      0.06606775	      0.03409050	     -0.09478690
      0.26552201	      0.07125359	      0.03376802	     -0.09478690
      0.26726886	      0.07646019	      0.03344409	     -0.09478690
      0.26901572	      0.08168729	      0.03311904	     -0.09478690
      0.27076257	      0.08693459	      0.03279322	     -0.09478690
      0.27250943	      0.09220185	      0.03246700	     -0.09478690
      0.27425628	      0.09748882	      0.03214076	     -0.09478690
      0.27600314	      0.10279529	      0.03181490	     -0.09478690
      0.27775000	      0.10812107	      0.03148985	     -0.09478690
      0.27949685	      0.11346596	      0.03116607	     -0.09478690
      0.28124371	      0.11882982	      0.03084404	     -0.09478690
      0.28299056	      0.12421246	      0.03052424	     -0.09478690
      0.28473742	      0.12961373	      0.03020718	     -0.09478690
      0.28648427	      0.13503346	      0.02989340	     -0.09478690
      0.28823113	      0.14047146	      0.02958341	     -0.09478690
      0.28997798	      0.14592752	      0.02927774	     -0.09478690
      0.29172484	      0.15140139	      0.02897692	     -0.09478690
      0.29347169	      0.15689276	      0.02868145	     -0.09478690
      0.29521855	      0.16240128	      0.02839179	     -0.09478690
      0.29696540	      0.16792652	      0.02810836	     -0.09478690
      0.29871226	      0.17346798	      0.02783156	     -0.09478690
      0.30045911	      0.17902509	      0.02756171	     -0.09478690
      0.30220597	      0.18459724	      0.02729912	     -0.09478690
      0.30395283	      0.19018373	      0.02704401	     -0.09478690
      0.30569968	      0.19578383	      0.02679659	     -0.09478690
      0.30744654	      0.20139670	      0.02655696	     -0.09478690
      0.30919339	      0.20702149	      0.02632518	     -0.09478690
      0.31094025	      0.21265724	      0.02610125	     -0.09478690
      0.31268710	      0.21830298	      0.02588508	     -0.09478690
      0.31443396	      0.22395772	      0.02567656	     -0.09478690
      0.31618081	      0.22962044	      0.02547556	     -0.09478690
      0.31792767	      0.23529011	      0.02528187	     -0.09478690
      0.31967452	      0.24096571	      0.02509528	     -0.09478690
      0.32142138	      0.24664618	      0.02491552	     -0.09478690
      0.32316823	      0.25233048	      0.02474228	     -0.09478690
      0.32491509	      0.25801757	      0.02457525	     -0.09478690
      0.32666194	      0.26370645	      0.02441410	     -0.09478690
      0.32840880	      0.26939605	      0.02425841	     -0.09478690
      0.33015565	      0.27508527	      0.02410766	     -0.09478690
      0.33190251	      0.28077302	      0.02396134	     -0.09478690
      0.33364937	      0.28645829	      0.02381896	     -0.09478690
      0.33539622	      0.29214017	      0.02368013	     -0.09478690
      0.33714308	      0.29781783	      0.02354455	     -0.09478690
      0.33888993	      0.30349040	      0.02341183	     -0.09478690
      0.34063679	      0.30915689	      0.02328147	     -0.09478690
      0.34238364	      0.31481668	      0.02315342	     -0.09478690
      0.34413050	      0.32046926	      0.02302776	     -0.09478690
      0.34587735	      0.32611404	      0.02290448	     -0.09478690
      0.34762421	      0.33175040	      0.02278354	     -0.09478690
      0.34937106	      0.33737776	      0.02266491	     -0.09478690
      0.35111792	      0.34299552	      0.02254860	     -0.09478690
      0.35286477	      0.34860316	      0.02243468	     -0.09478690
      0.35461163	      0.35420015	      0.02232327	     -0.09478690
      0.35635848	      0.35978603	      0.02221456	     -0.09478690
      0.35810534	      0.36536033	      0.02210875	     -0.09478690
      0.35985220	      0.37092260	      0.02200609	     -0.09478690
      0.36159905	      0.37647241	      0.02190685	     -0.09478690
      0.36334591	      0.38200934	      0.02181131	     -0.09478690
      0.36509276	      0.38753296	      0.02171976	     -0.09478690
      0.36683962	      0.39304284	      0.02163249	     -0.09478690
      0.36858647	      0.39853856	      0.02154977	     -0.09478690
      0.37033333	      0.40401970	      0.02147187	     -0.09478690
      0.37208018	      0.40948583	      0.02139905	     -0.09478690
      0.37382704	      0.41493657	      0.02133157	     -0.09478690
      0.37557389	      0.42037152	      0.02126970	     -0.09478690
      0.37732075	      0.42579033	      0.02121377	     -0.09478690
      0.37906760	      0.43119269	      0.02116410	     -0.09478690
      0.38081446	      0.43657832	      0.02112109	     -0.09478690
      0.38256131	      0.44194696	      0.02108515	     -0.09478690
      0.38430817	      0.44729842	      0.02105670	     -0.09478690
      0.38605502	      0.45263248	      0.02103622	     -0.09478690
      0.38780188	      0.45794903	      0.02102419	     -0.09478690
      0.38954874	      0.46324791	      0.02102110	     -0.09478690
      0.39129559	      0.46852906	      0.02102749	     -0.09478690
      0.39304245	      0.47379240	      0.02104388	     -0.09478690
      0.39478930	      0.47903791	      0.02107083	     -0.09478690
      0.39653616	      0.48426556	      0.02110889	     -0.09478690
      0.39828301	      0.48947537	      0.02115865	     -0.09478690
      0.40002987	      0.49466737	      0.02122065	     -0.09478690
      0.40177672	      0.49984158	      0.02129544	     -0.09478690
      0.40352358	      0.50499803	      0.02138354	     -0.09478690
      0.40527043	      0.51013675	      0.02148546	     -0.09478690
      0.40701729	      0.51525775	      0.02160164	     -0.09478690
      0.40876414	      0.52036102	      0.02173249	     -0.09478690
      0.41051100	      0.52544655	      0.02187839	     -0.09478690
      0.41225785	      0.53051428	      0.02203964	     -0.09478690
      0.41400471	      0.53556412	      0.02221653	     -0.09478690
      0.41575157	      0.54059594	      0.02240925	     -0.09478690
      0.41749842	      0.54560961	      0.02261796	     -0.09478690
      0.41924528	      0.55060490	      0.02284274	     -0.09478690
      0.42099213	      0.55558159	      0.02308362	     -0.09478690
      0.42273899	      0.56053938	      0.02334055	     -0.09478690
      0.42448584	      0.56547796	      0.02361344	     -0.09478690
      0.42623270	      0.57039695	      0.02390213	     -0.09478690
      0.42797955	      0.57529595	      0.02420638	     -0.09478690
      0.42972641	      0.58017452	      0.02452593	     -0.09478690
      0.43147326	      0.58503220	      0.02486045	     -0.09478690
      0.43322012	      0.58986848	      0.02520955	     -0.09478690
      0.43496697	      0.59468285	      0.02557281	     -0.09478690
      0.43671383	      0.59947474	      0.02594975	     -0.09478690
      0.43846068	      0.60424360	      0.02633986	     -0.09478690
      0.44020754	      0.60898886	      0.02674259	     -0.09478690
      0.44195440	      0.61370990	      0.02715735	     -0.09478690
      0.44370125	      0.61840614	      0.02758351	     -0.09478690
      0.44544811	      0.62307694	      0.02802041	     -0.09478690
      0.44719496	      0.62772169	      0.02846735	     -0.09478690
      0.44894182	      0.63233976	      0.02892360	     -0.09478690
      0.45068867	      0.63693049	      0.02938838	     -0.09478690
      0.45243553	      0.64149325	      0.02986090	     -0.09478690
      0.45418238	      0.64602740	      0.03034032	     -0.09478690
      0.45592924	      0.65053229	      0.03082578	     -0.09478690
      0.45767609	      0.65500728	      0.03131641	     -0.09478690
      0.45942295	      0.65945174	      0.03181132	     -0.09478690
      0.46116980	      0.66386504	      0.03230962	     -0.09478690
      0.46291666	      0.66824658	      0.03281045	     -0.09478690
      0.46466351	      0.67259576	      0.03331296	     -0.09478690
      0.46641037	      0.67691202	      0.03381634	     -0.09478690
      0.46815722	      0.68119479	      0.03431983	     -0.09478690
      0.46990408	      0.68544356	      0.03482272	     -0.09478690
      0.47165094	      0.68965782	      0.03532438	     -0.09478690
      0.47339779	      0.69383708	      0.03582423	     -0.09478690
      0.47514465	      0.69798086	      0.03632170	     -0.09478690
      0.47689150	      0.70208867	      0.03681624	     -0.09478690
      0.47863836	      0.70615995	      0.03730722	     -0.09478690
      0.48038521	      0.71019407	      0.03779395	     -0.09478690
      0.48213207	      0.71419029	      0.03827554	     -0.09478690
      0.48387892	      0.71814774	      0.03875098	     -0.09478690
      0.48562578	      0.72206539	      0.03921902	     -0.09478690
      0.48737263	      0.72594211	      0.03967830	     -0.09478690
      0.48911949	      0.72977657	      0.04012721	     -0.09478690
      0.49086634	      0.73356737	      0.04056406	     -0.09478690
      0.49261320	      0.73731294	      0.04098698	     -0.09478690
      0.49436005	      0.74101162	      0.04139400	     -0.09478690
      0.49610691	      0.74466165	      0.04178294	     -0.09478690
      0.49785377	      0.74826117	      0.04215148	     -0.09478690
      0.49960062	      0.75180822	      0.04249688	     -0.09478690
      0.50134748	      0.75530078	      0.04281613	     -0.09478690
      0.50309433	      0.75873672	      0.04310576	     -0.09478690
      0.50484119	      0.76211385	      0.04336211	     -0.09478690
      0.50658804	      0.76542983	      0.04358200	     -0.09478690
      0.50833490	      0.76868228	      0.04376286	     -0.09478690
      0.51008175	      0.77186855	      0.04390406	     -0.09478690
      0.51182861	      0.77498582	      0.04400621	     -0.09478690
      0.51357546	      0.77803082	      0.04407046	     -0.09478690
      0.51532232	      0.78099995	      0.04409735	     -0.09478690
      0.51706917	      0.78388877	      0.04408401	     -0.09478690
      0.51881603	      0.78669231	      0.04402495	     -0.09478690
      0.52056288	      0.78940389	      0.04391057	     -0.09478690
      0.52230974	      0.79201565	      0.04372959	     -0.09478690
      0.52405659	      0.79451634	      0.04346503	     -0.09478690
      0.52580345	      0.79689257	      0.04309603	     -0.09478690
      0.52755031	      0.79912573	      0.04259453	     -0.09478690
      0.52929716	      0.80119412	      0.04192927	     -0.09478690
      0.53104402	      0.80306997	      0.04106911	     -0.09478690
      0.53279087	      0.80472217	      0.03998580	     -0.09478690
      0.53453773	      0.80611574	      0.03865292	     -0.09478690
      0.53628458	      0.80721142	      0.03703971	     -0.09478690
      0.53803144	      0.80798620	      0.03513903	     -0.09478690
      0.53977829	      0.80848800	      0.03304719	     -0.09478690
      0.54152515	      0.80885754	      0.03096011	     -0.09478690
      0.54327200	      0.80917983	      0.02895917	     -0.09478690
      0.54501886	      0.80946815	      0.02700798	     -0.09478690
      0.54676571	      0.80973920	      0.02508317	     -0.09478690
      0.54851257	      0.81000007	      0.02316507	     -0.09478690
      0.55025942	      0.81025593	      0.02124339	     -0.09478690
      0.55200628	      0.81050696	      0.01932248	     -0.09478690
      0.55375314	      0.81075177	      0.01741427	     -0.09478690
      0.55549999	      0.81098728	      0.01553745	     -0.09478690
      0.55724685	      0.81121120	      0.01371486	     -0.09478690
      0.55899370	      0.81141807	      0.01201209	     -0.09478690
      0.56074056	      0.81159906	      0.01051920	     -0.09478690
      0.56248741	      0.81174735	      0.00928580	     -0.09478690
      0.56423427	      0.81186248	      0.00831286	     -0.09478690
      0.56598112	      0.81195137	      0.00755562	     -0.09478690
      0.56772798	      0.81202105	      0.00696673	     -0.09478690
      0.56947483	      0.81207748	      0.00650635	     -0.09478690
      0.57122169	      0.81212524	      0.00614277	     -0.09478690
      0.57296854	      0.81216705	      0.00585564	     -0.09478690
      0.57471540	      0.81220500	      0.00562879	     -0.09478690
      0.57646225	      0.81224024	      0.00545188	     -0.09478690
      0.57820911	      0.81227362	      0.00531635	     -0.09478690
      0.57995596	      0.81230558	      0.00521654	     -0.09478690
      0.58170282	      0.81233636	      0.00514793	     -0.09478690
      0.58344968	      0.81236599	      0.00510794	     -0.09478690
      0.58519653	      0.81239441	      0.00509469	     -0.09478690
      0.58694339	      0.81242144	      0.00510710	     -0.09478690
      0.58869024	      0.81244688	      0.00514414	     -0.09478690
      0.59043710	      0.81247059	      0.00520456	     -0.09478690
      0.59218395	      0.81249247	      0.00528686	     -0.09478690
      0.59393081	      0.81251254	      0.00538910	     -0.09478690
      0.59567766	      0.81253084	      0.00550921	     -0.09478690
      0.59742452	      0.81254751	      0.00564490	     -0.09478690
      0.59917137	      0.81256268	      0.00579393	     -0.09478690
      0.60091823	      0.81257654	      0.00595405	     -0.09478690
      0.60266508	      0.81258927	      0.00612310	     -0.09478690
      0.60441194	      0.81260107	      0.00629899	     -0.09478690
      0.60615879	      0.81261215	      0.00647969	     -0.09478690
      0.60790565	      0.81262271	      0.00666325	     -0.09478690
      0.60965251	      0.81263298	      0.00684776	     -0.09478690
      0.61139936	      0.81264315	      0.00703156	     -0.09478690
      0.61314622	      0.81265341	      0.00721314	     -0.09478690
      0.61489307	      0.81266392	      0.00739113	     -0.09478690
      0.61663993	      0.81267483	      0.00756422	     -0.09478690
      0.61838678	      0.81268632	      0.00773109	     -0.09478690
      0.62013364	      0.81269857	      0.00789040	     -0.09478690
      0.62188049	      0.81271174	      0.00804104	     -0.09478690
      0.62362735	      0.81272599	      0.00818217	     -0.09478690
      0.62537420	      0.81274132	      0.00831383	     -0.09478690
      0.62712106	      0.81275765	      0.00843667	     -0.09478690
      0.62886791	      0.81277473	      0.00855206	     -0.09478690
      0.63061477	      0.81279224	      0.00866154	     -0.09478690
      0.63236162	      0.81280985	      0.00876669	     -0.09478690
      0.63410848	      0.81282721	      0.00886878	     -0.09478690
      0.63585534	      0.81284420	      0.00896713	     -0.09478690
      0.63760219	      0.81286093	      0.00905971	     -0.09478690
      0.63934905	      0.81287780	      0.00914370	     -0.09478690
      0.64109590	      0.81289521	      0.00921655	     -0.09478690
      0.64284276	      0.81291350	      0.00927653	     -0.09478690
      0.64458961	      0.81293288	      0.00932250	     -0.09478690
      0.64633647	      0.81295343	      0.00935440	     -0.09478690
      0.64808332	      0.81297509	      0.00937267	     -0.09478690
      0.64983018	      0.81299773	      0.00937835	     -0.09478690
      0.65157703	      0.81302114	      0.00937262	     -0.09478690
      0.65332389	      0.81304510	      0.00935663	     -0.09478690
      0.65507074	      0.81306942	      0.00933136	     -0.09478690
      0.65681760	      0.81309395	      0.00929741	     -0.09478690
      0.65856445	      0.81311858	      0.00925510	     -0.09478690
      0.66031131	      0.81314326	      0.00920414	     -0.09478690
      0.66205816	      0.81316802	      0.00914395	     -0.09478690
      0.66380502	      0.81319296	      0.00907362	     -0.09478690
      0.66555188	      0.81321821	      0.00899223	     -0.09478690
      0.66729873	      0.81324390	      0.00889918	     -0.09478690
      0.66904559	      0.81327014	      0.00879408	     -0.09478690
      0.67079244	      0.81329698	      0.00867683	     -0.09478690
      0.67253930	      0.81332448	      0.00854737	     -0.09478690
      0.67428615	      0.81335264	      0.00840578	     -0.09478690
      0.67603301	      0.81338149	      0.00825221	     -0.09478690
      0.67777986	      0.81341103	      0.00808689	     -0.09478690
      0.67952672	      0.81344126	      0.00791010	     -0.09478690
      0.68127357	      0.81347216	      0.00772218	     -0.09478690
      0.68302043	      0.81350374	      0.00752349	     -0.09478690
      0.68476728	      0.81353595	      0.00731448	     -0.09478690
      0.68651414	      0.81356880	      0.00709557	     -0.09478690
      0.68826099	      0.81360223	      0.00686726	     -0.09478690
      0.69000785	      0.81363623	      0.00663004	     -0.09478690
      0.69175471	      0.81367077	      0.00638442	     -0.09478690
      0.69350156	      0.81370581	      0.00613092	     -0.09478690
      0.69524842	      0.81374132	      0.00587006	     -0.09478690
      0.69699527	      0.81377725	      0.00560235	     -0.09478690
      0.69874213	      0.81381359	      0.00532831	     -0.09478690
      0.70048898	      0.81385028	      0.00504845	     -0.09478690
      0.70223584	      0.81388731	      0.00476328	     -0.09478690
      0.70398269	      0.81392462	      0.00447329	     -0.09478690
      0.70572955	      0.81396220	      0.00417898	     -0.09478690
      0.70747640	      0.81399999	      0.00388085	     -0.09478690
      0.70922326	      0.81403797	      0.00357940	     -0.09478690
      0.71097011	      0.81407609	      0.00327511	     -0.09478690
      0.71271697	      0.81411432	      0.00296850	     -0.09478690
      0.71446382	      0.81415262	      0.00266004	     -0.09478690
      0.71621068	      0.81419095	      0.00235022	     -0.09478690
      0.71795753	      0.81422928	      0.00203954	     -0.09478690
      0.71970439	      0.81426755	      0.00172843	     -0.09478690
      0.72145125	      0.81430573	      0.00141737	     -0.09478690
      0.72319810	      0.81434380	      0.00110676	     -0.09478690
      0.72494496	      0.81438170	      0.00079703	     -0.09478690
      0.72669181	      0.81441941	      0.00048855	     -0.09478690
      0.72843867	      0.81445690	      0.00018167	     -0.09478690
      0.73018552	      0.81449415	     -0.00012329	     -0.09478690
      0.73193238	      0.81453112	     -0.00042602	     -0.09478690
      0.73367923	      0.81456779	     -0.00072625	     -0.09478690
      0.73542609	      0.81460416	     -0.00102374	     -0.09478690
      0.73717294	      0.81464019	     -0.00131827	     -0.09478690
      0.73891980	      0.81467589	     -0.00160963	     -0.09478690
      0.74066665	      0.81471124	     -0.00189765	     -0.09478690
      0.74241351	      0.81474622	     -0.00218217	     -0.09478690
      0.74416036	      0.81478085	     -0.00246304	     -0.09478690
      0.74590722	      0.81481511	     -0.00274015	     -0.09478690
      0.74765408	      0.81484899	     -0.00301340	     -0.09478690
      0.74940093	      0.81488251	     -0.00328269	     -0.09478690
      0.75114779	      0.81491564	     -0.00354796	     -0.09478690
      0.75289464	      0.81494839	     -0.00380916	     -0.09478690
      0.75464150	      0.81498077	     -0.00406625	     -0.09478690
      0.75638835	      0.81501275	     -0.00431920	     -0.09478690
      0.75813521	      0.81504435	     -0.00456802	     -0.09478690
      0.75988206	      0.81507557	     -0.00481269	     -0.09478690
      0.76162892	      0.81510640	     -0.00505326	     -0.09478690
      0.76337577	      0.81513684	     -0.00528972	     -0.09478690
      0.76512263	      0.81516691	     -0.00552213	     -0.09478690
      0.76686948	      0.81519659	     -0.00575051	     -0.09478690
      0.76861634	      0.81522591	     -0.00597489	     -0.09478690
      0.77036319	      0.81525485	     -0.00619531	     -0.09478690
      0.77211005	      0.81528344	     -0.00641180	     -0.09478690
      0.77385691	      0.81531167	     -0.00662439	     -0.09478690
      0.77560376	      0.81533955	     -0.00683311	     -0.09478690
      0.77735062	      0.81536709	     -0.00703797	     -0.09478690
      0.77909747	      0.81539429	     -0.00723900	     -0.09478690
      0.78084433	      0.81542117	     -0.00743622	     -0.09478690
      0.78259118	      0.81544772	     -0.00762966	     -0.09478690
      0.78433804	      0.81547397	     -0.00781932	     -0.09478690
      0.78608489	      0.81549991	     -0.00800522	     -0.09478690
      0.78783175	      0.81552554	     -0.00818738	     -0.09478690
      0.78957860	      0.81555088	     -0.00836581	     -0.09478690
      0.79132546	      0.81557593	     -0.00854052	     -0.09478690
      0.79307231	      0.81560069	     -0.00871152	     -0.09478690
      0.79481917	      0.81562516	     -0.00887879	     -0.09478690
      0.79656602	      0.81564933	     -0.00904235	     -0.09478690
      0.79831288	      0.81567321	     -0.00920217	     -0.09478690
      0.80005973	      0.81569678	     -0.00935825	     -0.09478690
      0.80180659	      0.81572003	     -0.00951055	     -0.09478690
      0.80355345	      0.81574294	     -0.00965906	     -0.09478690
      0.80530030	      0.81576551	     -0.00980375	     -0.09478690
      0.80704716	      0.81578771	     -0.00994458	     -0.09478690
      0.80879401	      0.81580951	     -0.01008152	     -0.09478690
      0.81054087	      0.81583088	     -0.01021455	     -0.09478690
      0.81228772	      0.81585180	     -0.01034365	     -0.09478690
      0.81403458	      0.81587223	     -0.01046881	     -0.09478690
      0.81578143	      0.81589214	     -0.01059000	     -0.09478690
      0.81752829	      0.81591147	     -0.01070725	     -0.09478690
      0.81927514	      0.81593020	     -0.01082056	     -0.09478690
      0.82102200	      0.81594829	     -0.01092993	     -0.09478690
      0.82276885	      0.81596569	     -0.01103541	     -0.09478690
      0.82451571	      0.81598238	     -0.01113702	     -0.09478690
      0.82626256	      0.81599833	     -0.01123480	     -0.09478690
      0.82800942	      0.81601352	     -0.01132878	     -0.09478690
      0.82975628	      0.81602794	     -0.01141903	     -0.09478690
      0.83150313	      0.81604159	     -0.01150557	     -0.09478690
      0.83324999	      0.81605446	     -0.01158849	     -0.09478690
      0.83499684	      0.81606656	     -0.01166782	     -0.09478690
      0.83674370	      0.81607790	     -0.01174363	     -0.09478690
      0.83849055	      0.81608847	     -0.01181599	     -0.09478690
      0.84023741	      0.81609828	     -0.01188497	     -0.09478690
      0.84198426	      0.81610735	     -0.01195062	     -0.09478690
      0.84373112	      0.81611566	     -0.01201301	     -0.09478690
      0.84547797	      0.81612323	     -0.01207222	     -0.09478690
      0.84722483	      0.81613006	     -0.01212831	     -0.09478690
      0.84897168	      0.81613615	     -0.01218136	     -0.09478690
      0.85071854	      0.81614150	     -0.01223143	     -0.09478690
      0.85246539	      0.81614610	     -0.01227859	     -0.09478690
      0.85421225	      0.81614997	     -0.01232292	     -0.09478690
      0.85595910	      0.81615310	     -0.01236449	     -0.09478690
      0.85770596	      0.81615548	     -0.01240336	     -0.09478690
      0.85945282	      0.81615713	     -0.01243962	     -0.09478690
      0.86119967	      0.81615804	     -0.01247333	     -0.09478690
      0.86294653	      0.81615821	     -0.01250457	     -0.09478690
      0.86469338	      0.81615764	     -0.01253341	     -0.09478690
      0.86644024	      0.81615633	     -0.01255992	     -0.09478690
      0.86818709	      0.81615428	     -0.01258417	     -0.09478690
      0.86993395	      0.81615148	     -0.01260624	     -0.09478690
      0.87168080	      0.81614794	     -0.01262619	     -0.09478690
      0.87342766	      0.81614366	     -0.01264409	     -0.09478690
      0.87517451	      0.81613864	     -0.01266001	     -0.09478690
      0.87692137	      0.81613286	     -0.01267403	     -0.09478690
      0.87866822	      0.81612634	     -0.01268620	     -0.09478690
      0.88041508	      0.81611908	     -0.01269659	     -0.09478690
      0.88216193	      0.81611106	     -0.01270526	     -0.09478690
      0.88390879	      0.81610230	     -0.01271227	     -0.09478690
      0.88565565	      0.81609278	     -0.01271769	     -0.09478690
      0.88740250	      0.81608252	     -0.01272156	     -0.09478690
      0.88914936	      0.81607150	     -0.01272394	     -0.09478690
      0.89089621	      0.81605973	     -0.01272489	     -0.09478690
      0.89264307	      0.81604721	     -0.01272446	     -0.09478690
      0.89438992	      0.81603393	     -0.01272269	     -0.09478690
      0.89613678	      0.81601990	     -0.01271964	     -0.09478690
      0.89788363	      0.81600512	     -0.01271534	     -0.09478690
      0.89963049	      0.81598959	     -0.01270984	     -0.09478690
      0.90137734	      0.81597330	     -0.01270319	     -0.09478690
      0.90312420	      0.81595626	     -0.01269541	     -0.09478690
      0.90487105	      0.81593847	     -0.01268656	     -0.09478690
      0.90661791	      0.81591993	     -0.01267666	     -0.09478690
      0.90836476	      0.81590063	     -0.01266575	     -0.09478690
      0.91011162	      0.81588058	     -0.01265388	     -0.09478690
      0.91185848	      0.81585978	     -0.01264106	     -0.09478690
      0.91360533	      0.81583823	     -0.01262735	     -0.09478690
      0.91535219	      0.81581592	     -0.01261275	     -0.09478690
      0.91709904	      0.81579287	     -0.01259731	     -0.09478690
      0.91884590	      0.81576906	     -0.01258105	     -0.09478690
      0.92059275	      0.81574450	     -0.01256400	     -0.09478690
      0.92233961	      0.81571918	     -0.01254618	     -0.09478690
      0.92408646	      0.81569311	     -0.01252762	     -0.09478690
      0.92583332	      0.81566629	     -0.01250834	     -0.09478690
      0.92758017	      0.81563871	     -0.01248836	     -0.09478690
      0.92932703	      0.81561038	     -0.01246771	     -0.09478690
      0.93107388	      0.81558129	     -0.01244639	     -0.09478690
      0.93282074	      0.81555144	     -0.01242443	     -0.09478690
      0.93456759	      0.81552083	     -0.01240185	     -0.09478690
      0.93631445	      0.81548945	     -0.01237866	     -0.09478690
      0.93806130	      0.81545731	     -0.01235488	     -0.09478690
      0.93980816	      0.81542440	     -0.01233052	     -0.09478690
      0.94155502	      0.81539071	     -0.01230559	     -0.09478690
      0.94330187	      0.81535625	     -0.01228010	     -0.09478690
      0.94504873	      0.81532102	     -0.01225408	     -0.09478690
      0.94679558	      0.81528499	     -0.01222752	     -0.09478690
      0.94854244	      0.81524818	     -0.01220043	     -0.09478690
      0.95028929	      0.81521058	     -0.01217284	     -0.09478690
      0.95203615	      0.81517217	     -0.01214473	     -0.09478690
      0.95378300	      0.81513296	     -0.01211613	     -0.09478690
      0.95552986	      0.81509294	     -0.01208703	     -0.09478690
      0.95727671	      0.81505209	     -0.01205744	     -0.09478690
      0.95902357	      0.81501041	     -0.01202737	     -0.09478690
      0.96077042	      0.81496788	     -0.01199681	     -0.09478690
      0.96251728	      0.81492451	     -0.01196577	     -0.09478690
      0.96426413	      0.81488027	     -0.01193426	     -0.09478690
      0.96601099	      0.81483516	     -0.01190225	     -0.09478690
      0.96775785	      0.81478916	     -0.01186977	     -0.09478690
      0.96950470	      0.81474227	     -0.01183680	     -0.09478690
      0.97125156	      0.81469446	     -0.01180333	     -0.09478690
      0.97299841	      0.81464574	     -0.01176937	     -0.09478690
      0.97474527	      0.81459609	     -0.01173491	     -0.09478690
      0.97649212	      0.81454550	     -0.01169993	     -0.09478690
      0.97823898	      0.81449397	     -0.01166443	     -0.09478690
      0.97998583	      0.81444147	     -0.01162841	     -0.09478690
      0.98173269	      0.81438801	     -0.01159183	     -0.09478690
      0.98347954	      0.81433357	     -0.01155470	     -0.09478690
      0.98522640	      0.81427815	     -0.01151700	     -0.09478690
      0.98697325	      0.81422172	     -0.01147870	     -0.09478690
      0.98872011	      0.81416427	     -0.01143978	     -0.09478690
      0.99046696	      0.81410579	     -0.01140022	     -0.09478690
      0.99221382	      0.81404625	     -0.01135998	     -0.09478690
      0.99396067	      0.81398563	     -0.01131904	     -0.09478690
      0.99570753	      0.81392392	     -0.01127734	     -0.09478690
      0.99745439	      0.81386107	     -0.01123485	     -0.09478690
      0.99920124	      0.81379707	     -0.01119152	     -0.09478690
      1.00094810	      0.81373188	     -0.01114730	     -0.09478690
      1.00269495	      0.81366548	     -0.01110215	     -0.09478690
      1.00444181	      0.81359786	     -0.01105602	     -0.09478690
      1.00618866	      0.81352899	     -0.01100886	     -0.09478690
      1.00793552	      0.81345887	     -0.01096063	     -0.09478690
      1.00968237	      0.81338749	     -0.01091127	     -0.09478690
      1.01142923	      0.81331484	     -0.01086075	     -0.09478690
      1.01317608	      0.81324092	     -0.01080901	     -0.09478690
      1.01492294	      0.81316572	     -0.01075598	     -0.09478690
      1.01666979	      0.81308926	     -0.01070159	     -0.09478690
      1.01841665	      0.81301153	     -0.01064575	     -0.09478690
      1.02016350	      0.81293252	     -0.01058836	     -0.09478690
      1.02191036	      0.81285222	     -0.01052932	     -0.09478690
      1.02365722	      0.81277063	     -0.01046852	     -0.09478690
      1.02540407	      0.81268774	     -0.01040583	     -0.09478690
      1.02715093	      0.81260354	     -0.01034115	     -0.09478690
      1.02889778	      0.81251803	     -0.01027433	     -0.09478690
      1.03064464	      0.81243119	     -0.01020527	     -0.09478690
      1.03239149	      0.81234303	     -0.01013383	     -0.09478690
      1.03413835	      0.81225354	     -0.01005991	     -0.09478690
      1.03588520	      0.81216271	     -0.00998339	     -0.09478690
      1.03763206	      0.81207053	     -0.00990415	     -0.09478690
      1.03937891	      0.81197698	     -0.00982208	     -0.09478690
      1.04112577	      0.81188207	     -0.00973700	     -0.09478690
      1.04287262	      0.81178581	     -0.00964870	     -0.09478690
      1.04461948	      0.81168820	     -0.00955692	     -0.09478690
      1.04636633	      0.81158920	     -0.00946140	     -0.09478690
      1.04811319	      0.81148880	     -0.00936194	     -0.09478690
