PointPosition
version=1
nRows=601
nColumns=4
inDegrees=no
No description.
endheader
time	state_0	state_1	state_2
      0.00000000	     -0.39451487	     -0.00760596	     -0.09478690
      0.00128834	     -0.39459078	     -0.00741336	     -0.09478690
      0.00257667	     -0.39466651	     -0.00721528	     -0.09478690
      0.00386501	     -0.39474201	     -0.00701152	     -0.09478690
      0.00515334	     -0.39481717	     -0.00680187	     -0.09478690
      0.00644168	     -0.39489188	     -0.00658614	     -0.09478690
      0.00773002	     -0.39496598	     -0.00636419	     -0.09478690
      0.00901835	     -0.39503929	     -0.00613587	     -0.09478690
      0.01030669	     -0.39511159	     -0.00590100	     -0.09478690
      0.01159502	     -0.39518267	     -0.00565940	     -0.09478690
      0.01288336	     -0.39525221	     -0.00541089	     -0.09478690
      0.01417169	     -0.39531987	     -0.00515528	     -0.09478690
      0.01546003	     -0.39538519	     -0.00489244	     -0.09478690
      0.01674837	     -0.39544772	     -0.00462217	     -0.09478690
      0.01803670	     -0.39550685	     -0.00434444	     -0.09478690
      0.01932504	     -0.39556184	     -0.00405939	     -0.09478690
      0.02061337	     -0.39561187	     -0.00376728	     -0.09478690
      0.02190171	     -0.39565612	     -0.00346838	     -0.09478690
      0.02319005	     -0.39569382	     -0.00316298	     -0.09478690
      0.02447838	     -0.39572425	     -0.00285127	     -0.09478690
      0.02576672	     -0.39574685	     -0.00253328	     -0.09478690
      0.02705505	     -0.39576110	     -0.00220894	     -0.09478690
      0.02834339	     -0.39576660	     -0.00187794	     -0.09478690
      0.02963173	     -0.39576303	     -0.00153986	     -0.09478690
      0.03092006	     -0.39574997	     -0.00119409	     -0.09478690
      0.03220840	     -0.39572694	     -0.00083989	     -0.09478690
      0.03349673	     -0.39569310	     -0.00047644	     -0.09478690
      0.03478507	     -0.39564695	     -0.00010281	     -0.09478690
      0.03607341	     -0.39557259	      0.00028455	     -0.09478690
      0.03736174	     -0.39544123	      0.00068998	     -0.09478690
      0.03865008	     -0.39521567	      0.00111569	     -0.09478690
      0.03993841	     -0.39486394	      0.00156083	     -0.09478690
      0.04122675	     -0.39436553	      0.00202418	     -0.09478690
      0.04251508	     -0.39370303	      0.00250476	     -0.09478690
      0.04380342	     -0.39286243	      0.00300113	     -0.09478690
      0.04509176	     -0.39183264	      0.00351127	     -0.09478690
      0.04638009	     -0.39061371	      0.00403235	     -0.09478690
      0.04766843	     -0.38921303	      0.00456170	     -0.09478690
      0.04895676	     -0.38764798	      0.00509664	     -0.09478690
      0.05024510	     -0.38593846	      0.00563519	     -0.09478690
      0.05153344	     -0.38410478	      0.00617580	     -0.09478690
      0.05282177	     -0.38216541	      0.00671749	     -0.09478690
      0.05411011	     -0.38013506	      0.00725970	     -0.09478690
      0.05539844	     -0.37802656	      0.00780209	     -0.09478690
      0.05668678	     -0.37584970	      0.00834461	     -0.09478690
      0.05797512	     -0.37361303	      0.00888727	     -0.09478690
      0.05926345	     -0.37132305	      0.00943022	     -0.09478690
      0.06055179	     -0.36898542	      0.00997366	     -0.09478690
      0.06184012	     -0.36660433	      0.01051784	     -0.09478690
      0.06312846	     -0.36418335	      0.01106304	     -0.09478690
      0.06441679	     -0.36172506	      0.01160956	     -0.09478690
      0.06570513	     -0.35923169	      0.01215773	     -0.09478690
      0.06699347	     -0.35670492	      0.01270784	     -0.09478690
      0.06828180	     -0.35414626	      0.01326020	     -0.09478690
      0.06957014	     -0.35155705	      0.01381508	     -0.09478690
      0.07085847	     -0.34893857	      0.01437273	     -0.09478690
      0.07214681	     -0.34629204	      0.01493335	     -0.09478690
      0.07343515	     -0.34361864	      0.01549712	     -0.09478690
      0.07472348	     -0.34091948	      0.01606418	     -0.09478690
      0.07601182	     -0.33819559	      0.01663465	     -0.09478690
      0.07730015	     -0.33544790	      0.01720860	     -0.09478690
      0.07858849	     -0.33267723	      0.01778609	     -0.09478690
      0.07987683	     -0.32988426	      0.01836716	     -0.09478690
      0.08116516	     -0.32706963	      0.01895180	     -0.09478690
      0.08245350	     -0.32423384	      0.01954000	     -0.09478690
      0.08374183	     -0.32137732	      0.02013172	     -0.09478690
      0.08503017	     -0.31850045	      0.02072689	     -0.09478690
      0.08631851	     -0.31560355	      0.02132542	     -0.09478690
      0.08760684	     -0.31268687	      0.02192721	     -0.09478690
      0.08889518	     -0.30975063	      0.02253212	     -0.09478690
      0.09018351	     -0.30679500	      0.02314000	     -0.09478690
      0.09147185	     -0.30382014	      0.02375070	     -0.09478690
      0.09276018	     -0.30082615	      0.02436402	     -0.09478690
      0.09404852	     -0.29781311	      0.02497977	     -0.09478690
      0.09533686	     -0.29478108	      0.02559774	     -0.09478690
      0.09662519	     -0.29173009	      0.02621769	     -0.09478690
      0.09791353	     -0.28866016	      0.02683939	     -0.09478690
      0.09920186	     -0.28557129	      0.02746259	     -0.09478690
      0.10049020	     -0.28246346	      0.02808701	     -0.09478690
      0.10177854	     -0.27933664	      0.02871238	     -0.09478690
      0.10306687	     -0.27619077	      0.02933842	     -0.09478690
      0.10435521	     -0.27302582	      0.02996482	     -0.09478690
      0.10564354	     -0.26984170	      0.03059129	     -0.09478690
      0.10693188	     -0.26663835	      0.03121751	     -0.09478690
      0.10822022	     -0.26341567	      0.03184316	     -0.09478690
      0.10950855	     -0.26017357	      0.03246793	     -0.09478690
      0.11079689	     -0.25691195	      0.03309147	     -0.09478690
      0.11208522	     -0.25363069	      0.03371346	     -0.09478690
      0.11337356	     -0.25032969	      0.03433356	     -0.09478690
      0.11466189	     -0.24700881	      0.03495140	     -0.09478690
      0.11595023	     -0.24366794	      0.03556666	     -0.09478690
      0.11723857	     -0.24030694	      0.03617897	     -0.09478690
      0.11852690	     -0.23692567	      0.03678797	     -0.09478690
      0.11981524	     -0.23352398	      0.03739332	     -0.09478690
      0.12110357	     -0.23010175	      0.03799464	     -0.09478690
      0.12239191	     -0.22665882	      0.03859159	     -0.09478690
      0.12368025	     -0.22319504	      0.03918380	     -0.09478690
      0.12496858	     -0.21971028	      0.03977091	     -0.09478690
      0.12625692	     -0.21620440	      0.04035256	     -0.09478690
      0.12754525	     -0.21267727	      0.04092838	     -0.09478690
      0.12883359	     -0.20912874	      0.04149801	     -0.09478690
      0.13012193	     -0.20555867	      0.04206110	     -0.09478690
      0.13141026	     -0.20196694	      0.04261729	     -0.09478690
      0.13269860	     -0.19835338	      0.04316623	     -0.09478690
      0.13398693	     -0.19471784	      0.04370757	     -0.09478690
      0.13527527	     -0.19106017	      0.04424097	     -0.09478690
      0.13656361	     -0.18738019	      0.04476609	     -0.09478690
      0.13785194	     -0.18367773	      0.04528260	     -0.09478690
      0.13914028	     -0.17995260	      0.04579018	     -0.09478690
      0.14042861	     -0.17620462	      0.04628849	     -0.09478690
      0.14171695	     -0.17243358	      0.04677725	     -0.09478690
      0.14300528	     -0.16863927	      0.04725613	     -0.09478690
      0.14429362	     -0.16482145	      0.04772487	     -0.09478690
      0.14558196	     -0.16097987	      0.04818317	     -0.09478690
      0.14687029	     -0.15711429	      0.04863077	     -0.09478690
      0.14815863	     -0.15322444	      0.04906741	     -0.09478690
      0.14944696	     -0.14931012	      0.04949284	     -0.09478690
      0.15073530	     -0.14537111	      0.04990680	     -0.09478690
      0.15202364	     -0.14140728	      0.05030904	     -0.09478690
      0.15331197	     -0.13741849	      0.05069932	     -0.09478690
      0.15460031	     -0.13340466	      0.05107740	     -0.09478690
      0.15588864	     -0.12936570	      0.05144303	     -0.09478690
      0.15717698	     -0.12530151	      0.05179601	     -0.09478690
      0.15846532	     -0.12121197	      0.05213613	     -0.09478690
      0.15975365	     -0.11709691	      0.05246321	     -0.09478690
      0.16104199	     -0.11295615	      0.05277709	     -0.09478690
      0.16233032	     -0.10878955	      0.05307762	     -0.09478690
      0.16361866	     -0.10459699	      0.05336463	     -0.09478690
      0.16490699	     -0.10037849	      0.05363797	     -0.09478690
      0.16619533	     -0.09613406	      0.05389746	     -0.09478690
      0.16748367	     -0.09186372	      0.05414297	     -0.09478690
      0.16877200	     -0.08756742	      0.05437436	     -0.09478690
      0.17006034	     -0.08324504	      0.05459154	     -0.09478690
      0.17134867	     -0.07889643	      0.05479446	     -0.09478690
      0.17263701	     -0.07452159	      0.05498301	     -0.09478690
      0.17392535	     -0.07012061	      0.05515707	     -0.09478690
      0.17521368	     -0.06569369	      0.05531653	     -0.09478690
      0.17650202	     -0.06124093	      0.05546129	     -0.09478690
      0.17779035	     -0.05676232	      0.05559131	     -0.09478690
      0.17907869	     -0.05225774	      0.05570655	     -0.09478690
      0.18036703	     -0.04772704	      0.05580704	     -0.09478690
      0.18165536	     -0.04317009	      0.05589279	     -0.09478690
      0.18294370	     -0.03858679	      0.05596382	     -0.09478690
      0.18423203	     -0.03397710	      0.05602014	     -0.09478690
      0.18552037	     -0.02934101	      0.05606177	     -0.09478690
      0.18680871	     -0.02467843	      0.05608875	     -0.09478690
      0.18809704	     -0.01998925	      0.05610117	     -0.09478690
      0.18938538	     -0.01527333	      0.05609911	     -0.09478690
      0.19067371	     -0.01053059	      0.05608266	     -0.09478690
      0.19196205	     -0.00576102	      0.05605190	     -0.09478690
      0.19325038	     -0.00096466	      0.05600691	     -0.09478690
      0.19453872	      0.00385848	      0.05594778	     -0.09478690
      0.19582706	      0.00870850	      0.05587466	     -0.09478690
      0.19711539	      0.01358556	      0.05578773	     -0.09478690
      0.19840373	      0.01848963	      0.05568713	     -0.09478690
      0.19969206	      0.02342070	      0.05557298	     -0.09478690
      0.20098040	      0.02837888	      0.05544546	     -0.09478690
      0.20226874	      0.03336415	      0.05530472	     -0.09478690
      0.20355707	      0.03837639	      0.05515093	     -0.09478690
      0.20484541	      0.04341564	      0.05498428	     -0.09478690
      0.20613374	      0.04848194	      0.05480500	     -0.09478690
      0.20742208	      0.05357528	      0.05461332	     -0.09478690
      0.20871042	      0.05869566	      0.05440944	     -0.09478690
      0.20999875	      0.06384305	      0.05419360	     -0.09478690
      0.21128709	      0.06901746	      0.05396604	     -0.09478690
      0.21257542	      0.07421885	      0.05372700	     -0.09478690
      0.21386376	      0.07944722	      0.05347675	     -0.09478690
      0.21515209	      0.08470252	      0.05321553	     -0.09478690
      0.21644043	      0.08998475	      0.05294362	     -0.09478690
      0.21772877	      0.09529386	      0.05266129	     -0.09478690
      0.21901710	      0.10062982	      0.05236882	     -0.09478690
      0.22030544	      0.10599259	      0.05206651	     -0.09478690
      0.22159377	      0.11138214	      0.05175465	     -0.09478690
      0.22288211	      0.11679842	      0.05143355	     -0.09478690
      0.22417045	      0.12224137	      0.05110352	     -0.09478690
      0.22545878	      0.12771096	      0.05076487	     -0.09478690
      0.22674712	      0.13320712	      0.05041793	     -0.09478690
      0.22803545	      0.13872979	      0.05006304	     -0.09478690
      0.22932379	      0.14427891	      0.04970053	     -0.09478690
      0.23061213	      0.14985441	      0.04933075	     -0.09478690
      0.23190046	      0.15545621	      0.04895406	     -0.09478690
      0.23318880	      0.16108425	      0.04857080	     -0.09478690
      0.23447713	      0.16673843	      0.04818137	     -0.09478690
      0.23576547	      0.17241867	      0.04778611	     -0.09478690
      0.23705381	      0.17812487	      0.04738543	     -0.09478690
      0.23834214	      0.18385694	      0.04697971	     -0.09478690
      0.23963048	      0.18961477	      0.04656935	     -0.09478690
      0.24091881	      0.19539826	      0.04615475	     -0.09478690
      0.24220715	      0.20120729	      0.04573633	     -0.09478690
      0.24349548	      0.20704174	      0.04531450	     -0.09478690
      0.24478382	      0.21290148	      0.04488969	     -0.09478690
      0.24607216	      0.21878638	      0.04446234	     -0.09478690
      0.24736049	      0.22469630	      0.04403289	     -0.09478690
      0.24864883	      0.23063110	      0.04360179	     -0.09478690
      0.24993716	      0.23659061	      0.04316948	     -0.09478690
      0.25122550	      0.24257467	      0.04273645	     -0.09478690
      0.25251384	      0.24858313	      0.04230315	     -0.09478690
      0.25380217	      0.25461579	      0.04187005	     -0.09478690
      0.25509051	      0.26067249	      0.04143764	     -0.09478690
      0.25637884	      0.26675301	      0.04100641	     -0.09478690
      0.25766718	      0.27285717	      0.04057683	     -0.09478690
      0.25895552	      0.27898475	      0.04014941	     -0.09478690
      0.26024385	      0.28513551	      0.03972463	     -0.09478690
      0.26153219	      0.29130919	      0.03930295	     -0.09478690
      0.26282052	      0.29750556	      0.03888489	     -0.09478690
      0.26410886	      0.30372447	      0.03847102	     -0.09478690
      0.26539719	      0.30996564	      0.03806185	     -0.09478690
      0.26668553	      0.31622866	      0.03765780	     -0.09478690
      0.26797387	      0.32251319	      0.03725936	     -0.09478690
      0.26926220	      0.32881894	      0.03686703	     -0.09478690
      0.27055054	      0.33514555	      0.03648126	     -0.09478690
      0.27183887	      0.34149269	      0.03610255	     -0.09478690
      0.27312721	      0.34786004	      0.03573140	     -0.09478690
      0.27441555	      0.35424727	      0.03536832	     -0.09478690
      0.27570388	      0.36065398	      0.03501374	     -0.09478690
      0.27699222	      0.36707973	      0.03466808	     -0.09478690
      0.27828055	      0.37352406	      0.03433173	     -0.09478690
      0.27956889	      0.37998646	      0.03400505	     -0.09478690
      0.28085723	      0.38646640	      0.03368836	     -0.09478690
      0.28214556	      0.39296332	      0.03338193	     -0.09478690
      0.28343390	      0.39947660	      0.03308598	     -0.09478690
      0.28472223	      0.40600558	      0.03280069	     -0.09478690
      0.28601057	      0.41254958	      0.03252616	     -0.09478690
      0.28729891	      0.41910790	      0.03226247	     -0.09478690
      0.28858724	      0.42567980	      0.03200965	     -0.09478690
      0.28987558	      0.43226457	      0.03176768	     -0.09478690
      0.29116391	      0.43886145	      0.03153651	     -0.09478690
      0.29245225	      0.44546967	      0.03131603	     -0.09478690
      0.29374058	      0.45208846	      0.03110604	     -0.09478690
      0.29502892	      0.45871700	      0.03090631	     -0.09478690
      0.29631726	      0.46535446	      0.03071649	     -0.09478690
      0.29760559	      0.47199999	      0.03053616	     -0.09478690
      0.29889393	      0.47865272	      0.03036481	     -0.09478690
      0.30018226	      0.48531178	      0.03020187	     -0.09478690
      0.30147060	      0.49197632	      0.03004669	     -0.09478690
      0.30275894	      0.49864552	      0.02989857	     -0.09478690
      0.30404727	      0.50531857	      0.02975677	     -0.09478690
      0.30533561	      0.51199472	      0.02962051	     -0.09478690
      0.30662394	      0.51867328	      0.02948897	     -0.09478690
      0.30791228	      0.52535357	      0.02936131	     -0.09478690
      0.30920062	      0.53203499	      0.02923666	     -0.09478690
      0.31048895	      0.53871702	      0.02911414	     -0.09478690
      0.31177729	      0.54539917	      0.02899287	     -0.09478690
      0.31306562	      0.55208105	      0.02887198	     -0.09478690
      0.31435396	      0.55876239	      0.02875065	     -0.09478690
      0.31564229	      0.56544297	      0.02862809	     -0.09478690
      0.31693063	      0.57212271	      0.02850363	     -0.09478690
      0.31821897	      0.57880160	      0.02837661	     -0.09478690
      0.31950730	      0.58547977	      0.02824650	     -0.09478690
      0.32079564	      0.59215739	      0.02811283	     -0.09478690
      0.32208397	      0.59883477	      0.02797524	     -0.09478690
      0.32337231	      0.60551225	      0.02783345	     -0.09478690
      0.32466065	      0.61219030	      0.02768730	     -0.09478690
      0.32594898	      0.61886940	      0.02753675	     -0.09478690
      0.32723732	      0.62555010	      0.02738191	     -0.09478690
      0.32852565	      0.63223299	      0.02722299	     -0.09478690
      0.32981399	      0.63891867	      0.02706040	     -0.09478690
      0.33110233	      0.64560771	      0.02689465	     -0.09478690
      0.33239066	      0.65230068	      0.02672645	     -0.09478690
      0.33367900	      0.65899811	      0.02655663	     -0.09478690
      0.33496733	      0.66570044	      0.02638622	     -0.09478690
      0.33625567	      0.67240808	      0.02621635	     -0.09478690
      0.33754401	      0.67912136	      0.02604833	     -0.09478690
      0.33883234	      0.68584052	      0.02588357	     -0.09478690
      0.34012068	      0.69256570	      0.02572359	     -0.09478690
      0.34140901	      0.69929697	      0.02556997	     -0.09478690
      0.34269735	      0.70603427	      0.02542438	     -0.09478690
      0.34398568	      0.71277745	      0.02528851	     -0.09478690
      0.34527402	      0.71952622	      0.02516411	     -0.09478690
      0.34656236	      0.72628019	      0.02505294	     -0.09478690
      0.34785069	      0.73303880	      0.02495677	     -0.09478690
      0.34913903	      0.73980137	      0.02487740	     -0.09478690
      0.35042736	      0.74656697	      0.02481662	     -0.09478690
      0.35171570	      0.75333448	      0.02477619	     -0.09478690
      0.35300404	      0.76010233	      0.02475789	     -0.09478690
      0.35429237	      0.76686865	      0.02476343	     -0.09478690
      0.35558071	      0.77363083	      0.02479449	     -0.09478690
      0.35686904	      0.78038572	      0.02485261	     -0.09478690
      0.35815738	      0.78712905	      0.02493921	     -0.09478690
      0.35944572	      0.79385584	      0.02505540	     -0.09478690
      0.36073405	      0.80055972	      0.02520183	     -0.09478690
      0.36202239	      0.80723355	      0.02537862	     -0.09478690
      0.36331072	      0.81386904	      0.02558491	     -0.09478690
      0.36459906	      0.82045749	      0.02581903	     -0.09478690
      0.36588739	      0.82698991	      0.02607814	     -0.09478690
      0.36717573	      0.83345752	      0.02635864	     -0.09478690
      0.36846407	      0.83985237	      0.02665643	     -0.09478690
      0.36975240	      0.84616724	      0.02696724	     -0.09478690
      0.37104074	      0.85239623	      0.02728744	     -0.09478690
      0.37232907	      0.85853418	      0.02761387	     -0.09478690
      0.37361741	      0.86457691	      0.02794450	     -0.09478690
      0.37490575	      0.87052058	      0.02827771	     -0.09478690
      0.37619408	      0.87636162	      0.02861205	     -0.09478690
      0.37748242	      0.88209642	      0.02894567	     -0.09478690
      0.37877075	      0.88772107	      0.02927543	     -0.09478690
      0.38005909	      0.89323144	      0.02959719	     -0.09478690
      0.38134743	      0.89862299	      0.02990564	     -0.09478690
      0.38263576	      0.90389092	      0.03019508	     -0.09478690
      0.38392410	      0.90902994	      0.03046001	     -0.09478690
      0.38521243	      0.91403443	      0.03069525	     -0.09478690
      0.38650077	      0.91889771	      0.03089509	     -0.09478690
      0.38778911	      0.92361240	      0.03105290	     -0.09478690
      0.38907744	      0.92816920	      0.03115840	     -0.09478690
      0.39036578	      0.93255765	      0.03119859	     -0.09478690
      0.39165411	      0.93676462	      0.03115577	     -0.09478690
      0.39294245	      0.94077548	      0.03101005	     -0.09478690
      0.39423078	      0.94457225	      0.03073736	     -0.09478690
      0.39551912	      0.94813510	      0.03031160	     -0.09478690
      0.39680746	      0.95144057	      0.02970357	     -0.09478690
      0.39809579	      0.95446323	      0.02888316	     -0.09478690
      0.39938413	      0.95717529	      0.02782390	     -0.09478690
      0.40067246	      0.95954784	      0.02650396	     -0.09478690
      0.40196080	      0.96155292	      0.02490932	     -0.09478690
      0.40324914	      0.96316379	      0.02303013	     -0.09478690
      0.40453747	      0.96436176	      0.02087341	     -0.09478690
      0.40582581	      0.96510499	      0.01842698	     -0.09478690
      0.40711414	      0.96549594	      0.01587988	     -0.09478690
      0.40840248	      0.96575718	      0.01356014	     -0.09478690
      0.40969082	      0.96596336	      0.01159400	     -0.09478690
      0.41097915	      0.96611055	      0.00999600	     -0.09478690
      0.41226749	      0.96621110	      0.00873251	     -0.09478690
      0.41355582	      0.96627517	      0.00774084	     -0.09478690
      0.41484416	      0.96631413	      0.00695834	     -0.09478690
      0.41613249	      0.96633621	      0.00632910	     -0.09478690
      0.41742083	      0.96634735	      0.00581387	     -0.09478690
      0.41870917	      0.96635201	      0.00538195	     -0.09478690
      0.41999750	      0.96635262	      0.00501655	     -0.09478690
      0.42128584	      0.96635087	      0.00470550	     -0.09478690
      0.42257417	      0.96634751	      0.00444259	     -0.09478690
      0.42386251	      0.96634304	      0.00422294	     -0.09478690
      0.42515085	      0.96633770	      0.00404351	     -0.09478690
      0.42643918	      0.96633159	      0.00390169	     -0.09478690
      0.42772752	      0.96632472	      0.00379539	     -0.09478690
      0.42901585	      0.96631712	      0.00372251	     -0.09478690
      0.43030419	      0.96630876	      0.00368101	     -0.09478690
      0.43159253	      0.96629963	      0.00366891	     -0.09478690
      0.43288086	      0.96628973	      0.00368418	     -0.09478690
      0.43416920	      0.96627905	      0.00372486	     -0.09478690
      0.43545753	      0.96626759	      0.00378900	     -0.09478690
      0.43674587	      0.96625539	      0.00387468	     -0.09478690
      0.43803421	      0.96624247	      0.00398012	     -0.09478690
      0.43932254	      0.96622887	      0.00410358	     -0.09478690
      0.44061088	      0.96621464	      0.00424349	     -0.09478690
      0.44189921	      0.96619984	      0.00439834	     -0.09478690
      0.44318755	      0.96618450	      0.00456676	     -0.09478690
      0.44447588	      0.96616870	      0.00474744	     -0.09478690
      0.44576422	      0.96615250	      0.00493918	     -0.09478690
      0.44705256	      0.96613597	      0.00514080	     -0.09478690
      0.44834089	      0.96611920	      0.00535116	     -0.09478690
      0.44962923	      0.96610227	      0.00556917	     -0.09478690
      0.45091756	      0.96608532	      0.00579371	     -0.09478690
      0.45220590	      0.96606845	      0.00602367	     -0.09478690
      0.45349424	      0.96605181	      0.00625793	     -0.09478690
      0.45478257	      0.96603556	      0.00649537	     -0.09478690
      0.45607091	      0.96601986	      0.00673485	     -0.09478690
      0.45735924	      0.96600489	      0.00697524	     -0.09478690
      0.45864758	      0.96599082	      0.00721546	     -0.09478690
      0.45993592	      0.96597783	      0.00745444	     -0.09478690
      0.46122425	      0.96596609	      0.00769128	     -0.09478690
      0.46251259	      0.96595573	      0.00792514	     -0.09478690
      0.46380092	      0.96594686	      0.00815543	     -0.09478690
      0.46508926	      0.96593957	      0.00838168	     -0.09478690
      0.46637759	      0.96593388	      0.00860366	     -0.09478690
      0.46766593	      0.96592980	      0.00882126	     -0.09478690
      0.46895427	      0.96592729	      0.00903452	     -0.09478690
      0.47024260	      0.96592628	      0.00924356	     -0.09478690
      0.47153094	      0.96592668	      0.00944857	     -0.09478690
      0.47281927	      0.96592838	      0.00964977	     -0.09478690
      0.47410761	      0.96593126	      0.00984739	     -0.09478690
      0.47539595	      0.96593518	      0.01004162	     -0.09478690
      0.47668428	      0.96594001	      0.01023261	     -0.09478690
      0.47797262	      0.96594562	      0.01042048	     -0.09478690
      0.47926095	      0.96595189	      0.01060524	     -0.09478690
      0.48054929	      0.96595870	      0.01078684	     -0.09478690
      0.48183763	      0.96596594	      0.01096516	     -0.09478690
      0.48312596	      0.96597352	      0.01113998	     -0.09478690
      0.48441430	      0.96598136	      0.01131103	     -0.09478690
      0.48570263	      0.96598940	      0.01147795	     -0.09478690
      0.48699097	      0.96599758	      0.01164033	     -0.09478690
      0.48827931	      0.96600587	      0.01179774	     -0.09478690
      0.48956764	      0.96601424	      0.01194967	     -0.09478690
      0.49085598	      0.96602267	      0.01209563	     -0.09478690
      0.49214431	      0.96603116	      0.01223509	     -0.09478690
      0.49343265	      0.96603971	      0.01236754	     -0.09478690
      0.49472098	      0.96604831	      0.01249249	     -0.09478690
      0.49600932	      0.96605697	      0.01260947	     -0.09478690
      0.49729766	      0.96606571	      0.01271803	     -0.09478690
      0.49858599	      0.96607453	      0.01281777	     -0.09478690
      0.49987433	      0.96608344	      0.01290836	     -0.09478690
      0.50116266	      0.96609244	      0.01298947	     -0.09478690
      0.50245100	      0.96610153	      0.01306086	     -0.09478690
      0.50373934	      0.96611072	      0.01312227	     -0.09478690
      0.50502767	      0.96612001	      0.01317350	     -0.09478690
      0.50631601	      0.96612939	      0.01321435	     -0.09478690
      0.50760434	      0.96613888	      0.01324463	     -0.09478690
      0.50889268	      0.96614847	      0.01326411	     -0.09478690
      0.51018102	      0.96615819	      0.01327258	     -0.09478690
      0.51146935	      0.96616804	      0.01326978	     -0.09478690
      0.51275769	      0.96617806	      0.01325543	     -0.09478690
      0.51404602	      0.96618828	      0.01322922	     -0.09478690
      0.51533436	      0.96619872	      0.01319083	     -0.09478690
      0.51662269	      0.96620944	      0.01313992	     -0.09478690
      0.51791103	      0.96622049	      0.01307615	     -0.09478690
      0.51919937	      0.96623189	      0.01299922	     -0.09478690
      0.52048770	      0.96624370	      0.01290889	     -0.09478690
      0.52177604	      0.96625597	      0.01280496	     -0.09478690
      0.52306437	      0.96626871	      0.01268737	     -0.09478690
      0.52435271	      0.96628195	      0.01255613	     -0.09478690
      0.52564105	      0.96629570	      0.01241136	     -0.09478690
      0.52692938	      0.96630996	      0.01225328	     -0.09478690
      0.52821772	      0.96632471	      0.01208215	     -0.09478690
      0.52950605	      0.96633994	      0.01189831	     -0.09478690
      0.53079439	      0.96635563	      0.01170213	     -0.09478690
      0.53208273	      0.96637174	      0.01149399	     -0.09478690
      0.53337106	      0.96638826	      0.01127431	     -0.09478690
      0.53465940	      0.96640517	      0.01104354	     -0.09478690
      0.53594773	      0.96642244	      0.01080217	     -0.09478690
      0.53723607	      0.96644005	      0.01055069	     -0.09478690
      0.53852441	      0.96645797	      0.01028968	     -0.09478690
      0.53981274	      0.96647620	      0.01001974	     -0.09478690
      0.54110108	      0.96649468	      0.00974154	     -0.09478690
      0.54238941	      0.96651338	      0.00945581	     -0.09478690
      0.54367775	      0.96653226	      0.00916330	     -0.09478690
      0.54496608	      0.96655128	      0.00886481	     -0.09478690
      0.54625442	      0.96657036	      0.00856115	     -0.09478690
      0.54754276	      0.96658946	      0.00825311	     -0.09478690
      0.54883109	      0.96660851	      0.00794145	     -0.09478690
      0.55011943	      0.96662746	      0.00762692	     -0.09478690
      0.55140776	      0.96664626	      0.00731014	     -0.09478690
      0.55269610	      0.96666485	      0.00699174	     -0.09478690
      0.55398444	      0.96668320	      0.00667221	     -0.09478690
      0.55527277	      0.96670127	      0.00635201	     -0.09478690
      0.55656111	      0.96671905	      0.00603151	     -0.09478690
      0.55784944	      0.96673651	      0.00571103	     -0.09478690
      0.55913778	      0.96675365	      0.00539082	     -0.09478690
      0.56042612	      0.96677046	      0.00507109	     -0.09478690
      0.56171445	      0.96678695	      0.00475201	     -0.09478690
      0.56300279	      0.96680312	      0.00443373	     -0.09478690
      0.56429112	      0.96681898	      0.00411636	     -0.09478690
      0.56557946	      0.96683454	      0.00380003	     -0.09478690
      0.56686779	      0.96684982	      0.00348484	     -0.09478690
      0.56815613	      0.96686481	      0.00317091	     -0.09478690
      0.56944447	      0.96687953	      0.00285835	     -0.09478690
      0.57073280	      0.96689399	      0.00254729	     -0.09478690
      0.57202114	      0.96690819	      0.00223787	     -0.09478690
      0.57330947	      0.96692213	      0.00193021	     -0.09478690
      0.57459781	      0.96693582	      0.00162445	     -0.09478690
      0.57588615	      0.96694926	      0.00132076	     -0.09478690
      0.57717448	      0.96696244	      0.00101926	     -0.09478690
      0.57846282	      0.96697536	      0.00072009	     -0.09478690
      0.57975115	      0.96698803	      0.00042341	     -0.09478690
      0.58103949	      0.96700044	      0.00012932	     -0.09478690
      0.58232783	      0.96701259	     -0.00016203	     -0.09478690
      0.58361616	      0.96702447	     -0.00045053	     -0.09478690
      0.58490450	      0.96703608	     -0.00073609	     -0.09478690
      0.58619283	      0.96704742	     -0.00101859	     -0.09478690
      0.58748117	      0.96705849	     -0.00129795	     -0.09478690
      0.58876951	      0.96706929	     -0.00157409	     -0.09478690
      0.59005784	      0.96707980	     -0.00184692	     -0.09478690
      0.59134618	      0.96709004	     -0.00211640	     -0.09478690
      0.59263451	      0.96709999	     -0.00238244	     -0.09478690
      0.59392285	      0.96710966	     -0.00264500	     -0.09478690
      0.59521118	      0.96711904	     -0.00290402	     -0.09478690
      0.59649952	      0.96712813	     -0.00315947	     -0.09478690
      0.59778786	      0.96713693	     -0.00341129	     -0.09478690
      0.59907619	      0.96714543	     -0.00365946	     -0.09478690
      0.60036453	      0.96715363	     -0.00390394	     -0.09478690
      0.60165286	      0.96716152	     -0.00414470	     -0.09478690
      0.60294120	      0.96716911	     -0.00438173	     -0.09478690
      0.60422954	      0.96717638	     -0.00461500	     -0.09478690
      0.60551787	      0.96718333	     -0.00484450	     -0.09478690
      0.60680621	      0.96718995	     -0.00507022	     -0.09478690
      0.60809454	      0.96719624	     -0.00529216	     -0.09478690
      0.60938288	      0.96720219	     -0.00551030	     -0.09478690
      0.61067122	      0.96720779	     -0.00572465	     -0.09478690
      0.61195955	      0.96721302	     -0.00593520	     -0.09478690
      0.61324789	      0.96721789	     -0.00614197	     -0.09478690
      0.61453622	      0.96722238	     -0.00634496	     -0.09478690
      0.61582456	      0.96722648	     -0.00654418	     -0.09478690
      0.61711289	      0.96723016	     -0.00673963	     -0.09478690
      0.61840123	      0.96723343	     -0.00693133	     -0.09478690
      0.61968957	      0.96723627	     -0.00711929	     -0.09478690
      0.62097790	      0.96723866	     -0.00730353	     -0.09478690
      0.62226624	      0.96724057	     -0.00748405	     -0.09478690
      0.62355457	      0.96724201	     -0.00766087	     -0.09478690
      0.62484291	      0.96724294	     -0.00783402	     -0.09478690
      0.62613125	      0.96724334	     -0.00800350	     -0.09478690
      0.62741958	      0.96724321	     -0.00816933	     -0.09478690
      0.62870792	      0.96724252	     -0.00833154	     -0.09478690
      0.62999625	      0.96724124	     -0.00849013	     -0.09478690
      0.63128459	      0.96723937	     -0.00864514	     -0.09478690
      0.63257293	      0.96723689	     -0.00879657	     -0.09478690
      0.63386126	      0.96723378	     -0.00894445	     -0.09478690
      0.63514960	      0.96723002	     -0.00908880	     -0.09478690
      0.63643793	      0.96722561	     -0.00922964	     -0.09478690
      0.63772627	      0.96722053	     -0.00936699	     -0.09478690
      0.63901461	      0.96721478	     -0.00950089	     -0.09478690
      0.64030294	      0.96720836	     -0.00963135	     -0.09478690
      0.64159128	      0.96720127	     -0.00975842	     -0.09478690
      0.64287961	      0.96719352	     -0.00988211	     -0.09478690
      0.64416795	      0.96718513	     -0.01000247	     -0.09478690
      0.64545628	      0.96717610	     -0.01011953	     -0.09478690
      0.64674462	      0.96716644	     -0.01023332	     -0.09478690
      0.64803296	      0.96715618	     -0.01034389	     -0.09478690
      0.64932129	      0.96714531	     -0.01045128	     -0.09478690
      0.65060963	      0.96713387	     -0.01055551	     -0.09478690
      0.65189796	      0.96712185	     -0.01065664	     -0.09478690
      0.65318630	      0.96710927	     -0.01075470	     -0.09478690
      0.65447464	      0.96709614	     -0.01084972	     -0.09478690
      0.65576297	      0.96708247	     -0.01094175	     -0.09478690
      0.65705131	      0.96706827	     -0.01103082	     -0.09478690
      0.65833964	      0.96705354	     -0.01111695	     -0.09478690
      0.65962798	      0.96703830	     -0.01120019	     -0.09478690
      0.66091632	      0.96702253	     -0.01128057	     -0.09478690
      0.66220465	      0.96700625	     -0.01135811	     -0.09478690
      0.66349299	      0.96698944	     -0.01143284	     -0.09478690
      0.66478132	      0.96697211	     -0.01150479	     -0.09478690
      0.66606966	      0.96695425	     -0.01157399	     -0.09478690
      0.66735799	      0.96693585	     -0.01164046	     -0.09478690
      0.66864633	      0.96691690	     -0.01170422	     -0.09478690
      0.66993467	      0.96689739	     -0.01176530	     -0.09478690
      0.67122300	      0.96687732	     -0.01182370	     -0.09478690
      0.67251134	      0.96685666	     -0.01187946	     -0.09478690
      0.67379967	      0.96683541	     -0.01193259	     -0.09478690
      0.67508801	      0.96681355	     -0.01198310	     -0.09478690
      0.67637635	      0.96679106	     -0.01203100	     -0.09478690
      0.67766468	      0.96676792	     -0.01207631	     -0.09478690
      0.67895302	      0.96674413	     -0.01211903	     -0.09478690
      0.68024135	      0.96671966	     -0.01215918	     -0.09478690
      0.68152969	      0.96669450	     -0.01219676	     -0.09478690
      0.68281803	      0.96666863	     -0.01223178	     -0.09478690
      0.68410636	      0.96664204	     -0.01226424	     -0.09478690
      0.68539470	      0.96661470	     -0.01229414	     -0.09478690
      0.68668303	      0.96658661	     -0.01232147	     -0.09478690
      0.68797137	      0.96655775	     -0.01234625	     -0.09478690
      0.68925971	      0.96652810	     -0.01236847	     -0.09478690
      0.69054804	      0.96649765	     -0.01238811	     -0.09478690
      0.69183638	      0.96646640	     -0.01240519	     -0.09478690
      0.69312471	      0.96643433	     -0.01241968	     -0.09478690
      0.69441305	      0.96640141	     -0.01243158	     -0.09478690
      0.69570138	      0.96636766	     -0.01244090	     -0.09478690
      0.69698972	      0.96633305	     -0.01244762	     -0.09478690
      0.69827806	      0.96629758	     -0.01245173	     -0.09478690
      0.69956639	      0.96626124	     -0.01245322	     -0.09478690
      0.70085473	      0.96622402	     -0.01245207	     -0.09478690
      0.70214306	      0.96618591	     -0.01244827	     -0.09478690
      0.70343140	      0.96614691	     -0.01244181	     -0.09478690
      0.70471974	      0.96610702	     -0.01243267	     -0.09478690
      0.70600807	      0.96606623	     -0.01242083	     -0.09478690
      0.70729641	      0.96602453	     -0.01240628	     -0.09478690
      0.70858474	      0.96598194	     -0.01238901	     -0.09478690
      0.70987308	      0.96593844	     -0.01236900	     -0.09478690
      0.71116142	      0.96589404	     -0.01234623	     -0.09478690
      0.71244975	      0.96584873	     -0.01232069	     -0.09478690
      0.71373809	      0.96580253	     -0.01229235	     -0.09478690
      0.71502642	      0.96575543	     -0.01226121	     -0.09478690
      0.71631476	      0.96570744	     -0.01222724	     -0.09478690
      0.71760309	      0.96565855	     -0.01219044	     -0.09478690
      0.71889143	      0.96560878	     -0.01215077	     -0.09478690
      0.72017977	      0.96555812	     -0.01210823	     -0.09478690
      0.72146810	      0.96550658	     -0.01206280	     -0.09478690
      0.72275644	      0.96545417	     -0.01201446	     -0.09478690
      0.72404477	      0.96540090	     -0.01196319	     -0.09478690
      0.72533311	      0.96534676	     -0.01190899	     -0.09478690
      0.72662145	      0.96529176	     -0.01185182	     -0.09478690
      0.72790978	      0.96523592	     -0.01179168	     -0.09478690
      0.72919812	      0.96517925	     -0.01172855	     -0.09478690
      0.73048645	      0.96512174	     -0.01166242	     -0.09478690
      0.73177479	      0.96506341	     -0.01159327	     -0.09478690
      0.73306313	      0.96500428	     -0.01152108	     -0.09478690
      0.73435146	      0.96494435	     -0.01144583	     -0.09478690
      0.73563980	      0.96488363	     -0.01136752	     -0.09478690
      0.73692813	      0.96482214	     -0.01128613	     -0.09478690
      0.73821647	      0.96475988	     -0.01120162	     -0.09478690
      0.73950481	      0.96469688	     -0.01111399	     -0.09478690
      0.74079314	      0.96463313	     -0.01102322	     -0.09478690
      0.74208148	      0.96456865	     -0.01092927	     -0.09478690
      0.74336981	      0.96450346	     -0.01083213	     -0.09478690
      0.74465815	      0.96443757	     -0.01073178	     -0.09478690
      0.74594648	      0.96437099	     -0.01062819	     -0.09478690
      0.74723482	      0.96430375	     -0.01052132	     -0.09478690
      0.74852316	      0.96423585	     -0.01041116	     -0.09478690
      0.74981149	      0.96416730	     -0.01029766	     -0.09478690
      0.75109983	      0.96409814	     -0.01018079	     -0.09478690
      0.75238816	      0.96402837	     -0.01006051	     -0.09478690
      0.75367650	      0.96395802	     -0.00993676	     -0.09478690
      0.75496484	      0.96388710	     -0.00980951	     -0.09478690
      0.75625317	      0.96381563	     -0.00967867	     -0.09478690
      0.75754151	      0.96374363	     -0.00954417	     -0.09478690
      0.75882984	      0.96367112	     -0.00940594	     -0.09478690
      0.76011818	      0.96359813	     -0.00926388	     -0.09478690
      0.76140652	      0.96352469	     -0.00911791	     -0.09478690
      0.76269485	      0.96345081	     -0.00896790	     -0.09478690
      0.76398319	      0.96337653	     -0.00881372	     -0.09478690
      0.76527152	      0.96330189	     -0.00865524	     -0.09478690
      0.76655986	      0.96322692	     -0.00849232	     -0.09478690
      0.76784819	      0.96315166	     -0.00832481	     -0.09478690
      0.76913653	      0.96307615	     -0.00815255	     -0.09478690
      0.77042487	      0.96300043	     -0.00797542	     -0.09478690
      0.77171320	      0.96292454	     -0.00779327	     -0.09478690
      0.77300154	      0.96284858	     -0.00760596	     -0.09478690
