moco_WoC_Solution_iter01_metabolic
nRows=601
nColumns=6
inDegrees=no
Body mass(kg)=80.0000
Distance(m)=1.4223
Total metabolic energy(J)=524.1962
Avg metabolic rate(W)=558.9579
endheader
time	met_rate_W	act_rate_W	maint_rate_W	short_rate_W	mech_rate_W
0.000000	804.815662	165.195811	182.937598	164.161368	196.520884
0.001563	793.433679	156.038420	172.788270	172.082401	196.524588
0.003126	781.497803	147.131372	162.816896	178.049670	197.499865
0.004689	784.032137	148.006408	164.289407	176.534267	199.202055
0.006252	786.673722	148.922052	165.790854	174.861882	201.098935
0.007815	785.574017	147.493152	164.658825	174.313492	203.108549
0.009378	784.316662	146.101779	163.555087	173.329740	205.330055
0.010941	783.245723	145.142567	162.927298	171.364578	207.811280
0.012504	782.698012	144.229718	162.333987	169.488977	210.645330
0.014067	785.543406	143.087542	161.622929	170.900473	213.932462
0.015630	788.274220	142.006515	160.955856	171.564598	217.747251
0.017193	790.322306	140.673760	160.337945	171.188749	222.121853
0.018756	791.660643	139.436892	159.779950	169.379736	227.064064
0.020319	791.724339	138.246327	159.525650	165.503365	232.448997
0.021882	789.224157	137.208460	159.353028	158.586991	238.075677
0.023445	783.395500	136.847596	159.914784	147.528444	243.104676
0.025008	770.534256	136.713642	160.527094	131.692384	245.601137
0.026571	764.675575	139.405776	163.933580	123.319484	242.016734
0.028134	752.978561	142.821692	167.732821	118.983776	227.440271
0.029697	717.899632	135.027100	160.050698	129.197939	197.623895
0.031260	682.165888	127.823140	152.700068	152.486149	153.156532
0.032823	680.981453	124.377987	149.124365	205.031736	106.447365
0.034386	676.675135	121.115024	145.625663	234.729036	79.205412
0.035949	664.552351	118.535812	142.957615	237.351845	69.707079
0.037512	651.760231	116.078086	140.355448	235.173580	64.153118
0.039075	637.741983	113.184965	137.254543	229.513836	61.788638
0.040638	625.352980	110.417191	134.224350	225.431318	59.280120
0.042201	611.147064	107.420243	130.872176	220.258127	56.596518
0.043764	599.350030	104.546552	127.591277	218.249157	52.963044
0.045327	587.518891	101.620737	124.115818	217.321805	48.460531
0.046890	575.164830	98.838570	120.722725	216.682845	42.920690
0.048454	571.080982	101.148289	123.368209	219.430888	31.133596
0.050017	569.272119	104.791018	126.711735	232.838557	8.930809
0.051580	564.014441	107.562471	129.259141	248.909405	-17.716576
0.053143	560.009556	110.609711	131.903115	262.450384	-40.953654
0.054706	542.013228	106.320627	127.936723	262.861795	-51.105917
0.056269	524.516678	102.498593	124.271552	250.088662	-48.342128
0.057832	512.274021	101.463335	123.278038	232.832517	-41.299742
0.059395	500.082473	100.462736	122.318214	215.403463	-34.090137
0.060958	488.882193	99.584176	121.490885	199.374270	-27.889179
0.062521	478.510561	98.731236	120.686961	185.370385	-22.911931
0.064084	469.719000	98.124543	120.134057	173.499956	-18.916938
0.065647	462.047617	97.529157	119.592488	163.315186	-15.444879
0.067210	455.873977	97.072546	119.177116	154.559257	-12.115493
0.068773	454.010432	96.621849	118.768041	149.466247	-8.689815
0.070336	452.550709	96.235664	118.419525	146.261892	-5.051102
0.071899	451.442146	95.855035	118.076659	142.681147	-1.157378
0.073462	451.017187	95.493151	117.759673	138.784475	2.979892
0.075025	450.528951	95.135849	117.437228	134.629546	7.326328
0.076588	450.024658	94.798356	117.149564	130.243459	11.833278
0.078151	449.480737	94.464480	116.866359	125.696079	16.453819
0.079714	448.958938	94.163897	116.630832	121.021195	21.143015
0.081277	448.380614	93.866309	116.399531	116.251701	25.863073
0.082840	447.911932	93.605321	116.218728	111.507816	30.580067
0.084403	447.459046	93.346928	116.042009	106.802971	35.267138
0.085966	446.990136	93.116104	115.908354	102.066604	39.899074
0.087529	446.422331	92.887707	115.742805	97.335375	44.456444
0.089092	445.721436	92.672834	115.530628	92.598807	48.919167
0.090655	444.953065	92.460478	115.322210	87.898984	53.271393
0.092218	444.085043	92.247865	115.134064	83.206960	57.496153
0.093781	443.134256	92.038140	114.949716	78.567482	61.578917
0.095344	442.052986	91.817587	114.774225	73.955555	65.505619
0.096907	443.550871	91.600597	114.602751	72.084906	69.262617
0.098470	446.847031	91.365695	114.428974	72.214052	72.838310
0.100033	449.944285	91.135408	114.259635	72.329190	76.220051
0.101596	452.867680	90.885048	114.080175	72.504653	79.397804
0.103159	455.564204	90.640821	113.905805	72.657059	82.360519
0.104722	458.067663	90.382894	113.722505	72.862174	85.100089
0.106285	460.327384	90.132961	113.545107	73.040323	87.608993
0.107848	462.377698	89.882233	113.367528	73.244847	89.883090
0.109411	464.178760	89.641386	113.196652	73.420208	91.920514
0.110974	465.758264	89.413635	113.036151	73.585866	93.722612
0.112537	467.521701	89.197445	112.883035	74.148916	95.292305
0.114100	469.291832	89.006848	112.749912	74.906275	96.628797
0.115663	470.860430	88.829227	112.624732	75.666718	97.739754
0.117226	472.255345	88.687509	112.527032	76.405130	98.635677
0.118789	473.452659	88.560026	112.437772	77.126979	99.327892
0.120352	474.488719	88.475140	112.380235	77.805542	99.827830
0.121915	475.340949	88.405685	112.331631	78.457015	100.146702
0.123478	476.047453	88.382152	112.316271	79.054524	100.294745
0.125041	476.583525	88.375188	112.310331	79.617193	100.281499
0.126604	476.986152	88.414864	112.337041	80.120536	100.115569
0.128167	477.235067	88.472111	112.373611	80.588799	99.804760
0.129730	477.380284	88.574105	112.439774	81.015941	99.356904
0.131293	477.396503	88.694419	112.516120	81.414278	98.779011
0.132856	477.313829	88.855385	112.617173	81.768534	98.079230
0.134419	477.089896	89.035031	112.728546	82.067160	97.264865
0.135982	476.764789	89.249827	112.859466	82.314909	96.344869
0.137545	476.309295	89.483173	113.000603	82.501164	95.327422
0.139108	476.511280	89.745742	113.157546	83.387475	94.222308
0.140671	476.783342	90.026183	113.324339	84.395025	93.038766
0.142234	476.927461	90.331688	113.506803	85.301777	91.787619
0.143798	476.973031	90.653855	113.698495	86.141477	90.479377
0.145361	476.893706	90.997143	113.906505	86.864371	89.125744
0.146924	476.737506	91.355504	114.122942	87.520952	87.738126
0.148487	476.462134	91.728408	114.353376	88.051920	86.328433
0.150050	476.131443	92.114586	114.591348	88.517424	84.908087
0.151613	475.690744	92.508592	114.840391	88.853133	83.488628
0.153176	475.231448	92.914007	115.092635	89.143938	82.080868
0.154739	474.984276	93.321153	115.347315	89.620412	80.695396
0.156302	474.708807	93.737899	115.607460	90.021478	79.341970
0.157865	474.332443	94.150781	115.872421	90.278573	78.030667
0.159428	473.954034	94.571592	116.142108	90.470592	76.769741
0.160991	473.489864	94.984030	116.413798	90.525560	75.566476
0.162554	473.038630	95.402924	116.689591	90.519113	74.427002
0.164117	472.514920	95.810080	116.965615	90.383161	73.356064
0.165680	472.016220	96.222431	117.245238	90.191092	72.357458
0.167243	471.451038	96.619883	117.523799	89.874679	71.432677
0.168806	470.917504	97.021467	117.805549	89.507642	70.582845
0.170369	470.337701	97.409105	118.086540	89.033296	69.808760
0.171932	469.795171	97.800050	118.370431	88.514346	69.110343
0.173495	469.234179	98.179692	118.654166	87.912199	68.488122
0.175058	468.789072	98.562042	118.940627	87.345154	67.941249
0.176621	468.774923	98.922190	119.215225	87.171163	67.466344
0.178184	468.790429	99.284564	119.492385	86.953360	67.060120
0.179747	468.771460	99.641592	119.784308	86.633589	66.711971
0.181310	468.781395	100.000382	120.078628	86.288018	66.414367
0.182873	468.758922	100.335545	120.356145	85.897754	66.169479
0.184436	468.727495	100.672235	120.590028	85.527493	65.937739
0.185999	468.853324	101.019346	120.882385	85.169035	65.782559
0.187562	469.007170	101.367951	121.177172	84.769747	65.692300
0.189125	469.138738	101.703504	121.471414	84.314448	65.649373
0.190688	469.298721	102.040315	121.767964	83.847870	65.642571
0.192251	469.435861	102.354114	122.047919	83.368464	65.665365
0.193814	469.596312	102.669038	122.330094	82.884460	65.712720
0.195377	469.765724	102.989153	122.630371	82.367497	65.778703
0.196940	469.954107	103.310273	122.932862	81.852255	65.858718
0.198503	470.103708	103.618513	123.235394	81.303914	65.945888
0.200066	470.256736	103.927615	123.540025	80.753627	66.035470
0.201629	470.408074	104.234679	123.848237	80.193038	66.132119
0.203192	470.565432	104.542572	124.158549	79.626796	66.237515
0.204755	470.686869	104.837309	124.464547	79.037530	66.347484
0.206318	470.807620	105.132799	124.772547	78.443184	66.459090
0.207881	470.912582	105.429167	125.091346	77.821268	66.570801
0.209444	471.013943	105.726246	125.412116	77.194396	66.681185
0.211007	471.087384	106.017282	125.734327	76.545873	66.789902
0.212570	471.245216	106.309003	126.058458	75.981480	66.896275
0.214133	471.609488	106.590386	126.378856	75.640743	66.999503
0.215696	471.955022	106.872430	126.701104	75.282704	67.098783
0.217259	472.283567	107.150970	127.026079	74.911775	67.194743
0.218822	472.608047	107.430164	127.352877	74.537528	67.287477
0.220385	472.906435	107.700705	127.676897	74.152614	67.376219
0.221948	473.201571	107.971884	128.002685	73.766552	67.460450
0.223511	473.468797	108.232869	128.323485	73.372549	67.539893
0.225074	473.733567	108.494475	128.645990	72.978680	67.614422
0.226637	473.971753	108.746866	128.964672	72.576505	67.683710
0.228200	474.194437	108.999856	129.284994	72.161896	67.747691
0.229763	474.885139	109.241489	129.599202	72.238805	67.805643
0.231326	475.615148	109.483693	129.914964	72.359159	67.857332
0.232889	476.318109	109.713831	130.222506	72.478111	67.903661
0.234452	477.018887	109.944516	130.531519	72.597560	67.945292
0.236015	477.694955	110.162909	130.830991	72.717247	67.983809
0.237578	478.371598	110.381829	131.131854	72.837666	68.020249
0.239142	479.025571	110.587581	131.422036	72.960790	68.055165
0.240705	479.682335	110.793836	131.713522	73.085930	68.089047
0.242268	480.318106	110.986555	131.993792	73.215843	68.121916
0.243831	480.957684	111.179748	132.275271	73.348681	68.153984
0.245394	481.579304	111.360220	132.545859	73.487553	68.185673
0.246957	482.205723	111.541137	132.817562	73.629617	68.217408
0.248520	482.815907	111.709511	133.078133	73.778561	68.249702
0.250083	483.431772	111.878302	133.339723	73.930739	68.283008
0.251646	484.033106	112.035007	133.590366	74.090070	68.317663
0.253209	484.639295	112.192102	133.841931	74.251262	68.353999
0.254772	485.222584	112.337903	134.083348	74.409373	68.391960
0.256335	485.912422	112.484064	134.325587	74.671139	68.431632
0.257898	486.677408	112.619615	134.558346	75.026514	68.472932
0.259461	487.434547	112.755499	134.791828	75.371324	68.515896
0.261024	488.173040	112.882302	135.016638	75.712641	68.561460
0.262587	488.913941	113.009417	135.242085	76.052231	68.610209
0.264150	489.639765	113.128238	135.458854	76.389265	68.663408
0.265713	490.370194	113.247358	135.676185	76.724818	68.721833
0.267276	491.087547	113.358238	135.885145	77.058781	68.785382
0.268839	491.810177	113.469400	136.094589	77.392120	68.854068
0.270402	492.525798	113.574965	136.299058	77.724590	68.927185
0.271965	493.245907	113.680794	136.503938	78.056788	69.004387
0.273528	493.962167	113.783111	136.705916	78.387700	69.085440
0.275091	494.681897	113.885677	136.908235	78.717737	69.170248
0.276654	495.388174	113.981161	137.103550	79.045353	69.258111
0.278217	496.094829	114.076874	137.299110	79.370195	69.348650
0.279780	496.800079	114.172177	137.495122	79.690765	69.442015
0.281343	497.504399	114.267700	137.691321	80.007098	69.538280
0.282906	498.201460	114.360960	137.885998	80.317912	69.636591
0.284469	498.894359	114.454427	138.080782	80.622728	69.736422
0.286032	499.580904	114.547584	138.275264	80.919651	69.838405
0.287595	500.262174	114.640941	138.469786	81.208566	69.942881
0.289158	500.944873	114.737764	138.666638	81.488214	70.052257
0.290721	501.626233	114.834788	138.863493	81.759987	70.167965
0.292284	502.311840	114.934674	139.062263	82.024615	70.290287
0.293847	502.998839	115.034760	139.260991	82.283615	70.419473
0.295410	503.677359	115.131346	139.455845	82.537424	70.552745
0.296973	504.352623	115.228121	139.650556	82.785438	70.688508
0.298536	505.043419	115.334371	139.855804	83.026336	70.826908
0.300099	505.729888	115.440809	140.060873	83.260180	70.968026
0.301662	506.407756	115.546922	140.265420	83.485441	71.109973
0.303225	507.074678	115.653225	140.469684	83.700162	71.251606
0.304788	507.742579	115.766240	140.677907	83.901176	71.397257
0.306351	508.403982	115.879445	140.885802	84.089207	71.549528
0.307914	509.087897	116.006320	141.104944	84.264947	71.711686
0.309477	509.775688	116.133393	141.323759	84.432670	71.885866
0.311040	510.450446	116.255406	141.533392	84.593525	72.068123
0.312603	511.125313	116.377610	141.742580	84.748953	72.256171
0.314166	511.852162	116.525427	141.982500	84.899182	72.445054
0.315729	512.572179	116.673458	142.221947	85.045295	72.631479
0.317292	513.192953	116.786598	142.393828	85.173729	72.838798
0.318855	513.838296	116.900014	142.565434	85.292038	73.080810
0.320418	514.504803	117.101691	142.929422	85.394293	73.079397
0.321981	515.306906	117.303768	143.237495	85.494031	73.271612
0.323544	515.882769	117.420104	143.413725	85.601814	73.447125
0.325107	516.448068	117.536681	143.589391	85.694681	73.627314
0.326670	517.097245	117.695849	143.815539	85.778728	73.807130
0.328233	517.740591	117.855294	144.041042	85.860402	73.983854
0.329796	518.384245	118.021275	144.267422	85.935076	74.160472
0.331359	519.022068	118.187572	144.493141	86.002746	74.338609
0.332922	519.651479	118.356686	144.716644	86.062340	74.515809
0.334485	520.269974	118.526183	144.939443	86.114134	74.690214
0.336049	520.868724	118.696868	145.156628	86.154687	74.860541
0.337612	521.451524	118.868019	145.373071	86.184868	75.025565
0.339175	522.021194	119.046149	145.590214	86.199638	75.185194
0.340738	522.565780	119.224837	145.790613	86.211320	75.339010
0.342301	523.320369	119.407459	145.969703	86.457988	75.485220
0.343864	524.048194	119.590765	146.147854	86.687256	75.622318
0.345427	524.751387	119.778127	146.324121	86.900602	75.748537
0.346990	525.423159	119.966321	146.499486	87.094979	75.862373
0.348553	526.065938	120.159521	146.674194	87.269663	75.962559
0.350116	526.732324	120.353718	146.848058	87.482430	76.048117
0.351679	527.642228	120.553662	147.022421	87.947753	76.118392
0.353242	528.502182	120.754783	147.196011	88.378855	76.172534
0.354805	529.351739	120.962673	147.371796	88.807409	76.209861
0.356368	530.161993	121.171928	147.546893	89.213343	76.229829
0.357931	530.959504	121.388909	147.725990	89.612439	76.232167
0.359494	531.716102	121.607443	147.904495	89.987438	76.216726
0.361057	532.458407	121.834621	148.088774	90.351336	76.183676
0.362620	533.159515	122.063533	148.272566	90.690121	76.133295
0.364183	533.845833	122.301959	148.463859	91.013825	76.066190
0.365746	534.491993	122.542287	148.654773	91.311871	75.983061
0.367309	535.123636	122.792765	148.854688	91.591270	75.884913
0.368872	535.717432	123.045294	149.054335	91.844978	75.772825
0.370435	536.297572	123.308257	149.264062	92.077130	75.648123
0.371998	536.843417	123.573392	149.473634	92.284197	75.512194
0.373561	537.377063	123.848875	149.693888	92.467723	75.366577
0.375124	537.881221	124.126620	149.914103	92.627639	75.212859
0.376687	538.375352	124.414266	150.145104	92.763318	75.052665
0.378250	538.846005	124.704231	150.376182	92.878005	74.887662
0.379813	539.305936	125.003377	150.617708	92.969464	74.719456
0.381376	539.789317	125.304865	150.859437	93.043857	74.549686
0.382939	540.475221	125.614480	151.110805	93.097974	74.379876
0.384502	541.134666	125.926430	151.362514	93.140242	74.211578
0.386065	541.786614	126.245136	151.622652	93.167063	74.046220
0.387628	542.419240	126.566148	151.883293	93.188299	73.885261
0.389191	543.491481	126.892226	152.150931	93.200326	73.730052
0.390754	544.659998	127.220567	152.419261	93.213096	73.581975
0.392317	545.826541	127.551945	152.692805	94.204354	73.442464
0.393880	547.524310	127.885540	152.967261	96.270147	73.312052
0.395443	549.945367	128.220068	153.244982	98.293722	73.189747
0.397006	552.335981	128.556780	153.523874	100.274340	73.077474
0.398569	554.685869	128.891968	153.804103	102.201676	72.978049
0.400132	556.998442	129.229327	154.085790	104.071891	72.894147
0.401695	559.259308	129.561654	154.365873	105.876491	72.829380
0.403258	561.477132	129.896169	154.647723	107.609521	72.787070
0.404821	563.634286	130.222488	154.924771	109.265229	72.771653
0.406384	565.745205	130.551039	155.203901	110.836320	72.787079
0.407947	567.789143	130.868598	155.475973	112.319497	72.838126
0.409510	569.779831	131.188458	155.744130	113.708495	72.928915
0.411073	571.693929	131.494424	155.999211	115.002022	73.063890
0.412636	573.566451	131.802775	156.257316	116.197103	73.246760
0.414199	575.369217	132.093981	156.492281	117.293675	73.480931
0.415762	577.152915	132.387658	156.715064	118.293779	73.769146
0.417325	578.883720	132.660534	156.925174	119.197002	74.113331
0.418888	580.592660	132.935974	157.138407	120.010870	74.515031
0.420451	582.227827	133.187162	157.337712	120.732347	74.974799
0.422014	583.845779	133.441024	157.540512	121.373243	75.493264
0.423577	585.389818	133.667087	157.728350	121.925559	76.070072
0.425140	586.924143	133.895966	157.920135	122.403314	76.705448
0.426703	588.380601	134.093799	158.096900	122.791603	77.398740
0.428266	589.828577	134.294649	158.278174	123.105932	78.150113
0.429829	591.189463	134.461803	158.445113	123.323972	78.958785
0.431393	592.538704	134.632254	158.594561	123.487212	79.824844
0.432956	593.793632	134.768563	158.693994	123.584064	80.747160
0.434519	595.026523	134.908515	158.797103	123.601739	81.719317
0.436082	596.151802	135.015102	158.889193	123.511045	82.736636
0.437645	597.254329	135.125704	158.985320	123.345625	83.797905
0.439208	598.256926	135.205313	159.074295	123.077708	84.899938
0.440771	599.248001	135.289329	159.167590	122.751592	86.040016
0.442334	600.156105	135.345965	159.258789	122.339007	87.213255
0.443897	601.068790	135.407457	159.354562	121.892196	88.416247
0.445460	601.917242	135.443740	159.452755	121.379855	89.644040
0.447023	602.770013	135.485422	159.540423	120.855708	90.894308
0.448586	603.542652	135.505102	159.600511	120.281927	92.165140
0.450149	604.351579	135.530836	159.664369	119.713112	93.457035
0.451712	605.146598	135.540692	159.737055	119.105450	94.772891
0.453275	606.019345	135.557340	159.813829	118.519073	96.116175
0.454838	606.917425	135.561449	159.899832	117.910256	97.494079
0.456401	607.914602	135.573151	159.990372	117.344084	98.912260
0.457964	608.964497	135.577189	160.094706	116.778293	100.381721
0.459527	610.143977	135.589886	160.204343	116.276837	101.911392
0.461090	611.427228	135.602698	160.339531	115.788724	103.516194
0.462653	612.872005	135.625695	160.481226	115.366475	105.210752
0.464216	614.385790	135.628842	160.630226	114.933425	107.008070
0.465779	616.044841	135.643596	160.787044	114.516250	108.924046
0.467342	617.739714	135.635730	160.954490	114.014816	110.978389
0.468905	619.531989	135.641699	161.131702	113.432194	113.190546
0.470468	621.266578	135.609236	161.303156	112.665374	115.573046
0.472031	623.045227	135.593269	161.486471	111.731294	118.135938
0.473594	624.648085	135.514598	161.627788	110.547397	120.874625
0.475157	626.234583	135.454475	161.748166	109.201768	123.761071
0.476720	627.600207	135.335751	161.816382	107.643482	126.754317
0.478283	629.007215	135.238858	161.899756	106.046340	129.800003
0.479846	630.251323	135.095528	161.965294	104.366900	132.830663
0.481409	635.269813	134.979504	162.049293	106.478715	135.774552
0.482972	640.553844	134.810396	162.136877	109.083608	138.526049
0.484535	646.112710	134.679176	162.250224	112.211432	140.972138
0.486098	651.889148	134.583684	162.477148	115.906448	142.921876
0.487661	657.643415	134.552487	162.736397	120.228366	144.126165
0.489224	663.431999	134.725570	163.291729	125.210654	144.204046
0.490787	668.513811	135.000473	163.916392	130.968598	142.628349
0.492350	671.765644	135.118555	164.407396	137.546184	138.693510
0.493913	672.852904	135.346444	164.980225	145.086646	131.439589
0.495476	666.460223	133.550379	163.363139	153.717207	119.829498
0.497039	658.939333	131.825767	161.758947	166.800797	102.553822
0.498602	638.122081	125.865362	155.415465	182.199076	78.642178
0.500165	618.037515	120.368950	149.364218	204.409128	47.895220
0.501728	626.666217	120.116014	149.918476	254.575656	6.056071
0.503291	630.203462	120.308451	150.805188	266.684746	-3.594923
0.504854	619.707713	117.480928	147.955385	232.944553	25.326847
0.506417	607.444905	114.856415	145.190142	206.600787	44.797561
0.507980	584.630856	108.235207	137.410769	188.002107	54.983746
0.509543	563.050237	102.575805	130.233868	174.794942	59.275412
0.511106	549.113247	99.827980	127.473160	165.625895	59.696930
0.512669	540.541214	97.341008	124.872824	160.924407	60.419891
0.514232	550.752345	98.701268	127.508931	173.753439	54.788724
0.515795	573.224441	101.973969	131.708901	210.152670	33.388901
0.517358	577.829027	101.196766	131.084571	244.722744	4.824947
0.518921	577.895401	100.434894	130.454323	269.565259	-18.559075
0.520484	568.548772	96.856206	126.177334	279.919921	-30.404689
0.522047	556.991733	93.620517	122.186373	278.636959	-33.452116
0.523610	548.145257	92.285541	120.698182	273.155600	-33.994066
0.525173	538.685795	90.988734	119.256644	266.535206	-34.094790
0.526737	530.008723	89.982922	118.206347	259.913814	-34.094360
0.528300	521.913501	89.001586	117.183454	253.712194	-33.983732
0.529863	515.543999	88.409760	116.636496	248.185974	-33.688231
0.531426	509.935905	87.831771	116.103522	243.115953	-33.115341
0.532989	505.544010	87.467097	115.798622	238.474344	-32.196053
0.534552	501.725216	87.111682	115.502987	234.031615	-30.921068
0.536115	498.653407	86.858532	115.311209	229.784648	-29.300983
0.537678	495.936752	86.612495	115.126536	225.561087	-27.363366
0.539241	493.574445	86.381826	114.950231	221.357018	-25.114630
0.540804	492.261869	86.156732	114.779586	217.907941	-22.582391
0.542367	492.352150	85.915093	114.582014	215.642895	-19.787852
0.543930	492.424954	85.677649	114.388939	213.119838	-16.761473
0.545493	492.482386	85.428109	114.175263	210.414874	-13.535861
0.547056	492.472689	85.181735	113.965217	207.464064	-10.138328
0.548619	492.438429	84.941065	113.756286	204.340029	-6.598951
0.550182	492.308370	84.702871	113.550417	201.006802	-2.951720
0.551745	492.148252	84.484614	113.363252	197.532107	0.768279
0.553308	491.882198	84.268289	113.178798	193.902755	4.532355
0.554871	491.576604	84.082342	113.026712	190.156001	8.311550
0.556434	491.165138	83.897840	112.877137	186.307393	12.082768
0.557997	490.691574	83.746363	112.765171	182.356222	15.823818
0.559560	490.115003	83.595915	112.655593	178.346180	19.517314
0.561123	489.373914	83.472323	112.505012	174.248978	23.147602
0.562686	488.493566	83.349483	112.318646	170.122862	26.702575
0.564249	487.496535	83.242950	112.155170	165.926452	30.171963
0.565812	486.399416	83.137061	111.994582	161.719779	33.547994
0.567375	485.164676	83.035119	111.843290	157.461686	36.824581
0.568938	483.829987	82.933860	111.694850	153.206456	39.994822
0.570501	482.349121	82.825108	111.542089	148.942170	43.039754
0.572064	480.769241	82.717191	111.392143	144.706438	45.953469
0.573627	479.045246	82.595261	111.229033	140.487134	48.733818
0.575190	477.225676	82.474413	111.068723	136.303309	51.379231
0.576753	475.269339	82.338467	110.892224	132.149660	53.888988
0.578316	473.223546	82.203956	110.718588	128.038086	56.262916
0.579879	471.049751	82.058072	110.531418	123.958832	58.501428
0.581442	468.794424	81.914088	110.347293	119.927450	60.605594
0.583005	466.418016	81.766046	110.156966	115.918265	62.576740
0.584568	463.968751	81.620472	109.969991	111.961283	64.417005
0.586131	461.403086	81.479882	109.786748	108.007942	66.128514
0.587694	458.773231	81.342407	109.607273	104.109259	67.714291
0.589257	456.031330	81.218777	109.441635	100.193676	69.177241
0.590820	453.233737	81.098986	109.280261	96.333378	70.521112
0.592383	451.446999	81.000473	109.141153	93.555855	71.749518
0.593946	451.332117	80.906625	109.006867	92.551875	72.866750
0.595509	451.125358	80.839644	108.900733	91.507880	73.877101
0.597072	450.799692	80.778301	108.800039	90.436074	74.785278
0.598635	450.391057	80.749841	108.733476	89.311555	75.596184
0.600198	449.948423	80.728159	108.673030	88.231099	76.316135
0.601761	449.594629	80.747002	108.654339	87.240316	76.952988
0.603324	449.126343	80.773903	108.636444	86.203892	77.512380
0.604887	448.620560	80.851296	108.669653	85.102580	78.000674
0.606450	448.023206	80.938170	108.710276	83.963445	78.424287
0.608013	447.525810	81.080375	108.805856	82.756405	78.789898
0.609576	447.002227	81.233637	108.909675	81.507724	79.104275
0.611139	446.477007	81.450171	109.076312	80.190706	79.373475
0.612702	445.882530	81.679606	109.252131	78.829559	79.603230
0.614265	445.294536	81.973838	109.490431	77.388278	79.799181
0.615828	444.264429	82.282907	109.690517	75.881274	79.649132
0.617391	443.887331	82.679727	110.025942	74.380300	79.930177
0.618954	443.466782	83.093306	110.372474	72.838149	80.188403
0.620517	443.094183	83.585651	110.793912	71.212686	80.431576
0.622081	442.686331	84.096733	111.227473	69.537569	80.665622
0.623644	442.325306	84.686668	111.735712	67.768448	80.894219
0.625207	442.348454	85.297231	112.257010	65.947361	81.120741
0.626770	443.053915	85.993248	112.860146	64.388367	81.349081
0.628333	444.123139	86.711597	113.477163	64.546455	81.582574
0.629896	445.504438	87.511074	114.170815	64.819850	81.823657
0.631459	446.982580	88.334279	114.878988	65.040755	82.074854
0.633022	448.873736	89.233531	115.657938	65.166598	82.339772
0.634585	450.746248	90.157490	116.451810	65.238772	82.621014
0.636148	452.825228	91.147047	117.305859	65.391143	82.921183
0.637711	455.468243	92.161782	118.174966	65.897831	83.241986
0.639274	458.237660	93.231100	119.095194	66.327732	83.583938
0.640837	461.014857	94.325507	120.030355	66.711473	83.947527
0.642400	463.811369	95.461248	121.005399	67.012285	84.332437
0.643963	467.008205	96.621467	121.995002	67.653097	84.738640
0.645526	470.373890	97.810146	123.014051	68.382794	85.166900
0.647089	473.761345	99.022207	124.047057	69.074639	85.617442
0.648652	477.125418	100.244812	125.094166	69.696821	86.089620
0.650215	480.510463	101.489275	126.154437	70.283894	86.582857
0.651778	483.841777	102.729211	127.217050	70.799127	87.096390
0.653341	487.191577	103.989155	128.291889	71.281025	87.629508
0.654904	490.460256	105.228771	129.356256	71.693822	88.181408
0.656467	493.744246	106.486351	130.431837	72.074888	88.751169
0.658030	496.920493	107.708498	131.484252	72.390110	89.337633
0.659593	500.107308	108.946490	132.546844	72.674394	89.939580
0.661156	503.166437	110.137631	133.576776	72.895649	90.556381
0.662719	506.232250	111.342509	134.615857	73.086818	91.187067
0.664282	509.154241	112.489828	135.613167	73.220468	91.830778
0.665845	512.079626	113.648870	136.618648	73.325779	92.486328
0.667408	514.847145	114.740787	137.573974	73.380065	93.152319
0.668971	517.613599	115.842557	138.536562	73.407336	93.827144
0.670534	520.212823	116.870587	139.442866	73.389641	94.509729
0.672097	522.807142	117.906771	140.355598	73.346195	95.198578
0.673660	525.228939	118.864274	141.207141	73.264883	95.892641
0.675223	527.643068	119.828429	142.064362	73.159985	96.590292
0.676786	529.880840	120.710593	142.857132	73.023453	97.289663
0.678349	532.107493	121.598109	143.654910	72.865527	97.988947
0.679912	534.154419	122.402356	144.387011	72.678986	98.686065
0.681475	536.185561	123.210848	145.123526	72.472233	99.378953
0.683038	538.034030	123.935968	145.794091	72.238494	100.065476
0.684601	539.861080	124.664407	146.468537	71.984628	100.743508
0.686164	541.503735	125.309942	147.077054	71.705621	101.411118
0.687727	543.119184	125.958042	147.688971	71.405937	102.066234
0.689290	544.550378	126.524388	148.235482	71.083312	102.707196
0.690853	545.949450	127.092707	148.784963	70.739728	103.332053
0.692416	547.166792	127.581427	149.270558	70.375483	103.939323
0.693979	548.348197	128.071677	149.758745	69.990589	104.527187
0.695542	549.342943	128.485815	150.185951	69.577001	105.094176
0.697105	550.431616	128.901174	150.615427	69.276436	105.638579
0.698668	551.479921	129.245444	150.988406	69.087166	106.158906
0.700231	552.454310	129.590744	151.333704	68.876273	106.653589
0.701794	553.262236	129.870860	151.615686	68.654457	107.121234
0.703357	554.035303	130.151912	151.899591	68.423302	107.560497
0.704920	554.665162	130.374039	152.138781	68.182101	107.970241
0.706483	555.260580	130.597083	152.379781	67.934277	108.349439
0.708046	555.724964	130.768548	152.582971	67.676066	108.697378
0.709609	556.156085	130.940966	152.787882	67.413736	109.013502
0.711172	556.470774	131.069986	152.962570	67.140574	109.297644
0.712735	556.754493	131.200029	153.138910	66.865724	109.549830
0.714298	556.937584	131.294842	153.292510	66.579769	109.770463
0.715861	557.093120	131.390768	153.447707	66.294470	109.960175
0.717425	557.164916	131.459856	153.587638	65.997450	110.119972
0.718988	557.213645	131.530146	153.729115	65.703240	110.251144
0.720551	557.196106	131.581738	153.862356	65.396647	110.355365
0.722114	557.161037	131.634601	153.997088	65.094735	110.434613
0.723677	557.076080	131.675234	154.128896	64.780713	110.491237
0.725240	556.979972	131.717173	154.262128	64.472870	110.527800
0.726803	556.873370	131.751222	154.395565	64.179368	110.547214
0.728366	557.258262	131.786573	154.530343	64.388937	110.552410
0.729929	557.612737	131.816965	154.666924	64.582162	110.546686
0.731492	557.970894	131.848624	154.804750	64.784406	110.533113
0.733055	558.322291	131.877327	154.945026	64.984762	110.515177
0.734618	558.684820	131.907244	155.086441	65.195232	110.495902
0.736181	559.051550	131.935428	155.230303	65.407127	110.478692
0.737744	559.437171	131.964766	155.375197	65.630841	110.466367
0.739307	559.837525	131.993365	155.522537	65.859791	110.461833
0.740870	560.264004	132.023057	155.670802	66.102622	110.467522
0.742433	560.714359	132.053362	155.822233	66.353352	110.485412
0.743996	561.196002	132.084694	155.974480	66.619499	110.517330
0.745559	561.708849	132.118076	156.130840	66.895672	110.564260
0.747122	562.254923	132.152413	156.287899	67.187280	110.627330
0.748685	562.833031	132.189967	156.449258	67.486714	110.707091
0.750248	563.509184	132.228403	156.611187	67.865348	110.804246
0.751811	564.407939	132.272480	156.778887	68.436946	110.919626
0.753374	565.322188	132.317371	156.947033	69.003775	111.054009
0.754937	566.234874	132.371178	157.087645	69.567690	111.208361
0.756500	567.131982	132.425732	157.185513	70.137256	111.383482
0.758063	568.066055	132.490128	157.290913	70.705259	111.579754
0.759626	569.024916	132.555211	157.395465	71.276738	111.797502
0.761189	570.024864	132.632457	157.509383	71.846207	112.036817
0.762752	571.031511	132.710341	157.606313	72.417075	112.297782
0.764315	572.049409	132.802877	157.684359	72.981590	112.580584
0.765878	573.089485	132.896005	157.761935	73.546265	112.885280
0.767441	574.172794	133.004292	157.851110	74.104824	113.212568
0.769004	575.278612	133.113140	157.897236	74.705393	113.562844
0.770567	576.436372	133.239720	157.958258	75.300427	113.937967
0.772130	577.621442	133.366859	158.019749	75.895485	114.339350
0.773693	578.870143	133.514943	158.099598	76.487566	114.768037
0.775256	580.151606	133.663590	158.179805	77.083248	115.224963
0.776819	581.487861	133.827760	158.271755	77.679293	115.709052
0.778382	582.855292	133.992470	158.364039	78.279251	116.219531
0.779945	584.306844	134.185421	158.482709	78.880360	116.758355
0.781508	585.794579	134.378957	158.601560	79.486997	117.327066
0.783071	587.334490	134.585084	158.729251	80.096971	117.923183
0.784634	588.904476	134.791771	158.857154	80.710893	118.544658
0.786197	590.546758	135.022850	159.006166	81.324502	119.193239
0.787760	592.221304	135.254530	159.155287	81.941256	119.870232
0.789323	593.974574	135.511477	159.326131	82.559830	120.577135
0.790886	595.765479	135.769080	159.496966	83.184228	121.315206
0.792449	597.608649	136.038474	159.675641	83.812804	122.081731
0.794012	599.482787	136.308509	159.854354	84.445673	122.874251
0.795575	601.439816	136.607590	160.058471	85.078836	123.694919
0.797138	603.432312	136.907396	160.262478	85.716896	124.545541
0.798701	605.486621	137.224394	160.478536	86.357698	125.425993
0.800264	607.577728	137.542157	160.694438	87.005090	126.336042
0.801827	609.738252	137.880463	160.925572	87.655759	127.276459
0.803390	611.938875	138.219604	161.156447	88.314976	128.247848
0.804953	614.212652	138.579696	161.401816	88.979355	129.251786
0.806516	616.533058	138.940720	161.646783	89.655890	130.289665
0.808079	618.925030	139.319162	161.902556	90.341234	131.362078
0.809642	621.367377	139.698626	162.157800	91.041524	132.469428
0.811205	623.972986	140.094065	162.422688	91.844623	133.611610
0.812768	626.958912	140.490623	162.686919	92.993020	134.788350
0.814332	630.004845	140.900387	162.958264	94.147295	135.998899
0.815895	633.101751	141.311368	163.228842	95.319181	137.242359
0.817458	636.264708	141.733965	163.505230	96.507922	138.517590
0.819021	639.475470	142.157888	163.780755	97.713473	139.823354
0.820584	642.733092	142.590267	164.051077	98.934198	141.157550
0.822147	646.021683	143.024074	164.310081	100.169703	142.517824
0.823710	649.333370	143.459372	164.556060	101.416691	143.901246
0.825273	652.677313	143.896180	164.801225	102.674977	145.304930
0.826836	656.066317	144.344136	165.051622	103.941840	146.728720
0.828399	659.488146	144.793773	165.301155	105.220235	148.172982
0.829962	662.929766	145.241266	165.545354	106.508146	149.634999
0.831525	666.397337	145.690525	165.788777	107.806420	151.111615
0.833088	669.862999	146.131390	166.023976	109.109989	152.597643
0.834651	673.338015	146.574066	166.258570	110.417840	154.087540
0.836214	676.798239	147.010432	166.488081	111.723536	155.576191
0.837777	680.251352	147.448677	166.717163	113.026680	157.058832
0.839340	683.664331	147.875691	166.938087	114.320889	158.529664
0.840903	687.042010	148.304628	167.158839	115.595442	159.983101
0.842466	690.636310	148.712872	167.364569	117.147262	161.411607
0.844029	694.210608	149.123046	167.570533	118.709371	162.807659
0.845592	697.709005	149.519756	167.768318	120.255911	164.165020
0.847155	701.144119	149.918422	167.966691	121.780492	165.478514
0.848718	704.486376	150.303204	168.157252	123.283132	166.742789
0.850281	707.752747	150.689951	168.348771	124.760791	167.953234
0.851844	710.892693	151.053332	168.526668	126.210178	169.102517
0.853407	713.937501	151.418667	168.706057	127.629666	170.183112
0.854970	716.843991	151.766672	168.876876	129.012270	171.188173
0.856533	719.638186	152.116630	169.049695	130.359907	172.111953
0.858096	722.318535	152.469824	169.229420	131.667088	172.952204
0.859659	724.884915	152.824958	169.411406	132.939432	173.709119
0.861222	727.345538	153.185449	169.601865	134.175124	174.383100
0.862785	729.694676	153.547874	169.794854	135.376644	174.975303
0.864348	731.887800	153.886944	169.976658	136.541719	175.482479
0.865911	733.950550	154.227986	170.161678	137.661816	175.899070
0.867474	735.847280	154.553882	170.335154	138.732016	176.226228
0.869037	737.608539	154.881763	170.512344	139.745774	176.468658
0.870600	739.414552	155.296676	170.765884	140.710115	176.641877
0.872163	741.126610	155.713642	171.022440	141.621819	176.768710
0.873726	742.611997	156.053719	171.193897	142.487595	176.876786
0.875289	744.064901	156.395788	171.369312	143.307083	176.992719
0.876852	744.943953	156.823439	171.438080	143.918302	176.764132
0.878415	745.948300	157.253437	171.687363	144.431017	176.576483
0.879978	747.172056	157.580668	171.916845	145.033911	176.640631
0.881541	748.429428	157.910700	172.151066	145.580106	176.787557
0.883104	749.659165	158.264158	172.389494	146.021951	176.983561
0.884667	750.871444	158.620246	172.632402	146.366811	177.251985
0.886230	752.321722	158.962422	172.867848	146.882906	177.608546
0.887793	753.944100	159.307320	173.107973	147.461187	178.067620
0.889356	755.472072	159.584138	173.304178	147.954493	178.629264
0.890919	757.038367	159.863796	173.505661	148.384340	179.284570
0.892482	758.505810	160.082344	173.661022	148.743548	180.018896
0.894045	760.004235	160.303677	173.821897	149.059793	180.818867
0.895608	761.371534	160.454249	173.926045	149.325872	181.665367
0.897171	762.757196	160.607484	174.035875	149.572174	182.541663
0.898734	763.992292	160.685264	174.087326	149.791917	183.427786
0.900297	765.227294	160.765603	174.144628	150.012536	184.304527
0.901860	766.304801	160.773828	174.149325	150.227617	185.154031
0.903423	767.361429	160.784555	174.160039	150.457035	185.959799
0.904986	768.256655	160.727473	174.125618	150.693037	186.710527
0.906549	769.112996	160.672908	174.097417	150.946491	187.396180
0.908112	769.807576	160.556319	174.023587	151.213611	188.014059
0.909676	770.452320	160.442357	173.871467	151.576241	188.562254
0.911239	770.938789	160.272145	173.688894	151.931267	189.046483
0.912802	771.373976	160.104796	173.511441	152.285057	189.472682
0.914365	771.654350	159.884306	173.308503	152.608179	189.853362
0.915928	771.892469	159.667086	173.111311	152.913229	190.200843
0.917491	772.766466	159.401610	172.893989	153.940708	190.530158
0.919054	774.183920	159.140050	172.683061	155.513179	190.847631
0.920617	775.450356	158.827229	172.450085	157.008148	191.164893
0.922180	776.712124	158.519409	172.224231	158.472146	191.496339
0.923743	777.875585	158.190050	172.011720	159.823656	191.850159
0.925306	779.065368	157.867423	171.807260	161.155977	192.234707
0.926869	779.994233	157.397338	171.482622	162.446794	192.667479
0.928432	780.975381	156.936536	171.167641	163.708060	193.163143
0.929995	782.646433	156.931752	171.409134	164.596734	193.708813
0.931558	784.449550	156.940196	171.662063	165.559935	194.287356
0.933121	782.592562	154.608886	169.306884	167.687445	194.989348
0.934684	780.679670	152.303333	166.973972	169.467378	195.934987
0.936247	794.382302	159.999382	176.456231	165.280219	196.646470
0.937810	809.304537	168.001719	186.119433	162.662501	196.520884
