PointAcceleration
version=1
nRows=601
nColumns=4
inDegrees=no
No description.
endheader
time	state_0	state_1	state_2
      0.00000000	   -129.97248262	    -88.65717768	      0.00000000
      0.00167151	   -129.25823590	    -49.96069930	      0.00000000
      0.00334303	   -122.94050921	      2.31415646	      0.00000000
      0.00501454	   -110.46975840	     61.68181121	      0.00000000
      0.00668606	    -25.14555343	    164.55563530	      0.00000000
      0.00835757	      6.96943816	    191.67840951	      0.00000000
      0.01002909	     14.10970181	    197.89210740	      0.00000000
      0.01170060	     18.62820278	    203.22515645	      0.00000000
      0.01337212	     19.99833084	    204.59551703	      0.00000000
      0.01504363	     19.73947174	    204.10369301	      0.00000000
      0.01671515	     17.82934440	    199.90184539	      0.00000000
      0.01838666	     14.48769991	    192.26323650	      0.00000000
      0.02005818	     10.58115932	    181.54464951	      0.00000000
      0.02172969	      6.28079308	    168.30090544	      0.00000000
      0.02340121	      1.77369061	    152.93908768	      0.00000000
      0.02507272	     -2.72166388	    136.36043313	      0.00000000
      0.02674424	     -7.14278864	    119.36720741	      0.00000000
      0.02841575	    -11.27017873	    102.81831994	      0.00000000
      0.03008726	    -15.01004234	     87.53800948	      0.00000000
      0.03175878	    -18.37733420	     73.73477535	      0.00000000
      0.03343029	    -21.41859046	     61.44981413	      0.00000000
      0.03510181	    -24.17210923	     50.57787182	      0.00000000
      0.03677332	    -26.64873594	     40.95909968	      0.00000000
      0.03844484	    -28.90264322	     32.47688952	      0.00000000
      0.04011635	    -30.94067882	     24.93019097	      0.00000000
      0.04178787	    -32.80138609	     18.24559704	      0.00000000
      0.04345938	    -34.48825010	     12.26759585	      0.00000000
      0.04513090	    -36.02312058	      6.96115649	      0.00000000
      0.04680241	    -37.41226877	      2.22813283	      0.00000000
      0.04847393	    -38.67171109	     -1.94793687	      0.00000000
      0.05014544	    -39.80648248	     -5.60498246	      0.00000000
      0.05181696	    -40.82039739	     -8.78336173	      0.00000000
      0.05348847	    -41.70433608	    -11.55389821	      0.00000000
      0.05515999	    -42.46495816	    -13.96674701	      0.00000000
      0.05683150	    -43.10874355	    -16.07183579	      0.00000000
      0.05850301	    -43.63209639	    -17.89539951	      0.00000000
      0.06017453	    -44.04295754	    -19.47212728	      0.00000000
      0.06184604	    -44.33899271	    -20.82016415	      0.00000000
      0.06351756	    -44.52795882	    -21.96374393	      0.00000000
      0.06518907	    -44.60772654	    -22.91291915	      0.00000000
      0.06686059	    -44.58358936	    -23.67862432	      0.00000000
      0.06853210	    -44.45402924	    -24.26457433	      0.00000000
      0.07020362	    -44.22183684	    -24.67306814	      0.00000000
      0.07187513	    -43.88603760	    -24.90427093	      0.00000000
      0.07354665	    -43.44765074	    -24.95552621	      0.00000000
      0.07521816	    -42.90587408	    -24.82420370	      0.00000000
      0.07688968	    -42.26028934	    -24.50422815	      0.00000000
      0.07856119	    -41.50950782	    -23.98935274	      0.00000000
      0.08023271	    -40.65136568	    -23.26918800	      0.00000000
      0.08190422	    -39.68321302	    -22.33294951	      0.00000000
      0.08357574	    -38.60054377	    -21.16377405	      0.00000000
      0.08524725	    -37.40057275	    -19.75059450	      0.00000000
      0.08691876	    -36.07754009	    -18.07321637	      0.00000000
      0.08859028	    -34.63387338	    -16.13734826	      0.00000000
      0.09026179	    -33.06923535	    -13.94162514	      0.00000000
      0.09193331	    -31.39496905	    -11.52226053	      0.00000000
      0.09360482	    -29.62267653	     -8.91860302	      0.00000000
      0.09527634	    -27.76292977	     -6.17016029	      0.00000000
      0.09694785	    -25.82865541	     -3.32042908	      0.00000000
      0.09861937	    -23.82435548	     -0.38725826	      0.00000000
      0.10029088	    -21.75560693	      2.61159481	      0.00000000
      0.10196240	    -19.62413812	      5.67315057	      0.00000000
      0.10363391	    -17.43079822	      8.79569647	      0.00000000
      0.10530543	    -15.17593938	     11.98253294	      0.00000000
      0.10697694	    -12.85740102	     15.24138278	      0.00000000
      0.10864846	    -10.47819485	     18.57352492	      0.00000000
      0.11031997	     -8.03759511	     21.98553663	      0.00000000
      0.11199149	     -5.54542316	     25.47355360	      0.00000000
      0.11366300	     -3.00916222	     29.03927255	      0.00000000
      0.11533451	     -0.44018634	     32.67886263	      0.00000000
      0.11700603	      2.15345585	     36.39184756	      0.00000000
      0.11867754	      4.76202132	     40.17837592	      0.00000000
      0.12034906	      7.37953828	     44.04204919	      0.00000000
      0.12202057	      9.99269496	     47.98732534	      0.00000000
      0.12369209	     12.58707209	     52.02445268	      0.00000000
      0.12536360	     15.15740658	     56.15753679	      0.00000000
      0.12703512	     17.70142973	     60.39062326	      0.00000000
      0.12870663	     20.22079211	     64.71809631	      0.00000000
      0.13037815	     22.71630037	     69.13402200	      0.00000000
      0.13204966	     25.19068813	     73.62933701	      0.00000000
      0.13372118	     27.64500971	     78.19361835	      0.00000000
      0.13539269	     30.08215319	     82.81866904	      0.00000000
      0.13706421	     32.50379926	     87.49427045	      0.00000000
      0.13873572	     34.91290656	     92.21437762	      0.00000000
      0.14040724	     37.31154359	     96.97097035	      0.00000000
      0.14207875	     39.70234741	    101.75998074	      0.00000000
      0.14375027	     42.08735771	    106.57584139	      0.00000000
      0.14542178	     44.46878380	    111.41591484	      0.00000000
      0.14709329	     46.84840424	    116.27650305	      0.00000000
      0.14876481	     49.22805219	    121.15569983	      0.00000000
      0.15043632	     51.60912177	    126.05087007	      0.00000000
      0.15210784	     53.99330278	    130.96047315	      0.00000000
      0.15377935	     56.38173627	    135.88239883	      0.00000000
      0.15545087	     58.77622101	    140.81512166	      0.00000000
      0.15712238	     61.17830136	    145.75720802	      0.00000000
      0.15879390	     63.58883365	    150.70573394	      0.00000000
      0.16046541	     66.00832228	    155.65612300	      0.00000000
      0.16213693	     68.43634186	    160.60294514	      0.00000000
      0.16380844	     70.87291265	    165.54193059	      0.00000000
      0.16547996	     73.31668287	    170.46663348	      0.00000000
      0.16715147	     75.76713453	    175.37144861	      0.00000000
      0.16882299	     78.22198674	    180.24914575	      0.00000000
      0.17049450	     80.68099788	    185.09398553	      0.00000000
      0.17216602	     83.14280878	    189.90042895	      0.00000000
      0.17383753	     85.60939347	    194.66477819	      0.00000000
      0.17550904	     88.07993215	    199.38445599	      0.00000000
      0.17718056	     90.55584752	    204.05841896	      0.00000000
      0.17885207	     93.03518188	    208.68657361	      0.00000000
      0.18052359	     95.51535332	    213.26897208	      0.00000000
      0.18219510	     97.99532006	    217.80671046	      0.00000000
      0.18386662	    100.47281003	    222.29990663	      0.00000000
      0.18553813	    102.94867959	    226.74940192	      0.00000000
      0.18720965	    105.42214531	    231.15504166	      0.00000000
      0.18888116	    107.89427847	    235.51677109	      0.00000000
      0.19055268	    110.36490950	    239.83399274	      0.00000000
      0.19222419	    112.83445848	    244.10577677	      0.00000000
      0.19389571	    115.30285789	    248.33102848	      0.00000000
      0.19556722	    117.77010791	    252.50828613	      0.00000000
      0.19723874	    120.23614323	    256.63605014	      0.00000000
      0.19891025	    122.70094109	    260.71272529	      0.00000000
      0.20058177	    125.16450697	    264.73662136	      0.00000000
      0.20225328	    127.62697450	    268.70631150	      0.00000000
      0.20392479	    130.08846574	    272.62016859	      0.00000000
      0.20559631	    132.54923309	    276.47710826	      0.00000000
      0.20726782	    135.00947485	    280.27577850	      0.00000000
      0.20893934	    137.46942030	    284.01549668	      0.00000000
      0.21061085	    139.92923937	    287.69530770	      0.00000000
      0.21228237	    142.38899765	    291.31490458	      0.00000000
      0.21395388	    144.84872632	    294.87375360	      0.00000000
      0.21562540	    147.30824943	    298.37184798	      0.00000000
      0.21729691	    149.76739297	    301.80902784	      0.00000000
      0.21896843	    152.22573597	    305.18549458	      0.00000000
      0.22063994	    154.68289170	    308.50137602	      0.00000000
      0.22231146	    157.13824483	    311.75699813	      0.00000000
      0.22398297	    159.59123488	    314.95268325	      0.00000000
      0.22565449	    162.04112373	    318.08881355	      0.00000000
      0.22732600	    164.48723738	    321.16582045	      0.00000000
      0.22899752	    166.92878735	    324.18409796	      0.00000000
      0.23066903	    169.36504908	    327.14412280	      0.00000000
      0.23234054	    171.79524197	    330.04627628	      0.00000000
      0.23401206	    174.21864403	    332.89103870	      0.00000000
      0.23568357	    176.63452624	    335.67877473	      0.00000000
      0.23735509	    179.04220964	    338.40994995	      0.00000000
      0.23902660	    181.44104762	    341.08492542	      0.00000000
      0.24069812	    183.83043373	    343.70415504	      0.00000000
      0.24236963	    186.20982526	    346.26802109	      0.00000000
      0.24404115	    188.57870817	    348.77698282	      0.00000000
      0.24571266	    190.93665859	    351.23147346	      0.00000000
      0.24738418	    193.28326907	    353.63198383	      0.00000000
      0.24905569	    195.61823995	    355.97901937	      0.00000000
      0.25072721	    197.94127749	    358.27312508	      0.00000000
      0.25239872	    200.25220212	    360.51488400	      0.00000000
      0.25407024	    202.55083151	    362.70490340	      0.00000000
      0.25574175	    204.83708915	    364.84382551	      0.00000000
      0.25741327	    207.11089154	    366.93230782	      0.00000000
      0.25908478	    209.37223709	    368.97101330	      0.00000000
      0.26075629	    211.62111812	    370.96061809	      0.00000000
      0.26242781	    213.85757453	    372.90175929	      0.00000000
      0.26409932	    216.08164660	    374.79509223	      0.00000000
      0.26577084	    218.29338337	    376.64118641	      0.00000000
      0.26744235	    220.49284412	    378.44063747	      0.00000000
      0.26911387	    222.68006753	    380.19392813	      0.00000000
      0.27078538	    224.85511266	    381.90157516	      0.00000000
      0.27245690	    227.01799826	    383.56397500	      0.00000000
      0.27412841	    229.16877153	    385.18156160	      0.00000000
      0.27579993	    231.30743294	    386.75466473	      0.00000000
      0.27747144	    233.43401360	    388.28364674	      0.00000000
      0.27914296	    235.54850958	    389.76881006	      0.00000000
      0.28081447	    237.65094197	    391.21047681	      0.00000000
      0.28248599	    239.74131232	    392.60895409	      0.00000000
      0.28415750	    241.81963594	    393.96454595	      0.00000000
      0.28582902	    243.88593664	    395.27760083	      0.00000000
      0.28750053	    245.94023215	    396.54843688	      0.00000000
      0.28917204	    247.98256848	    397.77745121	      0.00000000
      0.29084356	    250.01296696	    398.96498122	      0.00000000
      0.29251507	    252.03150021	    400.11147498	      0.00000000
      0.29418659	    254.03819578	    401.21729388	      0.00000000
      0.29585810	    256.03315078	    402.28292678	      0.00000000
      0.29752962	    258.01640406	    403.30875702	      0.00000000
      0.29920113	    259.98806960	    404.29529468	      0.00000000
      0.30087265	    261.94819638	    405.24293477	      0.00000000
      0.30254416	    263.89690594	    406.15218678	      0.00000000
      0.30421568	    265.83425722	    407.02344781	      0.00000000
      0.30588719	    267.76037235	    407.85720785	      0.00000000
      0.30755871	    269.67532065	    408.65385764	      0.00000000
      0.30923022	    271.57922445	    409.41385566	      0.00000000
      0.31090174	    273.47216660	    410.13757957	      0.00000000
      0.31257325	    275.35427096	    410.82544747	      0.00000000
      0.31424477	    277.22563721	    411.47781628	      0.00000000
      0.31591628	    279.08639330	    412.09506958	      0.00000000
      0.31758779	    280.93666461	    412.67756311	      0.00000000
      0.31925931	    282.77661665	    413.22569323	      0.00000000
      0.32093082	    284.60642506	    413.73985744	      0.00000000
      0.32260234	    286.42633666	    414.22049451	      0.00000000
      0.32427385	    288.23660503	    414.66803661	      0.00000000
      0.32594537	    290.03752427	    415.08292198	      0.00000000
      0.32761688	    291.82941629	    415.46559475	      0.00000000
      0.32928840	    293.61259475	    415.81655027	      0.00000000
      0.33095991	    295.38744469	    416.13638438	      0.00000000
      0.33263143	    297.15447150	    416.42582916	      0.00000000
      0.33430294	    298.91427543	    416.68572843	      0.00000000
      0.33597446	    300.66749228	    416.91678587	      0.00000000
      0.33764597	    302.41481208	    417.11926591	      0.00000000
      0.33931749	    304.15469564	    417.29310629	      0.00000000
      0.34098900	    305.88914097	    417.43799518	      0.00000000
      0.34266052	    307.61931793	    417.55768219	      0.00000000
      0.34433203	    309.34692854	    417.65331818	      0.00000000
      0.34600354	    311.07147056	    417.72422965	      0.00000000
      0.34767506	    312.79313405	    417.77090127	      0.00000000
      0.34934657	    314.51242669	    417.79401335	      0.00000000
      0.35101809	    316.22992423	    417.79427992	      0.00000000
      0.35268960	    317.94623731	    417.77237923	      0.00000000
      0.35436112	    319.66195469	    417.72898270	      0.00000000
      0.35603263	    321.37758517	    417.66463772	      0.00000000
      0.35770415	    323.09367411	    417.57996331	      0.00000000
      0.35937566	    324.81076754	    417.47544803	      0.00000000
      0.36104718	    326.52945153	    417.35160195	      0.00000000
      0.36271869	    328.25015036	    417.20869264	      0.00000000
      0.36439021	    329.97335477	    417.04705369	      0.00000000
      0.36606172	    331.69939768	    416.86682400	      0.00000000
      0.36773324	    333.42867647	    416.66819994	      0.00000000
      0.36940475	    335.16142825	    416.45119592	      0.00000000
      0.37107627	    336.89794568	    416.21586475	      0.00000000
      0.37274778	    338.63832053	    415.96205701	      0.00000000
      0.37441930	    340.38269939	    415.68967002	      0.00000000
      0.37609081	    342.13101594	    415.39836674	      0.00000000
      0.37776232	    343.88325740	    415.08785171	      0.00000000
      0.37943384	    345.63913673	    414.75751769	      0.00000000
      0.38110535	    347.39839785	    414.40675846	      0.00000000
      0.38277687	    349.16039108	    414.03462412	      0.00000000
      0.38444838	    350.92451566	    413.64020344	      0.00000000
      0.38611990	    352.68986999	    413.22237258	      0.00000000
      0.38779141	    354.45557337	    412.78002586	      0.00000000
      0.38946293	    356.22055174	    412.31191785	      0.00000000
      0.39113444	    357.98370927	    411.81677868	      0.00000000
      0.39280596	    359.74377689	    411.29319250	      0.00000000
      0.39447747	    361.49943244	    410.73968685	      0.00000000
      0.39614899	    363.24918218	    410.15468122	      0.00000000
      0.39782050	    364.99146773	    409.53653869	      0.00000000
      0.39949202	    366.72463885	    408.88363097	      0.00000000
      0.40116353	    368.44696208	    408.19426183	      0.00000000
      0.40283505	    370.15672368	    407.46686141	      0.00000000
      0.40450656	    371.85209111	    406.69976664	      0.00000000
      0.40617807	    373.53136162	    405.89152190	      0.00000000
      0.40784959	    375.19267398	    405.04055898	      0.00000000
      0.40952110	    376.83443589	    404.14557662	      0.00000000
      0.41119262	    378.45487848	    403.20516759	      0.00000000
      0.41286413	    380.05261906	    402.21819148	      0.00000000
      0.41453565	    381.62605917	    401.18339384	      0.00000000
      0.41620716	    383.17411916	    400.09975921	      0.00000000
      0.41787868	    384.69546363	    398.96616423	      0.00000000
      0.41955019	    386.18941055	    397.78165704	      0.00000000
      0.42122171	    387.65498323	    396.54518006	      0.00000000
      0.42289322	    389.09196128	    395.25574285	      0.00000000
      0.42456474	    390.49978060	    393.91223670	      0.00000000
      0.42623625	    391.87868153	    392.51350773	      0.00000000
      0.42790777	    393.22851998	    391.05825545	      0.00000000
      0.42957928	    394.54989542	    389.54504910	      0.00000000
      0.43125080	    395.84302227	    387.97226934	      0.00000000
      0.43292231	    397.10859610	    386.33814953	      0.00000000
      0.43459382	    398.34698766	    384.64068167	      0.00000000
      0.43626534	    399.55849050	    382.87778899	      0.00000000
      0.43793685	    400.74314371	    381.04707168	      0.00000000
      0.43960837	    401.90015588	    379.14626797	      0.00000000
      0.44127988	    403.02840140	    377.17263818	      0.00000000
      0.44295140	    404.12550128	    375.12395845	      0.00000000
      0.44462291	    405.18838869	    372.99729027	      0.00000000
      0.44629443	    406.21340047	    370.79074872	      0.00000000
      0.44796594	    407.19571534	    368.50153637	      0.00000000
      0.44963746	    408.13167552	    366.12835705	      0.00000000
      0.45130897	    409.01618555	    363.66906570	      0.00000000
      0.45298049	    409.84741688	    361.12293510	      0.00000000
      0.45465200	    410.62284824	    358.48894541	      0.00000000
      0.45632352	    411.34345576	    355.76664911	      0.00000000
      0.45799503	    412.01131871	    352.95619230	      0.00000000
      0.45966655	    412.62955773	    350.05649121	      0.00000000
      0.46133806	    413.21175508	    347.06742834	      0.00000000
      0.46300957	    413.73365280	    343.98496993	      0.00000000
      0.46468109	    414.14200962	    340.79911949	      0.00000000
      0.46635260	    414.41713465	    337.50145467	      0.00000000
      0.46802412	    414.56642750	    334.08815137	      0.00000000
      0.46969563	    414.58610801	    330.55382340	      0.00000000
      0.47136715	    414.45365700	    326.88994612	      0.00000000
      0.47303866	    414.14155002	    323.08040741	      0.00000000
      0.47471018	    413.63162363	    319.11147024	      0.00000000
      0.47638169	    412.89113582	    314.96179033	      0.00000000
      0.47805321	    411.88316088	    310.60973774	      0.00000000
      0.47972472	    410.56657887	    306.03153997	      0.00000000
      0.48139624	    408.89241077	    301.19978542	      0.00000000
      0.48306775	    406.83567946	    296.10158869	      0.00000000
      0.48473927	    404.36515573	    290.72346454	      0.00000000
      0.48641078	    401.46417162	    285.06351880	      0.00000000
      0.48808230	    398.11865516	    279.12463325	      0.00000000
      0.48975381	    394.29806680	    272.90261815	      0.00000000
      0.49142532	    389.97869746	    266.39669168	      0.00000000
      0.49309684	    385.10513291	    259.58973524	      0.00000000
      0.49476835	    379.62891966	    252.46543293	      0.00000000
      0.49643987	    373.48986200	    245.00356864	      0.00000000
      0.49811138	    366.63184859	    237.18258544	      0.00000000
      0.49978290	    359.01323274	    228.99420013	      0.00000000
      0.50145441	    350.59862240	    220.42541863	      0.00000000
      0.50312593	    341.36855425	    211.49411075	      0.00000000
      0.50479744	    331.33207181	    202.21165531	      0.00000000
      0.50646896	    320.48224122	    192.61240738	      0.00000000
      0.50814047	    308.94826479	    182.59672822	      0.00000000
      0.50981199	    296.63482885	    172.47106157	      0.00000000
      0.51148350	    283.54690018	    162.25760749	      0.00000000
      0.51315502	    269.79053937	    151.86869117	      0.00000000
      0.51482653	    255.41504802	    141.37814158	      0.00000000
      0.51649805	    240.41518643	    130.82201150	      0.00000000
      0.51816956	    224.82462172	    120.20255989	      0.00000000
      0.51984107	    208.74252427	    109.63087672	      0.00000000
      0.52151259	    192.37282676	     99.25663258	      0.00000000
      0.52318410	    175.91608445	     89.21168671	      0.00000000
      0.52485562	    159.62073397	     79.60920467	      0.00000000
      0.52652713	    143.56684876	     70.52007358	      0.00000000
      0.52819865	    128.06248451	     62.08545317	      0.00000000
      0.52987016	    112.97321125	     54.28924824	      0.00000000
      0.53154168	     98.55583847	     47.23339720	      0.00000000
      0.53321319	     84.75977797	     40.83939657	      0.00000000
      0.53488471	     73.22756827	     35.50598579	      0.00000000
      0.53655622	     59.55249342	     29.82908209	      0.00000000
      0.53822774	     38.96374097	     22.01062144	      0.00000000
      0.53989925	     18.32684604	     13.25336330	      0.00000000
      0.54157077	      7.44791285	      6.01193788	      0.00000000
      0.54324228	      8.03585482	      3.15278489	      0.00000000
      0.54491380	      8.35048731	      2.61463954	      0.00000000
      0.54658531	      7.29015246	      1.89019090	      0.00000000
      0.54825682	      6.64067487	      1.14364393	      0.00000000
      0.54992834	      6.44438577	      0.50732500	      0.00000000
      0.55159985	      6.55044202	      0.00650113	      0.00000000
      0.55327137	      6.80842066	     -0.41305063	      0.00000000
      0.55494288	      7.13353769	     -0.78791645	      0.00000000
      0.55661440	      7.46597891	     -1.14339346	      0.00000000
      0.55828591	      7.76139003	     -1.49612383	      0.00000000
      0.55995743	      8.02755495	     -1.84256201	      0.00000000
      0.56162894	      8.26450519	     -2.18225002	      0.00000000
      0.56330046	      8.48963643	     -2.50942520	      0.00000000
      0.56497197	      8.71233455	     -2.82166134	      0.00000000
      0.56664349	      8.93798816	     -3.11855442	      0.00000000
      0.56831500	      9.17031303	     -3.40040461	      0.00000000
      0.56998652	      9.40744921	     -3.66891664	      0.00000000
      0.57165803	      9.64765355	     -3.92558057	      0.00000000
      0.57332955	      9.88719572	     -4.17231457	      0.00000000
      0.57500106	     10.12205869	     -4.41090285	      0.00000000
      0.57667257	     10.34896748	     -4.64276178	      0.00000000
      0.57834409	     10.56401662	     -4.86931151	      0.00000000
      0.58001560	     10.76532552	     -5.09131750	      0.00000000
      0.58168712	     10.95008249	     -5.30968163	      0.00000000
      0.58335863	     11.11814334	     -5.52456543	      0.00000000
      0.58503015	     11.26854939	     -5.73629863	      0.00000000
      0.58670166	     11.40344560	     -5.94448982	      0.00000000
      0.58837318	     11.52480853	     -6.14887978	      0.00000000
      0.59004469	     11.63669544	     -6.34877786	      0.00000000
      0.59171621	     11.74354675	     -6.54357705	      0.00000000
      0.59338772	     11.84871179	     -6.73282568	      0.00000000
      0.59505924	     11.95569290	     -6.91613225	      0.00000000
      0.59673075	     12.06430064	     -7.09371119	      0.00000000
      0.59840227	     12.17405016	     -7.26582958	      0.00000000
      0.60007378	     12.28205753	     -7.43308812	      0.00000000
      0.60174530	     12.38546632	     -7.59600365	      0.00000000
      0.60341681	     12.48235461	     -7.75491871	      0.00000000
      0.60508833	     12.57114593	     -7.91007406	      0.00000000
      0.60675984	     12.65208419	     -8.06145650	      0.00000000
      0.60843135	     12.72548823	     -8.20903633	      0.00000000
      0.61010287	     12.79153193	     -8.35278433	      0.00000000
      0.61177438	     12.85015745	     -8.49267272	      0.00000000
      0.61344590	     12.89945299	     -8.62883734	      0.00000000
      0.61511741	     12.93728962	     -8.76143867	      0.00000000
      0.61678893	     12.96088373	     -8.89076183	      0.00000000
      0.61846044	     12.96702130	     -9.01709666	      0.00000000
      0.62013196	     12.95473365	     -9.14048036	      0.00000000
      0.62180347	     12.92262150	     -9.26087525	      0.00000000
      0.62347499	     12.87350301	     -9.37783121	      0.00000000
      0.62514650	     12.81075378	     -9.49092321	      0.00000000
      0.62681802	     12.73907470	     -9.59972153	      0.00000000
      0.62848953	     12.66386181	     -9.70387645	      0.00000000
      0.63016105	     12.58589960	     -9.80340524	      0.00000000
      0.63183256	     12.50569878	     -9.89836219	      0.00000000
      0.63350408	     12.41720076	     -9.98912648	      0.00000000
      0.63517559	     12.30842909	    -10.07623677	      0.00000000
      0.63684710	     12.17925952	    -10.15953822	      0.00000000
      0.63851862	     12.04157961	    -10.23844508	      0.00000000
      0.64019013	     11.90639805	    -10.31260859	      0.00000000
      0.64186165	     11.76359843	    -10.38251409	      0.00000000
      0.64353316	     11.92247936	    -10.44711938	      0.00000000
      0.64520468	     11.71141642	    -10.50842525	      0.00000000
      0.64687619	     11.50203592	    -10.56484667	      0.00000000
      0.64854771	     11.29533897	    -10.61657150	      0.00000000
      0.65021922	     11.07749371	    -10.66400486	      0.00000000
      0.65189074	     10.84493099	    -10.70724303	      0.00000000
      0.65356225	     10.59560743	    -10.74633157	      0.00000000
      0.65523377	     10.33224697	    -10.78127394	      0.00000000
      0.65690528	     10.05642692	    -10.81212635	      0.00000000
      0.65857680	      9.76539265	    -10.83898256	      0.00000000
      0.66024831	      9.45635145	    -10.86191805	      0.00000000
      0.66191983	      9.12924842	    -10.88100203	      0.00000000
      0.66359134	      8.78567658	    -10.89632907	      0.00000000
      0.66526285	      8.42637618	    -10.90801893	      0.00000000
      0.66693437	      8.05124166	    -10.91620534	      0.00000000
      0.66860588	      7.65985249	    -10.92103071	      0.00000000
      0.67027740	      7.25156483	    -10.92264586	      0.00000000
      0.67194891	      6.82608544	    -10.92121456	      0.00000000
      0.67362043	      6.38333236	    -10.91691712	      0.00000000
      0.67529194	      5.92316272	    -10.90994501	      0.00000000
      0.67696346	      5.44540511	    -10.90050372	      0.00000000
      0.67863497	      4.94986523	    -10.88881094	      0.00000000
      0.68030649	      4.43628983	    -10.87509872	      0.00000000
      0.68197800	      3.90445665	    -10.85961606	      0.00000000
      0.68364952	      3.35410302	    -10.84262963	      0.00000000
      0.68532103	      2.78499090	    -10.82443069	      0.00000000
      0.68699255	      2.19684174	    -10.80533264	      0.00000000
      0.68866406	      1.58940670	    -10.78568272	      0.00000000
      0.69033558	      0.96240810	    -10.76585375	      0.00000000
      0.69200709	      0.31560238	    -10.74625560	      0.00000000
      0.69367860	     -0.35126015	    -10.72732143	      0.00000000
      0.69535012	     -1.03839938	    -10.70951139	      0.00000000
      0.69702163	     -1.74600286	    -10.69330031	      0.00000000
      0.69869315	     -2.47423187	    -10.67917211	      0.00000000
      0.70036466	     -3.22316519	    -10.66761854	      0.00000000
      0.70203618	     -3.99285970	    -10.65912949	      0.00000000
      0.70370769	     -4.78324211	    -10.65420339	      0.00000000
      0.70537921	     -5.59422012	    -10.65333771	      0.00000000
      0.70705072	     -6.42553127	    -10.65704245	      0.00000000
      0.70872224	     -7.27689309	    -10.66583188	      0.00000000
      0.71039375	     -8.14782334	    -10.68023366	      0.00000000
      0.71206527	     -9.03781754	    -10.70078217	      0.00000000
      0.71373678	     -9.94615969	    -10.72802155	      0.00000000
      0.71540830	    -10.87211205	    -10.76250056	      0.00000000
      0.71707981	    -11.81473726	    -10.80477128	      0.00000000
      0.71875133	    -12.77308103	    -10.85538537	      0.00000000
      0.72042284	    -13.74602387	    -10.91489082	      0.00000000
      0.72209435	    -14.73244022	    -10.98382930	      0.00000000
      0.72376587	    -15.73108789	    -11.06273300	      0.00000000
      0.72543738	    -16.74073642	    -11.15212242	      0.00000000
      0.72710890	    -17.76008812	    -11.25250502	      0.00000000
      0.72878041	    -18.78788111	    -11.36437261	      0.00000000
      0.73045193	    -19.82282112	    -11.48820258	      0.00000000
      0.73212344	    -20.86367672	    -11.62445413	      0.00000000
      0.73379496	    -21.90919239	    -11.77357195	      0.00000000
      0.73546647	    -22.95819938	    -11.93598079	      0.00000000
      0.73713799	    -24.00948373	    -12.11209020	      0.00000000
      0.73880950	    -25.06193107	    -12.30228738	      0.00000000
      0.74048102	    -26.11434101	    -12.50694117	      0.00000000
      0.74215253	    -27.16560639	    -12.72639290	      0.00000000
      0.74382405	    -28.21449423	    -12.96095836	      0.00000000
      0.74549556	    -29.25983287	    -13.21091618	      0.00000000
      0.74716708	    -30.30031189	    -13.47650785	      0.00000000
      0.74883859	    -31.33462242	    -13.75792242	      0.00000000
      0.75051010	    -32.36135288	    -14.05529735	      0.00000000
      0.75218162	    -33.37900863	    -14.36869701	      0.00000000
      0.75385313	    -34.38608911	    -14.69812008	      0.00000000
      0.75552465	    -35.38091046	    -15.04346827	      0.00000000
      0.75719616	    -36.36193863	    -15.40456853	      0.00000000
      0.75886768	    -37.32735486	    -15.78113038	      0.00000000
      0.76053919	    -38.27569144	    -16.17278874	      0.00000000
      0.76221071	    -39.20511363	    -16.57904037	      0.00000000
      0.76388222	    -40.11436365	    -16.99932496	      0.00000000
      0.76555374	    -41.00177110	    -17.43294387	      0.00000000
      0.76722525	    -41.86646446	    -17.87917623	      0.00000000
      0.76889677	    -42.70716965	    -18.33718105	      0.00000000
      0.77056828	    -43.52359073	    -18.80614737	      0.00000000
      0.77223980	    -44.31510519	    -19.28518734	      0.00000000
      0.77391131	    -45.08215456	    -19.77350510	      0.00000000
      0.77558283	    -45.82499446	    -20.27029587	      0.00000000
      0.77725434	    -46.54488227	    -20.77490291	      0.00000000
      0.77892585	    -47.24307650	    -21.28674559	      0.00000000
      0.78059737	    -47.92159231	    -21.80542100	      0.00000000
      0.78226888	    -48.58264580	    -22.33068978	      0.00000000
      0.78394040	    -49.22879771	    -22.86247655	      0.00000000
      0.78561191	    -49.86298220	    -23.40094112	      0.00000000
      0.78728343	    -50.48797814	    -23.94634701	      0.00000000
      0.78895494	    -51.10705160	    -24.49923380	      0.00000000
      0.79062646	    -51.72284075	    -25.06015235	      0.00000000
      0.79229797	    -52.33851537	    -25.62993421	      0.00000000
      0.79396949	    -52.95626452	    -26.20932136	      0.00000000
      0.79564100	    -53.57878199	    -26.79930624	      0.00000000
      0.79731252	    -54.20759073	    -27.40070565	      0.00000000
      0.79898403	    -54.84461937	    -28.01452527	      0.00000000
      0.80065555	    -55.49064034	    -28.64155153	      0.00000000
      0.80232706	    -56.14670537	    -29.28268556	      0.00000000
      0.80399858	    -56.81293360	    -29.93862594	      0.00000000
      0.80567009	    -57.48961907	    -30.61012234	      0.00000000
      0.80734160	    -58.17642374	    -31.29777028	      0.00000000
      0.80901312	    -58.87306536	    -32.00215428	      0.00000000
      0.81068463	    -59.57892131	    -32.72375936	      0.00000000
      0.81235615	    -60.29333302	    -33.46301181	      0.00000000
      0.81402766	    -61.01559489	    -34.22030859	      0.00000000
      0.81569918	    -61.74495036	    -34.99597544	      0.00000000
      0.81737069	    -62.48078379	    -35.79036322	      0.00000000
      0.81904221	    -63.22240804	    -36.60374362	      0.00000000
      0.82071372	    -63.96932179	    -37.43642714	      0.00000000
      0.82238524	    -64.72096851	    -38.28865033	      0.00000000
      0.82405675	    -65.47694035	    -39.16067321	      0.00000000
      0.82572827	    -66.23683198	    -40.05270332	      0.00000000
      0.82739978	    -67.00021500	    -40.96489405	      0.00000000
      0.82907130	    -67.76641012	    -41.89722903	      0.00000000
      0.83074281	    -68.53510219	    -42.84975448	      0.00000000
      0.83241433	    -69.30578849	    -43.82236731	      0.00000000
      0.83408584	    -70.07932250	    -44.81543787	      0.00000000
      0.83575735	    -70.85707215	    -45.82960611	      0.00000000
      0.83742887	    -71.64096096	    -46.86564399	      0.00000000
      0.83910038	    -72.43267444	    -47.92421109	      0.00000000
      0.84077190	    -73.23370097	    -49.00575854	      0.00000000
      0.84244341	    -74.04537416	    -50.11067001	      0.00000000
      0.84411493	    -74.87001989	    -51.23979835	      0.00000000
      0.84578644	    -75.71053646	    -52.39432039	      0.00000000
      0.84745796	    -76.57122119	    -53.57620020	      0.00000000
      0.84912947	    -77.45674972	    -54.78766773	      0.00000000
      0.85080099	    -78.37219842	    -56.03140558	      0.00000000
      0.85247250	    -79.32298350	    -57.31044942	      0.00000000
      0.85414402	    -80.31381854	    -58.62790904	      0.00000000
      0.85581553	    -81.34969036	    -59.98721807	      0.00000000
      0.85748705	    -82.43411193	    -61.39152488	      0.00000000
      0.85915856	    -83.57053868	    -62.84412118	      0.00000000
      0.86083008	    -84.76038470	    -64.34763811	      0.00000000
      0.86250159	    -86.00442065	    -65.90451302	      0.00000000
      0.86417311	    -87.30104554	    -67.51620400	      0.00000000
      0.86584462	    -88.64734389	    -69.18354715	      0.00000000
      0.86751613	    -90.03808990	    -70.90628142	      0.00000000
      0.86918765	    -91.46620109	    -72.68312739	      0.00000000
      0.87085916	    -92.92268788	    -74.51179706	      0.00000000
      0.87253068	    -94.39645192	    -76.38872840	      0.00000000
      0.87420219	    -95.87501237	    -78.30948142	      0.00000000
      0.87587371	    -97.34388103	    -80.26822507	      0.00000000
      0.87754522	    -98.78798815	    -82.25848284	      0.00000000
      0.87921674	   -100.19091975	    -84.27255038	      0.00000000
      0.88088825	   -101.53696824	    -86.30263984	      0.00000000
      0.88255977	   -102.81034405	    -88.34038549	      0.00000000
      0.88423128	   -103.99707445	    -90.37781652	      0.00000000
      0.88590280	   -105.08434281	    -92.40706007	      0.00000000
      0.88757431	   -106.06179075	    -94.42074603	      0.00000000
      0.88924583	   -106.92112944	    -96.41199021	      0.00000000
      0.89091734	   -107.65713255	    -98.37480623	      0.00000000
      0.89258886	   -108.26709266	   -100.30411418	      0.00000000
      0.89426037	   -108.75141931	   -102.19639625	      0.00000000
      0.89593188	   -109.11309634	   -104.05036229	      0.00000000
      0.89760340	   -109.35560078	   -105.86366171	      0.00000000
      0.89927491	   -109.48393422	   -107.63507922	      0.00000000
      0.90094643	   -109.50161698	   -109.35866841	      0.00000000
      0.90261794	   -109.41660504	   -111.03612437	      0.00000000
      0.90428946	   -109.23437290	   -112.66608496	      0.00000000
      0.90596097	   -109.92227762	   -115.43573213	      0.00000000
      0.90763249	   -109.59882036	   -116.97143876	      0.00000000
      0.90930400	   -109.21399996	   -118.51079034	      0.00000000
      0.91097552	   -108.76239645	   -120.04419208	      0.00000000
      0.91264703	   -108.24127948	   -121.56078985	      0.00000000
      0.91431855	   -107.65259552	   -123.06123880	      0.00000000
      0.91599006	   -106.99899619	   -124.54654812	      0.00000000
      0.91766158	   -106.28509836	   -126.02420798	      0.00000000
      0.91933309	   -105.51521143	   -127.50004619	      0.00000000
      0.92100461	   -104.69482575	   -128.98038083	      0.00000000
      0.92267612	   -103.82991761	   -130.47209935	      0.00000000
      0.92434763	   -102.92737487	   -131.98132557	      0.00000000
      0.92601915	   -101.99477734	   -133.51465900	      0.00000000
      0.92769066	   -101.04019130	   -135.07763754	      0.00000000
      0.92936218	   -100.07210008	   -136.67587322	      0.00000000
      0.93103369	    -99.09888238	   -138.31385210	      0.00000000
      0.93270521	    -98.12888700	   -139.99548540	      0.00000000
      0.93437672	    -97.16979968	   -141.72350194	      0.00000000
      0.93604824	    -96.22880564	   -143.49938821	      0.00000000
      0.93771975	    -95.31203276	   -145.32366576	      0.00000000
      0.93939127	    -94.42476096	   -147.19523311	      0.00000000
      0.94106278	    -93.57103893	   -149.11244924	      0.00000000
      0.94273430	    -92.75394387	   -151.07191229	      0.00000000
      0.94440581	    -91.97538014	   -153.07000340	      0.00000000
      0.94607733	    -91.23640495	   -155.10140070	      0.00000000
      0.94774884	    -90.53715748	   -157.16076304	      0.00000000
      0.94942036	    -89.87723235	   -159.24128795	      0.00000000
      0.95109187	    -89.25569609	   -161.33632022	      0.00000000
      0.95276338	    -88.67143307	   -163.43804239	      0.00000000
      0.95443490	    -88.12327031	   -165.53897131	      0.00000000
      0.95610641	    -87.61031837	   -167.63065432	      0.00000000
      0.95777793	    -87.13206908	   -169.70537273	      0.00000000
      0.95944944	    -86.68831585	   -171.75484052	      0.00000000
      0.96112096	    -86.27986818	   -173.77202483	      0.00000000
      0.96279247	    -85.90819357	   -175.74987321	      0.00000000
      0.96446399	    -85.57613691	   -177.68276308	      0.00000000
      0.96613550	    -85.28748238	   -179.56568471	      0.00000000
      0.96780702	    -85.04750517	   -181.39402736	      0.00000000
      0.96947853	    -84.86285726	   -183.16383191	      0.00000000
      0.97115005	    -84.74198499	   -184.86959933	      0.00000000
      0.97282156	    -84.69569828	   -186.50611173	      0.00000000
      0.97449308	    -84.73754924	   -188.06381411	      0.00000000
      0.97616459	    -84.88531877	   -189.53233653	      0.00000000
      0.97783611	    -85.16116728	   -190.89113527	      0.00000000
      0.97950762	    -85.59448751	   -192.11363047	      0.00000000
      0.98117913	    -86.22181703	   -193.15458859	      0.00000000
      0.98285065	    -87.09158235	   -193.94998585	      0.00000000
      0.98452216	    -88.26330946	   -194.41284889	      0.00000000
      0.98619368	    -89.81305854	   -194.42151161	      0.00000000
      0.98786519	    -91.82676358	   -193.82435308	      0.00000000
      0.98953671	    -94.40223336	   -192.40867830	      0.00000000
      0.99120822	    -97.62751895	   -189.89862134	      0.00000000
      0.99287974	   -101.57674922	   -185.87857958	      0.00000000
      0.99455125	   -106.25584054	   -179.86183660	      0.00000000
      0.99622277	   -111.55806056	   -171.27003039	      0.00000000
      0.99789428	   -117.19720887	   -159.28771733	      0.00000000
      0.99956580	   -122.71054006	   -142.78240458	      0.00000000
      1.00123731	   -127.26922180	   -120.11942794	      0.00000000
      1.00290883	   -130.13896963	    -89.69107069	      0.00000000
