PointVelocity
version=1
nRows=601
nColumns=4
inDegrees=no
No description.
endheader
time	state_0	state_1	state_2
      0.00000000	     -0.06279052	      0.06876162	      0.00000000
      0.00167151	     -0.06345729	      0.07268832	      0.00000000
      0.00334303	     -0.06414801	      0.07705391	      0.00000000
      0.00501454	     -0.06485370	      0.08188291	      0.00000000
      0.00668606	     -0.06547150	      0.08703344	      0.00000000
      0.00835757	     -0.06600225	      0.09246802	      0.00000000
      0.01002909	     -0.06651104	      0.09818149	      0.00000000
      0.01170060	     -0.06698845	      0.10409662	      0.00000000
      0.01337212	     -0.06741525	      0.11015363	      0.00000000
      0.01504363	     -0.06778847	      0.11636716	      0.00000000
      0.01671515	     -0.06810466	      0.12272988	      0.00000000
      0.01838666	     -0.06836027	      0.12927551	      0.00000000
      0.02005818	     -0.06855539	      0.13603367	      0.00000000
      0.02172969	     -0.06867156	      0.14302915	      0.00000000
      0.02340121	     -0.06869594	      0.15028128	      0.00000000
      0.02507272	     -0.06859271	      0.15778874	      0.00000000
      0.02674424	     -0.06833651	      0.16555117	      0.00000000
      0.02841575	     -0.06787336	      0.17355322	      0.00000000
      0.03008726	     -0.06716360	      0.18177693	      0.00000000
      0.03175878	     -0.06612727	      0.19019144	      0.00000000
      0.03343029	     -0.06471700	      0.19873497	      0.00000000
      0.03510181	     -0.06277615	      0.20739066	      0.00000000
      0.03677332	     -0.06026477	      0.21604724	      0.00000000
      0.03844484	     -0.05684187	      0.22481732	      0.00000000
      0.04011635	     -0.05277248	      0.23346009	      0.00000000
      0.04178787	     -0.04613653	      0.24293148	      0.00000000
      0.04345938	     -0.03528494	      0.25443381	      0.00000000
      0.04513090	     -0.01646355	      0.26940707	      0.00000000
      0.04680241	      0.01672270	      0.28981666	      0.00000000
      0.04847393	      0.06763618	      0.31320031	      0.00000000
      0.05014544	      0.13983828	      0.33574737	      0.00000000
      0.05181696	      0.22342306	      0.35622020	      0.00000000
      0.05348847	      0.30428752	      0.37453627	      0.00000000
      0.05515999	      0.37662205	      0.38989518	      0.00000000
      0.05683150	      0.43902058	      0.40186972	      0.00000000
      0.05850301	      0.49413911	      0.41115753	      0.00000000
      0.06017453	      0.54289746	      0.41820590	      0.00000000
      0.06184604	      0.58707602	      0.42366288	      0.00000000
      0.06351756	      0.62801839	      0.42798438	      0.00000000
      0.06518907	      0.66650687	      0.43145671	      0.00000000
      0.06686059	      0.70326593	      0.43431454	      0.00000000
      0.06853210	      0.73846995	      0.43663870	      0.00000000
      0.07020362	      0.77240729	      0.43852752	      0.00000000
      0.07187513	      0.80517146	      0.44002296	      0.00000000
      0.07354665	      0.83695427	      0.44118552	      0.00000000
      0.07521816	      0.86788253	      0.44205283	      0.00000000
      0.07688968	      0.89810864	      0.44266443	      0.00000000
      0.07856119	      0.92769808	      0.44303342	      0.00000000
      0.08023271	      0.95671651	      0.44317065	      0.00000000
      0.08190422	      0.98516310	      0.44306927	      0.00000000
      0.08357574	      1.01304165	      0.44272233	      0.00000000
      0.08524725	      1.04035921	      0.44212303	      0.00000000
      0.08691876	      1.06713175	      0.44126491	      0.00000000
      0.08859028	      1.09341313	      0.44015007	      0.00000000
      0.09026179	      1.11926080	      0.43877911	      0.00000000
      0.09193331	      1.14474402	      0.43715618	      0.00000000
      0.09360482	      1.16993030	      0.43528267	      0.00000000
      0.09527634	      1.19485981	      0.43315631	      0.00000000
      0.09694785	      1.21957241	      0.43077283	      0.00000000
      0.09861937	      1.24407090	      0.42812345	      0.00000000
      0.10029088	      1.26836104	      0.42519838	      0.00000000
      0.10196240	      1.29242917	      0.42198764	      0.00000000
      0.10363391	      1.31626451	      0.41848027	      0.00000000
      0.10530543	      1.33985916	      0.41466973	      0.00000000
      0.10697694	      1.36320632	      0.41054814	      0.00000000
      0.10864846	      1.38631251	      0.40611401	      0.00000000
      0.11031997	      1.40918303	      0.40136419	      0.00000000
      0.11199149	      1.43183435	      0.39630130	      0.00000000
      0.11366300	      1.45428052	      0.39092636	      0.00000000
      0.11533451	      1.47654168	      0.38524481	      0.00000000
      0.11700603	      1.49863877	      0.37926144	      0.00000000
      0.11867754	      1.52059083	      0.37298311	      0.00000000
      0.12034906	      1.54241740	      0.36641603	      0.00000000
      0.12202057	      1.56412758	      0.35956615	      0.00000000
      0.12369209	      1.58572758	      0.35243784	      0.00000000
      0.12536360	      1.60721952	      0.34503692	      0.00000000
      0.12703512	      1.62859876	      0.33736736	      0.00000000
      0.12870663	      1.64988544	      0.32944051	      0.00000000
      0.13037815	      1.67109573	      0.32126668	      0.00000000
      0.13204966	      1.69229706	      0.31286765	      0.00000000
      0.13372118	      1.71357138	      0.30426764	      0.00000000
      0.13539269	      1.73500727	      0.29549369	      0.00000000
      0.13706421	      1.75671084	      0.28657635	      0.00000000
      0.13873572	      1.77868396	      0.27752906	      0.00000000
      0.14040724	      1.80092163	      0.26836419	      0.00000000
      0.14207875	      1.82329185	      0.25907238	      0.00000000
      0.14375027	      1.84566690	      0.24964425	      0.00000000
      0.14542178	      1.86788793	      0.24006495	      0.00000000
      0.14709329	      1.88977297	      0.23031361	      0.00000000
      0.14876481	      1.91127088	      0.22039267	      0.00000000
      0.15043632	      1.93231055	      0.21029970	      0.00000000
      0.15210784	      1.95306966	      0.20007899	      0.00000000
      0.15377935	      1.97372088	      0.18977536	      0.00000000
      0.15545087	      1.99449195	      0.17944595	      0.00000000
      0.15712238	      2.01579655	      0.16919014	      0.00000000
      0.15879390	      2.03748568	      0.15899947	      0.00000000
      0.16046541	      2.05919106	      0.14881684	      0.00000000
      0.16213693	      2.08080246	      0.13863370	      0.00000000
      0.16380844	      2.10227709	      0.12845522	      0.00000000
      0.16547996	      2.12360767	      0.11829283	      0.00000000
      0.16715147	      2.14479183	      0.10815880	      0.00000000
      0.16882299	      2.16586874	      0.09807309	      0.00000000
      0.17049450	      2.18688331	      0.08805822	      0.00000000
      0.17216602	      2.20786763	      0.07813331	      0.00000000
      0.17383753	      2.22884009	      0.06831562	      0.00000000
      0.17550904	      2.24978732	      0.05861385	      0.00000000
      0.17718056	      2.27070304	      0.04903863	      0.00000000
      0.17885207	      2.29156807	      0.03959585	      0.00000000
      0.18052359	      2.31236604	      0.03029193	      0.00000000
      0.18219510	      2.33307948	      0.02113161	      0.00000000
      0.18386662	      2.35369126	      0.01211949	      0.00000000
      0.18553813	      2.37419042	      0.00326084	      0.00000000
      0.18720965	      2.39456649	     -0.00543912	      0.00000000
      0.18888116	      2.41481479	     -0.01397420	      0.00000000
      0.19055268	      2.43492978	     -0.02233854	      0.00000000
      0.19222419	      2.45490689	     -0.03052650	      0.00000000
      0.19389571	      2.47474059	     -0.03853282	      0.00000000
      0.19556722	      2.49442438	     -0.04635302	      0.00000000
      0.19723874	      2.51395174	     -0.05398285	      0.00000000
      0.19891025	      2.53331581	     -0.06141862	      0.00000000
      0.20058177	      2.55250992	     -0.06865686	      0.00000000
      0.20225328	      2.57152761	     -0.07569442	      0.00000000
      0.20392479	      2.59036241	     -0.08252847	      0.00000000
      0.20559631	      2.60900815	     -0.08915642	      0.00000000
      0.20726782	      2.62745858	     -0.09557603	      0.00000000
      0.20893934	      2.64570777	     -0.10178528	      0.00000000
      0.21061085	      2.66374970	     -0.10778251	      0.00000000
      0.21228237	      2.68157859	     -0.11356634	      0.00000000
      0.21395388	      2.69918867	     -0.11913571	      0.00000000
      0.21562540	      2.71657419	     -0.12448997	      0.00000000
      0.21729691	      2.73372952	     -0.12962871	      0.00000000
      0.21896843	      2.75064866	     -0.13455216	      0.00000000
      0.22063994	      2.76732586	     -0.13926077	      0.00000000
      0.22231146	      2.78375446	     -0.14375586	      0.00000000
      0.22398297	      2.79992811	     -0.14803898	      0.00000000
      0.22565449	      2.81583907	     -0.15211288	      0.00000000
      0.22732600	      2.83147993	     -0.15598054	      0.00000000
      0.22899752	      2.84684173	     -0.15964635	      0.00000000
      0.23066903	      2.86191572	     -0.16311504	      0.00000000
      0.23234054	      2.87669221	     -0.16639258	      0.00000000
      0.23401206	      2.89116145	     -0.16948552	      0.00000000
      0.23568357	      2.90531451	     -0.17240092	      0.00000000
      0.23735509	      2.91914184	     -0.17514668	      0.00000000
      0.23902660	      2.93263771	     -0.17772985	      0.00000000
      0.24069812	      2.94579507	     -0.18015849	      0.00000000
      0.24236963	      2.95861443	     -0.18243790	      0.00000000
      0.24404115	      2.97109425	     -0.18457445	      0.00000000
      0.24571266	      2.98324415	     -0.18656962	      0.00000000
      0.24738418	      2.99507111	     -0.18842576	      0.00000000
      0.24905569	      3.00659519	     -0.19013877	      0.00000000
      0.25072721	      3.01783372	     -0.19170488	      0.00000000
      0.25239872	      3.02881608	     -0.19311372	      0.00000000
      0.25407024	      3.03956932	     -0.19435438	      0.00000000
      0.25574175	      3.05012794	     -0.19541117	      0.00000000
      0.25741327	      3.06052509	     -0.19626694	      0.00000000
      0.25908478	      3.07079383	     -0.19690346	      0.00000000
      0.26075629	      3.08096727	     -0.19730017	      0.00000000
      0.26242781	      3.09106978	     -0.19744033	      0.00000000
      0.26409932	      3.10112735	     -0.19730431	      0.00000000
      0.26577084	      3.11114990	     -0.19688099	      0.00000000
      0.26744235	      3.12115041	     -0.19615633	      0.00000000
      0.26911387	      3.13112154	     -0.19512801	      0.00000000
      0.27078538	      3.14106001	     -0.19379129	      0.00000000
      0.27245690	      3.15094198	     -0.19215423	      0.00000000
      0.27412841	      3.16074792	     -0.19022340	      0.00000000
      0.27579993	      3.17044132	     -0.18801671	      0.00000000
      0.27747144	      3.17998949	     -0.18555194	      0.00000000
      0.27914296	      3.18934905	     -0.18285461	      0.00000000
      0.28081447	      3.19847950	     -0.17995147	      0.00000000
      0.28248599	      3.20733709	     -0.17687206	      0.00000000
      0.28415750	      3.21587969	     -0.17364839	      0.00000000
      0.28582902	      3.22406899	     -0.17030994	      0.00000000
      0.28750053	      3.23186696	     -0.16688954	      0.00000000
      0.28917204	      3.23924489	     -0.16341279	      0.00000000
      0.29084356	      3.24617311	     -0.15990910	      0.00000000
      0.29251507	      3.25263456	     -0.15639730	      0.00000000
      0.29418659	      3.25861025	     -0.15289995	      0.00000000
      0.29585810	      3.26409459	     -0.14942753	      0.00000000
      0.29752962	      3.26907951	     -0.14599374	      0.00000000
      0.29920113	      3.27356892	     -0.14260065	      0.00000000
      0.30087265	      3.27756409	     -0.13925271	      0.00000000
      0.30254416	      3.28107521	     -0.13594492	      0.00000000
      0.30421568	      3.28411020	     -0.13267353	      0.00000000
      0.30588719	      3.28668193	     -0.12942885	      0.00000000
      0.30755871	      3.28880170	     -0.12620120	      0.00000000
      0.30923022	      3.29048108	     -0.12297974	      0.00000000
      0.31090174	      3.29173055	     -0.11975300	      0.00000000
      0.31257325	      3.29255681	     -0.11651315	      0.00000000
      0.31424477	      3.29296523	     -0.11325223	      0.00000000
      0.31591628	      3.29295778	     -0.10996673	      0.00000000
      0.31758779	      3.29253653	     -0.10665175	      0.00000000
      0.31925931	      3.29170232	     -0.10330560	      0.00000000
      0.32093082	      3.29045779	     -0.09992335	      0.00000000
      0.32260234	      3.28880048	     -0.09650826	      0.00000000
      0.32427385	      3.28672580	     -0.09306529	      0.00000000
      0.32594537	      3.28422511	     -0.08960755	      0.00000000
      0.32761688	      3.28128477	     -0.08615395	      0.00000000
      0.32928840	      3.27790656	     -0.08270896	      0.00000000
      0.33095991	      3.27409832	     -0.07926828	      0.00000000
      0.33263143	      3.26988116	     -0.07581383	      0.00000000
      0.33430294	      3.26528056	     -0.07231950	      0.00000000
      0.33597446	      3.26029191	     -0.06879908	      0.00000000
      0.33764597	      3.25481895	     -0.06538901	      0.00000000
      0.33931749	      3.24869187	     -0.06231317	      0.00000000
      0.34098900	      3.24200907	     -0.05945027	      0.00000000
      0.34266052	      3.23502737	     -0.05647460	      0.00000000
      0.34433203	      3.22771813	     -0.05343108	      0.00000000
      0.34600354	      3.21997608	     -0.05047706	      0.00000000
      0.34767506	      3.21179914	     -0.04762990	      0.00000000
      0.34934657	      3.20320823	     -0.04487194	      0.00000000
      0.35101809	      3.19422030	     -0.04218972	      0.00000000
      0.35268960	      3.18485751	     -0.03956227	      0.00000000
      0.35436112	      3.17513635	     -0.03697456	      0.00000000
      0.35603263	      3.16507499	     -0.03441065	      0.00000000
      0.35770415	      3.15469440	     -0.03184701	      0.00000000
      0.35937566	      3.14401034	     -0.02927066	      0.00000000
      0.36104718	      3.13303491	     -0.02667231	      0.00000000
      0.36271869	      3.12177352	     -0.02405671	      0.00000000
      0.36439021	      3.11023200	     -0.02142672	      0.00000000
      0.36606172	      3.09841765	     -0.01878593	      0.00000000
      0.36773324	      3.08633801	     -0.01613640	      0.00000000
      0.36940475	      3.07400643	     -0.01347335	      0.00000000
      0.37107627	      3.06143450	     -0.01079324	      0.00000000
      0.37274778	      3.04864140	     -0.00808259	      0.00000000
      0.37441930	      3.03564663	     -0.00532449	      0.00000000
      0.37609081	      3.02247247	     -0.00250066	      0.00000000
      0.37776232	      3.00914191	      0.00041142	      0.00000000
      0.37943384	      2.99566925	      0.00341420	      0.00000000
      0.38110535	      2.98206620	      0.00650583	      0.00000000
      0.38277687	      2.96833717	      0.00966809	      0.00000000
      0.38444838	      2.95448815	      0.01288555	      0.00000000
      0.38611990	      2.94052809	      0.01614902	      0.00000000
      0.38779141	      2.92646850	      0.01945441	      0.00000000
      0.38946293	      2.91232432	      0.02280634	      0.00000000
      0.39113444	      2.89811159	      0.02621185	      0.00000000
      0.39280596	      2.88384143	      0.02967001	      0.00000000
      0.39447747	      2.86952476	      0.03317857	      0.00000000
      0.39614899	      2.85516405	      0.03672070	      0.00000000
      0.39782050	      2.84076341	      0.04028096	      0.00000000
      0.39949202	      2.82632163	      0.04383784	      0.00000000
      0.40116353	      2.81183990	      0.04737221	      0.00000000
      0.40283505	      2.79731687	      0.05086640	      0.00000000
      0.40450656	      2.78275285	      0.05430344	      0.00000000
      0.40617807	      2.76814603	      0.05766937	      0.00000000
      0.40784959	      2.75349591	      0.06095014	      0.00000000
      0.40952110	      2.73879916	      0.06413322	      0.00000000
      0.41119262	      2.72405340	      0.06720586	      0.00000000
      0.41286413	      2.70925330	      0.07015494	      0.00000000
      0.41453565	      2.69439460	      0.07296717	      0.00000000
      0.41620716	      2.67947065	      0.07562825	      0.00000000
      0.41787868	      2.66447564	      0.07812383	      0.00000000
      0.41955019	      2.64940226	      0.08043896	      0.00000000
      0.42122171	      2.63424391	      0.08255879	      0.00000000
      0.42289322	      2.61899333	      0.08446848	      0.00000000
      0.42456474	      2.60364373	      0.08615308	      0.00000000
      0.42623625	      2.58818834	      0.08759801	      0.00000000
      0.42790777	      2.57262065	      0.08878842	      0.00000000
      0.42957928	      2.55693483	      0.08971034	      0.00000000
      0.43125080	      2.54112515	      0.09034947	      0.00000000
      0.43292231	      2.52518725	      0.09069335	      0.00000000
      0.43459382	      2.50911685	      0.09072931	      0.00000000
      0.43626534	      2.49291122	      0.09044725	      0.00000000
      0.43793685	      2.47656794	      0.08983719	      0.00000000
      0.43960837	      2.46008489	      0.08889118	      0.00000000
      0.44127988	      2.44346065	      0.08760142	      0.00000000
      0.44295140	      2.42669111	      0.08596067	      0.00000000
      0.44462291	      2.40977350	      0.08396197	      0.00000000
      0.44629443	      2.39269798	      0.08159782	      0.00000000
      0.44796594	      2.37545699	      0.07886170	      0.00000000
      0.44963746	      2.35803072	      0.07574429	      0.00000000
      0.45130897	      2.34040112	      0.07223142	      0.00000000
      0.45298049	      2.32253627	      0.06831468	      0.00000000
      0.45465200	      2.30440417	      0.06396923	      0.00000000
      0.45632352	      2.28596763	      0.05922363	      0.00000000
      0.45799503	      2.26718828	      0.05411759	      0.00000000
      0.45966655	      2.24803314	      0.04874395	      0.00000000
      0.46133806	      2.22844061	      0.04323132	      0.00000000
      0.46300957	      2.20842113	      0.03760543	      0.00000000
      0.46468109	      2.18804878	      0.03184142	      0.00000000
      0.46635260	      2.16738638	      0.02583306	      0.00000000
      0.46802412	      2.14643269	      0.01950973	      0.00000000
      0.46969563	      2.12511632	      0.01282936	      0.00000000
      0.47136715	      2.10341771	      0.00579067	      0.00000000
      0.47303866	      2.08126243	     -0.00163214	      0.00000000
      0.47471018	      2.05856630	     -0.00952103	      0.00000000
      0.47638169	      2.03519075	     -0.01793874	      0.00000000
      0.47805321	      2.01104937	     -0.02694278	      0.00000000
      0.47972472	      1.98598018	     -0.03644595	      0.00000000
      0.48139624	      1.95997389	     -0.04633589	      0.00000000
      0.48306775	      1.93262049	     -0.05638048	      0.00000000
      0.48473927	      1.90380987	     -0.06603868	      0.00000000
      0.48641078	      1.87218142	     -0.07553239	      0.00000000
      0.48808230	      1.83663791	     -0.08479177	      0.00000000
      0.48975381	      1.79399326	     -0.09611622	      0.00000000
      0.49142532	      1.74095747	     -0.11221366	      0.00000000
      0.49309684	      1.67316350	     -0.13727685	      0.00000000
      0.49476835	      1.58590323	     -0.17574038	      0.00000000
      0.49643987	      1.47657420	     -0.23012113	      0.00000000
      0.49811138	      1.34167604	     -0.30359754	      0.00000000
      0.49978290	      1.18308290	     -0.39457133	      0.00000000
      0.50145441	      0.99943628	     -0.50556991	      0.00000000
      0.50312593	      0.79972710	     -0.62646561	      0.00000000
      0.50479744	      0.57770774	     -0.75963267	      0.00000000
      0.50646896	      0.34770390	     -0.88745065	      0.00000000
      0.50814047	      0.18715519	     -0.93250978	      0.00000000
      0.50981199	      0.12073288	     -0.88716797	      0.00000000
      0.51148350	      0.09849482	     -0.81302985	      0.00000000
      0.51315502	      0.08185325	     -0.73528777	      0.00000000
      0.51482653	      0.06664949	     -0.64591003	      0.00000000
      0.51649805	      0.05354876	     -0.55725250	      0.00000000
      0.51816956	      0.04231670	     -0.49401901	      0.00000000
      0.51984107	      0.03586200	     -0.45724290	      0.00000000
      0.52151259	      0.03326938	     -0.43404262	      0.00000000
      0.52318410	      0.03190089	     -0.41098968	      0.00000000
      0.52485562	      0.03041910	     -0.38555228	      0.00000000
      0.52652713	      0.02918320	     -0.35989458	      0.00000000
      0.52819865	      0.02796604	     -0.33328245	      0.00000000
      0.52987016	      0.02682655	     -0.30688133	      0.00000000
      0.53154168	      0.02582292	     -0.28209001	      0.00000000
      0.53321319	      0.02506842	     -0.25953676	      0.00000000
      0.53488471	      0.02457129	     -0.23936471	      0.00000000
      0.53655622	      0.02426404	     -0.22114735	      0.00000000
      0.53822774	      0.02409001	     -0.20463865	      0.00000000
      0.53989925	      0.02399849	     -0.18958454	      0.00000000
      0.54157077	      0.02395016	     -0.17576665	      0.00000000
      0.54324228	      0.02394037	     -0.16305828	      0.00000000
      0.54491380	      0.02396766	     -0.15134281	      0.00000000
      0.54658531	      0.02403965	     -0.14054371	      0.00000000
      0.54825682	      0.02414840	     -0.13055625	      0.00000000
      0.54992834	      0.02428316	     -0.12135835	      0.00000000
      0.55159985	      0.02443647	     -0.11291721	      0.00000000
      0.55327137	      0.02460632	     -0.10525659	      0.00000000
      0.55494288	      0.02479380	     -0.09841475	      0.00000000
      0.55661440	      0.02500003	     -0.09236087	      0.00000000
      0.55828591	      0.02522229	     -0.08704980	      0.00000000
      0.55995743	      0.02545226	     -0.08240233	      0.00000000
      0.56162894	      0.02568272	     -0.07834282	      0.00000000
      0.56330046	      0.02590504	     -0.07480833	      0.00000000
      0.56497197	      0.02611202	     -0.07173879	      0.00000000
      0.56664349	      0.02629868	     -0.06909514	      0.00000000
      0.56831500	      0.02646014	     -0.06683569	      0.00000000
      0.56998652	      0.02659422	     -0.06493411	      0.00000000
      0.57165803	      0.02669856	     -0.06336103	      0.00000000
      0.57332955	      0.02677292	     -0.06209534	      0.00000000
      0.57500106	      0.02681688	     -0.06111407	      0.00000000
      0.57667257	      0.02683145	     -0.06039783	      0.00000000
      0.57834409	      0.02681753	     -0.05992657	      0.00000000
      0.58001560	      0.02677694	     -0.05968086	      0.00000000
      0.58168712	      0.02671144	     -0.05964126	      0.00000000
      0.58335863	      0.02662342	     -0.05978748	      0.00000000
      0.58503015	      0.02651534	     -0.06009905	      0.00000000
      0.58670166	      0.02638895	     -0.06055685	      0.00000000
      0.58837318	      0.02624501	     -0.06113983	      0.00000000
      0.59004469	      0.02608729	     -0.06183690	      0.00000000
      0.59171621	      0.02591933	     -0.06263720	      0.00000000
      0.59338772	      0.02575007	     -0.06353723	      0.00000000
      0.59505924	      0.02559054	     -0.06453641	      0.00000000
      0.59673075	      0.02544626	     -0.06562288	      0.00000000
      0.59840227	      0.02532178	     -0.06678273	      0.00000000
      0.60007378	      0.02521587	     -0.06799506	      0.00000000
      0.60174530	      0.02512809	     -0.06923850	      0.00000000
      0.60341681	      0.02505486	     -0.07049580	      0.00000000
      0.60508833	      0.02499358	     -0.07174953	      0.00000000
      0.60675984	      0.02494123	     -0.07298923	      0.00000000
      0.60843135	      0.02489511	     -0.07420363	      0.00000000
      0.61010287	      0.02485331	     -0.07538671	      0.00000000
      0.61177438	      0.02481388	     -0.07653147	      0.00000000
      0.61344590	      0.02477570	     -0.07763411	      0.00000000
      0.61511741	      0.02473751	     -0.07869007	      0.00000000
      0.61678893	      0.02469872	     -0.07969655	      0.00000000
      0.61846044	      0.02465858	     -0.08065032	      0.00000000
      0.62013196	      0.02461680	     -0.08154892	      0.00000000
      0.62180347	      0.02457301	     -0.08238960	      0.00000000
      0.62347499	      0.02452714	     -0.08316999	      0.00000000
      0.62514650	      0.02447904	     -0.08388750	      0.00000000
      0.62681802	      0.02442871	     -0.08454009	      0.00000000
      0.62848953	      0.02437607	     -0.08512554	      0.00000000
      0.63016105	      0.02432106	     -0.08564267	      0.00000000
      0.63183256	      0.02426358	     -0.08609016	      0.00000000
      0.63350408	      0.02420350	     -0.08646781	      0.00000000
      0.63517559	      0.02414062	     -0.08677545	      0.00000000
      0.63684710	      0.02407481	     -0.08701352	      0.00000000
      0.63851862	      0.02400605	     -0.08718162	      0.00000000
      0.64019013	      0.02393453	     -0.08727942	      0.00000000
      0.64186165	      0.02386021	     -0.08730734	      0.00000000
      0.64353316	      0.02378277	     -0.08726827	      0.00000000
      0.64520468	      0.02370199	     -0.08716324	      0.00000000
      0.64687619	      0.02361834	     -0.08699117	      0.00000000
      0.64854771	      0.02353198	     -0.08675291	      0.00000000
      0.65021922	      0.02344271	     -0.08645135	      0.00000000
      0.65189074	      0.02335050	     -0.08608844	      0.00000000
      0.65356225	      0.02325529	     -0.08566648	      0.00000000
      0.65523377	      0.02315702	     -0.08518752	      0.00000000
      0.65690528	      0.02305566	     -0.08465358	      0.00000000
      0.65857680	      0.02295107	     -0.08406701	      0.00000000
      0.66024831	      0.02284304	     -0.08343019	      0.00000000
      0.66191983	      0.02273137	     -0.08274544	      0.00000000
      0.66359134	      0.02261577	     -0.08201458	      0.00000000
      0.66526285	      0.02249594	     -0.08123958	      0.00000000
      0.66693437	      0.02237142	     -0.08042218	      0.00000000
      0.66860588	      0.02224174	     -0.07956421	      0.00000000
      0.67027740	      0.02210624	     -0.07866738	      0.00000000
      0.67194891	      0.02196427	     -0.07773340	      0.00000000
      0.67362043	      0.02181488	     -0.07676402	      0.00000000
      0.67529194	      0.02165715	     -0.07576096	      0.00000000
      0.67696346	      0.02148982	     -0.07472620	      0.00000000
      0.67863497	      0.02131157	     -0.07366163	      0.00000000
      0.68030649	      0.02112088	     -0.07256938	      0.00000000
      0.68197800	      0.02091605	     -0.07145150	      0.00000000
      0.68364952	      0.02069554	     -0.07031003	      0.00000000
      0.68532103	      0.02045754	     -0.06914696	      0.00000000
      0.68699255	      0.02020119	     -0.06796400	      0.00000000
      0.68866406	      0.01992522	     -0.06676284	      0.00000000
      0.69033558	      0.01963028	     -0.06554483	      0.00000000
      0.69200709	      0.01931662	     -0.06431133	      0.00000000
      0.69367860	      0.01898664	     -0.06306366	      0.00000000
      0.69535012	      0.01864251	     -0.06180314	      0.00000000
      0.69702163	      0.01828751	     -0.06053129	      0.00000000
      0.69869315	      0.01792482	     -0.05924966	      0.00000000
      0.70036466	      0.01755707	     -0.05795992	      0.00000000
      0.70203618	      0.01718696	     -0.05666373	      0.00000000
      0.70370769	      0.01681568	     -0.05536260	      0.00000000
      0.70537921	      0.01644459	     -0.05405802	      0.00000000
      0.70705072	      0.01607372	     -0.05275114	      0.00000000
      0.70872224	      0.01570329	     -0.05144310	      0.00000000
      0.71039375	      0.01533285	     -0.05013476	      0.00000000
      0.71206527	      0.01496208	     -0.04882696	      0.00000000
      0.71373678	      0.01459060	     -0.04752053	      0.00000000
      0.71540830	      0.01421804	     -0.04621623	      0.00000000
      0.71707981	      0.01384428	     -0.04491505	      0.00000000
      0.71875133	      0.01346918	     -0.04361792	      0.00000000
      0.72042284	      0.01309290	     -0.04232614	      0.00000000
      0.72209435	      0.01271555	     -0.04104090	      0.00000000
      0.72376587	      0.01233749	     -0.03976374	      0.00000000
      0.72543738	      0.01195904	     -0.03849611	      0.00000000
      0.72710890	      0.01158062	     -0.03723958	      0.00000000
      0.72878041	      0.01120264	     -0.03599572	      0.00000000
      0.73045193	      0.01082549	     -0.03476590	      0.00000000
      0.73212344	      0.01044955	     -0.03355157	      0.00000000
      0.73379496	      0.01007513	     -0.03235377	      0.00000000
      0.73546647	      0.00970252	     -0.03117364	      0.00000000
      0.73713799	      0.00933189	     -0.03001182	      0.00000000
      0.73880950	      0.00896344	     -0.02886908	      0.00000000
      0.74048102	      0.00859722	     -0.02774568	      0.00000000
      0.74215253	      0.00823332	     -0.02664199	      0.00000000
      0.74382405	      0.00787169	     -0.02555801	      0.00000000
      0.74549556	      0.00751234	     -0.02449380	      0.00000000
      0.74716708	      0.00715513	     -0.02344916	      0.00000000
      0.74883859	      0.00679997	     -0.02242393	      0.00000000
      0.75051010	      0.00644667	     -0.02141782	      0.00000000
      0.75218162	      0.00609508	     -0.02043057	      0.00000000
      0.75385313	      0.00574496	     -0.01946186	      0.00000000
      0.75552465	      0.00539611	     -0.01851140	      0.00000000
      0.75719616	      0.00504827	     -0.01757893	      0.00000000
      0.75886768	      0.00470121	     -0.01666417	      0.00000000
      0.76053919	      0.00435470	     -0.01576695	      0.00000000
      0.76221071	      0.00400849	     -0.01488707	      0.00000000
      0.76388222	      0.00366238	     -0.01402442	      0.00000000
      0.76555374	      0.00331615	     -0.01317891	      0.00000000
      0.76722525	      0.00296964	     -0.01235050	      0.00000000
      0.76889677	      0.00262266	     -0.01153916	      0.00000000
      0.77056828	      0.00227511	     -0.01074492	      0.00000000
      0.77223980	      0.00192687	     -0.00996782	      0.00000000
      0.77391131	      0.00157791	     -0.00920791	      0.00000000
      0.77558283	      0.00122815	     -0.00846525	      0.00000000
      0.77725434	      0.00087765	     -0.00773991	      0.00000000
      0.77892585	      0.00052640	     -0.00703196	      0.00000000
      0.78059737	      0.00017453	     -0.00634149	      0.00000000
      0.78226888	     -0.00017789	     -0.00566856	      0.00000000
      0.78394040	     -0.00053068	     -0.00501326	      0.00000000
      0.78561191	     -0.00088370	     -0.00437569	      0.00000000
      0.78728343	     -0.00123676	     -0.00375592	      0.00000000
      0.78895494	     -0.00158967	     -0.00315409	      0.00000000
      0.79062646	     -0.00194229	     -0.00257024	      0.00000000
      0.79229797	     -0.00229446	     -0.00200447	      0.00000000
      0.79396949	     -0.00264614	     -0.00145674	      0.00000000
      0.79564100	     -0.00299727	     -0.00092705	      0.00000000
      0.79731252	     -0.00334788	     -0.00041513	      0.00000000
      0.79898403	     -0.00369800	      0.00007921	      0.00000000
      0.80065555	     -0.00404769	      0.00055644	      0.00000000
      0.80232706	     -0.00439699	      0.00101697	      0.00000000
      0.80399858	     -0.00474591	      0.00146145	      0.00000000
      0.80567009	     -0.00509448	      0.00189049	      0.00000000
      0.80734160	     -0.00544274	      0.00230481	      0.00000000
      0.80901312	     -0.00579076	      0.00270521	      0.00000000
      0.81068463	     -0.00613863	      0.00309241	      0.00000000
      0.81235615	     -0.00648648	      0.00346724	      0.00000000
      0.81402766	     -0.00683433	      0.00383029	      0.00000000
      0.81569918	     -0.00718222	      0.00418222	      0.00000000
      0.81737069	     -0.00753005	      0.00452355	      0.00000000
      0.81904221	     -0.00787769	      0.00485481	      0.00000000
      0.82071372	     -0.00822493	      0.00517670	      0.00000000
      0.82238524	     -0.00857157	      0.00548990	      0.00000000
      0.82405675	     -0.00891741	      0.00579551	      0.00000000
      0.82572827	     -0.00926221	      0.00609458	      0.00000000
      0.82739978	     -0.00960593	      0.00638858	      0.00000000
      0.82907130	     -0.00994843	      0.00667892	      0.00000000
      0.83074281	     -0.01029000	      0.00696734	      0.00000000
      0.83241433	     -0.01063088	      0.00725562	      0.00000000
      0.83408584	     -0.01097166	      0.00754545	      0.00000000
      0.83575735	     -0.01131300	      0.00783859	      0.00000000
      0.83742887	     -0.01165538	      0.00813602	      0.00000000
      0.83910038	     -0.01199920	      0.00843889	      0.00000000
      0.84077190	     -0.01234451	      0.00874791	      0.00000000
      0.84244341	     -0.01269135	      0.00906360	      0.00000000
      0.84411493	     -0.01303947	      0.00938690	      0.00000000
      0.84578644	     -0.01338883	      0.00971873	      0.00000000
      0.84745796	     -0.01373919	      0.01006055	      0.00000000
      0.84912947	     -0.01409039	      0.01041408	      0.00000000
      0.85080099	     -0.01444231	      0.01078078	      0.00000000
      0.85247250	     -0.01479475	      0.01116224	      0.00000000
      0.85414402	     -0.01514776	      0.01155887	      0.00000000
      0.85581553	     -0.01550126	      0.01197131	      0.00000000
      0.85748705	     -0.01585548	      0.01239875	      0.00000000
      0.85915856	     -0.01621056	      0.01284066	      0.00000000
      0.86083008	     -0.01656683	      0.01329527	      0.00000000
      0.86250159	     -0.01692461	      0.01376105	      0.00000000
      0.86417311	     -0.01728423	      0.01423566	      0.00000000
      0.86584462	     -0.01764605	      0.01471687	      0.00000000
      0.86751613	     -0.01801033	      0.01520219	      0.00000000
      0.86918765	     -0.01837732	      0.01568911	      0.00000000
      0.87085916	     -0.01874716	      0.01617525	      0.00000000
      0.87253068	     -0.01911998	      0.01665817	      0.00000000
      0.87420219	     -0.01949580	      0.01713583	      0.00000000
      0.87587371	     -0.01987463	      0.01760605	      0.00000000
      0.87754522	     -0.02025642	      0.01806722	      0.00000000
      0.87921674	     -0.02064111	      0.01851755	      0.00000000
      0.88088825	     -0.02102863	      0.01895586	      0.00000000
      0.88255977	     -0.02141891	      0.01938075	      0.00000000
      0.88423128	     -0.02181194	      0.01979141	      0.00000000
      0.88590280	     -0.02220768	      0.02018684	      0.00000000
      0.88757431	     -0.02260625	      0.02056656	      0.00000000
      0.88924583	     -0.02300771	      0.02092989	      0.00000000
      0.89091734	     -0.02341229	      0.02127658	      0.00000000
      0.89258886	     -0.02382014	      0.02160617	      0.00000000
      0.89426037	     -0.02423156	      0.02191860	      0.00000000
      0.89593188	     -0.02464678	      0.02221360	      0.00000000
      0.89760340	     -0.02506625	      0.02249133	      0.00000000
      0.89927491	     -0.02549033	      0.02275178	      0.00000000
      0.90094643	     -0.02591953	      0.02299546	      0.00000000
      0.90261794	     -0.02635415	      0.02322234	      0.00000000
      0.90428946	     -0.02679430	      0.02343281	      0.00000000
      0.90596097	     -0.02724013	      0.02362832	      0.00000000
      0.90763249	     -0.02769105	      0.02380722	      0.00000000
      0.90930400	     -0.02814761	      0.02396762	      0.00000000
      0.91097552	     -0.02861099	      0.02411200	      0.00000000
      0.91264703	     -0.02908104	      0.02424170	      0.00000000
      0.91431855	     -0.02955691	      0.02435745	      0.00000000
      0.91599006	     -0.03003807	      0.02446015	      0.00000000
      0.91766158	     -0.03052393	      0.02455105	      0.00000000
      0.91933309	     -0.03101408	      0.02463162	      0.00000000
      0.92100461	     -0.03150799	      0.02470367	      0.00000000
      0.92267612	     -0.03200514	      0.02476902	      0.00000000
      0.92434763	     -0.03250503	      0.02482971	      0.00000000
      0.92601915	     -0.03300720	      0.02488784	      0.00000000
      0.92769066	     -0.03351139	      0.02494554	      0.00000000
      0.92936218	     -0.03401733	      0.02500508	      0.00000000
      0.93103369	     -0.03452503	      0.02506860	      0.00000000
      0.93270521	     -0.03503450	      0.02513844	      0.00000000
      0.93437672	     -0.03554598	      0.02521679	      0.00000000
      0.93604824	     -0.03605968	      0.02530605	      0.00000000
      0.93771975	     -0.03657599	      0.02540849	      0.00000000
      0.93939127	     -0.03709530	      0.02552662	      0.00000000
      0.94106278	     -0.03761813	      0.02566277	      0.00000000
      0.94273430	     -0.03814501	      0.02581955	      0.00000000
      0.94440581	     -0.03867668	      0.02599927	      0.00000000
      0.94607733	     -0.03921388	      0.02620452	      0.00000000
      0.94774884	     -0.03975759	      0.02643733	      0.00000000
      0.94942036	     -0.04030876	      0.02670001	      0.00000000
      0.95109187	     -0.04086858	      0.02699408	      0.00000000
      0.95276338	     -0.04143819	      0.02732131	      0.00000000
      0.95443490	     -0.04201884	      0.02768280	      0.00000000
      0.95610641	     -0.04261172	      0.02807975	      0.00000000
      0.95777793	     -0.04321800	      0.02851325	      0.00000000
      0.95944944	     -0.04383876	      0.02898440	      0.00000000
      0.96112096	     -0.04447491	      0.02949509	      0.00000000
      0.96279247	     -0.04512736	      0.03004734	      0.00000000
      0.96446399	     -0.04579663	      0.03064444	      0.00000000
      0.96613550	     -0.04648341	      0.03129011	      0.00000000
      0.96780702	     -0.04718737	      0.03198834	      0.00000000
      0.96947853	     -0.04790839	      0.03274374	      0.00000000
      0.97115005	     -0.04864476	      0.03355954	      0.00000000
      0.97282156	     -0.04939478	      0.03443957	      0.00000000
      0.97449308	     -0.05015546	      0.03538618	      0.00000000
      0.97616459	     -0.05092384	      0.03640234	      0.00000000
      0.97783611	     -0.05169653	      0.03749132	      0.00000000
      0.97950762	     -0.05247032	      0.03865682	      0.00000000
      0.98117913	     -0.05324242	      0.03990479	      0.00000000
      0.98285065	     -0.05401027	      0.04124134	      0.00000000
      0.98452216	     -0.05477212	      0.04267563	      0.00000000
      0.98619368	     -0.05552641	      0.04421654	      0.00000000
      0.98786519	     -0.05627302	      0.04587540	      0.00000000
      0.98953671	     -0.05701171	      0.04766223	      0.00000000
      0.99120822	     -0.05774315	      0.04959221	      0.00000000
      0.99287974	     -0.05846818	      0.05167931	      0.00000000
      0.99455125	     -0.05918617	      0.05394674	      0.00000000
      0.99622277	     -0.05989710	      0.05641734	      0.00000000
      0.99789428	     -0.06061148	      0.05911338	      0.00000000
      0.99956580	     -0.06134434	      0.06205521	      0.00000000
      1.00123731	     -0.06207965	      0.06527518	      0.00000000
      1.00290883	     -0.06279027	      0.06877759	      0.00000000
