PointPosition
version=1
nRows=601
nColumns=4
inDegrees=no
No description.
endheader
time	state_0	state_1	state_2
      0.00000000	     -0.34032983	     -0.00823870	     -0.09478690
      0.00167151	     -0.34043535	     -0.00812053	     -0.09478690
      0.00334303	     -0.34054199	     -0.00799545	     -0.09478690
      0.00501454	     -0.34064981	     -0.00786267	     -0.09478690
      0.00668606	     -0.34075875	     -0.00772154	     -0.09478690
      0.00835757	     -0.34086863	     -0.00757156	     -0.09478690
      0.01002909	     -0.34097938	     -0.00741226	     -0.09478690
      0.01170060	     -0.34109096	     -0.00724322	     -0.09478690
      0.01337212	     -0.34120330	     -0.00706418	     -0.09478690
      0.01504363	     -0.34131630	     -0.00687489	     -0.09478690
      0.01671515	     -0.34142989	     -0.00667508	     -0.09478690
      0.01838666	     -0.34154395	     -0.00646450	     -0.09478690
      0.02005818	     -0.34165838	     -0.00624279	     -0.09478690
      0.02172969	     -0.34177308	     -0.00600960	     -0.09478690
      0.02340121	     -0.34188790	     -0.00576450	     -0.09478690
      0.02507272	     -0.34200267	     -0.00550706	     -0.09478690
      0.02674424	     -0.34211713	     -0.00523686	     -0.09478690
      0.02841575	     -0.34223100	     -0.00495349	     -0.09478690
      0.03008726	     -0.34234389	     -0.00465655	     -0.09478690
      0.03175878	     -0.34245535	     -0.00434569	     -0.09478690
      0.03343029	     -0.34256475	     -0.00402066	     -0.09478690
      0.03510181	     -0.34267140	     -0.00368125	     -0.09478690
      0.03677332	     -0.34277431	     -0.00332735	     -0.09478690
      0.03844484	     -0.34287234	     -0.00295892	     -0.09478690
      0.04011635	     -0.34296402	     -0.00257588	     -0.09478690
      0.04178787	     -0.34304731	     -0.00217800	     -0.09478690
      0.04345938	     -0.34311595	     -0.00176263	     -0.09478690
      0.04513090	     -0.34316089	     -0.00132550	     -0.09478690
      0.04680241	     -0.34316291	     -0.00085887	     -0.09478690
      0.04847393	     -0.34309515	     -0.00035496	     -0.09478690
      0.05014544	     -0.34292464	      0.00018765	     -0.09478690
      0.05181696	     -0.34262125	      0.00076628	     -0.09478690
      0.05348847	     -0.34217943	      0.00137732	     -0.09478690
      0.05515999	     -0.34160883	      0.00201670	     -0.09478690
      0.05683150	     -0.34092600	      0.00267884	     -0.09478690
      0.05850301	     -0.34014517	      0.00335868	     -0.09478690
      0.06017453	     -0.33927765	      0.00405210	     -0.09478690
      0.06184604	     -0.33833279	      0.00475587	     -0.09478690
      0.06351756	     -0.33731682	      0.00546779	     -0.09478690
      0.06518907	     -0.33623468	      0.00618616	     -0.09478690
      0.06686059	     -0.33508962	      0.00690982	     -0.09478690
      0.06853210	     -0.33388451	      0.00763779	     -0.09478690
      0.07020362	     -0.33262160	      0.00836928	     -0.09478690
      0.07187513	     -0.33130299	      0.00910358	     -0.09478690
      0.07354665	     -0.32993043	      0.00984010	     -0.09478690
      0.07521816	     -0.32850550	      0.01057831	     -0.09478690
      0.07688968	     -0.32702946	      0.01131776	     -0.09478690
      0.07856119	     -0.32550345	      0.01205802	     -0.09478690
      0.08023271	     -0.32392846	      0.01279870	     -0.09478690
      0.08190422	     -0.32230544	      0.01353942	     -0.09478690
      0.08357574	     -0.32063534	      0.01427976	     -0.09478690
      0.08524725	     -0.31891912	      0.01501931	     -0.09478690
      0.08691876	     -0.31715770	      0.01575764	     -0.09478690
      0.08859028	     -0.31535194	      0.01649433	     -0.09478690
      0.09026179	     -0.31350263	      0.01722894	     -0.09478690
      0.09193331	     -0.31161043	      0.01796104	     -0.09478690
      0.09360482	     -0.30967588	      0.01869022	     -0.09478690
      0.09527634	     -0.30769946	      0.01941606	     -0.09478690
      0.09694785	     -0.30568155	      0.02013813	     -0.09478690
      0.09861937	     -0.30362251	      0.02085600	     -0.09478690
      0.10029088	     -0.30152270	      0.02156921	     -0.09478690
      0.10196240	     -0.29938247	      0.02227729	     -0.09478690
      0.10363391	     -0.29720220	      0.02297976	     -0.09478690
      0.10530543	     -0.29498229	      0.02367612	     -0.09478690
      0.10697694	     -0.29272315	      0.02436584	     -0.09478690
      0.10864846	     -0.29042518	      0.02504842	     -0.09478690
      0.11031997	     -0.28808880	      0.02572332	     -0.09478690
      0.11199149	     -0.28571437	      0.02639001	     -0.09478690
      0.11366300	     -0.28330225	      0.02704799	     -0.09478690
      0.11533451	     -0.28085277	      0.02769672	     -0.09478690
      0.11700603	     -0.27836622	      0.02833571	     -0.09478690
      0.11867754	     -0.27584285	      0.02896444	     -0.09478690
      0.12034906	     -0.27328291	      0.02958244	     -0.09478690
      0.12202057	     -0.27068657	      0.03018922	     -0.09478690
      0.12369209	     -0.26805404	      0.03078432	     -0.09478690
      0.12536360	     -0.26538550	      0.03136728	     -0.09478690
      0.12703512	     -0.26268112	      0.03193764	     -0.09478690
      0.12870663	     -0.25994110	      0.03249497	     -0.09478690
      0.13037815	     -0.25716555	      0.03303883	     -0.09478690
      0.13204966	     -0.25435458	      0.03356884	     -0.09478690
      0.13372118	     -0.25150811	      0.03408465	     -0.09478690
      0.13539269	     -0.24862597	      0.03458592	     -0.09478690
      0.13706421	     -0.24570778	      0.03507241	     -0.09478690
      0.13873572	     -0.24275308	      0.03554388	     -0.09478690
      0.14040724	     -0.23976144	      0.03600013	     -0.09478690
      0.14207875	     -0.23673248	      0.03644096	     -0.09478690
      0.14375027	     -0.23366612	      0.03686614	     -0.09478690
      0.14542178	     -0.23056244	      0.03727545	     -0.09478690
      0.14709329	     -0.22742190	      0.03766859	     -0.09478690
      0.14876481	     -0.22424509	      0.03804530	     -0.09478690
      0.15043632	     -0.22103273	      0.03840527	     -0.09478690
      0.15210784	     -0.21778548	      0.03874826	     -0.09478690
      0.15377935	     -0.21450362	      0.03907410	     -0.09478690
      0.15545087	     -0.21118721	      0.03938267	     -0.09478690
      0.15712238	     -0.20783566	      0.03967404	     -0.09478690
      0.15879390	     -0.20444812	      0.03994832	     -0.09478690
      0.16046541	     -0.20102429	      0.04020558	     -0.09478690
      0.16213693	     -0.19756424	      0.04044582	     -0.09478690
      0.16380844	     -0.19406818	      0.04066904	     -0.09478690
      0.16547996	     -0.19053634	      0.04087526	     -0.09478690
      0.16715147	     -0.18696898	      0.04106451	     -0.09478690
      0.16882299	     -0.18336630	      0.04123686	     -0.09478690
      0.17049450	     -0.17972845	      0.04139241	     -0.09478690
      0.17216602	     -0.17605550	      0.04153129	     -0.09478690
      0.17383753	     -0.17234749	      0.04165367	     -0.09478690
      0.17550904	     -0.16860444	      0.04175974	     -0.09478690
      0.17718056	     -0.16482640	      0.04184969	     -0.09478690
      0.17885207	     -0.16101344	      0.04192375	     -0.09478690
      0.18052359	     -0.15716566	      0.04198214	     -0.09478690
      0.18219510	     -0.15328318	      0.04202510	     -0.09478690
      0.18386662	     -0.14936616	      0.04205286	     -0.09478690
      0.18553813	     -0.14541478	      0.04206570	     -0.09478690
      0.18720965	     -0.14142924	      0.04206385	     -0.09478690
      0.18888116	     -0.13740975	      0.04204761	     -0.09478690
      0.19055268	     -0.13335652	      0.04201723	     -0.09478690
      0.19222419	     -0.12926978	      0.04197303	     -0.09478690
      0.19389571	     -0.12514977	      0.04191528	     -0.09478690
      0.19556722	     -0.12099674	      0.04184431	     -0.09478690
      0.19723874	     -0.11681093	      0.04176043	     -0.09478690
      0.19891025	     -0.11259261	      0.04166395	     -0.09478690
      0.20058177	     -0.10834207	      0.04155522	     -0.09478690
      0.20225328	     -0.10405960	      0.04143454	     -0.09478690
      0.20392479	     -0.09974548	      0.04130228	     -0.09478690
      0.20559631	     -0.09540004	      0.04115876	     -0.09478690
      0.20726782	     -0.09102360	      0.04100434	     -0.09478690
      0.20893934	     -0.08661648	      0.04083937	     -0.09478690
      0.21061085	     -0.08217904	      0.04066419	     -0.09478690
      0.21228237	     -0.07771161	      0.04047917	     -0.09478690
      0.21395388	     -0.07321456	      0.04028465	     -0.09478690
      0.21562540	     -0.06868827	      0.04008101	     -0.09478690
      0.21729691	     -0.06413310	      0.03986860	     -0.09478690
      0.21896843	     -0.05954946	      0.03964778	     -0.09478690
      0.22063994	     -0.05493774	      0.03941891	     -0.09478690
      0.22231146	     -0.05029835	      0.03918235	     -0.09478690
      0.22398297	     -0.04563171	      0.03893845	     -0.09478690
      0.22565449	     -0.04093825	      0.03868756	     -0.09478690
      0.22732600	     -0.03621843	      0.03843004	     -0.09478690
      0.22899752	     -0.03147269	      0.03816623	     -0.09478690
      0.23066903	     -0.02670151	      0.03789645	     -0.09478690
      0.23234054	     -0.02190538	      0.03762104	     -0.09478690
      0.23401206	     -0.01708481	      0.03734030	     -0.09478690
      0.23568357	     -0.01224032	      0.03705454	     -0.09478690
      0.23735509	     -0.00737244	      0.03676405	     -0.09478690
      0.23902660	     -0.00248173	      0.03646911	     -0.09478690
      0.24069812	      0.00243126	      0.03616998	     -0.09478690
      0.24236963	      0.00736596	      0.03586692	     -0.09478690
      0.24404115	      0.01232181	      0.03556017	     -0.09478690
      0.24571266	      0.01729823	      0.03524996	     -0.09478690
      0.24738418	      0.02229470	      0.03493654	     -0.09478690
      0.24905569	      0.02731068	      0.03462013	     -0.09478690
      0.25072721	      0.03234568	      0.03430098	     -0.09478690
      0.25239872	      0.03739924	      0.03397934	     -0.09478690
      0.25407024	      0.04247097	      0.03365549	     -0.09478690
      0.25574175	      0.04756050	      0.03332971	     -0.09478690
      0.25741327	      0.05266755	      0.03300233	     -0.09478690
      0.25908478	      0.05779186	      0.03267371	     -0.09478690
      0.26075629	      0.06293325	      0.03234421	     -0.09478690
      0.26242781	      0.06809158	      0.03201427	     -0.09478690
      0.26409932	      0.07326676	      0.03168432	     -0.09478690
      0.26577084	      0.07845872	      0.03135483	     -0.09478690
      0.26744235	      0.08366741	      0.03102631	     -0.09478690
      0.26911387	      0.08889280	      0.03069925	     -0.09478690
      0.27078538	      0.09413483	      0.03037416	     -0.09478690
      0.27245690	      0.09939343	      0.03005156	     -0.09478690
      0.27412841	      0.10466848	      0.02973195	     -0.09478690
      0.27579993	      0.10995984	      0.02941579	     -0.09478690
      0.27747144	      0.11526728	      0.02910355	     -0.09478690
      0.27914296	      0.12059053	      0.02879562	     -0.09478690
      0.28081447	      0.12592924	      0.02849237	     -0.09478690
      0.28248599	      0.13128299	      0.02819413	     -0.09478690
      0.28415750	      0.13665128	      0.02790116	     -0.09478690
      0.28582902	      0.14203357	      0.02761369	     -0.09478690
      0.28750053	      0.14742922	      0.02733186	     -0.09478690
      0.28917204	      0.15283756	      0.02705580	     -0.09478690
      0.29084356	      0.15825786	      0.02678558	     -0.09478690
      0.29251507	      0.16368936	      0.02652123	     -0.09478690
      0.29418659	      0.16913124	      0.02626273	     -0.09478690
      0.29585810	      0.17458271	      0.02601006	     -0.09478690
      0.29752962	      0.18004293	      0.02576317	     -0.09478690
      0.29920113	      0.18551107	      0.02552198	     -0.09478690
      0.30087265	      0.19098629	      0.02528642	     -0.09478690
      0.30254416	      0.19646779	      0.02505643	     -0.09478690
      0.30421568	      0.20195476	      0.02483194	     -0.09478690
      0.30588719	      0.20744641	      0.02461288	     -0.09478690
      0.30755871	      0.21294198	      0.02439924	     -0.09478690
      0.30923022	      0.21844072	      0.02419099	     -0.09478690
      0.31090174	      0.22394191	      0.02398812	     -0.09478690
      0.31257325	      0.22944484	      0.02379066	     -0.09478690
      0.31424477	      0.23494880	      0.02359863	     -0.09478690
      0.31591628	      0.24045309	      0.02341206	     -0.09478690
      0.31758779	      0.24595702	      0.02323102	     -0.09478690
      0.31925931	      0.25145990	      0.02305554	     -0.09478690
      0.32093082	      0.25696105	      0.02288569	     -0.09478690
      0.32260234	      0.26245977	      0.02272151	     -0.09478690
      0.32427385	      0.26795537	      0.02256307	     -0.09478690
      0.32594537	      0.27344716	      0.02241040	     -0.09478690
      0.32761688	      0.27893439	      0.02226351	     -0.09478690
      0.32928840	      0.28441634	      0.02212238	     -0.09478690
      0.33095991	      0.28989229	      0.02198701	     -0.09478690
      0.33263143	      0.29536152	      0.02185739	     -0.09478690
      0.33430294	      0.30082338	      0.02173358	     -0.09478690
      0.33597446	      0.30627724	      0.02161564	     -0.09478690
      0.33764597	      0.31172237	      0.02150353	     -0.09478690
      0.33931749	      0.31715782	      0.02139685	     -0.09478690
      0.34098900	      0.32258253	      0.02129509	     -0.09478690
      0.34266052	      0.32799579	      0.02119818	     -0.09478690
      0.34433203	      0.33339714	      0.02110633	     -0.09478690
      0.34600354	      0.33878591	      0.02101950	     -0.09478690
      0.34767506	      0.34416137	      0.02093753	     -0.09478690
      0.34934657	      0.34952281	      0.02086023	     -0.09478690
      0.35101809	      0.35486957	      0.02078747	     -0.09478690
      0.35268960	      0.36020098	      0.02071915	     -0.09478690
      0.35436112	      0.36551644	      0.02065519	     -0.09478690
      0.35603263	      0.37081536	      0.02059553	     -0.09478690
      0.35770415	      0.37609720	      0.02054016	     -0.09478690
      0.35937566	      0.38136143	      0.02048908	     -0.09478690
      0.36104718	      0.38660756	      0.02044232	     -0.09478690
      0.36271869	      0.39183510	      0.02039992	     -0.09478690
      0.36439021	      0.39704358	      0.02036190	     -0.09478690
      0.36606172	      0.40223254	      0.02032829	     -0.09478690
      0.36773324	      0.40740154	      0.02029911	     -0.09478690
      0.36940475	      0.41255012	      0.02027436	     -0.09478690
      0.37107627	      0.41767790	      0.02025408	     -0.09478690
      0.37274778	      0.42278446	      0.02023829	     -0.09478690
      0.37441930	      0.42786948	      0.02022708	     -0.09478690
      0.37609081	      0.43293262	      0.02022053	     -0.09478690
      0.37776232	      0.43797361	      0.02021877	     -0.09478690
      0.37943384	      0.44299219	      0.02022196	     -0.09478690
      0.38110535	      0.44798815	      0.02023023	     -0.09478690
      0.38277687	      0.45296126	      0.02024374	     -0.09478690
      0.38444838	      0.45791132	      0.02026259	     -0.09478690
      0.38611990	      0.46283814	      0.02028685	     -0.09478690
      0.38779141	      0.46774153	      0.02031660	     -0.09478690
      0.38946293	      0.47262136	      0.02035191	     -0.09478690
      0.39113444	      0.47747748	      0.02039287	     -0.09478690
      0.39280596	      0.48230980	      0.02043956	     -0.09478690
      0.39447747	      0.48711822	      0.02049208	     -0.09478690
      0.39614899	      0.49190268	      0.02055050	     -0.09478690
      0.39782050	      0.49666310	      0.02061485	     -0.09478690
      0.39949202	      0.50139941	      0.02068516	     -0.09478690
      0.40116353	      0.50611155	      0.02076139	     -0.09478690
      0.40283505	      0.51079945	      0.02084350	     -0.09478690
      0.40450656	      0.51546304	      0.02093141	     -0.09478690
      0.40617807	      0.52010225	      0.02102500	     -0.09478690
      0.40784959	      0.52471701	      0.02112415	     -0.09478690
      0.40952110	      0.52930725	      0.02122871	     -0.09478690
      0.41119262	      0.53387287	      0.02133849	     -0.09478690
      0.41286413	      0.53841381	      0.02145331	     -0.09478690
      0.41453565	      0.54292995	      0.02157294	     -0.09478690
      0.41620716	      0.54742121	      0.02169715	     -0.09478690
      0.41787868	      0.55188746	      0.02182568	     -0.09478690
      0.41955019	      0.55632859	      0.02195822	     -0.09478690
      0.42122171	      0.56074444	      0.02209448	     -0.09478690
      0.42289322	      0.56513489	      0.02223410	     -0.09478690
      0.42456474	      0.56949976	      0.02237673	     -0.09478690
      0.42623625	      0.57383889	      0.02252198	     -0.09478690
      0.42790777	      0.57815209	      0.02266943	     -0.09478690
      0.42957928	      0.58243917	      0.02281866	     -0.09478690
      0.43125080	      0.58669993	      0.02296918	     -0.09478690
      0.43292231	      0.59093415	      0.02312053	     -0.09478690
      0.43459382	      0.59514163	      0.02327220	     -0.09478690
      0.43626534	      0.59932213	      0.02342367	     -0.09478690
      0.43793685	      0.60347543	      0.02357439	     -0.09478690
      0.43960837	      0.60760129	      0.02372381	     -0.09478690
      0.44127988	      0.61169949	      0.02387136	     -0.09478690
      0.44295140	      0.61576977	      0.02401647	     -0.09478690
      0.44462291	      0.61981190	      0.02415853	     -0.09478690
      0.44629443	      0.62382563	      0.02429695	     -0.09478690
      0.44796594	      0.62781067	      0.02443111	     -0.09478690
      0.44963746	      0.63176675	      0.02456037	     -0.09478690
      0.45130897	      0.63569352	      0.02468410	     -0.09478690
      0.45298049	      0.63959065	      0.02480162	     -0.09478690
      0.45465200	      0.64345768	      0.02491224	     -0.09478690
      0.45632352	      0.64729417	      0.02501525	     -0.09478690
      0.45799503	      0.65109955	      0.02511002	     -0.09478690
      0.45966655	      0.65487324	      0.02519602	     -0.09478690
      0.46133806	      0.65861454	      0.02527290	     -0.09478690
      0.46300957	      0.66232274	      0.02534048	     -0.09478690
      0.46468109	      0.66599716	      0.02539854	     -0.09478690
      0.46635260	      0.66963729	      0.02544679	     -0.09478690
      0.46802412	      0.67324264	      0.02548473	     -0.09478690
      0.46969563	      0.67681267	      0.02551181	     -0.09478690
      0.47136715	      0.68034675	      0.02552742	     -0.09478690
      0.47303866	      0.68384421	      0.02553095	     -0.09478690
      0.47471018	      0.68730418	      0.02552170	     -0.09478690
      0.47638169	      0.69072567	      0.02549883	     -0.09478690
      0.47805321	      0.69410745	      0.02546140	     -0.09478690
      0.47972472	      0.69744815	      0.02540848	     -0.09478690
      0.48139624	      0.70074613	      0.02533934	     -0.09478690
      0.48306775	      0.70399964	      0.02525348	     -0.09478690
      0.48473927	      0.70720616	      0.02515109	     -0.09478690
      0.48641078	      0.71036255	      0.02503279	     -0.09478690
      0.48808230	      0.71346278	      0.02489877	     -0.09478690
      0.48975381	      0.71649852	      0.02474818	     -0.09478690
      0.49142532	      0.71945439	      0.02457482	     -0.09478690
      0.49309684	      0.72231038	      0.02436806	     -0.09478690
      0.49476835	      0.72503693	      0.02410839	     -0.09478690
      0.49643987	      0.72759984	      0.02377172	     -0.09478690
      0.49811138	      0.72995878	      0.02332833	     -0.09478690
      0.49978290	      0.73207202	      0.02274717	     -0.09478690
      0.50145441	      0.73389962	      0.02199777	     -0.09478690
      0.50312593	      0.73540461	      0.02105187	     -0.09478690
      0.50479744	      0.73656035	      0.01989631	     -0.09478690
      0.50646896	      0.73732997	      0.01851392	     -0.09478690
      0.50814047	      0.73776259	      0.01697720	     -0.09478690
      0.50981199	      0.73800967	      0.01544835	     -0.09478690
      0.51148350	      0.73819048	      0.01402653	     -0.09478690
      0.51315502	      0.73834133	      0.01273168	     -0.09478690
      0.51482653	      0.73846488	      0.01157542	     -0.09478690
      0.51649805	      0.73856535	      0.01057226	     -0.09478690
      0.51816956	      0.73864486	      0.00969782	     -0.09478690
      0.51984107	      0.73870956	      0.00890574	     -0.09478690
      0.52151259	      0.73876693	      0.00816167	     -0.09478690
      0.52318410	      0.73882144	      0.00745488	     -0.09478690
      0.52485562	      0.73887347	      0.00678913	     -0.09478690
      0.52652713	      0.73892328	      0.00616601	     -0.09478690
      0.52819865	      0.73897104	      0.00558658	     -0.09478690
      0.52987016	      0.73901682	      0.00505172	     -0.09478690
      0.53154168	      0.73906079	      0.00455975	     -0.09478690
      0.53321319	      0.73910329	      0.00410743	     -0.09478690
      0.53488471	      0.73914474	      0.00369077	     -0.09478690
      0.53655622	      0.73918554	      0.00330614	     -0.09478690
      0.53822774	      0.73922593	      0.00295052	     -0.09478690
      0.53989925	      0.73926612	      0.00262122	     -0.09478690
      0.54157077	      0.73930618	      0.00231604	     -0.09478690
      0.54324228	      0.73934620	      0.00203301	     -0.09478690
      0.54491380	      0.73938624	      0.00177038	     -0.09478690
      0.54658531	      0.73942635	      0.00152655	     -0.09478690
      0.54825682	      0.73946662	      0.00130009	     -0.09478690
      0.54992834	      0.73950710	      0.00108966	     -0.09478690
      0.55159985	      0.73954781	      0.00089397	     -0.09478690
      0.55327137	      0.73958880	      0.00071174	     -0.09478690
      0.55494288	      0.73963008	      0.00054163	     -0.09478690
      0.55661440	      0.73967169	      0.00038229	     -0.09478690
      0.55828591	      0.73971367	      0.00023245	     -0.09478690
      0.55995743	      0.73975602	      0.00009092	     -0.09478690
      0.56162894	      0.73979875	     -0.00004335	     -0.09478690
      0.56330046	      0.73984187	     -0.00017128	     -0.09478690
      0.56497197	      0.73988535	     -0.00029369	     -0.09478690
      0.56664349	      0.73992915	     -0.00041134	     -0.09478690
      0.56831500	      0.73997325	     -0.00052489	     -0.09478690
      0.56998652	      0.74001759	     -0.00063498	     -0.09478690
      0.57165803	      0.74006214	     -0.00074215	     -0.09478690
      0.57332955	      0.74010683	     -0.00084696	     -0.09478690
      0.57500106	      0.74015162	     -0.00094990	     -0.09478690
      0.57667257	      0.74019646	     -0.00105142	     -0.09478690
      0.57834409	      0.74024131	     -0.00115195	     -0.09478690
      0.58001560	      0.74028610	     -0.00125188	     -0.09478690
      0.58168712	      0.74033081	     -0.00135158	     -0.09478690
      0.58335863	      0.74037539	     -0.00145137	     -0.09478690
      0.58503015	      0.74041980	     -0.00155154	     -0.09478690
      0.58670166	      0.74046402	     -0.00165236	     -0.09478690
      0.58837318	      0.74050801	     -0.00175405	     -0.09478690
      0.59004469	      0.74055175	     -0.00185682	     -0.09478690
      0.59171621	      0.74059521	     -0.00196083	     -0.09478690
      0.59338772	      0.74063840	     -0.00206627	     -0.09478690
      0.59505924	      0.74068130	     -0.00217329	     -0.09478690
      0.59673075	      0.74072395	     -0.00228207	     -0.09478690
      0.59840227	      0.74076638	     -0.00239271	     -0.09478690
      0.60007378	      0.74080862	     -0.00250535	     -0.09478690
      0.60174530	      0.74085069	     -0.00262004	     -0.09478690
      0.60341681	      0.74089263	     -0.00273683	     -0.09478690
      0.60508833	      0.74093445	     -0.00285571	     -0.09478690
      0.60675984	      0.74097619	     -0.00297668	     -0.09478690
      0.60843135	      0.74101784	     -0.00309970	     -0.09478690
      0.61010287	      0.74105942	     -0.00322473	     -0.09478690
      0.61177438	      0.74110092	     -0.00335170	     -0.09478690
      0.61344590	      0.74114237	     -0.00348055	     -0.09478690
      0.61511741	      0.74118375	     -0.00361121	     -0.09478690
      0.61678893	      0.74122507	     -0.00374359	     -0.09478690
      0.61846044	      0.74126632	     -0.00387760	     -0.09478690
      0.62013196	      0.74130750	     -0.00401317	     -0.09478690
      0.62180347	      0.74134861	     -0.00415019	     -0.09478690
      0.62347499	      0.74138965	     -0.00428857	     -0.09478690
      0.62514650	      0.74143061	     -0.00442820	     -0.09478690
      0.62681802	      0.74147148	     -0.00456897	     -0.09478690
      0.62848953	      0.74151227	     -0.00471078	     -0.09478690
      0.63016105	      0.74155297	     -0.00485351	     -0.09478690
      0.63183256	      0.74159357	     -0.00499705	     -0.09478690
      0.63350408	      0.74163408	     -0.00514127	     -0.09478690
      0.63517559	      0.74167449	     -0.00528607	     -0.09478690
      0.63684710	      0.74171478	     -0.00543133	     -0.09478690
      0.63851862	      0.74175497	     -0.00557692	     -0.09478690
      0.64019013	      0.74179503	     -0.00572274	     -0.09478690
      0.64186165	      0.74183498	     -0.00586866	     -0.09478690
      0.64353316	      0.74187480	     -0.00601457	     -0.09478690
      0.64520468	      0.74191448	     -0.00616036	     -0.09478690
      0.64687619	      0.74195403	     -0.00630592	     -0.09478690
      0.64854771	      0.74199344	     -0.00645114	     -0.09478690
      0.65021922	      0.74203270	     -0.00659591	     -0.09478690
      0.65189074	      0.74207181	     -0.00674012	     -0.09478690
      0.65356225	      0.74211076	     -0.00688367	     -0.09478690
      0.65523377	      0.74214955	     -0.00702647	     -0.09478690
      0.65690528	      0.74218817	     -0.00716842	     -0.09478690
      0.65857680	      0.74222662	     -0.00730944	     -0.09478690
      0.66024831	      0.74226490	     -0.00744943	     -0.09478690
      0.66191983	      0.74230299	     -0.00758832	     -0.09478690
      0.66359134	      0.74234089	     -0.00772603	     -0.09478690
      0.66526285	      0.74237859	     -0.00786248	     -0.09478690
      0.66693437	      0.74241609	     -0.00799759	     -0.09478690
      0.66860588	      0.74245337	     -0.00813131	     -0.09478690
      0.67027740	      0.74249044	     -0.00826356	     -0.09478690
      0.67194891	      0.74252727	     -0.00839427	     -0.09478690
      0.67362043	      0.74256386	     -0.00852340	     -0.09478690
      0.67529194	      0.74260020	     -0.00865088	     -0.09478690
      0.67696346	      0.74263626	     -0.00877665	     -0.09478690
      0.67863497	      0.74267203	     -0.00890067	     -0.09478690
      0.68030649	      0.74270750	     -0.00902289	     -0.09478690
      0.68197800	      0.74274263	     -0.00914326	     -0.09478690
      0.68364952	      0.74277741	     -0.00926174	     -0.09478690
      0.68532103	      0.74281181	     -0.00937830	     -0.09478690
      0.68699255	      0.74284579	     -0.00949289	     -0.09478690
      0.68866406	      0.74287933	     -0.00960549	     -0.09478690
      0.69033558	      0.74291239	     -0.00971607	     -0.09478690
      0.69200709	      0.74294494	     -0.00982460	     -0.09478690
      0.69367860	      0.74297696	     -0.00993106	     -0.09478690
      0.69535012	      0.74300841	     -0.01003542	     -0.09478690
      0.69702163	      0.74303927	     -0.01013766	     -0.09478690
      0.69869315	      0.74306954	     -0.01023777	     -0.09478690
      0.70036466	      0.74309919	     -0.01033573	     -0.09478690
      0.70203618	      0.74312823	     -0.01043153	     -0.09478690
      0.70370769	      0.74315665	     -0.01052516	     -0.09478690
      0.70537921	      0.74318445	     -0.01061661	     -0.09478690
      0.70705072	      0.74321162	     -0.01070587	     -0.09478690
      0.70872224	      0.74323818	     -0.01079296	     -0.09478690
      0.71039375	      0.74326412	     -0.01087785	     -0.09478690
      0.71206527	      0.74328944	     -0.01096056	     -0.09478690
      0.71373678	      0.74331414	     -0.01104108	     -0.09478690
      0.71540830	      0.74333822	     -0.01111942	     -0.09478690
      0.71707981	      0.74336167	     -0.01119558	     -0.09478690
      0.71875133	      0.74338450	     -0.01126958	     -0.09478690
      0.72042284	      0.74340670	     -0.01134140	     -0.09478690
      0.72209435	      0.74342827	     -0.01141108	     -0.09478690
      0.72376587	      0.74344920	     -0.01147861	     -0.09478690
      0.72543738	      0.74346951	     -0.01154401	     -0.09478690
      0.72710890	      0.74348918	     -0.01160731	     -0.09478690
      0.72878041	      0.74350823	     -0.01166851	     -0.09478690
      0.73045193	      0.74352664	     -0.01172765	     -0.09478690
      0.73212344	      0.74354442	     -0.01178475	     -0.09478690
      0.73379496	      0.74356157	     -0.01183982	     -0.09478690
      0.73546647	      0.74357810	     -0.01189292	     -0.09478690
      0.73713799	      0.74359401	     -0.01194405	     -0.09478690
      0.73880950	      0.74360930	     -0.01199326	     -0.09478690
      0.74048102	      0.74362397	     -0.01204057	     -0.09478690
      0.74215253	      0.74363804	     -0.01208602	     -0.09478690
      0.74382405	      0.74365150	     -0.01212965	     -0.09478690
      0.74549556	      0.74366436	     -0.01217147	     -0.09478690
      0.74716708	      0.74367661	     -0.01221154	     -0.09478690
      0.74883859	      0.74368828	     -0.01224988	     -0.09478690
      0.75051010	      0.74369935	     -0.01228651	     -0.09478690
      0.75218162	      0.74370983	     -0.01232149	     -0.09478690
      0.75385313	      0.74371972	     -0.01235482	     -0.09478690
      0.75552465	      0.74372903	     -0.01238656	     -0.09478690
      0.75719616	      0.74373776	     -0.01241672	     -0.09478690
      0.75886768	      0.74374591	     -0.01244534	     -0.09478690
      0.76053919	      0.74375348	     -0.01247244	     -0.09478690
      0.76221071	      0.74376047	     -0.01249805	     -0.09478690
      0.76388222	      0.74376688	     -0.01252222	     -0.09478690
      0.76555374	      0.74377271	     -0.01254495	     -0.09478690
      0.76722525	      0.74377797	     -0.01256628	     -0.09478690
      0.76889677	      0.74378264	     -0.01258625	     -0.09478690
      0.77056828	      0.74378673	     -0.01260487	     -0.09478690
      0.77223980	      0.74379025	     -0.01262218	     -0.09478690
      0.77391131	      0.74379318	     -0.01263820	     -0.09478690
      0.77558283	      0.74379552	     -0.01265297	     -0.09478690
      0.77725434	      0.74379728	     -0.01266651	     -0.09478690
      0.77892585	      0.74379845	     -0.01267885	     -0.09478690
      0.78059737	      0.74379904	     -0.01269003	     -0.09478690
      0.78226888	      0.74379904	     -0.01270006	     -0.09478690
      0.78394040	      0.74379845	     -0.01270899	     -0.09478690
      0.78561191	      0.74379726	     -0.01271683	     -0.09478690
      0.78728343	      0.74379549	     -0.01272362	     -0.09478690
      0.78895494	      0.74379313	     -0.01272940	     -0.09478690
      0.79062646	      0.74379018	     -0.01273418	     -0.09478690
      0.79229797	      0.74378664	     -0.01273800	     -0.09478690
      0.79396949	      0.74378251	     -0.01274089	     -0.09478690
      0.79564100	      0.74377779	     -0.01274288	     -0.09478690
      0.79731252	      0.74377249	     -0.01274400	     -0.09478690
      0.79898403	      0.74376660	     -0.01274428	     -0.09478690
      0.80065555	      0.74376012	     -0.01274374	     -0.09478690
      0.80232706	      0.74375307	     -0.01274243	     -0.09478690
      0.80399858	      0.74374543	     -0.01274035	     -0.09478690
      0.80567009	      0.74373720	     -0.01273755	     -0.09478690
      0.80734160	      0.74372839	     -0.01273404	     -0.09478690
      0.80901312	      0.74371901	     -0.01272985	     -0.09478690
      0.81068463	      0.74370904	     -0.01272500	     -0.09478690
      0.81235615	      0.74369848	     -0.01271952	     -0.09478690
      0.81402766	      0.74368735	     -0.01271342	     -0.09478690
      0.81569918	      0.74367564	     -0.01270672	     -0.09478690
      0.81737069	      0.74366334	     -0.01269944	     -0.09478690
      0.81904221	      0.74365046	     -0.01269161	     -0.09478690
      0.82071372	      0.74363701	     -0.01268322	     -0.09478690
      0.82238524	      0.74362297	     -0.01267430	     -0.09478690
      0.82405675	      0.74360835	     -0.01266487	     -0.09478690
      0.82572827	      0.74359316	     -0.01265493	     -0.09478690
      0.82739978	      0.74357739	     -0.01264450	     -0.09478690
      0.82907130	      0.74356105	     -0.01263358	     -0.09478690
      0.83074281	      0.74354413	     -0.01262217	     -0.09478690
      0.83241433	      0.74352665	     -0.01261029	     -0.09478690
      0.83408584	      0.74350859	     -0.01259792	     -0.09478690
      0.83575735	      0.74348997	     -0.01258506	     -0.09478690
      0.83742887	      0.74347077	     -0.01257171	     -0.09478690
      0.83910038	      0.74345100	     -0.01255786	     -0.09478690
      0.84077190	      0.74343066	     -0.01254349	     -0.09478690
      0.84244341	      0.74340973	     -0.01252861	     -0.09478690
      0.84411493	      0.74338823	     -0.01251319	     -0.09478690
      0.84578644	      0.74336614	     -0.01249722	     -0.09478690
      0.84745796	      0.74334347	     -0.01248070	     -0.09478690
      0.84912947	      0.74332021	     -0.01246359	     -0.09478690
      0.85080099	      0.74329636	     -0.01244587	     -0.09478690
      0.85247250	      0.74327193	     -0.01242754	     -0.09478690
      0.85414402	      0.74324690	     -0.01240855	     -0.09478690
      0.85581553	      0.74322129	     -0.01238889	     -0.09478690
      0.85748705	      0.74319508	     -0.01236852	     -0.09478690
      0.85915856	      0.74316828	     -0.01234743	     -0.09478690
      0.86083008	      0.74314089	     -0.01232559	     -0.09478690
      0.86250159	      0.74311290	     -0.01230298	     -0.09478690
      0.86417311	      0.74308431	     -0.01227958	     -0.09478690
      0.86584462	      0.74305512	     -0.01225538	     -0.09478690
      0.86751613	      0.74302532	     -0.01223038	     -0.09478690
      0.86918765	      0.74299491	     -0.01220456	     -0.09478690
      0.87085916	      0.74296388	     -0.01217793	     -0.09478690
      0.87253068	      0.74293223	     -0.01215049	     -0.09478690
      0.87420219	      0.74289996	     -0.01212224	     -0.09478690
      0.87587371	      0.74286705	     -0.01209321	     -0.09478690
      0.87754522	      0.74283352	     -0.01206339	     -0.09478690
      0.87921674	      0.74279934	     -0.01203281	     -0.09478690
      0.88088825	      0.74276451	     -0.01200149	     -0.09478690
      0.88255977	      0.74272903	     -0.01196945	     -0.09478690
      0.88423128	      0.74269290	     -0.01193671	     -0.09478690
      0.88590280	      0.74265612	     -0.01190330	     -0.09478690
      0.88757431	      0.74261866	     -0.01186923	     -0.09478690
      0.88924583	      0.74258054	     -0.01183455	     -0.09478690
      0.89091734	      0.74254174	     -0.01179927	     -0.09478690
      0.89258886	      0.74250227	     -0.01176343	     -0.09478690
      0.89426037	      0.74246211	     -0.01172705	     -0.09478690
      0.89593188	      0.74242126	     -0.01169017	     -0.09478690
      0.89760340	      0.74237971	     -0.01165280	     -0.09478690
      0.89927491	      0.74233746	     -0.01161499	     -0.09478690
      0.90094643	      0.74229450	     -0.01157675	     -0.09478690
      0.90261794	      0.74225081	     -0.01153812	     -0.09478690
      0.90428946	      0.74220639	     -0.01149913	     -0.09478690
      0.90596097	      0.74216123	     -0.01145979	     -0.09478690
      0.90763249	      0.74211532	     -0.01142015	     -0.09478690
      0.90930400	      0.74206866	     -0.01138022	     -0.09478690
      0.91097552	      0.74202122	     -0.01134003	     -0.09478690
      0.91264703	      0.74197301	     -0.01129962	     -0.09478690
      0.91431855	      0.74192400	     -0.01125900	     -0.09478690
      0.91599006	      0.74187419	     -0.01121820	     -0.09478690
      0.91766158	      0.74182358	     -0.01117723	     -0.09478690
      0.91933309	      0.74177215	     -0.01113613	     -0.09478690
      0.92100461	      0.74171990	     -0.01109489	     -0.09478690
      0.92267612	      0.74166681	     -0.01105355	     -0.09478690
      0.92434763	      0.74161290	     -0.01101209	     -0.09478690
      0.92601915	      0.74155815	     -0.01097054	     -0.09478690
      0.92769066	      0.74150255	     -0.01092889	     -0.09478690
      0.92936218	      0.74144612	     -0.01088715	     -0.09478690
      0.93103369	      0.74138883	     -0.01084530	     -0.09478690
      0.93270521	      0.74133070	     -0.01080334	     -0.09478690
      0.93437672	      0.74127171	     -0.01076125	     -0.09478690
      0.93604824	      0.74121187	     -0.01071903	     -0.09478690
      0.93771975	      0.74115116	     -0.01067665	     -0.09478690
      0.93939127	      0.74108959	     -0.01063408	     -0.09478690
      0.94106278	      0.74102715	     -0.01059130	     -0.09478690
      0.94273430	      0.74096383	     -0.01054828	     -0.09478690
      0.94440581	      0.74089962	     -0.01050497	     -0.09478690
      0.94607733	      0.74083453	     -0.01046135	     -0.09478690
      0.94774884	      0.74076853	     -0.01041736	     -0.09478690
      0.94942036	      0.74070161	     -0.01037295	     -0.09478690
      0.95109187	      0.74063377	     -0.01032808	     -0.09478690
      0.95276338	      0.74056498	     -0.01028269	     -0.09478690
      0.95443490	      0.74049523	     -0.01023672	     -0.09478690
      0.95610641	      0.74042451	     -0.01019012	     -0.09478690
      0.95777793	      0.74035277	     -0.01014283	     -0.09478690
      0.95944944	      0.74028002	     -0.01009478	     -0.09478690
      0.96112096	      0.74020621	     -0.01004591	     -0.09478690
      0.96279247	      0.74013133	     -0.00999616	     -0.09478690
      0.96446399	      0.74005534	     -0.00994544	     -0.09478690
      0.96613550	      0.73997822	     -0.00989368	     -0.09478690
      0.96780702	      0.73989994	     -0.00984081	     -0.09478690
      0.96947853	      0.73982046	     -0.00978672	     -0.09478690
      0.97115005	      0.73973977	     -0.00973131	     -0.09478690
      0.97282156	      0.73965783	     -0.00967449	     -0.09478690
      0.97449308	      0.73957463	     -0.00961614	     -0.09478690
      0.97616459	      0.73949016	     -0.00955615	     -0.09478690
      0.97783611	      0.73940439	     -0.00949441	     -0.09478690
      0.97950762	      0.73931733	     -0.00943078	     -0.09478690
      0.98117913	      0.73922898	     -0.00936513	     -0.09478690
      0.98285065	      0.73913934	     -0.00929732	     -0.09478690
      0.98452216	      0.73904843	     -0.00922720	     -0.09478690
      0.98619368	      0.73895624	     -0.00915460	     -0.09478690
      0.98786519	      0.73886281	     -0.00907932	     -0.09478690
      0.98953671	      0.73876813	     -0.00900116	     -0.09478690
      0.99120822	      0.73867222	     -0.00891990	     -0.09478690
      0.99287974	      0.73857509	     -0.00883529	     -0.09478690
      0.99455125	      0.73847676	     -0.00874704	     -0.09478690
      0.99622277	      0.73837724	     -0.00865483	     -0.09478690
      0.99789428	      0.73827652	     -0.00855831	     -0.09478690
      0.99956580	      0.73817460	     -0.00845708	     -0.09478690
      1.00123731	      0.73807144	     -0.00835070	     -0.09478690
      1.00290883	      0.73796708	     -0.00823870	     -0.09478690
