PointVelocity
version=1
nRows=601
nColumns=4
inDegrees=no
No description.
endheader
time	state_0	state_1	state_2
      0.00000000	      1.76211918	     -0.18882917	      0.00000000
      0.00129021	      1.76808643	     -0.19270088	      0.00000000
      0.00258043	      1.77397758	     -0.19657832	      0.00000000
      0.00387064	      1.77966332	     -0.20045379	      0.00000000
      0.00516086	      1.78507041	     -0.20431624	      0.00000000
      0.00645107	      1.79007615	     -0.20813102	      0.00000000
      0.00774128	      1.79457162	     -0.21187031	      0.00000000
      0.00903150	      1.79842081	     -0.21546875	      0.00000000
      0.01032171	      1.80148555	     -0.21886776	      0.00000000
      0.01161193	      1.80362688	     -0.22196535	      0.00000000
      0.01290214	      1.80467634	     -0.22465274	      0.00000000
      0.01419236	      1.80453972	     -0.22680542	      0.00000000
      0.01548257	      1.80299847	     -0.22823374	      0.00000000
      0.01677278	      1.80016974	     -0.22889170	      0.00000000
      0.01806300	      1.79553123	     -0.22835031	      0.00000000
      0.01935321	      1.78951726	     -0.22671799	      0.00000000
      0.02064343	      1.78474458	     -0.22540916	      0.00000000
      0.02193364	      1.78089137	     -0.22423468	      0.00000000
      0.02322385	      1.77583717	     -0.22192714	      0.00000000
      0.02451407	      1.76952550	     -0.21838227	      0.00000000
      0.02580428	      1.76212801	     -0.21361944	      0.00000000
      0.02709450	      1.75369725	     -0.20760918	      0.00000000
      0.02838471	      1.74436967	     -0.20036365	      0.00000000
      0.02967492	      1.73421491	     -0.19193025	      0.00000000
      0.03096514	      1.72332903	     -0.18235733	      0.00000000
      0.03225535	      1.71176277	     -0.17175958	      0.00000000
      0.03354557	      1.69960442	     -0.16021835	      0.00000000
      0.03483578	      1.68684703	     -0.14794307	      0.00000000
      0.03612599	      1.67336687	     -0.13527650	      0.00000000
      0.03741621	      1.65919562	     -0.12240172	      0.00000000
      0.03870642	      1.64452299	     -0.10930631	      0.00000000
      0.03999664	      1.62964280	     -0.09585633	      0.00000000
      0.04128685	      1.61473924	     -0.08206775	      0.00000000
      0.04257707	      1.59991639	     -0.06802325	      0.00000000
      0.04386728	      1.58531006	     -0.05376578	      0.00000000
      0.04515749	      1.57099806	     -0.03934836	      0.00000000
      0.04644771	      1.55706618	     -0.02482405	      0.00000000
      0.04773792	      1.54354062	     -0.01025918	      0.00000000
      0.04902814	      1.53045790	      0.00428039	      0.00000000
      0.05031835	      1.51781304	      0.01872344	      0.00000000
      0.05160856	      1.50560936	      0.03299781	      0.00000000
      0.05289878	      1.49383332	      0.04704352	      0.00000000
      0.05418899	      1.48247726	      0.06079900	      0.00000000
      0.05547921	      1.47152844	      0.07422278	      0.00000000
      0.05676942	      1.46097615	      0.08726937	      0.00000000
      0.05805963	      1.45080774	      0.09991277	      0.00000000
      0.05934985	      1.44101150	      0.11212277	      0.00000000
      0.06064006	      1.43157454	      0.12388548	      0.00000000
      0.06193028	      1.42248434	      0.13518337	      0.00000000
      0.06322049	      1.41372717	      0.14601120	      0.00000000
      0.06451070	      1.40528888	      0.15636050	      0.00000000
      0.06580092	      1.39715613	      0.16623235	      0.00000000
      0.06709113	      1.38931628	      0.17562612	      0.00000000
      0.06838135	      1.38175807	      0.18454818	      0.00000000
      0.06967156	      1.37446959	      0.19300330	      0.00000000
      0.07096178	      1.36744002	      0.20100039	      0.00000000
      0.07225199	      1.36065905	      0.20854763	      0.00000000
      0.07354220	      1.35411611	      0.21565491	      0.00000000
      0.07483242	      1.34780014	      0.22233159	      0.00000000
      0.07612263	      1.34169875	      0.22858691	      0.00000000
      0.07741285	      1.33579942	      0.23443001	      0.00000000
      0.07870306	      1.33008949	      0.23986942	      0.00000000
      0.07999327	      1.32455606	      0.24491369	      0.00000000
      0.08128349	      1.31918780	      0.24957101	      0.00000000
      0.08257370	      1.31397288	      0.25384954	      0.00000000
      0.08386392	      1.30890231	      0.25775782	      0.00000000
      0.08515413	      1.30396645	      0.26130428	      0.00000000
      0.08644434	      1.29915884	      0.26449855	      0.00000000
      0.08773456	      1.29447232	      0.26735009	      0.00000000
      0.08902477	      1.28990263	      0.26987003	      0.00000000
      0.09031499	      1.28544485	      0.27206956	      0.00000000
      0.09160520	      1.28109637	      0.27396071	      0.00000000
      0.09289542	      1.27685408	      0.27555551	      0.00000000
      0.09418563	      1.27271649	      0.27686518	      0.00000000
      0.09547584	      1.26868186	      0.27790019	      0.00000000
      0.09676606	      1.26474932	      0.27867121	      0.00000000
      0.09805627	      1.26091797	      0.27918945	      0.00000000
      0.09934649	      1.25718670	      0.27946702	      0.00000000
      0.10063670	      1.25355448	      0.27951614	      0.00000000
      0.10192691	      1.25001920	      0.27934861	      0.00000000
      0.10321713	      1.24657893	      0.27897634	      0.00000000
      0.10450734	      1.24323032	      0.27840967	      0.00000000
      0.10579756	      1.23997053	      0.27766055	      0.00000000
      0.10708777	      1.23679521	      0.27673731	      0.00000000
      0.10837798	      1.23369892	      0.27564562	      0.00000000
      0.10966820	      1.23067659	      0.27439189	      0.00000000
      0.11095841	      1.22772403	      0.27298514	      0.00000000
      0.11224863	      1.22483724	      0.27142911	      0.00000000
      0.11353884	      1.22201164	      0.26972760	      0.00000000
      0.11482905	      1.21924426	      0.26788562	      0.00000000
      0.11611927	      1.21653196	      0.26590882	      0.00000000
      0.11740948	      1.21387326	      0.26380318	      0.00000000
      0.11869970	      1.21126623	      0.26157395	      0.00000000
      0.11998991	      1.20871013	      0.25922620	      0.00000000
      0.12128013	      1.20620397	      0.25676504	      0.00000000
      0.12257034	      1.20374767	      0.25419615	      0.00000000
      0.12386055	      1.20134101	      0.25152557	      0.00000000
      0.12515077	      1.19898437	      0.24875928	      0.00000000
      0.12644098	      1.19667808	      0.24590317	      0.00000000
      0.12773120	      1.19442264	      0.24296207	      0.00000000
      0.12902141	      1.19221855	      0.23994086	      0.00000000
      0.13031162	      1.19006628	      0.23684332	      0.00000000
      0.13160184	      1.18796631	      0.23367346	      0.00000000
      0.13289205	      1.18591913	      0.23043431	      0.00000000
      0.13418227	      1.18392534	      0.22712899	      0.00000000
      0.13547248	      1.18198550	      0.22375989	      0.00000000
      0.13676269	      1.18010041	      0.22032936	      0.00000000
      0.13805291	      1.17827035	      0.21683977	      0.00000000
      0.13934312	      1.17649630	      0.21329284	      0.00000000
      0.14063334	      1.17477698	      0.20969253	      0.00000000
      0.14192355	      1.17311077	      0.20604314	      0.00000000
      0.14321377	      1.17149357	      0.20235177	      0.00000000
      0.14450398	      1.16991931	      0.19862779	      0.00000000
      0.14579419	      1.16838661	      0.19487523	      0.00000000
      0.14708441	      1.16689727	      0.19109476	      0.00000000
      0.14837462	      1.16545666	      0.18728362	      0.00000000
      0.14966484	      1.16406726	      0.18344236	      0.00000000
      0.15095505	      1.16273176	      0.17957040	      0.00000000
      0.15224526	      1.16145345	      0.17566600	      0.00000000
      0.15353548	      1.16023643	      0.17172676	      0.00000000
      0.15482569	      1.15908518	      0.16775005	      0.00000000
      0.15611591	      1.15800304	      0.16373639	      0.00000000
      0.15740612	      1.15699314	      0.15968648	      0.00000000
      0.15869633	      1.15605670	      0.15560470	      0.00000000
      0.15998655	      1.15519525	      0.15149482	      0.00000000
      0.16127676	      1.15440909	      0.14736251	      0.00000000
      0.16256698	      1.15369860	      0.14321399	      0.00000000
      0.16385719	      1.15306431	      0.13905333	      0.00000000
      0.16514740	      1.15250727	      0.13488389	      0.00000000
      0.16643762	      1.15202852	      0.13070611	      0.00000000
      0.16772783	      1.15162897	      0.12652096	      0.00000000
      0.16901805	      1.15130871	      0.12232888	      0.00000000
      0.17030826	      1.15106698	      0.11813154	      0.00000000
      0.17159848	      1.15090485	      0.11392854	      0.00000000
      0.17288869	      1.15082387	      0.10971883	      0.00000000
      0.17417890	      1.15082823	      0.10549969	      0.00000000
      0.17546912	      1.15092291	      0.10126775	      0.00000000
      0.17675933	      1.15111133	      0.09702244	      0.00000000
      0.17804955	      1.15139647	      0.09276400	      0.00000000
      0.17933976	      1.15177706	      0.08849598	      0.00000000
      0.18062997	      1.15225141	      0.08422200	      0.00000000
      0.18192019	      1.15281620	      0.07994503	      0.00000000
      0.18321040	      1.15347004	      0.07566710	      0.00000000
      0.18450062	      1.15421025	      0.07138848	      0.00000000
      0.18579083	      1.15503323	      0.06711035	      0.00000000
      0.18708104	      1.15593432	      0.06283218	      0.00000000
      0.18837126	      1.15690983	      0.05855304	      0.00000000
      0.18966147	      1.15795539	      0.05427142	      0.00000000
      0.19095169	      1.15906520	      0.04998624	      0.00000000
      0.19224190	      1.16023471	      0.04569720	      0.00000000
      0.19353211	      1.16145779	      0.04140440	      0.00000000
      0.19482233	      1.16273568	      0.03710806	      0.00000000
      0.19611254	      1.16406698	      0.03281006	      0.00000000
      0.19740276	      1.16546520	      0.02850737	      0.00000000
      0.19869297	      1.16694548	      0.02419485	      0.00000000
      0.19998319	      1.16853286	      0.01986371	      0.00000000
      0.20127340	      1.17025081	      0.01550721	      0.00000000
      0.20256361	      1.17212216	      0.01111786	      0.00000000
      0.20385383	      1.17418185	      0.00667853	      0.00000000
      0.20514404	      1.17642882	      0.00219318	      0.00000000
      0.20643426	      1.17885398	     -0.00232469	      0.00000000
      0.20772447	      1.18140260	     -0.00684373	      0.00000000
      0.20901468	      1.18402310	     -0.01133651	      0.00000000
      0.21030490	      1.18666959	     -0.01578683	      0.00000000
      0.21159511	      1.18930249	     -0.02018003	      0.00000000
      0.21288533	      1.19190563	     -0.02451836	      0.00000000
      0.21417554	      1.19445927	     -0.02880230	      0.00000000
      0.21546575	      1.19695844	     -0.03303980	      0.00000000
      0.21675597	      1.19939516	     -0.03723550	      0.00000000
      0.21804618	      1.20176554	     -0.04139502	      0.00000000
      0.21933640	      1.20406212	     -0.04552493	      0.00000000
      0.22062661	      1.20628117	     -0.04962986	      0.00000000
      0.22191683	      1.20841934	     -0.05371378	      0.00000000
      0.22320704	      1.21047874	     -0.05777712	      0.00000000
      0.22449725	      1.21246069	     -0.06182119	      0.00000000
      0.22578747	      1.21437024	     -0.06584492	      0.00000000
      0.22707768	      1.21621201	     -0.06984784	      0.00000000
      0.22836790	      1.21799279	     -0.07382784	      0.00000000
      0.22965811	      1.21971927	     -0.07778325	      0.00000000
      0.23094832	      1.22139920	     -0.08171139	      0.00000000
      0.23223854	      1.22304037	     -0.08560992	      0.00000000
      0.23352875	      1.22465105	     -0.08947587	      0.00000000
      0.23481897	      1.22623957	     -0.09330650	      0.00000000
      0.23610918	      1.22781470	     -0.09709867	      0.00000000
      0.23739939	      1.22938530	     -0.10084934	      0.00000000
      0.23868961	      1.23096090	     -0.10455520	      0.00000000
      0.23997982	      1.23255109	     -0.10821293	      0.00000000
      0.24127004	      1.23416608	     -0.11181924	      0.00000000
      0.24256025	      1.23581593	     -0.11537079	      0.00000000
      0.24385046	      1.23751097	     -0.11886474	      0.00000000
      0.24514068	      1.23926131	     -0.12229807	      0.00000000
      0.24643089	      1.24107702	     -0.12566868	      0.00000000
      0.24772111	      1.24296799	     -0.12897410	      0.00000000
      0.24901132	      1.24494371	     -0.13221329	      0.00000000
      0.25030154	      1.24701354	     -0.13538464	      0.00000000
      0.25159175	      1.24918552	     -0.13848865	      0.00000000
      0.25288196	      1.25146747	     -0.14152527	      0.00000000
      0.25417218	      1.25386494	     -0.14449709	      0.00000000
      0.25546239	      1.25638301	     -0.14740633	      0.00000000
      0.25675261	      1.25902474	     -0.15025737	      0.00000000
      0.25804282	      1.26179172	     -0.15305499	      0.00000000
      0.25933303	      1.26468743	     -0.15580305	      0.00000000
      0.26062325	      1.26771336	     -0.15850598	      0.00000000
      0.26191346	      1.27088002	     -0.16116252	      0.00000000
      0.26320368	      1.27420253	     -0.16376669	      0.00000000
      0.26449389	      1.27769392	     -0.16631601	      0.00000000
      0.26578410	      1.28136208	     -0.16881074	      0.00000000
      0.26707432	      1.28520318	     -0.17126209	      0.00000000
      0.26836453	      1.28921100	     -0.17368223	      0.00000000
      0.26965475	      1.29338154	     -0.17608334	      0.00000000
      0.27094496	      1.29771501	     -0.17847370	      0.00000000
      0.27223517	      1.30221924	     -0.18085716	      0.00000000
      0.27352539	      1.30690029	     -0.18323826	      0.00000000
      0.27481560	      1.31176507	     -0.18562172	      0.00000000
      0.27610582	      1.31681971	     -0.18801233	      0.00000000
      0.27739603	      1.32206707	     -0.19041729	      0.00000000
      0.27868625	      1.32751002	     -0.19284359	      0.00000000
      0.27997646	      1.33314754	     -0.19530017	      0.00000000
      0.28126667	      1.33897903	     -0.19779543	      0.00000000
      0.28255689	      1.34499711	     -0.20033754	      0.00000000
      0.28384710	      1.35119895	     -0.20293576	      0.00000000
      0.28513732	      1.35758192	     -0.20559838	      0.00000000
      0.28642753	      1.36413585	     -0.20832966	      0.00000000
      0.28771774	      1.37086014	     -0.21114049	      0.00000000
      0.28900796	      1.37776877	     -0.21405002	      0.00000000
      0.29029817	      1.38485888	     -0.21706855	      0.00000000
      0.29158839	      1.39210634	     -0.22019275	      0.00000000
      0.29287860	      1.39950537	     -0.22343033	      0.00000000
      0.29416881	      1.40708438	     -0.22680696	      0.00000000
      0.29545903	      1.41484922	     -0.23034072	      0.00000000
      0.29674924	      1.42280092	     -0.23404361	      0.00000000
      0.29803946	      1.43087669	     -0.23790579	      0.00000000
      0.29932967	      1.43903288	     -0.24192590	      0.00000000
      0.30061989	      1.44711992	     -0.24607065	      0.00000000
      0.30191010	      1.45497039	     -0.25032040	      0.00000000
      0.30320031	      1.46244648	     -0.25461257	      0.00000000
      0.30449053	      1.46950624	     -0.25890756	      0.00000000
      0.30578074	      1.47595847	     -0.26307098	      0.00000000
      0.30707096	      1.48139909	     -0.26691141	      0.00000000
      0.30836117	      1.48562748	     -0.27025068	      0.00000000
      0.30965138	      1.48862735	     -0.27296013	      0.00000000
      0.31094160	      1.49076674	     -0.27507906	      0.00000000
      0.31223181	      1.49241279	     -0.27667782	      0.00000000
      0.31352203	      1.49369511	     -0.27777502	      0.00000000
      0.31481224	      1.49448538	     -0.27834666	      0.00000000
      0.31610245	      1.49429914	     -0.27811476	      0.00000000
      0.31739267	      1.49279597	     -0.27676247	      0.00000000
      0.31868288	      1.49060869	     -0.27410595	      0.00000000
      0.31997310	      1.48810364	     -0.26983127	      0.00000000
      0.32126331	      1.48550749	     -0.26398037	      0.00000000
      0.32255352	      1.48407029	     -0.25699640	      0.00000000
      0.32384374	      1.48350222	     -0.24932824	      0.00000000
      0.32513395	      1.48248646	     -0.24104917	      0.00000000
      0.32642417	      1.48064151	     -0.23225760	      0.00000000
      0.32771438	      1.47789392	     -0.22310086	      0.00000000
      0.32900460	      1.47424877	     -0.21360401	      0.00000000
      0.33029481	      1.46971039	     -0.20383327	      0.00000000
      0.33158502	      1.46436828	     -0.19382136	      0.00000000
      0.33287524	      1.45829186	     -0.18361348	      0.00000000
      0.33416545	      1.45158730	     -0.17324525	      0.00000000
      0.33545567	      1.44435018	     -0.16275796	      0.00000000
      0.33674588	      1.43668224	     -0.15218395	      0.00000000
      0.33803609	      1.42867033	     -0.14158385	      0.00000000
      0.33932631	      1.42040148	     -0.13098300	      0.00000000
      0.34061652	      1.41199672	     -0.12034204	      0.00000000
      0.34190674	      1.40360060	     -0.10953151	      0.00000000
      0.34319695	      1.39532915	     -0.09849243	      0.00000000
      0.34448716	      1.38719935	     -0.08731830	      0.00000000
      0.34577738	      1.37924932	     -0.07606955	      0.00000000
      0.34706759	      1.37149348	     -0.06480692	      0.00000000
      0.34835781	      1.36395503	     -0.05358498	      0.00000000
      0.34964802	      1.35664182	     -0.04244854	      0.00000000
      0.35093824	      1.34956454	     -0.03144486	      0.00000000
      0.35222845	      1.34272523	     -0.02060846	      0.00000000
      0.35351866	      1.33613130	     -0.00997501	      0.00000000
      0.35480888	      1.32977974	      0.00042986	      0.00000000
      0.35609909	      1.32366304	      0.01057494	      0.00000000
      0.35738931	      1.31777334	      0.02044009	      0.00000000
      0.35867952	      1.31210883	      0.03000512	      0.00000000
      0.35996973	      1.30667100	      0.03926165	      0.00000000
      0.36125995	      1.30145872	      0.04819730	      0.00000000
      0.36255016	      1.29647065	      0.05680906	      0.00000000
      0.36384038	      1.29170725	      0.06509333	      0.00000000
      0.36513059	      1.28716524	      0.07305327	      0.00000000
      0.36642080	      1.28284137	      0.08069064	      0.00000000
      0.36771102	      1.27872591	      0.08800888	      0.00000000
      0.36900123	      1.27480956	      0.09501090	      0.00000000
      0.37029145	      1.27107888	      0.10169849	      0.00000000
      0.37158166	      1.26752133	      0.10807494	      0.00000000
      0.37287187	      1.26412286	      0.11413889	      0.00000000
      0.37416209	      1.26086793	      0.11988970	      0.00000000
      0.37545230	      1.25774323	      0.12531868	      0.00000000
      0.37674252	      1.25472931	      0.13041376	      0.00000000
      0.37803273	      1.25182580	      0.13516525	      0.00000000
      0.37932295	      1.24904556	      0.13956788	      0.00000000
      0.38061316	      1.24640027	      0.14362431	      0.00000000
      0.38190337	      1.24387635	      0.14732816	      0.00000000
      0.38319359	      1.24146931	      0.15068856	      0.00000000
      0.38448380	      1.23919249	      0.15371745	      0.00000000
      0.38577402	      1.23707830	      0.15644695	      0.00000000
      0.38706423	      1.23515518	      0.15890626	      0.00000000
      0.38835444	      1.23343784	      0.16113003	      0.00000000
      0.38964466	      1.23193762	      0.16315165	      0.00000000
      0.39093487	      1.23065078	      0.16499844	      0.00000000
      0.39222509	      1.22957737	      0.16669849	      0.00000000
      0.39351530	      1.22871061	      0.16826820	      0.00000000
      0.39480551	      1.22805170	      0.16972685	      0.00000000
      0.39609573	      1.22758922	      0.17108058	      0.00000000
      0.39738594	      1.22730832	      0.17233709	      0.00000000
      0.39867616	      1.22718187	      0.17349365	      0.00000000
      0.39996637	      1.22718544	      0.17454955	      0.00000000
      0.40125658	      1.22729247	      0.17549842	      0.00000000
      0.40254680	      1.22747713	      0.17633533	      0.00000000
      0.40383701	      1.22771780	      0.17705377	      0.00000000
      0.40512723	      1.22799229	      0.17764773	      0.00000000
      0.40641744	      1.22828445	      0.17811164	      0.00000000
      0.40770766	      1.22857667	      0.17843970	      0.00000000
      0.40899787	      1.22885740	      0.17862781	      0.00000000
      0.41028808	      1.22911362	      0.17867137	      0.00000000
      0.41157830	      1.22933849	      0.17856853	      0.00000000
      0.41286851	      1.22952397	      0.17831675	      0.00000000
      0.41415873	      1.22966815	      0.17791694	      0.00000000
      0.41544894	      1.22976804	      0.17736942	      0.00000000
      0.41673915	      1.22982580	      0.17667772	      0.00000000
      0.41802937	      1.22984286	      0.17584515	      0.00000000
      0.41931958	      1.22982409	      0.17487642	      0.00000000
      0.42060980	      1.22977394	      0.17377525	      0.00000000
      0.42190001	      1.22969795	      0.17254571	      0.00000000
      0.42319022	      1.22960227	      0.17119095	      0.00000000
      0.42448044	      1.22949077	      0.16971666	      0.00000000
      0.42577065	      1.22936792	      0.16812861	      0.00000000
      0.42706087	      1.22923264	      0.16643638	      0.00000000
      0.42835108	      1.22908423	      0.16465279	      0.00000000
      0.42964130	      1.22891711	      0.16278457	      0.00000000
      0.43093151	      1.22872649	      0.16083416	      0.00000000
      0.43222172	      1.22850458	      0.15879821	      0.00000000
      0.43351194	      1.22824385	      0.15667550	      0.00000000
      0.43480215	      1.22793728	      0.15446707	      0.00000000
      0.43609237	      1.22757787	      0.15217517	      0.00000000
      0.43738258	      1.22716070	      0.14980422	      0.00000000
      0.43867279	      1.22668024	      0.14735804	      0.00000000
      0.43996301	      1.22613335	      0.14483993	      0.00000000
      0.44125322	      1.22551520	      0.14225283	      0.00000000
      0.44254344	      1.22482592	      0.13959879	      0.00000000
      0.44383365	      1.22406561	      0.13687906	      0.00000000
      0.44512386	      1.22323990	      0.13409715	      0.00000000
      0.44641408	      1.22235540	      0.13125787	      0.00000000
      0.44770429	      1.22141818	      0.12836776	      0.00000000
      0.44899451	      1.22043312	      0.12543283	      0.00000000
      0.45028472	      1.21939972	      0.12245742	      0.00000000
      0.45157493	      1.21831697	      0.11944549	      0.00000000
      0.45286515	      1.21718206	      0.11639945	      0.00000000
      0.45415536	      1.21599364	      0.11332222	      0.00000000
      0.45544558	      1.21475160	      0.11021629	      0.00000000
      0.45673579	      1.21345558	      0.10708421	      0.00000000
      0.45802601	      1.21210619	      0.10392832	      0.00000000
      0.45931622	      1.21070367	      0.10075097	      0.00000000
      0.46060643	      1.20924927	      0.09755476	      0.00000000
      0.46189665	      1.20774394	      0.09434218	      0.00000000
      0.46318686	      1.20618995	      0.09111644	      0.00000000
      0.46447708	      1.20458924	      0.08788060	      0.00000000
      0.46576729	      1.20294528	      0.08463864	      0.00000000
      0.46705750	      1.20126121	      0.08139437	      0.00000000
      0.46834772	      1.19954160	      0.07815246	      0.00000000
      0.46963793	      1.19779079	      0.07491747	      0.00000000
      0.47092815	      1.19601405	      0.07169447	      0.00000000
      0.47221836	      1.19421660	      0.06848851	      0.00000000
      0.47350857	      1.19240373	      0.06530473	      0.00000000
      0.47479879	      1.19058086	      0.06214829	      0.00000000
      0.47608900	      1.18875255	      0.05902395	      0.00000000
      0.47737922	      1.18692358	      0.05593659	      0.00000000
      0.47866943	      1.18509723	      0.05289026	      0.00000000
      0.47995965	      1.18327702	      0.04988918	      0.00000000
      0.48124986	      1.18146488	      0.04693660	      0.00000000
      0.48254007	      1.17966296	      0.04403594	      0.00000000
      0.48383029	      1.17787224	      0.04118974	      0.00000000
      0.48512050	      1.17609386	      0.03840068	      0.00000000
      0.48641072	      1.17432848	      0.03567078	      0.00000000
      0.48770093	      1.17257683	      0.03300219	      0.00000000
      0.48899114	      1.17083985	      0.03039662	      0.00000000
      0.49028136	      1.16911846	      0.02785591	      0.00000000
      0.49157157	      1.16741420	      0.02538159	      0.00000000
      0.49286179	      1.16572855	      0.02297534	      0.00000000
      0.49415200	      1.16406348	      0.02063853	      0.00000000
      0.49544221	      1.16242098	      0.01837262	      0.00000000
      0.49673243	      1.16080299	      0.01617862	      0.00000000
      0.49802264	      1.15921155	      0.01405769	      0.00000000
      0.49931286	      1.15764813	      0.01201025	      0.00000000
      0.50060307	      1.15611432	      0.01003692	      0.00000000
      0.50189328	      1.15461074	      0.00813743	      0.00000000
      0.50318350	      1.15313819	      0.00631172	      0.00000000
      0.50447371	      1.15169643	      0.00455883	      0.00000000
      0.50576393	      1.15028534	      0.00287798	      0.00000000
      0.50705414	      1.14890412	      0.00126768	      0.00000000
      0.50834436	      1.14755201	     -0.00027343	      0.00000000
      0.50963457	      1.14622818	     -0.00174710	      0.00000000
      0.51092478	      1.14493178	     -0.00315500	      0.00000000
      0.51221500	      1.14366237	     -0.00449887	      0.00000000
      0.51350521	      1.14241949	     -0.00578046	      0.00000000
      0.51479543	      1.14120321	     -0.00700142	      0.00000000
      0.51608564	      1.14001354	     -0.00816341	      0.00000000
      0.51737585	      1.13885093	     -0.00926806	      0.00000000
      0.51866607	      1.13771575	     -0.01031695	      0.00000000
      0.51995628	      1.13660854	     -0.01131174	      0.00000000
      0.52124650	      1.13552980	     -0.01225405	      0.00000000
      0.52253671	      1.13447998	     -0.01314561	      0.00000000
      0.52382692	      1.13345949	     -0.01398813	      0.00000000
      0.52511714	      1.13246866	     -0.01478347	      0.00000000
      0.52640735	      1.13150774	     -0.01553343	      0.00000000
      0.52769757	      1.13057700	     -0.01623992	      0.00000000
      0.52898778	      1.12967663	     -0.01690482	      0.00000000
      0.53027799	      1.12880696	     -0.01752998	      0.00000000
      0.53156821	      1.12796827	     -0.01811726	      0.00000000
      0.53285842	      1.12716115	     -0.01866836	      0.00000000
      0.53414864	      1.12638611	     -0.01918502	      0.00000000
      0.53543885	      1.12564400	     -0.01966874	      0.00000000
      0.53672907	      1.12493563	     -0.02012109	      0.00000000
      0.53801928	      1.12426203	     -0.02054340	      0.00000000
      0.53930949	      1.12362421	     -0.02093704	      0.00000000
      0.54059971	      1.12302318	     -0.02130325	      0.00000000
      0.54188992	      1.12245997	     -0.02164330	      0.00000000
      0.54318014	      1.12193537	     -0.02195842	      0.00000000
      0.54447035	      1.12145022	     -0.02224983	      0.00000000
      0.54576056	      1.12100499	     -0.02251880	      0.00000000
      0.54705078	      1.12060020	     -0.02276657	      0.00000000
      0.54834099	      1.12023608	     -0.02299440	      0.00000000
      0.54963121	      1.11991286	     -0.02320355	      0.00000000
      0.55092142	      1.11963068	     -0.02339516	      0.00000000
      0.55221163	      1.11938967	     -0.02357040	      0.00000000
      0.55350185	      1.11919012	     -0.02373016	      0.00000000
      0.55479206	      1.11903229	     -0.02387540	      0.00000000
      0.55608228	      1.11891679	     -0.02400667	      0.00000000
      0.55737249	      1.11884417	     -0.02412462	      0.00000000
      0.55866271	      1.11881530	     -0.02422943	      0.00000000
      0.55995292	      1.11883103	     -0.02432140	      0.00000000
      0.56124313	      1.11889228	     -0.02440046	      0.00000000
      0.56253335	      1.11899999	     -0.02446661	      0.00000000
      0.56382356	      1.11915485	     -0.02451967	      0.00000000
      0.56511378	      1.11935761	     -0.02455949	      0.00000000
      0.56640399	      1.11960847	     -0.02458596	      0.00000000
      0.56769420	      1.11990775	     -0.02459895	      0.00000000
      0.56898442	      1.12025511	     -0.02459862	      0.00000000
      0.57027463	      1.12065028	     -0.02458507	      0.00000000
      0.57156485	      1.12109252	     -0.02455890	      0.00000000
      0.57285506	      1.12158113	     -0.02452060	      0.00000000
      0.57414527	      1.12211525	     -0.02447121	      0.00000000
      0.57543549	      1.12269402	     -0.02441166	      0.00000000
      0.57672570	      1.12331687	     -0.02434323	      0.00000000
      0.57801592	      1.12398316	     -0.02426714	      0.00000000
      0.57930613	      1.12469282	     -0.02418467	      0.00000000
      0.58059634	      1.12544567	     -0.02409707	      0.00000000
      0.58188656	      1.12624210	     -0.02400543	      0.00000000
      0.58317677	      1.12708241	     -0.02391085	      0.00000000
      0.58446699	      1.12796721	     -0.02381421	      0.00000000
      0.58575720	      1.12889705	     -0.02371645	      0.00000000
      0.58704742	      1.12987248	     -0.02361836	      0.00000000
      0.58833763	      1.13089403	     -0.02352078	      0.00000000
      0.58962784	      1.13196199	     -0.02342455	      0.00000000
      0.59091806	      1.13307665	     -0.02333054	      0.00000000
      0.59220827	      1.13423806	     -0.02323969	      0.00000000
      0.59349849	      1.13544627	     -0.02315295	      0.00000000
      0.59478870	      1.13670124	     -0.02307129	      0.00000000
      0.59607891	      1.13800294	     -0.02299572	      0.00000000
      0.59736913	      1.13935154	     -0.02292713	      0.00000000
      0.59865934	      1.14074716	     -0.02286646	      0.00000000
      0.59994956	      1.14219047	     -0.02281438	      0.00000000
      0.60123977	      1.14368199	     -0.02277162	      0.00000000
      0.60252998	      1.14522313	     -0.02273856	      0.00000000
      0.60382020	      1.14681504	     -0.02271563	      0.00000000
      0.60511041	      1.14846009	     -0.02270288	      0.00000000
      0.60640063	      1.15016069	     -0.02270034	      0.00000000
      0.60769084	      1.15192009	     -0.02270777	      0.00000000
      0.60898105	      1.15374205	     -0.02272483	      0.00000000
      0.61027127	      1.15562886	     -0.02275143	      0.00000000
      0.61156148	      1.15758277	     -0.02278755	      0.00000000
      0.61285170	      1.15960288	     -0.02283367	      0.00000000
      0.61414191	      1.16168831	     -0.02289033	      0.00000000
      0.61543213	      1.16383651	     -0.02295820	      0.00000000
      0.61672234	      1.16604535	     -0.02303793	      0.00000000
      0.61801255	      1.16831322	     -0.02312993	      0.00000000
      0.61930277	      1.17063857	     -0.02323468	      0.00000000
      0.62059298	      1.17302117	     -0.02335227	      0.00000000
      0.62188320	      1.17546066	     -0.02348284	      0.00000000
      0.62317341	      1.17795777	     -0.02362609	      0.00000000
      0.62446362	      1.18051311	     -0.02378176	      0.00000000
      0.62575384	      1.18312775	     -0.02394926	      0.00000000
      0.62704405	      1.18580268	     -0.02412806	      0.00000000
      0.62833427	      1.18853878	     -0.02431756	      0.00000000
      0.62962448	      1.19133691	     -0.02451721	      0.00000000
      0.63091469	      1.19419754	     -0.02472660	      0.00000000
      0.63220491	      1.19712119	     -0.02494534	      0.00000000
      0.63349512	      1.20010801	     -0.02517325	      0.00000000
      0.63478534	      1.20315820	     -0.02541013	      0.00000000
      0.63607555	      1.20627170	     -0.02565602	      0.00000000
      0.63736577	      1.20944853	     -0.02591089	      0.00000000
      0.63865598	      1.21268857	     -0.02617488	      0.00000000
      0.63994619	      1.21599176	     -0.02644810	      0.00000000
      0.64123641	      1.21935807	     -0.02673070	      0.00000000
      0.64252662	      1.22278747	     -0.02702282	      0.00000000
      0.64381684	      1.22628013	     -0.02732453	      0.00000000
      0.64510705	      1.22983616	     -0.02763593	      0.00000000
      0.64639726	      1.23345590	     -0.02795700	      0.00000000
      0.64768748	      1.23713967	     -0.02828773	      0.00000000
      0.64897769	      1.24088794	     -0.02862802	      0.00000000
      0.65026791	      1.24470116	     -0.02897778	      0.00000000
      0.65155812	      1.24857986	     -0.02933690	      0.00000000
      0.65284833	      1.25252458	     -0.02970525	      0.00000000
      0.65413855	      1.25653585	     -0.03008276	      0.00000000
      0.65542876	      1.26061419	     -0.03046934	      0.00000000
      0.65671898	      1.26476006	     -0.03086502	      0.00000000
      0.65800919	      1.26897393	     -0.03126979	      0.00000000
      0.65929940	      1.27325614	     -0.03168379	      0.00000000
      0.66058962	      1.27760703	     -0.03210710	      0.00000000
      0.66187983	      1.28202679	     -0.03254000	      0.00000000
      0.66317005	      1.28651564	     -0.03298270	      0.00000000
      0.66446026	      1.29107364	     -0.03343558	      0.00000000
      0.66575048	      1.29570088	     -0.03389897	      0.00000000
      0.66704069	      1.30039730	     -0.03437336	      0.00000000
      0.66833090	      1.30516288	     -0.03485919	      0.00000000
      0.66962112	      1.30999748	     -0.03535700	      0.00000000
      0.67091133	      1.31490100	     -0.03586732	      0.00000000
      0.67220155	      1.31987324	     -0.03639074	      0.00000000
      0.67349176	      1.32491403	     -0.03692781	      0.00000000
      0.67478197	      1.33002303	     -0.03747915	      0.00000000
      0.67607219	      1.33519998	     -0.03804535	      0.00000000
      0.67736240	      1.34044437	     -0.03862703	      0.00000000
      0.67865262	      1.34575574	     -0.03922480	      0.00000000
      0.67994283	      1.35113324	     -0.03983932	      0.00000000
      0.68123304	      1.35657612	     -0.04047124	      0.00000000
      0.68252326	      1.36208300	     -0.04112128	      0.00000000
      0.68381347	      1.36765268	     -0.04179013	      0.00000000
      0.68510369	      1.37328311	     -0.04247858	      0.00000000
      0.68639390	      1.37897245	     -0.04318739	      0.00000000
      0.68768412	      1.38471787	     -0.04391737	      0.00000000
      0.68897433	      1.39051677	     -0.04466935	      0.00000000
      0.69026454	      1.39636555	     -0.04544409	      0.00000000
      0.69155476	      1.40226080	     -0.04624238	      0.00000000
      0.69284497	      1.40819821	     -0.04706476	      0.00000000
      0.69413519	      1.41417364	     -0.04791187	      0.00000000
      0.69542540	      1.42018227	     -0.04878384	      0.00000000
      0.69671561	      1.42621943	     -0.04968088	      0.00000000
      0.69800583	      1.43227990	     -0.05060265	      0.00000000
      0.69929604	      1.43835872	     -0.05154876	      0.00000000
      0.70058626	      1.44445006	     -0.05251870	      0.00000000
      0.70187647	      1.45054833	     -0.05351185	      0.00000000
      0.70316668	      1.45664645	     -0.05452837	      0.00000000
      0.70445690	      1.46273725	     -0.05556846	      0.00000000
      0.70574711	      1.46881235	     -0.05663342	      0.00000000
      0.70703733	      1.47486114	     -0.05772489	      0.00000000
      0.70832754	      1.48087803	     -0.05884397	      0.00000000
      0.70961775	      1.48685976	     -0.05999078	      0.00000000
      0.71090797	      1.49280854	     -0.06116528	      0.00000000
      0.71219818	      1.49872503	     -0.06236743	      0.00000000
      0.71348840	      1.50460976	     -0.06359914	      0.00000000
      0.71477861	      1.51046314	     -0.06486225	      0.00000000
      0.71606883	      1.51628337	     -0.06616106	      0.00000000
      0.71735904	      1.52206837	     -0.06749994	      0.00000000
      0.71864925	      1.52781543	     -0.06888408	      0.00000000
      0.71993947	      1.53352250	     -0.07031851	      0.00000000
      0.72122968	      1.53918891	     -0.07180731	      0.00000000
      0.72251990	      1.54481391	     -0.07335478	      0.00000000
      0.72381011	      1.55039866	     -0.07496355	      0.00000000
      0.72510032	      1.55594373	     -0.07663689	      0.00000000
      0.72639054	      1.56145227	     -0.07837583	      0.00000000
      0.72768075	      1.56692626	     -0.08018220	      0.00000000
      0.72897097	      1.57237201	     -0.08205430	      0.00000000
      0.73026118	      1.57779574	     -0.08399024	      0.00000000
      0.73155139	      1.58320749	     -0.08598545	      0.00000000
      0.73284161	      1.58861759	     -0.08803478	      0.00000000
      0.73413182	      1.59403443	     -0.09013503	      0.00000000
      0.73542204	      1.59946558	     -0.09228336	      0.00000000
      0.73671225	      1.60491266	     -0.09448140	      0.00000000
      0.73800246	      1.61037812	     -0.09672990	      0.00000000
      0.73929268	      1.61585863	     -0.09903303	      0.00000000
      0.74058289	      1.62135208	     -0.10139407	      0.00000000
      0.74187311	      1.62685136	     -0.10381855	      0.00000000
      0.74316332	      1.63235010	     -0.10631175	      0.00000000
      0.74445354	      1.63783866	     -0.10887997	      0.00000000
      0.74574375	      1.64330771	     -0.11152962	      0.00000000
      0.74703396	      1.64874809	     -0.11426623	      0.00000000
      0.74832418	      1.65415052	     -0.11709562	      0.00000000
      0.74961439	      1.65950954	     -0.12002102	      0.00000000
      0.75090461	      1.66481883	     -0.12304618	      0.00000000
      0.75219482	      1.67007821	     -0.12617157	      0.00000000
      0.75348503	      1.67528556	     -0.12939853	      0.00000000
      0.75477525	      1.68044632	     -0.13272482	      0.00000000
      0.75606546	      1.68556258	     -0.13614958	      0.00000000
      0.75735568	      1.69064703	     -0.13966658	      0.00000000
      0.75864589	      1.69570701	     -0.14327141	      0.00000000
      0.75993610	      1.70076758	     -0.14694999	      0.00000000
      0.76122632	      1.70585629	     -0.15068362	      0.00000000
      0.76251653	      1.71100590	     -0.15445337	      0.00000000
      0.76380675	      1.71624361	     -0.15824184	      0.00000000
      0.76509696	      1.72158445	     -0.16204285	      0.00000000
      0.76638718	      1.72704378	     -0.16584967	      0.00000000
      0.76767739	      1.73262318	     -0.16966315	      0.00000000
      0.76896760	      1.73833140	     -0.17348072	      0.00000000
      0.77025782	      1.74415652	     -0.17730439	      0.00000000
      0.77154803	      1.75008477	     -0.18113471	      0.00000000
      0.77283825	      1.75608637	     -0.18497830	      0.00000000
      0.77412846	      1.76209172	     -0.18882722	      0.00000000
