PointPosition
version=1
nRows=601
nColumns=4
inDegrees=no
No description.
endheader
time	state_0	state_1	state_2
      0.00000000	     -0.38732229	     -0.00436690	     -0.09478690
      0.00119221	     -0.38736142	     -0.00410135	     -0.09478690
      0.00238442	     -0.38739755	     -0.00382855	     -0.09478690
      0.00357663	     -0.38743006	     -0.00354840	     -0.09478690
      0.00476884	     -0.38745807	     -0.00326101	     -0.09478690
      0.00596105	     -0.38748081	     -0.00296624	     -0.09478690
      0.00715326	     -0.38749783	     -0.00266337	     -0.09478690
      0.00834547	     -0.38750837	     -0.00235196	     -0.09478690
      0.00953768	     -0.38750874	     -0.00203066	     -0.09478690
      0.01072989	     -0.38749287	     -0.00169705	     -0.09478690
      0.01192210	     -0.38743639	     -0.00134353	     -0.09478690
      0.01311431	     -0.38729514	     -0.00096045	     -0.09478690
      0.01430652	     -0.38701487	     -0.00053984	     -0.09478690
      0.01549873	     -0.38655874	     -0.00007777	     -0.09478690
      0.01669094	     -0.38592011	      0.00042379	     -0.09478690
      0.01788315	     -0.38510046	      0.00096071	     -0.09478690
      0.01907536	     -0.38411451	      0.00152620	     -0.09478690
      0.02026757	     -0.38298199	      0.00211332	     -0.09478690
      0.02145978	     -0.38172503	      0.00271522	     -0.09478690
      0.02265200	     -0.38036374	      0.00332605	     -0.09478690
      0.02384421	     -0.37891299	      0.00394143	     -0.09478690
      0.02503642	     -0.37738463	      0.00455783	     -0.09478690
      0.02622863	     -0.37578574	      0.00517290	     -0.09478690
      0.02742084	     -0.37412161	      0.00578478	     -0.09478690
      0.02861305	     -0.37239489	      0.00639230	     -0.09478690
      0.02980526	     -0.37060741	      0.00699451	     -0.09478690
      0.03099747	     -0.36875991	      0.00759081	     -0.09478690
      0.03218968	     -0.36685285	      0.00818073	     -0.09478690
      0.03338189	     -0.36488641	      0.00876394	     -0.09478690
      0.03457410	     -0.36286080	      0.00934014	     -0.09478690
      0.03576631	     -0.36077628	      0.00990914	     -0.09478690
      0.03695852	     -0.35863321	      0.01047075	     -0.09478690
      0.03815073	     -0.35643214	      0.01102483	     -0.09478690
      0.03934294	     -0.35417371	      0.01157129	     -0.09478690
      0.04053515	     -0.35185870	      0.01211006	     -0.09478690
      0.04172736	     -0.34948800	      0.01264110	     -0.09478690
      0.04291957	     -0.34706260	      0.01316439	     -0.09478690
      0.04411178	     -0.34458357	      0.01367996	     -0.09478690
      0.04530399	     -0.34205203	      0.01418783	     -0.09478690
      0.04649620	     -0.33946914	      0.01468807	     -0.09478690
      0.04768841	     -0.33683609	      0.01518073	     -0.09478690
      0.04888062	     -0.33415410	      0.01566589	     -0.09478690
      0.05007283	     -0.33142433	      0.01614364	     -0.09478690
      0.05126504	     -0.32864795	      0.01661406	     -0.09478690
      0.05245725	     -0.32582608	      0.01707723	     -0.09478690
      0.05364946	     -0.32295979	      0.01753326	     -0.09478690
      0.05484167	     -0.32005013	      0.01798220	     -0.09478690
      0.05603388	     -0.31709811	      0.01842414	     -0.09478690
      0.05722609	     -0.31410476	      0.01885910	     -0.09478690
      0.05841830	     -0.31107113	      0.01928707	     -0.09478690
      0.05961051	     -0.30799835	      0.01970801	     -0.09478690
      0.06080272	     -0.30488763	      0.02012180	     -0.09478690
      0.06199493	     -0.30174034	      0.02052824	     -0.09478690
      0.06318714	     -0.29855796	      0.02092706	     -0.09478690
      0.06437935	     -0.29534208	      0.02131792	     -0.09478690
      0.06557156	     -0.29209428	      0.02170046	     -0.09478690
      0.06676377	     -0.28881605	      0.02207427	     -0.09478690
      0.06795599	     -0.28550873	      0.02243897	     -0.09478690
      0.06914820	     -0.28217340	      0.02279418	     -0.09478690
      0.07034041	     -0.27881100	      0.02313957	     -0.09478690
      0.07153262	     -0.27542223	      0.02347485	     -0.09478690
      0.07272483	     -0.27200764	      0.02379975	     -0.09478690
      0.07391704	     -0.26856761	      0.02411407	     -0.09478690
      0.07510925	     -0.26510240	      0.02441766	     -0.09478690
      0.07630146	     -0.26161207	      0.02471042	     -0.09478690
      0.07749367	     -0.25809662	      0.02499231	     -0.09478690
      0.07868588	     -0.25455590	      0.02526334	     -0.09478690
      0.07987809	     -0.25098973	      0.02552356	     -0.09478690
      0.08107030	     -0.24739783	      0.02577307	     -0.09478690
      0.08226251	     -0.24377994	      0.02601201	     -0.09478690
      0.08345472	     -0.24013575	      0.02624054	     -0.09478690
      0.08464693	     -0.23646500	      0.02645884	     -0.09478690
      0.08583914	     -0.23276746	      0.02666709	     -0.09478690
      0.08703135	     -0.22904293	      0.02686551	     -0.09478690
      0.08822356	     -0.22529125	      0.02705430	     -0.09478690
      0.08941577	     -0.22151232	      0.02723367	     -0.09478690
      0.09060798	     -0.21770610	      0.02740384	     -0.09478690
      0.09180019	     -0.21387257	      0.02756503	     -0.09478690
      0.09299240	     -0.21001177	      0.02771745	     -0.09478690
      0.09418461	     -0.20612376	      0.02786131	     -0.09478690
      0.09537682	     -0.20220866	      0.02799683	     -0.09478690
      0.09656903	     -0.19826660	      0.02812423	     -0.09478690
      0.09776124	     -0.19429773	      0.02824373	     -0.09478690
      0.09895345	     -0.19030224	      0.02835555	     -0.09478690
      0.10014566	     -0.18628033	      0.02845991	     -0.09478690
      0.10133787	     -0.18223222	      0.02855704	     -0.09478690
      0.10253008	     -0.17815813	      0.02864715	     -0.09478690
      0.10372229	     -0.17405832	      0.02873047	     -0.09478690
      0.10491450	     -0.16993303	      0.02880723	     -0.09478690
      0.10610671	     -0.16578255	      0.02887766	     -0.09478690
      0.10729892	     -0.16160715	      0.02894197	     -0.09478690
      0.10849113	     -0.15740712	      0.02900040	     -0.09478690
      0.10968334	     -0.15318276	      0.02905317	     -0.09478690
      0.11087555	     -0.14893439	      0.02910050	     -0.09478690
      0.11206776	     -0.14466231	      0.02914261	     -0.09478690
      0.11325998	     -0.14036686	      0.02917972	     -0.09478690
      0.11445219	     -0.13604835	      0.02921206	     -0.09478690
      0.11564440	     -0.13170714	      0.02923983	     -0.09478690
      0.11683661	     -0.12734356	      0.02926326	     -0.09478690
      0.11802882	     -0.12295795	      0.02928255	     -0.09478690
      0.11922103	     -0.11855068	      0.02929792	     -0.09478690
      0.12041324	     -0.11412207	      0.02930956	     -0.09478690
      0.12160545	     -0.10967250	      0.02931769	     -0.09478690
      0.12279766	     -0.10520232	      0.02932251	     -0.09478690
      0.12398987	     -0.10071188	      0.02932421	     -0.09478690
      0.12518208	     -0.09620154	      0.02932299	     -0.09478690
      0.12637429	     -0.09167166	      0.02931905	     -0.09478690
      0.12756650	     -0.08712259	      0.02931256	     -0.09478690
      0.12875871	     -0.08255470	      0.02930372	     -0.09478690
      0.12995092	     -0.07796832	      0.02929271	     -0.09478690
      0.13114313	     -0.07336383	      0.02927971	     -0.09478690
      0.13233534	     -0.06874157	      0.02926489	     -0.09478690
      0.13352755	     -0.06410189	      0.02924843	     -0.09478690
      0.13471976	     -0.05944516	      0.02923048	     -0.09478690
      0.13591197	     -0.05477170	      0.02921122	     -0.09478690
      0.13710418	     -0.05008189	      0.02919079	     -0.09478690
      0.13829639	     -0.04537606	      0.02916936	     -0.09478690
      0.13948860	     -0.04065455	      0.02914706	     -0.09478690
      0.14068081	     -0.03591773	      0.02912405	     -0.09478690
      0.14187302	     -0.03116592	      0.02910047	     -0.09478690
      0.14306523	     -0.02639947	      0.02907643	     -0.09478690
      0.14425744	     -0.02161873	      0.02905208	     -0.09478690
      0.14544965	     -0.01682403	      0.02902753	     -0.09478690
      0.14664186	     -0.01201571	      0.02900290	     -0.09478690
      0.14783407	     -0.00719411	      0.02897830	     -0.09478690
      0.14902628	     -0.00235956	      0.02895383	     -0.09478690
      0.15021849	      0.00248760	      0.02892959	     -0.09478690
      0.15141070	      0.00734705	      0.02890568	     -0.09478690
      0.15260291	      0.01221846	      0.02888218	     -0.09478690
      0.15379512	      0.01710149	      0.02885917	     -0.09478690
      0.15498733	      0.02199584	      0.02883673	     -0.09478690
      0.15617954	      0.02690117	      0.02881493	     -0.09478690
      0.15737176	      0.03181718	      0.02879383	     -0.09478690
      0.15856397	      0.03674354	      0.02877350	     -0.09478690
      0.15975618	      0.04167994	      0.02875399	     -0.09478690
      0.16094839	      0.04662608	      0.02873533	     -0.09478690
      0.16214060	      0.05158166	      0.02871759	     -0.09478690
      0.16333281	      0.05654636	      0.02870079	     -0.09478690
      0.16452502	      0.06151990	      0.02868497	     -0.09478690
      0.16571723	      0.06650198	      0.02867015	     -0.09478690
      0.16690944	      0.07149230	      0.02865636	     -0.09478690
      0.16810165	      0.07649059	      0.02864361	     -0.09478690
      0.16929386	      0.08149655	      0.02863191	     -0.09478690
      0.17048607	      0.08650991	      0.02862126	     -0.09478690
      0.17167828	      0.09153039	      0.02861168	     -0.09478690
      0.17287049	      0.09655773	      0.02860315	     -0.09478690
      0.17406270	      0.10159165	      0.02859567	     -0.09478690
      0.17525491	      0.10663191	      0.02858923	     -0.09478690
      0.17644712	      0.11167826	      0.02858382	     -0.09478690
      0.17763933	      0.11673045	      0.02857942	     -0.09478690
      0.17883154	      0.12178825	      0.02857603	     -0.09478690
      0.18002375	      0.12685142	      0.02857362	     -0.09478690
      0.18121596	      0.13191975	      0.02857217	     -0.09478690
      0.18240817	      0.13699301	      0.02857166	     -0.09478690
      0.18360038	      0.14207100	      0.02857208	     -0.09478690
      0.18479259	      0.14715351	      0.02857339	     -0.09478690
      0.18598480	      0.15224035	      0.02857556	     -0.09478690
      0.18717701	      0.15733134	      0.02857859	     -0.09478690
      0.18836922	      0.16242627	      0.02858243	     -0.09478690
      0.18956143	      0.16752499	      0.02858707	     -0.09478690
      0.19075364	      0.17262732	      0.02859249	     -0.09478690
      0.19194585	      0.17773311	      0.02859866	     -0.09478690
      0.19313806	      0.18284221	      0.02860558	     -0.09478690
      0.19433027	      0.18795447	      0.02861323	     -0.09478690
      0.19552248	      0.19306975	      0.02862160	     -0.09478690
      0.19671469	      0.19818795	      0.02863069	     -0.09478690
      0.19790690	      0.20330893	      0.02864050	     -0.09478690
      0.19909911	      0.20843258	      0.02865103	     -0.09478690
      0.20029132	      0.21355881	      0.02866230	     -0.09478690
      0.20148353	      0.21868750	      0.02867431	     -0.09478690
      0.20267575	      0.22381858	      0.02868710	     -0.09478690
      0.20386796	      0.22895194	      0.02870067	     -0.09478690
      0.20506017	      0.23408751	      0.02871507	     -0.09478690
      0.20625238	      0.23922521	      0.02873033	     -0.09478690
      0.20744459	      0.24436497	      0.02874650	     -0.09478690
      0.20863680	      0.24950673	      0.02876362	     -0.09478690
      0.20982901	      0.25465042	      0.02878175	     -0.09478690
      0.21102122	      0.25979599	      0.02880096	     -0.09478690
      0.21221343	      0.26494339	      0.02882131	     -0.09478690
      0.21340564	      0.27009257	      0.02884288	     -0.09478690
      0.21459785	      0.27524349	      0.02886575	     -0.09478690
      0.21579006	      0.28039610	      0.02889002	     -0.09478690
      0.21698227	      0.28555037	      0.02891576	     -0.09478690
      0.21817448	      0.29070627	      0.02894309	     -0.09478690
      0.21936669	      0.29586375	      0.02897212	     -0.09478690
      0.22055890	      0.30102280	      0.02900294	     -0.09478690
      0.22175111	      0.30618338	      0.02903567	     -0.09478690
      0.22294332	      0.31134548	      0.02907045	     -0.09478690
      0.22413553	      0.31650907	      0.02910740	     -0.09478690
      0.22532774	      0.32167414	      0.02914664	     -0.09478690
      0.22651995	      0.32684069	      0.02918832	     -0.09478690
      0.22771216	      0.33200869	      0.02923259	     -0.09478690
      0.22890437	      0.33717817	      0.02927958	     -0.09478690
      0.23009658	      0.34234911	      0.02932947	     -0.09478690
      0.23128879	      0.34752155	      0.02938241	     -0.09478690
      0.23248100	      0.35269550	      0.02943857	     -0.09478690
      0.23367321	      0.35787101	      0.02949814	     -0.09478690
      0.23486542	      0.36304811	      0.02956129	     -0.09478690
      0.23605763	      0.36822687	      0.02962823	     -0.09478690
      0.23724984	      0.37340737	      0.02969915	     -0.09478690
      0.23844205	      0.37858969	      0.02977428	     -0.09478690
      0.23963426	      0.38377394	      0.02985384	     -0.09478690
      0.24082647	      0.38896025	      0.02993807	     -0.09478690
      0.24201868	      0.39414877	      0.03002723	     -0.09478690
      0.24321089	      0.39933966	      0.03012159	     -0.09478690
      0.24440310	      0.40453312	      0.03022143	     -0.09478690
      0.24559531	      0.40972934	      0.03032706	     -0.09478690
      0.24678753	      0.41492855	      0.03043879	     -0.09478690
      0.24797974	      0.42013100	      0.03055699	     -0.09478690
      0.24917195	      0.42533694	      0.03068199	     -0.09478690
      0.25036416	      0.43054664	      0.03081419	     -0.09478690
      0.25155637	      0.43576036	      0.03095398	     -0.09478690
      0.25274858	      0.44097839	      0.03110179	     -0.09478690
      0.25394079	      0.44620098	      0.03125805	     -0.09478690
      0.25513300	      0.45142839	      0.03142321	     -0.09478690
      0.25632521	      0.45666087	      0.03159774	     -0.09478690
      0.25751742	      0.46189862	      0.03178212	     -0.09478690
      0.25870963	      0.46714184	      0.03197684	     -0.09478690
      0.25990184	      0.47239067	      0.03218239	     -0.09478690
      0.26109405	      0.47764524	      0.03239928	     -0.09478690
      0.26228626	      0.48290560	      0.03262801	     -0.09478690
      0.26347847	      0.48817179	      0.03286907	     -0.09478690
      0.26467068	      0.49344378	      0.03312297	     -0.09478690
      0.26586289	      0.49872150	      0.03339020	     -0.09478690
      0.26705510	      0.50400483	      0.03367123	     -0.09478690
      0.26824731	      0.50929359	      0.03396653	     -0.09478690
      0.26943952	      0.51458756	      0.03427655	     -0.09478690
      0.27063173	      0.51988644	      0.03460173	     -0.09478690
      0.27182394	      0.52518991	      0.03494250	     -0.09478690
      0.27301615	      0.53049758	      0.03529923	     -0.09478690
      0.27420836	      0.53580901	      0.03567231	     -0.09478690
      0.27540057	      0.54112371	      0.03606208	     -0.09478690
      0.27659278	      0.54644114	      0.03646887	     -0.09478690
      0.27778499	      0.55176072	      0.03689295	     -0.09478690
      0.27897720	      0.55708180	      0.03733459	     -0.09478690
      0.28016941	      0.56240370	      0.03779402	     -0.09478690
      0.28136162	      0.56772567	      0.03827142	     -0.09478690
      0.28255383	      0.57304694	      0.03876696	     -0.09478690
      0.28374604	      0.57836665	      0.03928076	     -0.09478690
      0.28493825	      0.58368390	      0.03981291	     -0.09478690
      0.28613046	      0.58899773	      0.04036345	     -0.09478690
      0.28732267	      0.59430713	      0.04093239	     -0.09478690
      0.28851488	      0.59961098	      0.04151969	     -0.09478690
      0.28970709	      0.60490815	      0.04212526	     -0.09478690
      0.29089930	      0.61019739	      0.04274895	     -0.09478690
      0.29209152	      0.61547742	      0.04339057	     -0.09478690
      0.29328373	      0.62074687	      0.04404982	     -0.09478690
      0.29447594	      0.62600432	      0.04472635	     -0.09478690
      0.29566815	      0.63124827	      0.04541972	     -0.09478690
      0.29686036	      0.63647719	      0.04612940	     -0.09478690
      0.29805257	      0.64168951	      0.04685474	     -0.09478690
      0.29924478	      0.64688361	      0.04759501	     -0.09478690
      0.30043699	      0.65205786	      0.04834936	     -0.09478690
      0.30162920	      0.65721066	      0.04911683	     -0.09478690
      0.30282141	      0.66234038	      0.04989639	     -0.09478690
      0.30401362	      0.66744546	      0.05068689	     -0.09478690
      0.30520583	      0.67252435	      0.05148713	     -0.09478690
      0.30639804	      0.67757558	      0.05229582	     -0.09478690
      0.30759025	      0.68259775	      0.05311166	     -0.09478690
      0.30878246	      0.68758950	      0.05393330	     -0.09478690
      0.30997467	      0.69254959	      0.05475943	     -0.09478690
      0.31116688	      0.69747685	      0.05558870	     -0.09478690
      0.31235909	      0.70237018	      0.05641987	     -0.09478690
      0.31355130	      0.70722855	      0.05725168	     -0.09478690
      0.31474351	      0.71205101	      0.05808296	     -0.09478690
      0.31593572	      0.71683662	      0.05891259	     -0.09478690
      0.31712793	      0.72158460	      0.05973951	     -0.09478690
      0.31832014	      0.72629415	      0.06056269	     -0.09478690
      0.31951235	      0.73096457	      0.06138116	     -0.09478690
      0.32070456	      0.73559518	      0.06219394	     -0.09478690
      0.32189677	      0.74018535	      0.06300011	     -0.09478690
      0.32308898	      0.74473448	      0.06379876	     -0.09478690
      0.32428119	      0.74924198	      0.06458896	     -0.09478690
      0.32547340	      0.75370732	      0.06536980	     -0.09478690
      0.32666561	      0.75812997	      0.06614038	     -0.09478690
      0.32785782	      0.76250943	      0.06689976	     -0.09478690
      0.32905003	      0.76684521	      0.06764698	     -0.09478690
      0.33024224	      0.77113685	      0.06838104	     -0.09478690
      0.33143445	      0.77538391	      0.06910086	     -0.09478690
      0.33262666	      0.77958596	      0.06980532	     -0.09478690
      0.33381887	      0.78374259	      0.07049319	     -0.09478690
      0.33501108	      0.78785341	      0.07116322	     -0.09478690
      0.33620329	      0.79191802	      0.07181414	     -0.09478690
      0.33739551	      0.79593603	      0.07244477	     -0.09478690
      0.33858772	      0.79990705	      0.07305390	     -0.09478690
      0.33977993	      0.80383068	      0.07364027	     -0.09478690
      0.34097214	      0.80770649	      0.07420260	     -0.09478690
      0.34216435	      0.81153403	      0.07473954	     -0.09478690
      0.34335656	      0.81531281	      0.07524975	     -0.09478690
      0.34454877	      0.81904230	      0.07573186	     -0.09478690
      0.34574098	      0.82272188	      0.07618445	     -0.09478690
      0.34693319	      0.82635089	      0.07660610	     -0.09478690
      0.34812540	      0.82992858	      0.07699523	     -0.09478690
      0.34931761	      0.83345410	      0.07735022	     -0.09478690
      0.35050982	      0.83692648	      0.07766932	     -0.09478690
      0.35170203	      0.84034465	      0.07795070	     -0.09478690
      0.35289424	      0.84370731	      0.07819237	     -0.09478690
      0.35408645	      0.84701304	      0.07839235	     -0.09478690
      0.35527866	      0.85026008	      0.07854850	     -0.09478690
      0.35647087	      0.85344644	      0.07865863	     -0.09478690
      0.35766308	      0.85656962	      0.07872015	     -0.09478690
      0.35885529	      0.85962675	      0.07873015	     -0.09478690
      0.36004750	      0.86261405	      0.07868439	     -0.09478690
      0.36123971	      0.86552711	      0.07857766	     -0.09478690
      0.36243192	      0.86835980	      0.07840182	     -0.09478690
      0.36362413	      0.87110485	      0.07814678	     -0.09478690
      0.36481634	      0.87375192	      0.07779788	     -0.09478690
      0.36600855	      0.87628877	      0.07733776	     -0.09478690
      0.36720076	      0.87869867	      0.07674394	     -0.09478690
      0.36839297	      0.88096228	      0.07599158	     -0.09478690
      0.36958518	      0.88305554	      0.07505302	     -0.09478690
      0.37077739	      0.88495193	      0.07390031	     -0.09478690
      0.37196960	      0.88662336	      0.07250828	     -0.09478690
      0.37316181	      0.88804191	      0.07085550	     -0.09478690
      0.37435402	      0.88918632	      0.06893397	     -0.09478690
      0.37554623	      0.89005610	      0.06678228	     -0.09478690
      0.37673844	      0.89073344	      0.06458677	     -0.09478690
      0.37793065	      0.89131275	      0.06251087	     -0.09478690
      0.37912286	      0.89182712	      0.06054542	     -0.09478690
      0.38031507	      0.89229450	      0.05865999	     -0.09478690
      0.38150729	      0.89272976	      0.05683945	     -0.09478690
      0.38269950	      0.89314317	      0.05506920	     -0.09478690
      0.38389171	      0.89354079	      0.05334236	     -0.09478690
      0.38508392	      0.89392655	      0.05165398	     -0.09478690
      0.38627613	      0.89430210	      0.05000296	     -0.09478690
      0.38746834	      0.89466832	      0.04838899	     -0.09478690
      0.38866055	      0.89502544	      0.04681271	     -0.09478690
      0.38985276	      0.89537361	      0.04527467	     -0.09478690
      0.39104497	      0.89571292	      0.04377528	     -0.09478690
      0.39223718	      0.89604346	      0.04231482	     -0.09478690
      0.39342939	      0.89636529	      0.04089352	     -0.09478690
      0.39462160	      0.89667838	      0.03951167	     -0.09478690
      0.39581381	      0.89698266	      0.03816957	     -0.09478690
      0.39700602	      0.89727805	      0.03686751	     -0.09478690
      0.39819823	      0.89756455	      0.03560532	     -0.09478690
      0.39939044	      0.89784230	      0.03438244	     -0.09478690
      0.40058265	      0.89811169	      0.03319744	     -0.09478690
      0.40177486	      0.89837320	      0.03204850	     -0.09478690
      0.40296707	      0.89862736	      0.03093359	     -0.09478690
      0.40415928	      0.89887461	      0.02985095	     -0.09478690
      0.40535149	      0.89911492	      0.02880043	     -0.09478690
      0.40654370	      0.89934788	      0.02778321	     -0.09478690
      0.40773591	      0.89957260	      0.02680216	     -0.09478690
      0.40892812	      0.89978809	      0.02586069	     -0.09478690
      0.41012033	      0.89999341	      0.02496228	     -0.09478690
      0.41131254	      0.90018778	      0.02411006	     -0.09478690
      0.41250475	      0.90037074	      0.02330630	     -0.09478690
      0.41369696	      0.90054200	      0.02255271	     -0.09478690
      0.41488917	      0.90070173	      0.02184926	     -0.09478690
      0.41608138	      0.90085037	      0.02119492	     -0.09478690
      0.41727359	      0.90098844	      0.02058872	     -0.09478690
      0.41846580	      0.90111628	      0.02003034	     -0.09478690
      0.41965801	      0.90123435	      0.01951817	     -0.09478690
      0.42085022	      0.90134343	      0.01904915	     -0.09478690
      0.42204243	      0.90144449	      0.01861960	     -0.09478690
      0.42323464	      0.90153839	      0.01822629	     -0.09478690
      0.42442685	      0.90162582	      0.01786654	     -0.09478690
      0.42561906	      0.90170738	      0.01753795	     -0.09478690
      0.42681128	      0.90178351	      0.01723859	     -0.09478690
      0.42800349	      0.90185460	      0.01696683	     -0.09478690
      0.42919570	      0.90192093	      0.01672139	     -0.09478690
      0.43038791	      0.90198271	      0.01650114	     -0.09478690
      0.43158012	      0.90204016	      0.01630504	     -0.09478690
      0.43277233	      0.90209343	      0.01613206	     -0.09478690
      0.43396454	      0.90214273	      0.01598122	     -0.09478690
      0.43515675	      0.90218825	      0.01585162	     -0.09478690
      0.43634896	      0.90223006	      0.01574251	     -0.09478690
      0.43754117	      0.90226825	      0.01565321	     -0.09478690
      0.43873338	      0.90230291	      0.01558295	     -0.09478690
      0.43992559	      0.90233416	      0.01553076	     -0.09478690
      0.44111780	      0.90236219	      0.01549540	     -0.09478690
      0.44231001	      0.90238720	      0.01547542	     -0.09478690
      0.44350222	      0.90240946	      0.01546903	     -0.09478690
      0.44469443	      0.90242928	      0.01547424	     -0.09478690
      0.44588664	      0.90244704	      0.01548874	     -0.09478690
      0.44707885	      0.90246313	      0.01551006	     -0.09478690
      0.44827106	      0.90247801	      0.01553557	     -0.09478690
      0.44946327	      0.90249214	      0.01556260	     -0.09478690
      0.45065548	      0.90250597	      0.01558858	     -0.09478690
      0.45184769	      0.90251994	      0.01561109	     -0.09478690
      0.45303990	      0.90253442	      0.01562808	     -0.09478690
      0.45423211	      0.90254976	      0.01563771	     -0.09478690
      0.45542432	      0.90256622	      0.01563860	     -0.09478690
      0.45661653	      0.90258399	      0.01562954	     -0.09478690
      0.45780874	      0.90260323	      0.01560961	     -0.09478690
      0.45900095	      0.90262405	      0.01557794	     -0.09478690
      0.46019316	      0.90264653	      0.01553380	     -0.09478690
      0.46138537	      0.90267074	      0.01547641	     -0.09478690
      0.46257758	      0.90269674	      0.01540500	     -0.09478690
      0.46376979	      0.90272460	      0.01531877	     -0.09478690
      0.46496200	      0.90275438	      0.01521693	     -0.09478690
      0.46615421	      0.90278613	      0.01509868	     -0.09478690
      0.46734642	      0.90281991	      0.01496339	     -0.09478690
      0.46853863	      0.90285573	      0.01481049	     -0.09478690
      0.46973084	      0.90289359	      0.01463973	     -0.09478690
      0.47092306	      0.90293347	      0.01445105	     -0.09478690
      0.47211527	      0.90297526	      0.01424478	     -0.09478690
      0.47330748	      0.90301886	      0.01402149	     -0.09478690
      0.47449969	      0.90306409	      0.01378218	     -0.09478690
      0.47569190	      0.90311074	      0.01352807	     -0.09478690
      0.47688411	      0.90315856	      0.01326064	     -0.09478690
      0.47807632	      0.90320730	      0.01298154	     -0.09478690
      0.47926853	      0.90325667	      0.01269244	     -0.09478690
      0.48046074	      0.90330640	      0.01239499	     -0.09478690
      0.48165295	      0.90335624	      0.01209067	     -0.09478690
      0.48284516	      0.90340598	      0.01178079	     -0.09478690
      0.48403737	      0.90345542	      0.01146631	     -0.09478690
      0.48522958	      0.90350442	      0.01114806	     -0.09478690
      0.48642179	      0.90355291	      0.01082653	     -0.09478690
      0.48761400	      0.90360081	      0.01050212	     -0.09478690
      0.48880621	      0.90364810	      0.01017507	     -0.09478690
      0.48999842	      0.90369478	      0.00984556	     -0.09478690
      0.49119063	      0.90374085	      0.00951377	     -0.09478690
      0.49238284	      0.90378633	      0.00917987	     -0.09478690
      0.49357505	      0.90383122	      0.00884407	     -0.09478690
      0.49476726	      0.90387554	      0.00850661	     -0.09478690
      0.49595947	      0.90391929	      0.00816779	     -0.09478690
      0.49715168	      0.90396245	      0.00782790	     -0.09478690
      0.49834389	      0.90400503	      0.00748728	     -0.09478690
      0.49953610	      0.90404701	      0.00714626	     -0.09478690
      0.50072831	      0.90408837	      0.00680520	     -0.09478690
      0.50192052	      0.90412911	      0.00646440	     -0.09478690
      0.50311273	      0.90416920	      0.00612417	     -0.09478690
      0.50430494	      0.90420864	      0.00578481	     -0.09478690
      0.50549715	      0.90424742	      0.00544659	     -0.09478690
      0.50668936	      0.90428552	      0.00510976	     -0.09478690
      0.50788157	      0.90432295	      0.00477455	     -0.09478690
      0.50907378	      0.90435971	      0.00444118	     -0.09478690
      0.51026599	      0.90439580	      0.00410986	     -0.09478690
      0.51145820	      0.90443121	      0.00378076	     -0.09478690
      0.51265041	      0.90446596	      0.00345403	     -0.09478690
      0.51384262	      0.90450004	      0.00312982	     -0.09478690
      0.51503483	      0.90453347	      0.00280822	     -0.09478690
      0.51622705	      0.90456624	      0.00248934	     -0.09478690
      0.51741926	      0.90459838	      0.00217323	     -0.09478690
      0.51861147	      0.90462988	      0.00185995	     -0.09478690
      0.51980368	      0.90466076	      0.00154954	     -0.09478690
      0.52099589	      0.90469103	      0.00124203	     -0.09478690
      0.52218810	      0.90472069	      0.00093745	     -0.09478690
      0.52338031	      0.90474977	      0.00063582	     -0.09478690
      0.52457252	      0.90477826	      0.00033717	     -0.09478690
      0.52576473	      0.90480620	      0.00004154	     -0.09478690
      0.52695694	      0.90483357	     -0.00025104	     -0.09478690
      0.52814915	      0.90486041	     -0.00054052	     -0.09478690
      0.52934136	      0.90488671	     -0.00082685	     -0.09478690
      0.53053357	      0.90491248	     -0.00110999	     -0.09478690
      0.53172578	      0.90493775	     -0.00138988	     -0.09478690
      0.53291799	      0.90496250	     -0.00166650	     -0.09478690
      0.53411020	      0.90498675	     -0.00193981	     -0.09478690
      0.53530241	      0.90501051	     -0.00220978	     -0.09478690
      0.53649462	      0.90503378	     -0.00247641	     -0.09478690
      0.53768683	      0.90505656	     -0.00273967	     -0.09478690
      0.53887904	      0.90507886	     -0.00299954	     -0.09478690
      0.54007125	      0.90510068	     -0.00325599	     -0.09478690
      0.54126346	      0.90512203	     -0.00350902	     -0.09478690
      0.54245567	      0.90514290	     -0.00375858	     -0.09478690
      0.54364788	      0.90516331	     -0.00400467	     -0.09478690
      0.54484009	      0.90518323	     -0.00424726	     -0.09478690
      0.54603230	      0.90520268	     -0.00448634	     -0.09478690
      0.54722451	      0.90522166	     -0.00472189	     -0.09478690
      0.54841672	      0.90524015	     -0.00495389	     -0.09478690
      0.54960893	      0.90525816	     -0.00518231	     -0.09478690
      0.55080114	      0.90527568	     -0.00540715	     -0.09478690
      0.55199335	      0.90529271	     -0.00562839	     -0.09478690
      0.55318556	      0.90530924	     -0.00584599	     -0.09478690
      0.55437777	      0.90532526	     -0.00605994	     -0.09478690
      0.55556998	      0.90534077	     -0.00627022	     -0.09478690
      0.55676219	      0.90535577	     -0.00647680	     -0.09478690
      0.55795440	      0.90537023	     -0.00667968	     -0.09478690
      0.55914661	      0.90538416	     -0.00687883	     -0.09478690
      0.56033882	      0.90539753	     -0.00707424	     -0.09478690
      0.56153104	      0.90541035	     -0.00726592	     -0.09478690
      0.56272325	      0.90542259	     -0.00745387	     -0.09478690
      0.56391546	      0.90543424	     -0.00763808	     -0.09478690
      0.56510767	      0.90544528	     -0.00781856	     -0.09478690
      0.56629988	      0.90545569	     -0.00799531	     -0.09478690
      0.56749209	      0.90546544	     -0.00816833	     -0.09478690
      0.56868430	      0.90547449	     -0.00833764	     -0.09478690
      0.56987651	      0.90548281	     -0.00850321	     -0.09478690
      0.57106872	      0.90549035	     -0.00866506	     -0.09478690
      0.57226093	      0.90549710	     -0.00882317	     -0.09478690
      0.57345314	      0.90550306	     -0.00897754	     -0.09478690
      0.57464535	      0.90550821	     -0.00912818	     -0.09478690
      0.57583756	      0.90551258	     -0.00927510	     -0.09478690
      0.57702977	      0.90551616	     -0.00941831	     -0.09478690
      0.57822198	      0.90551898	     -0.00955781	     -0.09478690
      0.57941419	      0.90552103	     -0.00969364	     -0.09478690
      0.58060640	      0.90552233	     -0.00982581	     -0.09478690
      0.58179861	      0.90552287	     -0.00995434	     -0.09478690
      0.58299082	      0.90552266	     -0.01007926	     -0.09478690
      0.58418303	      0.90552171	     -0.01020058	     -0.09478690
      0.58537524	      0.90552001	     -0.01031834	     -0.09478690
      0.58656745	      0.90551758	     -0.01043254	     -0.09478690
      0.58775966	      0.90551441	     -0.01054323	     -0.09478690
      0.58895187	      0.90551051	     -0.01065043	     -0.09478690
      0.59014408	      0.90550587	     -0.01075415	     -0.09478690
      0.59133629	      0.90550050	     -0.01085443	     -0.09478690
      0.59252850	      0.90549441	     -0.01095129	     -0.09478690
      0.59372071	      0.90548758	     -0.01104475	     -0.09478690
      0.59491292	      0.90548003	     -0.01113484	     -0.09478690
      0.59610513	      0.90547175	     -0.01122159	     -0.09478690
      0.59729734	      0.90546275	     -0.01130502	     -0.09478690
      0.59848955	      0.90545302	     -0.01138515	     -0.09478690
      0.59968176	      0.90544256	     -0.01146201	     -0.09478690
      0.60087397	      0.90543138	     -0.01153563	     -0.09478690
      0.60206618	      0.90541948	     -0.01160602	     -0.09478690
      0.60325839	      0.90540685	     -0.01167323	     -0.09478690
      0.60445060	      0.90539350	     -0.01173725	     -0.09478690
      0.60564282	      0.90537943	     -0.01179813	     -0.09478690
      0.60683503	      0.90536463	     -0.01185587	     -0.09478690
      0.60802724	      0.90534912	     -0.01191051	     -0.09478690
      0.60921945	      0.90533289	     -0.01196205	     -0.09478690
      0.61041166	      0.90531594	     -0.01201051	     -0.09478690
      0.61160387	      0.90529827	     -0.01205593	     -0.09478690
      0.61279608	      0.90527989	     -0.01209832	     -0.09478690
      0.61398829	      0.90526078	     -0.01213769	     -0.09478690
      0.61518050	      0.90524096	     -0.01217406	     -0.09478690
      0.61637271	      0.90522042	     -0.01220745	     -0.09478690
      0.61756492	      0.90519917	     -0.01223787	     -0.09478690
      0.61875713	      0.90517720	     -0.01226534	     -0.09478690
      0.61994934	      0.90515451	     -0.01228987	     -0.09478690
      0.62114155	      0.90513111	     -0.01231146	     -0.09478690
      0.62233376	      0.90510699	     -0.01233014	     -0.09478690
      0.62352597	      0.90508216	     -0.01234591	     -0.09478690
      0.62471818	      0.90505661	     -0.01235878	     -0.09478690
      0.62591039	      0.90503035	     -0.01236877	     -0.09478690
      0.62710260	      0.90500338	     -0.01237587	     -0.09478690
      0.62829481	      0.90497570	     -0.01238010	     -0.09478690
      0.62948702	      0.90494730	     -0.01238147	     -0.09478690
      0.63067923	      0.90491820	     -0.01237999	     -0.09478690
      0.63187144	      0.90488839	     -0.01237566	     -0.09478690
      0.63306365	      0.90485787	     -0.01236849	     -0.09478690
      0.63425586	      0.90482664	     -0.01235849	     -0.09478690
      0.63544807	      0.90479471	     -0.01234566	     -0.09478690
      0.63664028	      0.90476207	     -0.01233001	     -0.09478690
      0.63783249	      0.90472874	     -0.01231155	     -0.09478690
      0.63902470	      0.90469470	     -0.01229027	     -0.09478690
      0.64021691	      0.90465997	     -0.01226619	     -0.09478690
      0.64140912	      0.90462454	     -0.01223931	     -0.09478690
      0.64260133	      0.90458842	     -0.01220963	     -0.09478690
      0.64379354	      0.90455162	     -0.01217715	     -0.09478690
      0.64498575	      0.90451413	     -0.01214189	     -0.09478690
      0.64617796	      0.90447596	     -0.01210384	     -0.09478690
      0.64737017	      0.90443711	     -0.01206300	     -0.09478690
      0.64856238	      0.90439758	     -0.01201937	     -0.09478690
      0.64975459	      0.90435739	     -0.01197296	     -0.09478690
      0.65094681	      0.90431653	     -0.01192376	     -0.09478690
      0.65213902	      0.90427500	     -0.01187178	     -0.09478690
      0.65333123	      0.90423283	     -0.01181702	     -0.09478690
      0.65452344	      0.90419000	     -0.01175946	     -0.09478690
      0.65571565	      0.90414652	     -0.01169911	     -0.09478690
      0.65690786	      0.90410241	     -0.01163596	     -0.09478690
      0.65810007	      0.90405766	     -0.01157001	     -0.09478690
      0.65929228	      0.90401228	     -0.01150125	     -0.09478690
      0.66048449	      0.90396629	     -0.01142967	     -0.09478690
      0.66167670	      0.90391968	     -0.01135526	     -0.09478690
      0.66286891	      0.90387246	     -0.01127802	     -0.09478690
      0.66406112	      0.90382464	     -0.01119792	     -0.09478690
      0.66525333	      0.90377622	     -0.01111494	     -0.09478690
      0.66644554	      0.90372723	     -0.01102908	     -0.09478690
      0.66763775	      0.90367765	     -0.01094030	     -0.09478690
      0.66882996	      0.90362750	     -0.01084859	     -0.09478690
      0.67002217	      0.90357679	     -0.01075392	     -0.09478690
      0.67121438	      0.90352553	     -0.01065625	     -0.09478690
      0.67240659	      0.90347373	     -0.01055555	     -0.09478690
      0.67359880	      0.90342139	     -0.01045179	     -0.09478690
      0.67479101	      0.90336853	     -0.01034493	     -0.09478690
      0.67598322	      0.90331516	     -0.01023491	     -0.09478690
      0.67717543	      0.90326129	     -0.01012170	     -0.09478690
      0.67836764	      0.90320693	     -0.01000525	     -0.09478690
      0.67955985	      0.90315210	     -0.00988550	     -0.09478690
      0.68075206	      0.90309681	     -0.00976240	     -0.09478690
      0.68194427	      0.90304109	     -0.00963589	     -0.09478690
      0.68313648	      0.90298494	     -0.00950591	     -0.09478690
      0.68432869	      0.90292839	     -0.00937238	     -0.09478690
      0.68552090	      0.90287146	     -0.00923522	     -0.09478690
      0.68671311	      0.90281417	     -0.00909438	     -0.09478690
      0.68790532	      0.90275656	     -0.00894977	     -0.09478690
      0.68909753	      0.90269865	     -0.00880132	     -0.09478690
      0.69028974	      0.90264047	     -0.00864892	     -0.09478690
      0.69148195	      0.90258207	     -0.00849251	     -0.09478690
      0.69267416	      0.90252348	     -0.00833198	     -0.09478690
      0.69386637	      0.90246476	     -0.00816727	     -0.09478690
      0.69505859	      0.90240595	     -0.00799825	     -0.09478690
      0.69625080	      0.90234711	     -0.00782485	     -0.09478690
      0.69744301	      0.90228831	     -0.00764695	     -0.09478690
      0.69863522	      0.90222962	     -0.00746446	     -0.09478690
      0.69982743	      0.90217112	     -0.00727728	     -0.09478690
      0.70101964	      0.90211292	     -0.00708530	     -0.09478690
      0.70221185	      0.90205510	     -0.00688841	     -0.09478690
      0.70340406	      0.90199780	     -0.00668651	     -0.09478690
      0.70459627	      0.90194112	     -0.00647947	     -0.09478690
      0.70578848	      0.90188524	     -0.00626718	     -0.09478690
      0.70698069	      0.90183030	     -0.00604953	     -0.09478690
      0.70817290	      0.90177653	     -0.00582641	     -0.09478690
      0.70936511	      0.90172414	     -0.00559773	     -0.09478690
      0.71055732	      0.90167340	     -0.00536341	     -0.09478690
      0.71174953	      0.90162460	     -0.00512340	     -0.09478690
      0.71294174	      0.90157801	     -0.00487751	     -0.09478690
      0.71413395	      0.90153381	     -0.00462549	     -0.09478690
      0.71532616	      0.90149210	     -0.00436690	     -0.09478690
