PointAcceleration
version=1
nRows=601
nColumns=4
inDegrees=no
No description.
endheader
time	state_0	state_1	state_2
      0.00000000	    323.92598120	    156.91686737	      0.00000000
      0.00114302	    313.19620322	    148.10800903	      0.00000000
      0.00228603	    301.86862083	    139.31954090	      0.00000000
      0.00342905	    290.37601828	    130.75339479	      0.00000000
      0.00457207	    278.59617469	    122.37434443	      0.00000000
      0.00571508	    266.60740565	    114.23930777	      0.00000000
      0.00685810	    254.43050053	    106.36876432	      0.00000000
      0.00800112	    242.11114371	     98.79754799	      0.00000000
      0.00914414	    229.70875844	     91.55732824	      0.00000000
      0.01028715	    217.27408199	     84.68623002	      0.00000000
      0.01143017	    204.91460046	     78.23049411	      0.00000000
      0.01257319	    192.68678302	     72.22582508	      0.00000000
      0.01371620	    180.72368526	     66.71706830	      0.00000000
      0.01485922	    169.08544701	     61.72135982	      0.00000000
      0.01600224	    157.91796122	     57.27530843	      0.00000000
      0.01714525	    147.21979528	     53.34806778	      0.00000000
      0.01828827	    137.02144917	     49.91738073	      0.00000000
      0.01943129	    127.23169866	     46.89694661	      0.00000000
      0.02057431	    117.80373040	     44.21344334	      0.00000000
      0.02171732	    108.65213864	     41.77436197	      0.00000000
      0.02286034	     99.82636844	     39.49780097	      0.00000000
      0.02400336	     91.27307917	     37.33122489	      0.00000000
      0.02514637	     83.31378731	     35.23649235	      0.00000000
      0.02628939	     75.69694544	     33.09872327	      0.00000000
      0.02743241	     69.64727393	     29.68930333	      0.00000000
      0.02857542	     65.92502689	     27.83357068	      0.00000000
      0.02971844	     66.18019773	     26.44576257	      0.00000000
      0.03086146	     67.12866400	     25.51705430	      0.00000000
      0.03200448	     66.56433962	     24.42515838	      0.00000000
      0.03314749	     65.54143140	     22.90537489	      0.00000000
      0.03429051	     64.44361228	     21.06142005	      0.00000000
      0.03543353	     63.16534704	     19.03997596	      0.00000000
      0.03657654	     61.66207092	     16.97531868	      0.00000000
      0.03771956	     59.97399914	     14.98047979	      0.00000000
      0.03886258	     58.15229658	     13.14006305	      0.00000000
      0.04000559	     56.24082107	     11.50510353	      0.00000000
      0.04114861	     54.28991149	     10.10428840	      0.00000000
      0.04229163	     52.32948552	      8.93127333	      0.00000000
      0.04343465	     50.40644481	      7.96921242	      0.00000000
      0.04457766	     48.54449850	      7.18054419	      0.00000000
      0.04572068	     46.78434208	      6.52987069	      0.00000000
      0.04686370	     45.13725954	      5.97775921	      0.00000000
      0.04800671	     43.61709879	      5.49367177	      0.00000000
      0.04914973	     42.21473196	      5.05243687	      0.00000000
      0.05029275	     40.91696889	      4.63777121	      0.00000000
      0.05143576	     39.70787612	      4.23869811	      0.00000000
      0.05257878	     38.57064981	      3.84950520	      0.00000000
      0.05372180	     37.49532723	      3.46626538	      0.00000000
      0.05486482	     36.47033988	      3.08766807	      0.00000000
      0.05600783	     35.48914592	      2.71213409	      0.00000000
      0.05715085	     34.54407905	      2.33996715	      0.00000000
      0.05829387	     33.62974221	      1.97138192	      0.00000000
      0.05943688	     32.74014225	      1.60754418	      0.00000000
      0.06057990	     31.87049954	      1.24930930	      0.00000000
      0.06172292	     31.01563170	      0.89808209	      0.00000000
      0.06286593	     30.17156120	      0.55480194	      0.00000000
      0.06400895	     29.33384817	      0.22069879	      0.00000000
      0.06515197	     28.49938248	     -0.10354338	      0.00000000
      0.06629499	     27.66451427	     -0.41708029	      0.00000000
      0.06743800	     26.82686877	     -0.71970073	      0.00000000
      0.06858102	     25.98354019	     -1.01114921	      0.00000000
      0.06972404	     25.13269222	     -1.29155662	      0.00000000
      0.07086705	     24.27204204	     -1.56102134	      0.00000000
      0.07201007	     23.40017052	     -1.82004627	      0.00000000
      0.07315309	     22.51537436	     -2.06917726	      0.00000000
      0.07429610	     21.61650496	     -2.30911465	      0.00000000
      0.07543912	     20.70219430	     -2.54057014	      0.00000000
      0.07658214	     19.77135488	     -2.76434085	      0.00000000
      0.07772516	     18.82270096	     -2.98117849	      0.00000000
      0.07886817	     17.85528652	     -3.19218615	      0.00000000
      0.08001119	     16.86809847	     -3.39852615	      0.00000000
      0.08115421	     15.86060123	     -3.60131668	      0.00000000
      0.08229722	     14.83225416	     -3.80166263	      0.00000000
      0.08344024	     13.78305995	     -4.00062045	      0.00000000
      0.08458326	     12.71306833	     -4.19920360	      0.00000000
      0.08572627	     11.62283094	     -4.39854185	      0.00000000
      0.08686929	     10.51304521	     -4.59972594	      0.00000000
      0.08801231	      9.38473652	     -4.80393516	      0.00000000
      0.08915532	      8.23913013	     -5.01230395	      0.00000000
      0.09029834	      7.07750655	     -5.22585731	      0.00000000
      0.09144136	      5.90135613	     -5.44559775	      0.00000000
      0.09258438	      4.71199255	     -5.67208909	      0.00000000
      0.09372739	      3.51097331	     -5.90589220	      0.00000000
      0.09487041	      2.29973452	     -6.14705736	      0.00000000
      0.09601343	      1.07999570	     -6.39561842	      0.00000000
      0.09715644	     -0.14646798	     -6.65154495	      0.00000000
      0.09829946	     -1.37783463	     -6.91478217	      0.00000000
      0.09944248	     -2.61224098	     -7.18541835	      0.00000000
      0.10058549	     -3.84789939	     -7.46347751	      0.00000000
      0.10172851	     -5.08288654	     -7.74908056	      0.00000000
      0.10287153	     -6.31531616	     -8.04226365	      0.00000000
      0.10401455	     -7.54318312	     -8.34312706	      0.00000000
      0.10515756	     -8.76452842	     -8.65169445	      0.00000000
      0.10630058	     -9.97738687	     -8.96795456	      0.00000000
      0.10744360	    -11.17987245	     -9.29183749	      0.00000000
      0.10858661	    -12.37018323	     -9.62321115	      0.00000000
      0.10972963	    -13.54662464	     -9.96190531	      0.00000000
      0.11087265	    -14.70763549	    -10.30769220	      0.00000000
      0.11201566	    -15.85178258	    -10.66032365	      0.00000000
      0.11315868	    -16.97779683	    -11.01951008	      0.00000000
      0.11430170	    -18.08455137	    -11.38495594	      0.00000000
      0.11544472	    -19.17111222	    -11.75634150	      0.00000000
      0.11658773	    -20.23670455	    -12.13335279	      0.00000000
      0.11773075	    -21.28074902	    -12.51566951	      0.00000000
      0.11887377	    -22.30285181	    -12.90298625	      0.00000000
      0.12001678	    -23.30271876	    -13.29501221	      0.00000000
      0.12115980	    -24.28023731	    -13.69147678	      0.00000000
      0.12230282	    -25.23520304	    -14.09213951	      0.00000000
      0.12344583	    -26.16748527	    -14.49677816	      0.00000000
      0.12458885	    -27.07686781	    -14.90519126	      0.00000000
      0.12573187	    -27.96311634	    -15.31718660	      0.00000000
      0.12687489	    -28.82636704	    -15.73257284	      0.00000000
      0.12801790	    -29.66702085	    -16.15117321	      0.00000000
      0.12916092	    -30.48582804	    -16.57283777	      0.00000000
      0.13030394	    -31.28397485	    -16.99745249	      0.00000000
      0.13144695	    -32.06162713	    -17.42494994	      0.00000000
      0.13258997	    -32.81975813	    -17.85525170	      0.00000000
      0.13373299	    -33.39339840	    -18.25279668	      0.00000000
      0.13487600	    -34.12096496	    -18.68557802	      0.00000000
      0.13601902	    -34.82798139	    -19.12126805	      0.00000000
      0.13716204	    -35.51503686	    -19.55976374	      0.00000000
      0.13830506	    -36.18534088	    -20.00109900	      0.00000000
      0.13944807	    -36.84010830	    -20.44533352	      0.00000000
      0.14059109	    -37.48063946	    -20.89255611	      0.00000000
      0.14173411	    -38.10785067	    -21.34286946	      0.00000000
      0.14287712	    -38.72212520	    -21.79634999	      0.00000000
      0.14402014	    -39.32385830	    -22.25307095	      0.00000000
      0.14516316	    -39.91326145	    -22.71308583	      0.00000000
      0.14630617	    -40.49052752	    -23.17643353	      0.00000000
      0.14744919	    -41.05596528	    -23.64315605	      0.00000000
      0.14859221	    -41.60985733	    -24.11328593	      0.00000000
      0.14973523	    -42.15265593	    -24.58687238	      0.00000000
      0.15087824	    -42.68477177	    -25.06396208	      0.00000000
      0.15202126	    -43.20662541	    -25.54460606	      0.00000000
      0.15316428	    -43.71853244	    -26.02884408	      0.00000000
      0.15430729	    -44.22079794	    -26.51671489	      0.00000000
      0.15545031	    -44.71374548	    -27.00826106	      0.00000000
      0.15659333	    -45.19768198	    -27.50352650	      0.00000000
      0.15773634	    -45.67288568	    -28.00255343	      0.00000000
      0.15887936	    -46.13953462	    -28.50537090	      0.00000000
      0.16002238	    -46.59776390	    -29.01199924	      0.00000000
      0.16116539	    -47.04765891	    -29.52244946	      0.00000000
      0.16230841	    -47.48929390	    -30.03672750	      0.00000000
      0.16345143	    -47.92279406	    -30.55484873	      0.00000000
      0.16459445	    -48.34827301	    -31.07682758	      0.00000000
      0.16573746	    -48.76592009	    -31.60269658	      0.00000000
      0.16688048	    -49.17590955	    -32.13249195	      0.00000000
      0.16802350	    -49.57845980	    -32.66626450	      0.00000000
      0.16916651	    -49.97377912	    -33.20407297	      0.00000000
      0.17030953	    -50.36208538	    -33.74598363	      0.00000000
      0.17145255	    -50.74359994	    -34.29207438	      0.00000000
      0.17259556	    -51.11852841	    -34.84242306	      0.00000000
      0.17373858	    -51.48709544	    -35.39712143	      0.00000000
      0.17488160	    -51.84947226	    -35.95624876	      0.00000000
      0.17602462	    -52.20585669	    -36.51989725	      0.00000000
      0.17716763	    -52.55634518	    -37.08813099	      0.00000000
      0.17831065	    -52.90106516	    -37.66102601	      0.00000000
      0.17945367	    -53.24000989	    -38.23861938	      0.00000000
      0.18059668	    -53.57320267	    -38.82095892	      0.00000000
      0.18173970	    -53.90053267	    -39.40805080	      0.00000000
      0.18288272	    -54.22191315	    -39.99990774	      0.00000000
      0.18402573	    -54.53715512	    -40.59650493	      0.00000000
      0.18516875	    -54.84608632	    -41.19781759	      0.00000000
      0.18631177	    -55.14847422	    -41.80379099	      0.00000000
      0.18745479	    -55.44409427	    -42.41436403	      0.00000000
      0.18859780	    -55.73269440	    -43.02945323	      0.00000000
      0.18974082	    -56.01402507	    -43.64896495	      0.00000000
      0.19088384	    -56.28782534	    -44.27278754	      0.00000000
      0.19202685	    -56.55383044	    -44.90079564	      0.00000000
      0.19316987	    -56.81177149	    -45.53284770	      0.00000000
      0.19431289	    -57.06136428	    -46.16878259	      0.00000000
      0.19545590	    -57.30235031	    -46.80843393	      0.00000000
      0.19659892	    -57.53445735	    -47.45161620	      0.00000000
      0.19774194	    -57.75748360	    -48.09815849	      0.00000000
      0.19888496	    -57.97122773	    -48.74787956	      0.00000000
      0.20002797	    -58.17555069	    -49.40061343	      0.00000000
      0.20117099	    -58.37031953	    -50.05618954	      0.00000000
      0.20231401	    -58.55538460	    -50.71442002	      0.00000000
      0.20345702	    -58.73058737	    -51.37510410	      0.00000000
      0.20460004	    -58.89570341	    -52.03799791	      0.00000000
      0.20574306	    -59.05048063	    -52.70282988	      0.00000000
      0.20688607	    -59.19468865	    -53.36932255	      0.00000000
      0.20802909	    -59.32809811	    -54.03718390	      0.00000000
      0.20917211	    -59.45061148	    -54.70617426	      0.00000000
      0.21031513	    -59.56219458	    -55.37608049	      0.00000000
      0.21145814	    -59.66279613	    -56.04667482	      0.00000000
      0.21260116	    -59.75236454	    -56.71772418	      0.00000000
      0.21374418	    -59.83060592	    -57.38885350	      0.00000000
      0.21488719	    -59.89713211	    -58.05961157	      0.00000000
      0.21603021	    -59.95153670	    -58.72950844	      0.00000000
      0.21717323	    -59.99350923	    -59.39807952	      0.00000000
      0.21831624	    -60.02289753	    -60.06493068	      0.00000000
      0.21945926	    -60.03967080	    -60.72972618	      0.00000000
      0.22060228	    -60.04352151	    -61.39195235	      0.00000000
      0.22174530	    -60.03376451	    -62.05082841	      0.00000000
      0.22288831	    -60.00994126	    -62.70566392	      0.00000000
      0.22403133	    -59.97197524	    -63.35597771	      0.00000000
      0.22517435	    -59.92005523	    -64.00145004	      0.00000000
      0.22631736	    -59.85427411	    -64.64170155	      0.00000000
      0.22746038	    -59.77436218	    -65.27610068	      0.00000000
      0.22860340	    -59.67981674	    -65.90382276	      0.00000000
      0.22974641	    -59.57021891	    -66.52405339	      0.00000000
      0.23088943	    -59.44530990	    -67.13605012	      0.00000000
      0.23203245	    -59.30530067	    -67.73938010	      0.00000000
      0.23317547	    -59.15048890	    -68.33368021	      0.00000000
      0.23431848	    -58.98114467	    -68.91857218	      0.00000000
      0.23546150	    -58.79744476	    -69.49361566	      0.00000000
      0.23660452	    -58.59920031	    -70.05808015	      0.00000000
      0.23774753	    -58.38608955	    -70.61109500	      0.00000000
      0.23889055	    -58.15800360	    -71.15192277	      0.00000000
      0.24003357	    -57.91566536	    -71.68047056	      0.00000000
      0.24117658	    -57.65905172	    -72.19610941	      0.00000000
      0.24231960	    -57.39127785	    -72.70077976	      0.00000000
      0.24346262	    -57.11045931	    -73.19247822	      0.00000000
      0.24460563	    -57.09154782	    -73.96456585	      0.00000000
      0.24574865	    -56.76863400	    -74.41523552	      0.00000000
      0.24689167	    -56.43332542	    -74.85034285	      0.00000000
      0.24803469	    -56.08577350	    -75.26939346	      0.00000000
      0.24917770	    -55.72518914	    -75.67100618	      0.00000000
      0.25032072	    -55.35161248	    -76.05445377	      0.00000000
      0.25146374	    -54.96419450	    -76.41812530	      0.00000000
      0.25260675	    -54.56236553	    -76.76055085	      0.00000000
      0.25374977	    -54.14564840	    -77.08025420	      0.00000000
      0.25489279	    -53.71432055	    -77.37645423	      0.00000000
      0.25603580	    -53.26865393	    -77.64836359	      0.00000000
      0.25717882	    -52.80932610	    -77.89562410	      0.00000000
      0.25832184	    -52.33690618	    -78.11778459	      0.00000000
      0.25946486	    -51.85202787	    -78.31447715	      0.00000000
      0.26060787	    -51.35531957	    -78.48535059	      0.00000000
      0.26175089	    -50.84739707	    -78.63005870	      0.00000000
      0.26289391	    -50.32892792	    -78.74833392	      0.00000000
      0.26403692	    -49.80051977	    -78.83986768	      0.00000000
      0.26517994	    -49.26280890	    -78.90439998	      0.00000000
      0.26632296	    -48.71636557	    -78.94162020	      0.00000000
      0.26746597	    -48.16175414	    -78.95121625	      0.00000000
      0.26860899	    -47.59963441	    -78.93301847	      0.00000000
      0.26975201	    -47.03063953	    -78.88687984	      0.00000000
      0.27089503	    -46.45575904	    -78.81309397	      0.00000000
      0.27203804	    -45.87602148	    -78.71204456	      0.00000000
      0.27318106	    -45.29280164	    -78.58463493	      0.00000000
      0.27432408	    -44.70749408	    -78.43189560	      0.00000000
      0.27546709	    -44.12159982	    -78.25510357	      0.00000000
      0.27661011	    -43.53658307	    -78.05560181	      0.00000000
      0.27775313	    -42.95388013	    -77.83480266	      0.00000000
      0.27889614	    -42.37496523	    -77.59428230	      0.00000000
      0.28003916	    -41.80123261	    -77.33561831	      0.00000000
      0.28118218	    -41.23413319	    -77.06058396	      0.00000000
      0.28232520	    -40.67486160	    -76.77069110	      0.00000000
      0.28346821	    -40.12454431	    -76.46743103	      0.00000000
      0.28461123	    -39.58409057	    -76.15206118	      0.00000000
      0.28575425	    -39.05440721	    -75.82590133	      0.00000000
      0.28689726	    -38.53632882	    -75.49028119	      0.00000000
      0.28804028	    -38.03067055	    -75.14659522	      0.00000000
      0.28918330	    -37.53808853	    -74.79615327	      0.00000000
      0.29032631	    -37.05915798	    -74.44025857	      0.00000000
      0.29146933	    -36.59408977	    -74.07981589	      0.00000000
      0.29261235	    -36.14296093	    -73.71564107	      0.00000000
      0.29375537	    -35.70544333	    -73.34807145	      0.00000000
      0.29489838	    -35.28102736	    -72.97726039	      0.00000000
      0.29604140	    -34.86908010	    -72.60333961	      0.00000000
      0.29718442	    -34.46879303	    -72.22626876	      0.00000000
      0.29832743	    -34.07966462	    -71.84669941	      0.00000000
      0.29947045	    -33.70109376	    -71.46516243	      0.00000000
      0.30061347	    -33.33290248	    -71.08338121	      0.00000000
      0.30175648	    -32.97479687	    -70.70303014	      0.00000000
      0.30289950	    -32.62730260	    -70.32730475	      0.00000000
      0.30404252	    -32.29113656	    -69.95964844	      0.00000000
      0.30518554	    -31.96839768	    -69.60575998	      0.00000000
      0.30632855	    -31.66213621	    -69.27249457	      0.00000000
      0.30747157	    -31.37760175	    -68.96985920	      0.00000000
      0.30861459	    -31.12257919	    -68.71121063	      0.00000000
      0.30975760	    -30.90723130	    -68.51201564	      0.00000000
      0.31090062	    -30.74618727	    -68.39325792	      0.00000000
      0.31204364	    -30.65598937	    -68.37481157	      0.00000000
      0.31318665	    -30.65879586	    -68.48174804	      0.00000000
      0.31432967	    -30.78047781	    -68.74068578	      0.00000000
      0.31547269	    -31.05341335	    -69.18474797	      0.00000000
      0.31661571	    -31.51641700	    -69.85772264	      0.00000000
      0.31775872	    -32.21472509	    -70.81521845	      0.00000000
      0.31890174	    -33.19212828	    -72.11245227	      0.00000000
      0.32004476	    -34.48807787	    -73.80058714	      0.00000000
      0.32118777	    -36.12606080	    -75.91066833	      0.00000000
      0.32233079	    -38.11014678	    -78.45054494	      0.00000000
      0.32347381	    -40.42615827	    -81.41367383	      0.00000000
      0.32461682	    -43.03618299	    -84.76944059	      0.00000000
      0.32575984	    -45.88051131	    -88.47192545	      0.00000000
      0.32690286	    -48.87085476	    -92.44342564	      0.00000000
      0.32804587	    -51.89965473	    -96.57479154	      0.00000000
      0.32918889	    -54.84485106	   -100.72196413	      0.00000000
      0.33033191	    -57.59587345	   -104.75113394	      0.00000000
      0.33147493	    -60.06119009	   -108.55579539	      0.00000000
      0.33261794	    -62.18784191	   -112.07780538	      0.00000000
      0.33376096	    -63.95805501	   -115.29537824	      0.00000000
      0.33490398	    -65.38829209	   -118.22328908	      0.00000000
      0.33604699	    -66.52583575	   -120.91759455	      0.00000000
      0.33719001	    -67.43520534	   -123.45485963	      0.00000000
      0.33833303	    -68.19627475	   -125.93855163	      0.00000000
      0.33947604	    -68.88875341	   -128.47274914	      0.00000000
      0.34061906	    -69.59371800	   -131.17138474	      0.00000000
      0.34176208	    -70.37976314	   -134.13190161	      0.00000000
      0.34290510	    -71.31158035	   -137.45196977	      0.00000000
      0.34404811	    -72.44088429	   -141.20731503	      0.00000000
      0.34519113	    -73.81770809	   -145.47370387	      0.00000000
      0.34633415	    -75.48535327	   -150.31279370	      0.00000000
      0.34747716	    -77.49009768	   -155.79013641	      0.00000000
      0.34862018	    -79.87960543	   -161.97101169	      0.00000000
      0.34976320	    -82.70887845	   -168.92921931	      0.00000000
      0.35090621	    -86.04105586	   -176.75152654	      0.00000000
      0.35204923	    -89.95024529	   -185.53887614	      0.00000000
      0.35319225	    -94.52217637	   -195.41223210	      0.00000000
      0.35433527	    -99.85667893	   -206.51240138	      0.00000000
      0.35547828	   -106.06196104	   -218.98998830	      0.00000000
      0.35662130	   -113.25787520	   -233.00913017	      0.00000000
      0.35776432	   -121.55724727	   -248.70724391	      0.00000000
      0.35890733	   -131.06438972	   -266.19171898	      0.00000000
      0.36005035	   -141.84873869	   -285.49736579	      0.00000000
      0.36119337	   -153.92020158	   -306.53373255	      0.00000000
      0.36233638	   -167.21928052	   -329.11601871	      0.00000000
      0.36347940	   -181.54098457	   -352.80541990	      0.00000000
      0.36462242	   -196.57459904	   -377.06623722	      0.00000000
      0.36576544	   -211.73871920	   -400.95053327	      0.00000000
      0.36690845	   -226.35280440	   -423.49794380	      0.00000000
      0.36805147	   -239.23882228	   -442.95395642	      0.00000000
      0.36919449	   -249.64342293	   -458.49430184	      0.00000000
      0.37033750	   -255.14296871	   -466.34947222	      0.00000000
      0.37148052	   -255.43690471	   -466.51625956	      0.00000000
      0.37262354	   -159.06807713	   -339.76411993	      0.00000000
      0.37376655	    -70.14770183	   -231.59535641	      0.00000000
      0.37490957	    -65.07029962	   -235.14203275	      0.00000000
      0.37605259	    -61.33573954	   -236.30052258	      0.00000000
      0.37719561	    -54.95786589	   -230.24262789	      0.00000000
      0.37833862	    -53.65444833	   -228.64331797	      0.00000000
      0.37948164	    -50.07885532	   -219.77094655	      0.00000000
      0.38062466	    -48.39388265	   -199.71856048	      0.00000000
      0.38176767	    -46.92615510	   -165.62004654	      0.00000000
      0.38291069	    -45.49987444	   -128.64958122	      0.00000000
      0.38405371	    -41.79891800	    -97.43028391	      0.00000000
      0.38519672	    -37.55573806	    -77.35700535	      0.00000000
      0.38633974	    -33.04575950	    -66.87804969	      0.00000000
      0.38748276	    -29.03314387	    -64.16789565	      0.00000000
      0.38862578	    -25.60325004	    -65.55532572	      0.00000000
      0.38976879	    -22.77970457	    -69.19516951	      0.00000000
      0.39091181	    -20.53284860	    -73.39745710	      0.00000000
      0.39205483	    -18.75689620	    -77.50748477	      0.00000000
      0.39319784	    -17.36337653	    -81.26520745	      0.00000000
      0.39434086	    -16.26497743	    -84.50631914	      0.00000000
      0.39548388	    -15.37880303	    -87.39494528	      0.00000000
      0.39662689	    -14.66025106	    -89.87478285	      0.00000000
      0.39776991	    -14.05780318	    -92.12073886	      0.00000000
      0.39891293	    -13.55157397	    -94.09800785	      0.00000000
      0.40005594	    -13.11604588	    -95.91680321	      0.00000000
      0.40119896	    -12.73955704	    -97.55133754	      0.00000000
      0.40234198	    -12.40993181	    -99.06107432	      0.00000000
      0.40348500	    -12.11772167	   -100.42619028	      0.00000000
      0.40462801	    -11.85684869	   -101.67704153	      0.00000000
      0.40577103	    -11.61937487	   -102.79861528	      0.00000000
      0.40691405	    -11.40252915	   -103.80737206	      0.00000000
      0.40805706	    -11.19967374	   -104.69244556	      0.00000000
      0.40920008	    -11.00978294	   -105.46413733	      0.00000000
      0.41034310	    -10.82720694	   -106.11471537	      0.00000000
      0.41148611	    -10.65151752	   -106.65141132	      0.00000000
      0.41262913	    -10.47781245	   -107.06853382	      0.00000000
      0.41377215	    -10.30556921	   -107.37108191	      0.00000000
      0.41491517	    -10.13077884	   -107.55489769	      0.00000000
      0.41605818	     -9.95278934	   -107.62319128	      0.00000000
      0.41720120	     -9.76910631	   -107.57426602	      0.00000000
      0.41834422	     -9.57966280	   -107.41163581	      0.00000000
      0.41948723	     -9.38343104	   -107.13671469	      0.00000000
      0.42063025	     -9.18119126	   -106.75507706	      0.00000000
      0.42177327	     -8.97189352	   -106.26832339	      0.00000000
      0.42291628	     -8.75560340	   -105.68010603	      0.00000000
      0.42405930	     -8.53107912	   -104.99004555	      0.00000000
      0.42520232	     -8.29736176	   -104.19691934	      0.00000000
      0.42634534	     -8.05616559	   -103.30591219	      0.00000000
      0.42748835	     -7.81107211	   -102.32902987	      0.00000000
      0.42863137	     -7.55639961	   -101.26062260	      0.00000000
      0.42977439	     -7.28492194	   -100.08716002	      0.00000000
      0.43091740	     -6.99752104	    -98.80619051	      0.00000000
      0.43206042	     -6.69871625	    -97.42938893	      0.00000000
      0.43320344	     -6.37705234	    -95.93365750	      0.00000000
      0.43434645	     -6.01613314	    -94.27706420	      0.00000000
      0.43548947	     -5.61647478	    -92.44075002	      0.00000000
      0.43663249	     -5.17777411	    -90.40588972	      0.00000000
      0.43777551	     -4.71262322	    -88.19309347	      0.00000000
      0.43891852	     -4.23859277	    -85.84027859	      0.00000000
      0.44006154	     -3.74122177	    -83.32849310	      0.00000000
      0.44120456	     -3.19730996	    -80.60871690	      0.00000000
      0.44234757	     -2.59802290	    -77.63395578	      0.00000000
      0.44349059	     -1.93449915	    -74.35630558	      0.00000000
      0.44463361	     -1.21297648	    -70.75917080	      0.00000000
      0.44577662	     -0.44012190	    -66.82950983	      0.00000000
      0.44691964	      0.38642631	    -62.54742167	      0.00000000
      0.44806266	      1.26954090	    -57.89198254	      0.00000000
      0.44920568	      2.23595219	    -52.78381495	      0.00000000
      0.45034869	      3.31881385	    -47.12563215	      0.00000000
      0.45149171	      4.55188681	    -40.78097188	      0.00000000
      0.45263473	      5.98335330	    -33.57540561	      0.00000000
      0.45377774	      7.62061435	    -25.39169833	      0.00000000
      0.45492076	      9.48436301	    -16.06970145	      0.00000000
      0.45606378	     11.54782453	     -5.57791311	      0.00000000
      0.45720679	     13.78841491	      6.13292919	      0.00000000
      0.45834981	     16.17356805	     19.00482329	      0.00000000
      0.45949283	     18.66084400	     32.94911847	      0.00000000
      0.46063585	     21.24721650	     47.86889850	      0.00000000
      0.46177886	     23.90740820	     63.59067197	      0.00000000
      0.46292188	     26.67222621	     80.02670450	      0.00000000
      0.46406490	     29.54679929	     96.99909744	      0.00000000
      0.46520791	     32.56908119	    114.44090503	      0.00000000
      0.46635093	     35.75836184	    132.21699120	      0.00000000
      0.46749395	     39.13547962	    150.27097717	      0.00000000
      0.46863696	     42.71554841	    168.51924068	      0.00000000
      0.46977998	     46.49862103	    186.90974887	      0.00000000
      0.47092300	     50.48955713	    205.39923896	      0.00000000
      0.47206602	     54.67608696	    223.94070080	      0.00000000
      0.47320903	     59.05530920	    242.51515074	      0.00000000
      0.47435205	     63.61142595	    261.08245898	      0.00000000
      0.47549507	     68.33812403	    279.63506291	      0.00000000
      0.47663808	     73.22083853	    298.14022102	      0.00000000
      0.47778110	     78.25272915	    316.59422391	      0.00000000
      0.47892412	     83.42181334	    334.97086151	      0.00000000
      0.48006713	     88.72182252	    353.26671797	      0.00000000
      0.48121015	     94.14308592	    371.46062988	      0.00000000
      0.48235317	     99.68000400	    389.54818034	      0.00000000
      0.48349618	    105.32452916	    407.51175818	      0.00000000
      0.48463920	    111.07147993	    425.34564778	      0.00000000
      0.48578222	    116.91380199	    443.03451555	      0.00000000
      0.48692524	    122.84643471	    460.57132159	      0.00000000
      0.48806825	    128.86288899	    477.94204004	      0.00000000
      0.48921127	    134.95800819	    495.13829768	      0.00000000
      0.49035429	    141.12570576	    512.14686829	      0.00000000
      0.49149730	    147.36071056	    528.95819981	      0.00000000
      0.49264032	    153.65753205	    545.56021697	      0.00000000
      0.49378334	    160.01121951	    561.94333175	      0.00000000
      0.49492635	    166.41698907	    578.09726584	      0.00000000
      0.49606937	    172.87054324	    594.01378948	      0.00000000
      0.49721239	    179.36718897	    609.68372663	      0.00000000
      0.49835541	    185.90260064	    625.09933745	      0.00000000
      0.49949842	    192.47188120	    640.25198762	      0.00000000
      0.50064144	    199.07043081	    655.13425993	      0.00000000
      0.50178446	    205.69292862	    669.73757987	      0.00000000
      0.50292747	    212.33426900	    684.05434661	      0.00000000
      0.50407049	    218.98862601	    698.07547418	      0.00000000
      0.50521351	    225.65019609	    711.79227456	      0.00000000
      0.50635652	    232.31314258	    725.19592483	      0.00000000
      0.50749954	    238.97140009	    738.27763874	      0.00000000
      0.50864256	    245.61986397	    751.03049784	      0.00000000
      0.50978558	    252.25334203	    763.44775504	      0.00000000
      0.51092859	    258.86759948	    775.52481437	      0.00000000
      0.51207161	    265.45852082	    787.25748254	      0.00000000
      0.51321463	    272.02211592	    798.64253512	      0.00000000
      0.51435764	    278.55460634	    809.67731797	      0.00000000
      0.51550066	    285.05156699	    820.35863451	      0.00000000
      0.51664368	    291.50877839	    830.68376211	      0.00000000
      0.51778669	    297.92149755	    840.64927810	      0.00000000
      0.51892971	    304.28514490	    850.25211415	      0.00000000
      0.52007273	    310.59511566	    859.48924129	      0.00000000
      0.52121575	    316.84695571	    868.35797082	      0.00000000
      0.52235876	    323.03637884	    876.85608602	      0.00000000
      0.52350178	    329.15925229	    884.98170090	      0.00000000
      0.52464480	    335.21161122	    892.73349500	      0.00000000
      0.52578781	    341.18963771	    900.11045093	      0.00000000
      0.52693083	    347.08969991	    907.11213914	      0.00000000
      0.52807385	    352.90823755	    913.73835351	      0.00000000
      0.52921686	    358.64199309	    919.98956830	      0.00000000
      0.53035988	    364.28755561	    925.86627933	      0.00000000
      0.53150290	    369.84207918	    931.36993100	      0.00000000
      0.53264592	    375.30218822	    936.50167368	      0.00000000
      0.53378893	    380.66541258	    941.26399555	      0.00000000
      0.53493195	    385.92862929	    945.65901288	      0.00000000
      0.53607497	    391.08948400	    949.69008631	      0.00000000
      0.53721798	    396.14639850	    953.36133705	      0.00000000
      0.53836100	    401.09695530	    956.67647049	      0.00000000
      0.53950402	    405.94327707	    959.64261957	      0.00000000
      0.54064703	    410.68404242	    962.26414016	      0.00000000
      0.54179005	    415.32403933	    964.54974003	      0.00000000
      0.54293307	    419.86404150	    966.50605650	      0.00000000
      0.54407609	    424.30583358	    968.14062416	      0.00000000
      0.54521910	    428.65116360	    969.46280739	      0.00000000
      0.54636212	    432.89861774	    970.47988890	      0.00000000
      0.54750514	    437.05064926	    971.20236037	      0.00000000
      0.54864815	    441.10695570	    971.63887500	      0.00000000
      0.54979117	    445.07024450	    971.79931889	      0.00000000
      0.55093419	    448.94207367	    971.69308295	      0.00000000
      0.55207720	    452.72479722	    971.32906867	      0.00000000
      0.55322022	    456.42068442	    970.71645508	      0.00000000
      0.55436324	    460.03174241	    969.86341435	      0.00000000
      0.55550626	    463.56026953	    968.77855784	      0.00000000
      0.55664927	    467.00812184	    967.46952208	      0.00000000
      0.55779229	    470.37745633	    965.94430951	      0.00000000
      0.55893531	    473.67000561	    964.21004490	      0.00000000
      0.56007832	    476.88774441	    962.27410748	      0.00000000
      0.56122134	    480.03231665	    960.14314496	      0.00000000
      0.56236436	    483.10554483	    957.82395406	      0.00000000
      0.56350737	    486.10905939	    955.32280471	      0.00000000
      0.56465039	    489.04460490	    952.64603849	      0.00000000
      0.56579341	    491.91376023	    949.79958965	      0.00000000
      0.56693642	    494.71822388	    946.78946947	      0.00000000
      0.56807944	    497.45935599	    943.62104103	      0.00000000
      0.56922246	    500.13866710	    940.29978521	      0.00000000
      0.57036548	    502.75704689	    936.83004691	      0.00000000
      0.57150849	    505.31545757	    933.21615264	      0.00000000
      0.57265151	    507.81455175	    929.46177107	      0.00000000
      0.57379453	    510.25495413	    925.57043978	      0.00000000
      0.57493754	    512.63727976	    921.54557561	      0.00000000
      0.57608056	    514.96210220	    917.39044766	      0.00000000
      0.57722358	    517.23000308	    913.10831011	      0.00000000
      0.57836659	    519.44152490	    908.70223312	      0.00000000
      0.57950961	    521.59720730	    904.17531141	      0.00000000
      0.58065263	    523.69759700	    899.53049725	      0.00000000
      0.58179565	    525.74308759	    894.77058696	      0.00000000
      0.58293866	    527.73410064	    889.89825294	      0.00000000
      0.58408168	    529.67073448	    884.91578260	      0.00000000
      0.58522470	    531.55310411	    879.82534906	      0.00000000
      0.58636771	    533.38092942	    874.62866620	      0.00000000
      0.58751073	    535.15390540	    869.32732255	      0.00000000
      0.58865375	    536.87142847	    863.92258504	      0.00000000
      0.58979676	    538.53280447	    858.41556979	      0.00000000
      0.59093978	    540.13723384	    852.80729529	      0.00000000
      0.59208280	    541.68375199	    847.09860039	      0.00000000
      0.59322582	    543.17146921	    841.29040962	      0.00000000
      0.59436883	    544.59927025	    835.38344613	      0.00000000
      0.59551185	    545.96623119	    829.37863133	      0.00000000
      0.59665487	    547.27115519	    823.27666337	      0.00000000
      0.59779788	    548.51316891	    817.07858416	      0.00000000
      0.59894090	    549.69107623	    810.78517532	      0.00000000
      0.60008392	    550.80422872	    804.39779588	      0.00000000
      0.60122693	    551.85160731	    797.91748125	      0.00000000
      0.60236995	    552.83289272	    791.34598550	      0.00000000
      0.60351297	    553.74739843	    784.68468708	      0.00000000
      0.60465599	    554.59501116	    777.93560172	      0.00000000
      0.60579900	    555.37534716	    771.10046417	      0.00000000
      0.60694202	    556.08829657	    764.18131052	      0.00000000
      0.60808504	    556.73353468	    757.17993551	      0.00000000
      0.60922805	    557.31049732	    750.09779691	      0.00000000
      0.61037107	    557.81831215	    742.93592782	      0.00000000
      0.61151409	    558.25613909	    735.69546555	      0.00000000
      0.61265710	    558.62268615	    728.37701823	      0.00000000
      0.61380012	    558.91716494	    720.98206568	      0.00000000
      0.61494314	    559.13823358	    713.51154118	      0.00000000
      0.61608616	    559.28515747	    705.96725014	      0.00000000
      0.61722917	    559.35665528	    698.35044904	      0.00000000
      0.61837219	    559.35166281	    690.66239385	      0.00000000
      0.61951521	    559.26881868	    682.90379551	      0.00000000
      0.62065822	    559.10653187	    675.07532804	      0.00000000
      0.62180124	    558.86224397	    667.17659183	      0.00000000
      0.62294426	    558.53441765	    659.20901917	      0.00000000
      0.62408727	    558.12112211	    651.17356639	      0.00000000
      0.62523029	    557.62133388	    643.07494660	      0.00000000
      0.62637331	    557.03729851	    634.91267601	      0.00000000
      0.62751633	    556.36443528	    626.68912650	      0.00000000
      0.62865934	    555.60049435	    618.40415202	      0.00000000
      0.62980236	    554.74376631	    610.05864862	      0.00000000
      0.63094538	    553.79124298	    601.65291745	      0.00000000
      0.63208839	    552.74136095	    593.18868258	      0.00000000
      0.63323141	    551.59124490	    584.66659783	      0.00000000
      0.63437443	    550.33949788	    576.08875812	      0.00000000
      0.63551744	    548.98340652	    567.45630514	      0.00000000
      0.63666046	    547.52143690	    558.77136468	      0.00000000
      0.63780348	    545.95084062	    550.03508465	      0.00000000
      0.63894649	    544.26966538	    541.24924608	      0.00000000
      0.64008951	    542.47449691	    532.41448265	      0.00000000
      0.64123253	    540.56319392	    523.53281717	      0.00000000
      0.64237555	    538.53189724	    514.60513103	      0.00000000
      0.64351856	    536.37840723	    505.63386154	      0.00000000
      0.64466158	    534.09902627	    496.62049236	      0.00000000
      0.64580460	    531.69124796	    487.56698272	      0.00000000
      0.64694761	    529.15116569	    478.47416916	      0.00000000
      0.64809063	    526.47681865	    469.34390152	      0.00000000
      0.64923365	    523.66443804	    460.17685864	      0.00000000
      0.65037666	    520.71203469	    450.97509373	      0.00000000
      0.65151968	    517.61581343	    441.73957609	      0.00000000
      0.65266270	    514.37258457	    432.47200705	      0.00000000
      0.65380572	    510.97764096	    423.17312044	      0.00000000
      0.65494873	    507.42613042	    413.84390159	      0.00000000
      0.65609175	    503.71184784	    404.48460602	      0.00000000
      0.65723477	    499.82860451	    395.09574134	      0.00000000
      0.65837778	    495.76925800	    385.67738197	      0.00000000
      0.65952080	    491.52683481	    376.22997597	      0.00000000
      0.66066382	    487.09395397	    366.75407677	      0.00000000
      0.66180683	    482.46261893	    357.25017304	      0.00000000
      0.66294985	    477.62539775	    347.71938790	      0.00000000
      0.66409287	    472.57285182	    338.16230646	      0.00000000
      0.66523589	    467.29678521	    328.58062500	      0.00000000
      0.66637890	    461.78625054	    318.97556005	      0.00000000
      0.66752192	    456.03199661	    309.34981759	      0.00000000
      0.66866494	    450.02245740	    299.70598312	      0.00000000
      0.66980795	    443.74833652	    290.04824566	      0.00000000
      0.67095097	    437.19900189	    280.38094219	      0.00000000
      0.67209399	    430.36639420	    270.70989839	      0.00000000
      0.67323700	    423.24164819	    261.04042014	      0.00000000
      0.67438002	    415.81789089	    251.37880632	      0.00000000
      0.67552304	    408.08863475	    241.73001092	      0.00000000
      0.67666606	    400.04875581	    232.09814223	      0.00000000
      0.67780907	    391.69536624	    222.49183385	      0.00000000
      0.67895209	    383.02270416	    212.92109030	      0.00000000
      0.68009511	    374.02717327	    203.39975615	      0.00000000
      0.68123812	    364.69314055	    193.93538383	      0.00000000
      0.68238114	    355.04743000	    184.55524054	      0.00000000
      0.68352416	    345.04930449	    175.24883627	      0.00000000
      0.68466717	    334.81391169	    166.09270853	      0.00000000
      0.68581019	    323.94174121	    156.92192704	      0.00000000
