PointAcceleration
version=1
nRows=601
nColumns=4
inDegrees=no
No description.
endheader
time	state_0	state_1	state_2
      0.00000000	    -58.72632567	   -164.78238764	      0.00000000
      0.00176607	    -67.14885428	   -177.54678608	      0.00000000
      0.00353213	    -78.34144820	   -193.58781957	      0.00000000
      0.00529820	    -91.79582809	   -211.66232448	      0.00000000
      0.00706426	   -106.54525157	   -229.94786049	      0.00000000
      0.00883033	   -121.58092744	   -246.70766834	      0.00000000
      0.01059640	   -134.76431395	   -257.51123646	      0.00000000
      0.01236246	   -145.14165956	   -259.73098335	      0.00000000
      0.01412853	    -90.99577054	   -184.33725512	      0.00000000
      0.01589460	    -44.35469273	   -121.08375249	      0.00000000
      0.01766066	    -37.73564465	    -97.06380446	      0.00000000
      0.01942673	    -35.83055073	    -63.13688735	      0.00000000
      0.02119279	    -34.72968490	    -31.12487703	      0.00000000
      0.02295886	    -35.50528605	    -14.67674600	      0.00000000
      0.02472493	    -32.16012950	     -6.47924954	      0.00000000
      0.02649099	    -29.08304979	     -7.03615692	      0.00000000
      0.02825706	    -25.75270435	     -9.09974039	      0.00000000
      0.03002312	    -23.04712905	    -11.42137922	      0.00000000
      0.03178919	    -20.97361880	    -12.27929815	      0.00000000
      0.03355526	    -19.49137302	    -11.78913856	      0.00000000
      0.03532132	    -18.53154092	    -10.63659249	      0.00000000
      0.03708739	    -17.70764728	     -8.29856897	      0.00000000
      0.03885345	    -16.58520555	     -4.18653627	      0.00000000
      0.04061952	    -15.29768580	      1.79303098	      0.00000000
      0.04238559	    -13.92657410	      9.05516589	      0.00000000
      0.04415165	    -12.54769754	     16.99939901	      0.00000000
      0.04591772	    -11.27240494	     24.68292762	      0.00000000
      0.04768379	     -9.92434394	     32.32485662	      0.00000000
      0.04944985	     -8.34752533	     40.43606836	      0.00000000
      0.05121592	     -6.63974981	     49.12661579	      0.00000000
      0.05298198	     -4.86231331	     58.21599485	      0.00000000
      0.05474805	     -3.02855728	     67.48589382	      0.00000000
      0.05651412	     -1.18839904	     76.67908493	      0.00000000
      0.05828018	      0.77722377	     86.06783404	      0.00000000
      0.06004625	      2.98071126	     96.13778020	      0.00000000
      0.06181231	      5.35696973	    106.87772016	      0.00000000
      0.06357838	      7.85886164	    118.09160225	      0.00000000
      0.06534445	     10.48635237	    129.64140157	      0.00000000
      0.06711051	     13.23627759	    141.43778827	      0.00000000
      0.06887658	     16.11143346	    153.45390114	      0.00000000
      0.07064264	     19.10786229	    165.64961414	      0.00000000
      0.07240871	     22.22566077	    177.99381637	      0.00000000
      0.07417478	     25.47029992	    190.42010856	      0.00000000
      0.07594084	     28.83771840	    202.95274834	      0.00000000
      0.07770691	     32.31150344	    215.67101667	      0.00000000
      0.07947298	     35.84221290	    228.46406160	      0.00000000
      0.08123904	     39.39192568	    241.13577392	      0.00000000
      0.08300511	     42.97862677	    253.67369726	      0.00000000
      0.08477117	     46.60120996	    266.10283160	      0.00000000
      0.08653724	     50.25909274	    278.45900174	      0.00000000
      0.08830331	     53.95942144	    290.77805187	      0.00000000
      0.09006937	     57.69456741	    303.03308956	      0.00000000
      0.09183544	     61.45664989	    315.18624903	      0.00000000
      0.09360150	     65.24989333	    327.21914508	      0.00000000
      0.09536757	     69.07439823	    339.11476868	      0.00000000
      0.09713364	     72.93127376	    350.86303011	      0.00000000
      0.09889970	     76.82047375	    362.45079159	      0.00000000
      0.10066577	     80.74368056	    373.87584195	      0.00000000
      0.10243184	     84.70225548	    385.13532546	      0.00000000
      0.10419790	     88.69792056	    396.23322946	      0.00000000
      0.10596397	     92.73311671	    407.17550808	      0.00000000
      0.10773003	     96.80797957	    417.96532392	      0.00000000
      0.10949610	    100.92390914	    428.60867922	      0.00000000
      0.11126217	    105.07882383	    439.10272809	      0.00000000
      0.11302823	    109.27151868	    449.44633077	      0.00000000
      0.11479430	    113.49926024	    459.63295449	      0.00000000
      0.11656036	    117.75956795	    469.65654930	      0.00000000
      0.11832643	    122.05050203	    479.51155598	      0.00000000
      0.12009250	    126.37030674	    489.19269803	      0.00000000
      0.12185856	    130.71743805	    498.69665712	      0.00000000
      0.12362463	    135.09080459	    508.02013729	      0.00000000
      0.12539069	    139.48838161	    517.16337084	      0.00000000
      0.12715676	    143.90804490	    526.12741863	      0.00000000
      0.12892283	    148.34884685	    534.91717444	      0.00000000
      0.13068889	    152.81075320	    543.53944642	      0.00000000
      0.13245496	    157.29130203	    551.99318421	      0.00000000
      0.13422103	    161.78966290	    560.27862646	      0.00000000
      0.13598709	    166.29735831	    568.38323176	      0.00000000
      0.13775316	    170.80483557	    576.29519058	      0.00000000
      0.13951922	    175.30687304	    584.00514751	      0.00000000
      0.14128529	    179.79886704	    591.50235523	      0.00000000
      0.14305136	    184.27842639	    598.78299236	      0.00000000
      0.14481742	    188.74245127	    605.84284495	      0.00000000
      0.14658349	    193.18836280	    612.68263811	      0.00000000
      0.14834955	    197.61368609	    619.30340220	      0.00000000
      0.15011562	    202.01458618	    625.70547223	      0.00000000
      0.15188169	    206.38760368	    631.88973579	      0.00000000
      0.15364775	    210.72819067	    637.85481637	      0.00000000
      0.15541382	    215.03193573	    643.59962857	      0.00000000
      0.15717989	    219.29509920	    649.12344717	      0.00000000
      0.15894595	    223.51383593	    654.42551127	      0.00000000
      0.16071202	    227.68624338	    659.50841630	      0.00000000
      0.16247808	    231.81045624	    664.37535519	      0.00000000
      0.16424415	    235.88636407	    669.03206807	      0.00000000
      0.16601022	    239.91419877	    673.48481982	      0.00000000
      0.16777628	    243.89289387	    677.73750479	      0.00000000
      0.16954235	    247.82270320	    681.79668398	      0.00000000
      0.17130841	    251.69968727	    685.66248307	      0.00000000
      0.17307448	    255.52006636	    689.33344194	      0.00000000
      0.17484055	    259.28054081	    692.80957644	      0.00000000
      0.17660661	    262.97673300	    696.09014477	      0.00000000
      0.17837268	    266.60758745	    699.17704642	      0.00000000
      0.18013874	    270.17167062	    702.07225215	      0.00000000
      0.18190481	    273.66889738	    704.77818593	      0.00000000
      0.18367088	    277.09905451	    707.29724823	      0.00000000
      0.18543694	    280.45992755	    709.62829285	      0.00000000
      0.18720301	    283.75003448	    711.77079001	      0.00000000
      0.18896908	    286.96756766	    713.72492468	      0.00000000
      0.19073514	    290.11286564	    715.49158137	      0.00000000
      0.19250121	    293.18512987	    717.07472462	      0.00000000
      0.19426727	    296.18653403	    718.47982539	      0.00000000
      0.19603334	    299.11654535	    719.71304757	      0.00000000
      0.19779941	    301.97766573	    720.78265286	      0.00000000
      0.19956547	    304.77004177	    721.69496083	      0.00000000
      0.20133154	    307.49529582	    722.45761210	      0.00000000
      0.20309760	    310.15498187	    723.07681853	      0.00000000
      0.20486367	    312.74997518	    723.55861447	      0.00000000
      0.20662974	    315.28283956	    723.90929546	      0.00000000
      0.20839580	    317.75433070	    724.13407460	      0.00000000
      0.21016187	    320.16689830	    724.23892299	      0.00000000
      0.21192793	    322.52143320	    724.22888337	      0.00000000
      0.21369400	    324.81945954	    724.10874133	      0.00000000
      0.21546007	    327.06182161	    723.88299308	      0.00000000
      0.21722613	    329.24916837	    723.55488716	      0.00000000
      0.21899220	    331.38217622	    723.12781532	      0.00000000
      0.22075827	    333.46125280	    722.60424825	      0.00000000
      0.22252433	    335.48705105	    721.98679787	      0.00000000
      0.22429040	    337.46036852	    721.27852618	      0.00000000
      0.22605646	    339.38217182	    720.48250731	      0.00000000
      0.22782253	    341.25368007	    719.60282249	      0.00000000
      0.22958860	    343.07629431	    718.64370202	      0.00000000
      0.23135466	    344.85092694	    717.60892348	      0.00000000
      0.23312073	    346.57865332	    716.50243704	      0.00000000
      0.23488679	    348.26001694	    715.32693275	      0.00000000
      0.23665286	    349.89554836	    714.08479435	      0.00000000
      0.23841893	    351.48713341	    712.78032663	      0.00000000
      0.24018499	    353.03652486	    711.41743428	      0.00000000
      0.24195106	    354.54793736	    710.00469432	      0.00000000
      0.24371713	    356.02549926	    708.55100660	      0.00000000
      0.24548319	    357.47249033	    707.06346780	      0.00000000
      0.24724926	    358.89256596	    705.54948903	      0.00000000
      0.24901532	    360.28531102	    704.00912565	      0.00000000
      0.25078139	    361.65118575	    702.44356304	      0.00000000
      0.25254746	    362.99007655	    700.85258728	      0.00000000
      0.25431352	    364.30178136	    699.23597914	      0.00000000
      0.25607959	    365.58757221	    697.59571850	      0.00000000
      0.25784565	    366.84833986	    695.93348453	      0.00000000
      0.25961172	    368.08542004	    694.25147335	      0.00000000
      0.26137779	    369.30011547	    692.55185785	      0.00000000
      0.26314385	    370.49303342	    690.83547716	      0.00000000
      0.26490992	    371.66488888	    689.10323313	      0.00000000
      0.26667598	    372.81588580	    687.35518806	      0.00000000
      0.26844205	    373.94615878	    685.59129501	      0.00000000
      0.27020812	    375.05595391	    683.81186525	      0.00000000
      0.27197418	    376.14529341	    682.01690718	      0.00000000
      0.27374025	    377.21450741	    680.20723991	      0.00000000
      0.27550632	    378.26366822	    678.38332793	      0.00000000
      0.27727238	    379.29341003	    676.54665083	      0.00000000
      0.27903845	    380.30415206	    674.69835286	      0.00000000
      0.28080451	    381.29703882	    672.84061470	      0.00000000
      0.28257058	    382.27304951	    670.97533181	      0.00000000
      0.28433665	    383.23402796	    669.10552264	      0.00000000
      0.28610271	    384.18175068	    667.23406409	      0.00000000
      0.28786878	    385.11865970	    665.36468723	      0.00000000
      0.28963484	    386.04727202	    663.50122109	      0.00000000
      0.29140091	    386.96953727	    661.64661391	      0.00000000
      0.29316698	    387.88763587	    659.80412869	      0.00000000
      0.29493304	    388.80194984	    657.97430486	      0.00000000
      0.29669911	    389.71309033	    656.15797605	      0.00000000
      0.29846517	    390.62033952	    654.35376843	      0.00000000
      0.30023124	    391.52291827	    652.56025516	      0.00000000
      0.30199731	    392.42062702	    650.77637173	      0.00000000
      0.30376337	    393.31310123	    649.00087736	      0.00000000
      0.30552944	    394.20039701	    647.23322288	      0.00000000
      0.30729551	    395.08251858	    645.47296404	      0.00000000
      0.30906157	    395.95889247	    643.71880981	      0.00000000
      0.31082764	    396.82876439	    641.96918652	      0.00000000
      0.31259370	    397.69119024	    640.22175022	      0.00000000
      0.31435977	    398.54545452	    638.47397434	      0.00000000
      0.31612584	    399.39171483	    636.72561051	      0.00000000
      0.31789190	    400.22971733	    634.97604900	      0.00000000
      0.31965797	    401.06209217	    633.22913330	      0.00000000
      0.32142403	    401.89120902	    631.48849734	      0.00000000
      0.32319010	    402.71967039	    629.75772504	      0.00000000
      0.32495617	    403.55077844	    628.04066968	      0.00000000
      0.32672223	    404.38574214	    626.33915970	      0.00000000
      0.32848830	    405.22624992	    624.65565453	      0.00000000
      0.33025437	    406.07724816	    622.99625949	      0.00000000
      0.33202043	    406.94600614	    621.36501105	      0.00000000
      0.33378650	    407.82985130	    619.75927414	      0.00000000
      0.33555256	    408.73009737	    618.17721129	      0.00000000
      0.33731863	    409.64743165	    616.61828606	      0.00000000
      0.33908470	    410.58168559	    615.08203150	      0.00000000
      0.34085076	    411.52932280	    613.56386686	      0.00000000
      0.34261683	    412.48643799	    612.05860250	      0.00000000
      0.34438289	    413.44739120	    610.55858513	      0.00000000
      0.34614896	    414.40687204	    609.05596730	      0.00000000
      0.34791503	    415.36497866	    607.55066859	      0.00000000
      0.34968109	    416.31937289	    606.04052774	      0.00000000
      0.35144716	    417.27354361	    604.53024564	      0.00000000
      0.35321322	    418.23098157	    603.02374820	      0.00000000
      0.35497929	    419.19794074	    601.52960964	      0.00000000
      0.35674536	    420.18107789	    600.05715717	      0.00000000
      0.35851142	    421.18204535	    598.61038920	      0.00000000
      0.36027749	    422.20411444	    597.19475342	      0.00000000
      0.36204356	    423.24354970	    595.80677807	      0.00000000
      0.36380962	    424.29747311	    594.44391718	      0.00000000
      0.36557569	    425.36251832	    593.10153969	      0.00000000
      0.36734175	    426.43429919	    591.77489587	      0.00000000
      0.36910782	    427.51419417	    590.46215566	      0.00000000
      0.37087389	    428.60372112	    589.16126428	      0.00000000
      0.37263995	    429.70609589	    587.87216340	      0.00000000
      0.37440602	    430.82421243	    586.59470838	      0.00000000
      0.37617208	    431.95556387	    585.32501595	      0.00000000
      0.37793815	    433.09758585	    584.05924226	      0.00000000
      0.37970422	    434.24586457	    582.79206273	      0.00000000
      0.38147028	    435.39627847	    581.51804916	      0.00000000
      0.38323635	    436.54827653	    580.23590371	      0.00000000
      0.38500242	    437.70021295	    578.94320582	      0.00000000
      0.38676848	    438.85336036	    577.64130786	      0.00000000
      0.38853455	    440.00875589	    576.33144800	      0.00000000
      0.39030061	    441.16826553	    575.01596813	      0.00000000
      0.39206668	    442.33415684	    573.69746606	      0.00000000
      0.39383275	    443.50734912	    572.37691815	      0.00000000
      0.39559881	    444.68941010	    571.05583036	      0.00000000
      0.39736488	    445.87959270	    569.73299759	      0.00000000
      0.39913094	    447.07771426	    568.40775564	      0.00000000
      0.40089701	    448.28110080	    567.07676924	      0.00000000
      0.40266308	    449.48721662	    565.73676092	      0.00000000
      0.40442914	    450.69302615	    564.38423751	      0.00000000
      0.40619521	    451.89464826	    563.01474323	      0.00000000
      0.40796127	    453.09325231	    561.62943696	      0.00000000
      0.40972734	    454.28827958	    560.22786008	      0.00000000
      0.41149341	    455.48840720	    558.81878847	      0.00000000
      0.41325947	    456.70158574	    557.41061223	      0.00000000
      0.41502554	    457.93822007	    556.01307377	      0.00000000
      0.41679161	    459.21127950	    554.63843290	      0.00000000
      0.41855767	    460.51880436	    553.28300094	      0.00000000
      0.42032374	    461.86338650	    551.94682467	      0.00000000
      0.42208980	    463.22673260	    550.60950847	      0.00000000
      0.42385587	    464.59206708	    549.25173229	      0.00000000
      0.42562194	    465.94080420	    547.85321112	      0.00000000
      0.42738800	    467.25059608	    546.39062932	      0.00000000
      0.42915407	    468.51842998	    544.86060559	      0.00000000
      0.43092013	    469.73518301	    543.25548951	      0.00000000
      0.43268620	    470.91325706	    541.58759666	      0.00000000
      0.43445227	    472.06356832	    539.86963929	      0.00000000
      0.43621833	    473.18311299	    538.09700502	      0.00000000
      0.43798440	    474.27537106	    536.26641598	      0.00000000
      0.43975046	    475.34109072	    534.37519737	      0.00000000
      0.44151653	    476.37781824	    532.41911871	      0.00000000
      0.44328260	    477.39400163	    530.40695221	      0.00000000
      0.44504866	    478.39728550	    528.34777733	      0.00000000
      0.44681473	    479.37965814	    526.23908960	      0.00000000
      0.44858080	    480.33558051	    524.07914421	      0.00000000
      0.45034686	    481.26458849	    521.86921292	      0.00000000
      0.45211293	    482.16460801	    519.61021045	      0.00000000
      0.45387899	    483.03885190	    517.30356099	      0.00000000
      0.45564506	    483.89211308	    514.95207399	      0.00000000
      0.45741113	    484.71568026	    512.54542546	      0.00000000
      0.45917719	    485.50161013	    510.07313893	      0.00000000
      0.46094326	    486.24464016	    507.52751889	      0.00000000
      0.46270932	    486.93623854	    504.89879089	      0.00000000
      0.46447539	    487.58153198	    502.19034350	      0.00000000
      0.46624146	    488.18301581	    499.40428328	      0.00000000
      0.46800752	    488.74355256	    496.54398618	      0.00000000
      0.46977359	    489.26706225	    493.61295825	      0.00000000
      0.47153966	    489.75274007	    490.61081705	      0.00000000
      0.47330572	    490.20090574	    487.53755407	      0.00000000
      0.47507179	    490.60983076	    484.39145429	      0.00000000
      0.47683785	    490.97759306	    481.17092695	      0.00000000
      0.47860392	    491.29893896	    477.87166235	      0.00000000
      0.48036999	    491.56832473	    474.48935758	      0.00000000
      0.48213605	    491.77660286	    471.01652146	      0.00000000
      0.48390212	    491.91407217	    467.44523994	      0.00000000
      0.48566818	    491.97197590	    463.76837678	      0.00000000
      0.48743425	    491.93908225	    459.97703701	      0.00000000
      0.48920032	    491.81244052	    456.06934319	      0.00000000
      0.49096638	    491.58617038	    452.04158120	      0.00000000
      0.49273245	    491.26322541	    447.89758731	      0.00000000
      0.49449851	    490.84337157	    443.63904795	      0.00000000
      0.49626458	    490.32729285	    439.26839054	      0.00000000
      0.49803065	    489.71710091	    434.78863425	      0.00000000
      0.49979671	    489.00827389	    430.19828908	      0.00000000
      0.50156278	    488.19604754	    425.49557394	      0.00000000
      0.50332885	    487.26886973	    420.67350543	      0.00000000
      0.50509491	    486.21501161	    415.72503234	      0.00000000
      0.50686098	    485.02083719	    410.64205305	      0.00000000
      0.50862704	    483.66835376	    405.41451051	      0.00000000
      0.51039311	    482.14374312	    400.03440083	      0.00000000
      0.51215918	    480.42816847	    394.49150499	      0.00000000
      0.51392524	    478.50639612	    388.77635442	      0.00000000
      0.51569131	    476.36413729	    382.88007388	      0.00000000
      0.51745737	    473.98832241	    376.79621379	      0.00000000
      0.51922344	    471.36206058	    370.51687074	      0.00000000
      0.52098951	    468.47246390	    364.03899622	      0.00000000
      0.52275557	    465.30735248	    357.36231154	      0.00000000
      0.52452164	    461.83543926	    350.47618700	      0.00000000
      0.52628770	    458.03241589	    343.37669859	      0.00000000
      0.52805377	    453.81932953	    336.02528782	      0.00000000
      0.52981984	    449.12752252	    328.38905119	      0.00000000
      0.53158590	    443.86414808	    320.41925507	      0.00000000
      0.53335197	    437.94205993	    312.06959838	      0.00000000
      0.53511804	    431.28571652	    303.30541579	      0.00000000
      0.53688410	    423.81269533	    294.08086154	      0.00000000
      0.53865017	    415.44704034	    284.37698620	      0.00000000
      0.54041623	    406.07906448	    274.11902360	      0.00000000
      0.54218230	    395.65783056	    263.32333660	      0.00000000
      0.54394837	    384.63904307	    251.98751112	      0.00000000
      0.54571443	    373.08767227	    240.58042514	      0.00000000
      0.54748050	    360.72680647	    229.12113880	      0.00000000
      0.54924656	    347.42589534	    217.26606812	      0.00000000
      0.55101263	    333.19603737	    205.03266816	      0.00000000
      0.55277870	    318.12704158	    192.55401079	      0.00000000
      0.55454476	    302.32726931	    179.91602445	      0.00000000
      0.55631083	    285.94691198	    167.24868042	      0.00000000
      0.55807690	    269.13253088	    154.64450690	      0.00000000
      0.55984296	    252.01778626	    142.20874745	      0.00000000
      0.56160903	    234.75229350	    130.07267805	      0.00000000
      0.56337509	    217.30666390	    118.26706298	      0.00000000
      0.56514116	    199.68487759	    106.78016240	      0.00000000
      0.56690723	    182.02467653	     95.64217062	      0.00000000
      0.56867329	    164.57742179	     84.95270677	      0.00000000
      0.57043936	    147.41667259	     74.79435410	      0.00000000
      0.57220542	    130.73655650	     65.27934798	      0.00000000
      0.57397149	    114.59332421	     56.43089424	      0.00000000
      0.57573756	     99.46428936	     48.39704371	      0.00000000
      0.57750362	     84.99808536	     41.02584457	      0.00000000
      0.57926969	     72.51513572	     34.69994848	      0.00000000
      0.58103575	     58.17544107	     28.11146985	      0.00000000
      0.58280182	     39.72939663	     20.21873648	      0.00000000
      0.58456789	     22.65927267	     12.12104754	      0.00000000
      0.58633395	     19.28460164	      8.86753660	      0.00000000
      0.58810002	     19.19010015	      7.97801473	      0.00000000
      0.58986609	     17.39704140	      6.17802491	      0.00000000
      0.59163215	     15.39541826	      4.34415339	      0.00000000
      0.59339822	     13.49722238	      2.73837400	      0.00000000
      0.59516428	     11.75897435	      1.35834585	      0.00000000
      0.59693035	     10.30501735	      0.21773553	      0.00000000
      0.59869642	      9.07536286	     -0.74611459	      0.00000000
      0.60046248	      8.05934406	     -1.56298737	      0.00000000
      0.60222855	      7.21739732	     -2.26621724	      0.00000000
      0.60399461	      6.51631015	     -2.88025198	      0.00000000
      0.60576068	      5.93372474	     -3.42161890	      0.00000000
      0.60752675	      5.43207784	     -3.90871063	      0.00000000
      0.60929281	      4.98847119	     -4.35254433	      0.00000000
      0.61105888	      4.57105053	     -4.76506723	      0.00000000
      0.61282494	      4.16552132	     -5.15214780	      0.00000000
      0.61459101	      3.75215210	     -5.52046406	      0.00000000
      0.61635708	      3.32521977	     -5.87250017	      0.00000000
      0.61812314	      2.87438534	     -6.21166105	      0.00000000
      0.61988921	      2.39888595	     -6.53888196	      0.00000000
      0.62165528	      1.89551496	     -6.85564754	      0.00000000
      0.62342134	      1.36758716	     -7.16199106	      0.00000000
      0.62518741	      0.81706553	     -7.45840011	      0.00000000
      0.62695347	      0.24946705	     -7.74438988	      0.00000000
      0.62871954	     -0.33033795	     -8.01979068	      0.00000000
      0.63048561	     -0.91649637	     -8.28396504	      0.00000000
      0.63225167	     -1.50302634	     -8.53635295	      0.00000000
      0.63401774	     -2.08541352	     -8.77679921	      0.00000000
      0.63578380	     -2.65879466	     -9.00523220	      0.00000000
      0.63754987	     -3.22163073	     -9.22211299	      0.00000000
      0.63931594	     -3.77181599	     -9.42776266	      0.00000000
      0.64108200	     -4.31080572	     -9.62319099	      0.00000000
      0.64284807	     -4.83946315	     -9.80924278	      0.00000000
      0.64461414	     -5.36139991	     -9.98716741	      0.00000000
      0.64638020	     -5.88011903	    -10.15810678	      0.00000000
      0.64814627	     -6.39997893	    -10.32325580	      0.00000000
      0.64991233	     -6.92490791	    -10.48366508	      0.00000000
      0.65167840	     -7.45876757	    -10.64029112	      0.00000000
      0.65344447	     -8.00607251	    -10.79413048	      0.00000000
      0.65521053	     -8.56995041	    -10.94592724	      0.00000000
      0.65697660	     -9.14903962	    -11.09577259	      0.00000000
      0.65874266	     -9.74116512	    -11.24365967	      0.00000000
      0.66050873	    -10.08102443	    -11.35364172	      0.00000000
      0.66227480	    -10.69937601	    -11.49577375	      0.00000000
      0.66404086	    -11.32423697	    -11.63593138	      0.00000000
      0.66580693	    -11.96550955	    -11.77570153	      0.00000000
      0.66757299	    -12.63113454	    -11.91636631	      0.00000000
      0.66933906	    -13.31569009	    -12.05754489	      0.00000000
      0.67110513	    -14.01151768	    -12.19863233	      0.00000000
      0.67287119	    -14.71006046	    -12.33895229	      0.00000000
      0.67463726	    -15.40749290	    -12.47839783	      0.00000000
      0.67640333	    -16.10394486	    -12.61730990	      0.00000000
      0.67816939	    -16.79709319	    -12.75574573	      0.00000000
      0.67993546	    -17.48689852	    -12.89399322	      0.00000000
      0.68170152	    -18.17473909	    -13.03248466	      0.00000000
      0.68346759	    -18.86157752	    -13.17159697	      0.00000000
      0.68523366	    -19.54707250	    -13.31156500	      0.00000000
      0.68699972	    -20.22889438	    -13.45240209	      0.00000000
      0.68876579	    -20.90425883	    -13.59406115	      0.00000000
      0.69053185	    -21.57193478	    -13.73662921	      0.00000000
      0.69229792	    -22.23141953	    -13.88025428	      0.00000000
      0.69406399	    -22.88478887	    -14.02533037	      0.00000000
      0.69583005	    -23.53412137	    -14.17226328	      0.00000000
      0.69759612	    -24.18176291	    -14.32149067	      0.00000000
      0.69936219	    -24.82983685	    -14.47344960	      0.00000000
      0.70112825	    -25.47935636	    -14.62847679	      0.00000000
      0.70289432	    -26.13149682	    -14.78694273	      0.00000000
      0.70466038	    -26.78649069	    -14.94913442	      0.00000000
      0.70642645	    -27.44492761	    -15.11538502	      0.00000000
      0.70819252	    -28.10662969	    -15.28597054	      0.00000000
      0.70995858	    -28.77125611	    -15.46115635	      0.00000000
      0.71172465	    -29.43840528	    -15.64120910	      0.00000000
      0.71349071	    -30.10786416	    -15.82641597	      0.00000000
      0.71525678	    -30.77990637	    -16.01711224	      0.00000000
      0.71702285	    -31.45499537	    -16.21365637	      0.00000000
      0.71878891	    -32.13335122	    -16.41637324	      0.00000000
      0.72055498	    -32.81461286	    -16.62551963	      0.00000000
      0.72232104	    -33.49869488	    -16.84139896	      0.00000000
      0.72408711	    -34.18630051	    -17.06442824	      0.00000000
      0.72585318	    -34.87773570	    -17.29501597	      0.00000000
      0.72761924	    -35.57254143	    -17.53347105	      0.00000000
      0.72938531	    -36.26989014	    -17.78003578	      0.00000000
      0.73115138	    -36.96930489	    -18.03498099	      0.00000000
      0.73291744	    -37.67059618	    -18.29859429	      0.00000000
      0.73468351	    -38.37346307	    -18.57114396	      0.00000000
      0.73644957	    -39.07763070	    -18.85289479	      0.00000000
      0.73821564	    -39.78243503	    -19.14404816	      0.00000000
      0.73998171	    -40.48782432	    -19.44488929	      0.00000000
      0.74174777	    -41.19406215	    -19.75575524	      0.00000000
      0.74351384	    -41.90182965	    -20.07705628	      0.00000000
      0.74527990	    -42.61177786	    -20.40921865	      0.00000000
      0.74704597	    -43.32393727	    -20.75256150	      0.00000000
      0.74881204	    -44.03810953	    -21.10736519	      0.00000000
      0.75057810	    -44.75358665	    -21.47380200	      0.00000000
      0.75234417	    -45.46964365	    -21.85202018	      0.00000000
      0.75411023	    -46.18590013	    -22.24222457	      0.00000000
      0.75587630	    -46.90212565	    -22.64463985	      0.00000000
      0.75764237	    -47.61849957	    -23.05959128	      0.00000000
      0.75940843	    -48.33523072	    -23.48742207	      0.00000000
      0.76117450	    -49.05229088	    -23.92844522	      0.00000000
      0.76294057	    -49.76952744	    -24.38294867	      0.00000000
      0.76470663	    -50.48640073	    -24.85112070	      0.00000000
      0.76647270	    -51.20231385	    -25.33312184	      0.00000000
      0.76823876	    -51.91677072	    -25.82910319	      0.00000000
      0.77000483	    -52.62931692	    -26.33921650	      0.00000000
      0.77177090	    -53.33992212	    -26.86368939	      0.00000000
      0.77353696	    -54.04865670	    -27.40278391	      0.00000000
      0.77530303	    -54.75564767	    -27.95678474	      0.00000000
      0.77706909	    -55.46093904	    -28.52597366	      0.00000000
      0.77883516	    -56.16434251	    -29.11057938	      0.00000000
      0.78060123	    -56.86561576	    -29.71081927	      0.00000000
      0.78236729	    -57.56456489	    -30.32691325	      0.00000000
      0.78413336	    -58.26108854	    -30.95910763	      0.00000000
      0.78589943	    -58.95530896	    -31.60770711	      0.00000000
      0.78766549	    -59.64745745	    -32.27306132	      0.00000000
      0.78943156	    -60.33767565	    -32.95550696	      0.00000000
      0.79119762	    -61.02611178	    -33.65539242	      0.00000000
      0.79296369	    -61.71257768	    -34.37297283	      0.00000000
      0.79472976	    -62.39691956	    -35.10850268	      0.00000000
      0.79649582	    -63.07876043	    -35.86216070	      0.00000000
      0.79826189	    -63.75782435	    -36.63413765	      0.00000000
      0.80002795	    -64.43370937	    -37.42457350	      0.00000000
      0.80179402	    -65.10602950	    -38.23359194	      0.00000000
      0.80356009	    -65.77432205	    -39.06127713	      0.00000000
      0.80532615	    -66.43799508	    -39.90763951	      0.00000000
      0.80709222	    -67.09680419	    -40.77279283	      0.00000000
      0.80885828	    -67.75035837	    -41.65677468	      0.00000000
      0.81062435	    -68.39937629	    -42.56002861	      0.00000000
      0.81239042	    -69.04462245	    -43.48304678	      0.00000000
      0.81415648	    -69.68823959	    -44.42690834	      0.00000000
      0.81592255	    -70.33256866	    -45.39288986	      0.00000000
      0.81768862	    -70.98066963	    -46.38268349	      0.00000000
      0.81945468	    -71.63592461	    -47.39829185	      0.00000000
      0.82122075	    -72.30132396	    -48.44172326	      0.00000000
      0.82298681	    -72.98043950	    -49.51541965	      0.00000000
      0.82475288	    -73.67511998	    -50.62123647	      0.00000000
      0.82651895	    -74.38776955	    -51.76138572	      0.00000000
      0.82828501	    -75.11784137	    -52.93682969	      0.00000000
      0.83005108	    -75.86466524	    -54.14839724	      0.00000000
      0.83181714	    -76.62526423	    -55.39575902	      0.00000000
      0.83358321	    -77.39644576	    -56.67821306	      0.00000000
      0.83534928	    -78.17487282	    -57.99485210	      0.00000000
      0.83711534	    -78.95779126	    -59.34486491	      0.00000000
      0.83888141	    -79.74134936	    -60.72669383	      0.00000000
      0.84064747	    -80.52004864	    -62.13749669	      0.00000000
      0.84241354	    -81.28794130	    -63.57376441	      0.00000000
      0.84417961	    -82.03850297	    -65.03116525	      0.00000000
      0.84594567	    -82.76697789	    -66.50598137	      0.00000000
      0.84771174	    -83.46827564	    -67.99388390	      0.00000000
      0.84947781	    -84.13877529	    -69.49112875	      0.00000000
      0.85124387	    -84.77394942	    -70.99309170	      0.00000000
      0.85300994	    -85.37003617	    -72.49530868	      0.00000000
      0.85477600	    -85.92271322	    -73.99262824	      0.00000000
      0.85654207	    -86.42871238	    -75.48025351	      0.00000000
      0.85830814	    -86.88470554	    -76.95311153	      0.00000000
      0.86007420	    -87.28825764	    -78.40650708	      0.00000000
      0.86184027	    -87.63685010	    -79.83558592	      0.00000000
      0.86360633	    -87.92827640	    -81.23556451	      0.00000000
      0.86537240	    -88.16023555	    -82.60153370	      0.00000000
      0.86713847	    -88.33075009	    -83.92867550	      0.00000000
      0.86890453	    -88.43791892	    -85.21220340	      0.00000000
      0.87067060	    -88.48073538	    -86.44794624	      0.00000000
      0.87243667	    -88.45872394	    -87.63237363	      0.00000000
      0.87420273	    -88.37190478	    -88.76247924	      0.00000000
      0.87596880	    -88.22064773	    -89.83596675	      0.00000000
      0.87773486	    -88.00453833	    -90.84989409	      0.00000000
      0.87950093	    -87.72315731	    -91.80145847	      0.00000000
      0.88126700	    -87.37591880	    -92.68752140	      0.00000000
      0.88303306	    -86.96347878	    -93.50631821	      0.00000000
      0.88479913	    -86.48601364	    -94.25546597	      0.00000000
      0.88656519	    -85.94408349	    -94.93285672	      0.00000000
      0.88833126	    -85.33706353	    -95.53448933	      0.00000000
      0.89009733	    -84.66327784	    -96.05393111	      0.00000000
      0.89186339	    -83.92530684	    -96.48929470	      0.00000000
      0.89362946	    -83.12904414	    -96.84363905	      0.00000000
      0.89539552	    -82.28103788	    -97.12211985	      0.00000000
      0.89716159	    -81.38524257	    -97.32730714	      0.00000000
      0.89892766	    -80.44472923	    -97.46052567	      0.00000000
      0.90069372	    -79.46409194	    -97.52595520	      0.00000000
      0.90245979	    -78.44671179	    -97.52626679	      0.00000000
      0.90422586	    -77.39617959	    -97.46476678	      0.00000000
      0.90599192	    -76.31270755	    -97.33857896	      0.00000000
      0.90775799	    -75.18975801	    -97.12934098	      0.00000000
      0.90952405	    -74.03715377	    -96.84686794	      0.00000000
      0.91129012	    -72.87509769	    -96.52829443	      0.00000000
      0.91305619	    -72.16039228	    -96.83044529	      0.00000000
      0.91482225	    -70.99297538	    -96.44910189	      0.00000000
      0.91658832	    -69.81914862	    -96.03616840	      0.00000000
      0.91835438	    -68.63789374	    -95.58765561	      0.00000000
      0.92012045	    -67.45041555	    -95.10295070	      0.00000000
      0.92188652	    -66.26121332	    -94.58984833	      0.00000000
      0.92365258	    -65.07368898	    -94.05456552	      0.00000000
      0.92541865	    -63.89042736	    -93.50213877	      0.00000000
      0.92718472	    -62.71334029	    -92.93591268	      0.00000000
      0.92895078	    -61.54479092	    -92.36085435	      0.00000000
      0.93071685	    -60.38666753	    -91.78092698	      0.00000000
      0.93248291	    -59.24034302	    -91.19884928	      0.00000000
      0.93424898	    -58.10734622	    -90.61788091	      0.00000000
      0.93601505	    -56.98952191	    -90.04270439	      0.00000000
      0.93778111	    -55.88880373	    -89.47854225	      0.00000000
      0.93954718	    -54.80695154	    -88.93061510	      0.00000000
      0.94131324	    -53.74493991	    -88.40181941	      0.00000000
      0.94307931	    -52.70346245	    -87.89396146	      0.00000000
      0.94484538	    -51.68293648	    -87.40788807	      0.00000000
      0.94661144	    -50.68402562	    -86.94502609	      0.00000000
      0.94837751	    -49.70748600	    -86.50742293	      0.00000000
      0.95014357	    -48.75401892	    -86.09699550	      0.00000000
      0.95190964	    -47.82408168	    -85.71515846	      0.00000000
      0.95367571	    -46.91792427	    -85.36259818	      0.00000000
      0.95544177	    -46.03560319	    -85.03948742	      0.00000000
      0.95720784	    -45.17713055	    -84.74578840	      0.00000000
      0.95897391	    -44.34256299	    -84.48173589	      0.00000000
      0.96073997	    -43.53186384	    -84.24728466	      0.00000000
      0.96250604	    -42.74507829	    -84.04278476	      0.00000000
      0.96427210	    -41.98211818	    -83.86823237	      0.00000000
      0.96603817	    -41.24297447	    -83.72400919	      0.00000000
      0.96780424	    -40.52759103	    -83.61047242	      0.00000000
      0.96957030	    -39.83584605	    -83.52793496	      0.00000000
      0.97133637	    -39.16750641	    -83.47645457	      0.00000000
      0.97310243	    -38.52216459	    -83.45565827	      0.00000000
      0.97486850	    -37.89938898	    -83.46460366	      0.00000000
      0.97663457	    -37.29870050	    -83.50301730	      0.00000000
      0.97840063	    -36.71968378	    -83.57112925	      0.00000000
      0.98016670	    -36.16197805	    -83.66962992	      0.00000000
      0.98193276	    -35.62529935	    -83.79964940	      0.00000000
      0.98369883	    -35.10867159	    -83.96019608	      0.00000000
      0.98546490	    -34.61068624	    -84.14880713	      0.00000000
      0.98723096	    -34.12980407	    -84.36239067	      0.00000000
      0.98899703	    -33.66453305	    -84.59782705	      0.00000000
      0.99076310	    -33.21436479	    -84.85511791	      0.00000000
      0.99252916	    -32.77930674	    -85.13613940	      0.00000000
      0.99429523	    -32.35908489	    -85.44209473	      0.00000000
      0.99606129	    -31.95275058	    -85.77198367	      0.00000000
      0.99782736	    -31.55892120	    -86.12325231	      0.00000000
      0.99959343	    -31.17629522	    -86.49328223	      0.00000000
      1.00135949	    -30.80450993	    -86.88238895	      0.00000000
      1.00312556	    -30.44364802	    -87.29226781	      0.00000000
      1.00489162	    -30.09437452	    -87.72652525	      0.00000000
      1.00665769	    -29.75724190	    -88.18830585	      0.00000000
      1.00842376	    -29.43277012	    -88.68036692	      0.00000000
      1.01018982	    -29.12181738	    -89.20629462	      0.00000000
      1.01195589	    -28.82507119	    -89.76858551	      0.00000000
      1.01372196	    -28.54360264	    -90.37014748	      0.00000000
      1.01548802	    -28.27882967	    -91.01329074	      0.00000000
      1.01725409	    -28.03279308	    -91.70197993	      0.00000000
      1.01902015	    -27.80772486	    -92.43952854	      0.00000000
      1.02078622	    -27.60685318	    -93.23046392	      0.00000000
      1.02255229	    -27.43388317	    -94.07818026	      0.00000000
      1.02431835	    -27.29385299	    -94.98706236	      0.00000000
      1.02608442	    -27.19341429	    -95.96316250	      0.00000000
      1.02785048	    -27.14139113	    -97.01527158	      0.00000000
      1.02961655	    -27.14936729	    -98.15674138	      0.00000000
      1.03138262	    -27.23157871	    -99.40377124	      0.00000000
      1.03314868	    -27.40580742	   -100.77894716	      0.00000000
      1.03491475	    -27.69259715	   -102.30660869	      0.00000000
      1.03668081	    -28.11728019	   -104.02424710	      0.00000000
      1.03844688	    -28.70820357	   -105.97641877	      0.00000000
      1.04021295	    -29.49681774	   -108.21784718	      0.00000000
      1.04197901	    -30.51540993	   -110.80668732	      0.00000000
      1.04374508	    -31.79069724	   -113.79210664	      0.00000000
      1.04551115	    -33.34091144	   -117.21466588	      0.00000000
      1.04727721	    -35.16566246	   -121.08115288	      0.00000000
      1.04904328	    -37.24744425	   -125.37295188	      0.00000000
      1.05080934	    -39.55495997	   -130.04745024	      0.00000000
      1.05257541	    -42.07979458	   -135.10495033	      0.00000000
      1.05434148	    -44.88028223	   -140.60964576	      0.00000000
      1.05610754	    -48.21363429	   -146.91947562	      0.00000000
      1.05787361	    -52.55378907	   -154.59241858	      0.00000000
      1.05963967	    -58.68262960	   -164.66028261	      0.00000000
