PointAcceleration
version=1
nRows=601
nColumns=4
inDegrees=no
No description.
endheader
time	state_0	state_1	state_2
      0.00000000	    582.94254255	    990.54213230	      0.00000000
      0.00118854	    583.69850468	    983.11316788	      0.00000000
      0.00237709	    584.29763312	    975.35486650	      0.00000000
      0.00356563	    584.77794694	    967.36320541	      0.00000000
      0.00475418	    585.09742978	    959.07393216	      0.00000000
      0.00594272	    585.26416735	    950.50548716	      0.00000000
      0.00713127	    585.27163731	    941.65220042	      0.00000000
      0.00831981	    585.11530133	    932.51539910	      0.00000000
      0.00950836	    584.78816461	    923.09007655	      0.00000000
      0.01069690	    584.28536229	    913.37595331	      0.00000000
      0.01188545	    583.60075850	    903.37051687	      0.00000000
      0.01307399	    582.72821551	    893.07294339	      0.00000000
      0.01426253	    581.66106952	    882.48079538	      0.00000000
      0.01545108	    580.39270608	    871.59342773	      0.00000000
      0.01663962	    578.91599883	    860.40878705	      0.00000000
      0.01782817	    577.22380722	    848.92658825	      0.00000000
      0.01901671	    575.30855446	    837.14524704	      0.00000000
      0.02020526	    573.16265972	    825.06500814	      0.00000000
      0.02139380	    570.77816651	    812.68497427	      0.00000000
      0.02258235	    568.14712208	    800.00610025	      0.00000000
      0.02377089	    565.26131885	    787.02844015	      0.00000000
      0.02495944	    562.11253708	    773.75386187	      0.00000000
      0.02614798	    558.69250567	    760.18369387	      0.00000000
      0.02733653	    554.99286402	    746.32093065	      0.00000000
      0.02852507	    551.00553278	    732.16856247	      0.00000000
      0.02971361	    546.72210798	    717.73086789	      0.00000000
      0.03090216	    542.13499247	    703.01295929	      0.00000000
      0.03209070	    537.23567387	    688.02037783	      0.00000000
      0.03327925	    532.01728877	    672.76102505	      0.00000000
      0.03446779	    526.47019498	    657.24099426	      0.00000000
      0.03565634	    520.58756787	    641.47146903	      0.00000000
      0.03684488	    514.35398495	    625.45632671	      0.00000000
      0.03803343	    507.75799404	    609.20633208	      0.00000000
      0.03922197	    500.77046334	    592.71191234	      0.00000000
      0.04041052	    493.37952091	    575.97813278	      0.00000000
      0.04159906	    485.51869357	    558.99734462	      0.00000000
      0.04278760	    477.03419687	    541.72910417	      0.00000000
      0.04397615	    467.82227985	    523.98634567	      0.00000000
      0.04516469	    457.88062988	    505.69353751	      0.00000000
      0.04635324	    447.96611385	    486.71801435	      0.00000000
      0.04754178	    436.80988359	    467.93012914	      0.00000000
      0.04873033	    425.32749789	    448.48922113	      0.00000000
      0.04991887	    413.25076015	    428.90080114	      0.00000000
      0.05110742	    400.81603330	    409.26587593	      0.00000000
      0.05229596	    388.07378387	    389.75834994	      0.00000000
      0.05348451	    375.10112054	    370.45927339	      0.00000000
      0.05467305	    361.95296603	    351.42469740	      0.00000000
      0.05586159	    348.64829753	    332.69580001	      0.00000000
      0.05705014	    335.21898436	    314.28565497	      0.00000000
      0.05823868	    321.66370094	    296.22406680	      0.00000000
      0.05942723	    308.00250031	    278.52208064	      0.00000000
      0.06061577	    294.22489050	    261.20238628	      0.00000000
      0.06180432	    280.34026864	    244.28358062	      0.00000000
      0.06299286	    266.34550210	    227.78856301	      0.00000000
      0.06418141	    252.26095402	    211.74702368	      0.00000000
      0.06536995	    238.08095833	    196.16770823	      0.00000000
      0.06655850	    223.78924066	    181.04357407	      0.00000000
      0.06774704	    209.51689048	    166.46590783	      0.00000000
      0.06893558	    195.42026910	    152.52916915	      0.00000000
      0.07012413	    181.66112388	    139.34576843	      0.00000000
      0.07131267	    168.48864383	    127.03738348	      0.00000000
      0.07250122	    155.95057619	    115.68473624	      0.00000000
      0.07368976	    144.39340268	    105.54124004	      0.00000000
      0.07487831	    133.64429167	     96.57793936	      0.00000000
      0.07606685	    124.31449921	     89.23091236	      0.00000000
      0.07725540	    115.29645078	     82.83341014	      0.00000000
      0.07844394	    108.14969713	     78.29065648	      0.00000000
      0.07963249	     94.45802455	     70.66875861	      0.00000000
      0.08082103	     65.19477970	     53.57360341	      0.00000000
      0.08200958	     39.00504461	     34.52697946	      0.00000000
      0.08319812	     35.20241092	     23.92758229	      0.00000000
      0.08438666	     40.68272767	     21.15284282	      0.00000000
      0.08557521	     41.17857571	     19.13086501	      0.00000000
      0.08676375	     41.02478299	     17.21483761	      0.00000000
      0.08795230	     40.75632196	     15.30318152	      0.00000000
      0.08914084	     40.09387386	     13.26546067	      0.00000000
      0.09032939	     39.02610757	     11.12759922	      0.00000000
      0.09151793	     37.56843711	      8.97284361	      0.00000000
      0.09270648	     35.68337824	      6.81648352	      0.00000000
      0.09389502	     33.32626907	      4.66825355	      0.00000000
      0.09508357	     30.45708036	      2.53575350	      0.00000000
      0.09627211	     27.11100256	      0.44960193	      0.00000000
      0.09746065	     23.45927198	     -1.52086706	      0.00000000
      0.09864920	     19.69409965	     -3.30902701	      0.00000000
      0.09983774	     15.95379566	     -4.87718951	      0.00000000
      0.10102629	     12.29006112	     -6.23079442	      0.00000000
      0.10221483	      8.72815613	     -7.38981546	      0.00000000
      0.10340338	      5.26028543	     -8.38870982	      0.00000000
      0.10459192	      1.87356996	     -9.26373757	      0.00000000
      0.10578047	     -1.44793301	    -10.05088437	      0.00000000
      0.10696901	     -4.71512454	    -10.78134813	      0.00000000
      0.10815756	     -7.93472875	    -11.48177856	      0.00000000
      0.10934610	    -11.11207819	    -12.17455675	      0.00000000
      0.11053464	    -14.24775753	    -12.87781871	      0.00000000
      0.11172319	    -17.34230416	    -13.60647104	      0.00000000
      0.11291173	    -20.39040310	    -14.37152113	      0.00000000
      0.11410028	    -23.38712759	    -15.18135756	      0.00000000
      0.11528882	    -26.32294057	    -16.04110604	      0.00000000
      0.11647737	    -29.18947435	    -16.95396306	      0.00000000
      0.11766591	    -31.97725878	    -17.92140206	      0.00000000
      0.11885446	    -34.67919542	    -18.94397244	      0.00000000
      0.12004300	    -37.28943119	    -20.02193303	      0.00000000
      0.12123155	    -39.80404816	    -21.15511433	      0.00000000
      0.12242009	    -42.21913703	    -22.34308126	      0.00000000
      0.12360863	    -44.53183604	    -23.58502195	      0.00000000
      0.12479718	    -46.73866382	    -24.87965602	      0.00000000
      0.12598572	    -48.83730967	    -26.22556943	      0.00000000
      0.12717427	    -50.82538471	    -27.62108287	      0.00000000
      0.12836281	    -52.70157787	    -29.06453832	      0.00000000
      0.12955136	    -54.46500065	    -30.55425391	      0.00000000
      0.13073990	    -56.11556772	    -32.08856960	      0.00000000
      0.13192845	    -57.65385187	    -33.66587492	      0.00000000
      0.13311699	    -59.08105552	    -35.28455246	      0.00000000
      0.13430554	    -60.39907557	    -36.94301200	      0.00000000
      0.13549408	    -61.61034604	    -38.63966020	      0.00000000
      0.13668263	    -62.71780873	    -40.37288062	      0.00000000
      0.13787117	    -63.72467650	    -42.14099111	      0.00000000
      0.13905971	    -64.63413829	    -43.94211602	      0.00000000
      0.14024826	    -65.44914000	    -45.77410692	      0.00000000
      0.14143680	    -66.17203992	    -47.63437044	      0.00000000
      0.14262535	    -66.80463132	    -49.51986520	      0.00000000
      0.14381389	    -67.34805608	    -51.42700923	      0.00000000
      0.14500244	    -67.80303337	    -53.35181040	      0.00000000
      0.14619098	    -68.17001764	    -55.28986060	      0.00000000
      0.14737953	    -68.44937423	    -57.23652306	      0.00000000
      0.14856807	    -68.64164570	    -59.18695918	      0.00000000
      0.14975662	    -68.74752183	    -61.13629076	      0.00000000
      0.15094516	    -68.76816074	    -63.07964031	      0.00000000
      0.15213370	    -68.70495380	    -65.01224379	      0.00000000
      0.15332225	    -68.55991497	    -66.92950421	      0.00000000
      0.15451079	    -68.33543358	    -68.82699668	      0.00000000
      0.15569934	    -68.03436410	    -70.70074466	      0.00000000
      0.15688788	    -67.65975079	    -72.54716641	      0.00000000
      0.15807643	    -67.21526751	    -74.36312311	      0.00000000
      0.15926497	    -66.70478685	    -76.14595107	      0.00000000
      0.16045352	    -66.13271497	    -77.89351036	      0.00000000
      0.16164206	    -65.50357973	    -79.60420567	      0.00000000
      0.16283061	    -64.82230351	    -81.27701186	      0.00000000
      0.16401915	    -64.09383430	    -82.91149645	      0.00000000
      0.16520769	    -63.32335403	    -84.50782199	      0.00000000
      0.16639624	    -62.51598776	    -86.06680164	      0.00000000
      0.16758478	    -61.67683040	    -87.58978921	      0.00000000
      0.16877333	    -60.81081343	    -89.07883053	      0.00000000
      0.16996187	    -59.92236046	    -90.53626547	      0.00000000
      0.17115042	    -59.01565219	    -91.96514496	      0.00000000
      0.17233896	    -58.09399734	    -93.36850459	      0.00000000
      0.17352751	    -57.16080131	    -94.75026460	      0.00000000
      0.17471605	    -56.21858865	    -96.11409234	      0.00000000
      0.17590460	    -55.27020178	    -97.46460343	      0.00000000
      0.17709314	    -54.31697701	    -98.80591347	      0.00000000
      0.17828168	    -53.36086344	   -100.14303357	      0.00000000
      0.17947023	    -52.40319187	   -101.48049424	      0.00000000
      0.18065877	    -51.44679014	   -102.82460969	      0.00000000
      0.18184732	    -50.49545922	   -104.18293795	      0.00000000
      0.18303586	    -49.55750333	   -105.56800286	      0.00000000
      0.18422441	    -48.64645905	   -106.99876287	      0.00000000
      0.18541295	    -47.78786386	   -108.50805876	      0.00000000
      0.18660150	    -47.02165326	   -110.14758053	      0.00000000
      0.18779004	    -46.41493707	   -112.00263468	      0.00000000
      0.18897859	    -46.06459163	   -114.20067740	      0.00000000
      0.19016713	    -46.11593360	   -116.93402182	      0.00000000
      0.19135568	    -46.75746009	   -120.46409643	      0.00000000
      0.19254422	    -48.23152413	   -125.13482833	      0.00000000
      0.19373276	    -50.79964049	   -131.34291805	      0.00000000
      0.19492131	    -54.70512819	   -139.48254613	      0.00000000
      0.19610985	    -60.08337519	   -149.83574709	      0.00000000
      0.19729840	    -66.84374203	   -162.38920124	      0.00000000
      0.19848694	    -74.60468156	   -176.72465741	      0.00000000
      0.19967549	    -82.72165946	   -192.01208050	      0.00000000
      0.20086403	    -90.64103338	   -207.47863207	      0.00000000
      0.20205258	    -98.60256597	   -223.45078392	      0.00000000
      0.20324112	   -108.12742817	   -242.12576211	      0.00000000
      0.20442967	   -121.80542090	   -267.41442743	      0.00000000
      0.20561821	   -141.56365822	   -302.36092392	      0.00000000
      0.20680675	   -167.30313863	   -346.87922859	      0.00000000
      0.20799530	   -197.10964155	   -397.93556388	      0.00000000
      0.20918384	   -228.10915812	   -450.72164854	      0.00000000
      0.21037239	   -257.78217138	   -500.92756255	      0.00000000
      0.21156093	   -283.57065125	   -544.01423177	      0.00000000
      0.21274948	   -303.33274509	   -576.12166331	      0.00000000
      0.21393802	   -314.96001067	   -594.08682752	      0.00000000
      0.21512657	   -316.06442660	   -594.75960784	      0.00000000
      0.21631511	   -308.85288268	   -583.46037212	      0.00000000
      0.21750366	   -103.32574228	   -294.00105740	      0.00000000
      0.21869220	    -48.98066331	   -235.83203281	      0.00000000
      0.21988074	    -54.28732575	   -263.76709633	      0.00000000
      0.22106929	    -33.68019363	   -254.28599438	      0.00000000
      0.22225783	    -31.31624854	   -268.77316503	      0.00000000
      0.22344638	    -21.55368024	   -271.08323948	      0.00000000
      0.22463492	    -18.72118534	   -280.34962169	      0.00000000
      0.22582347	    -14.67029331	   -285.16206048	      0.00000000
      0.22701201	    -13.56109654	   -290.47642144	      0.00000000
      0.22820056	    -12.74314095	   -292.01473622	      0.00000000
      0.22938910	    -13.52468747	   -290.54662682	      0.00000000
      0.23057765	    -14.76151950	   -284.24899063	      0.00000000
      0.23176619	    -16.91115302	   -274.56253780	      0.00000000
      0.23295474	    -19.26460320	   -259.05212736	      0.00000000
      0.23414328	    -22.70909747	   -228.06717121	      0.00000000
      0.23533182	    -28.34363078	   -177.65848400	      0.00000000
      0.23652037	    -32.88325851	   -121.33632041	      0.00000000
      0.23770891	    -33.35733707	    -79.87874327	      0.00000000
      0.23889746	    -30.25479489	    -59.87962780	      0.00000000
      0.24008600	    -24.66981695	    -53.44714868	      0.00000000
      0.24127455	    -19.20389018	    -55.35796798	      0.00000000
      0.24246309	    -14.85743108	    -59.10982588	      0.00000000
      0.24365164	    -11.54075474	    -63.34074764	      0.00000000
      0.24484018	     -9.19769312	    -66.82202094	      0.00000000
      0.24602873	     -7.50603516	    -69.34238188	      0.00000000
      0.24721727	     -6.30298320	    -71.30038546	      0.00000000
      0.24840581	     -5.44004374	    -72.54577764	      0.00000000
      0.24959436	     -4.77831166	    -73.53086657	      0.00000000
      0.25078290	     -4.28233342	    -74.18741682	      0.00000000
      0.25197145	     -3.89695349	    -74.75190143	      0.00000000
      0.25315999	     -3.59545715	    -75.15596093	      0.00000000
      0.25434854	     -3.35804930	    -75.51699610	      0.00000000
      0.25553708	     -3.16829066	    -75.79046575	      0.00000000
      0.25672563	     -3.01907226	    -76.03254759	      0.00000000
      0.25791417	     -2.89958330	    -76.21663577	      0.00000000
      0.25910272	     -2.80748597	    -76.37166473	      0.00000000
      0.26029126	     -2.73525547	    -76.48223417	      0.00000000
      0.26147980	     -2.68241979	    -76.56540186	      0.00000000
      0.26266835	     -2.64357534	    -76.61267403	      0.00000000
      0.26385689	     -2.61898851	    -76.63561815	      0.00000000
      0.26504544	     -2.60470711	    -76.63003370	      0.00000000
      0.26623398	     -2.60136129	    -76.60472980	      0.00000000
      0.26742253	     -2.60595256	    -76.55804702	      0.00000000
      0.26861107	     -2.61842493	    -76.49603221	      0.00000000
      0.26979962	     -2.63732632	    -76.41934329	      0.00000000
      0.27098816	     -2.66334452	    -76.33400777	      0.00000000
      0.27217671	     -2.69491364	    -76.24081644	      0.00000000
      0.27336525	     -2.73240309	    -76.14399755	      0.00000000
      0.27455379	     -2.77483793	    -76.04485711	      0.00000000
      0.27574234	     -2.82245153	    -75.94654138	      0.00000000
      0.27693088	     -2.87455193	    -75.85030060	      0.00000000
      0.27811943	     -2.93125496	    -75.75831560	      0.00000000
      0.27930797	     -2.99204289	    -75.67155033	      0.00000000
      0.28049652	     -3.05693996	    -75.59139230	      0.00000000
      0.28168506	     -3.12557607	    -75.51847614	      0.00000000
      0.28287361	     -3.19789591	    -75.45348076	      0.00000000
      0.28406215	     -3.27360806	    -75.39664088	      0.00000000
      0.28525070	     -3.35259386	    -75.34804747	      0.00000000
      0.28643924	     -3.43461418	    -75.30756888	      0.00000000
      0.28762779	     -3.51950709	    -75.27484305	      0.00000000
      0.28881633	     -3.60706735	    -75.24943625	      0.00000000
      0.29000487	     -3.69710991	    -75.23067383	      0.00000000
      0.29119342	     -3.78944970	    -75.21789745	      0.00000000
      0.29238196	     -3.88389322	    -75.21024056	      0.00000000
      0.29357051	     -3.98026402	    -75.20688314	      0.00000000
      0.29475905	     -4.07836516	    -75.20685303	      0.00000000
      0.29594760	     -4.17802884	    -75.20924929	      0.00000000
      0.29713614	     -4.27906346	    -75.21308595	      0.00000000
      0.29832469	     -4.38133148	    -75.21751650	      0.00000000
      0.29951323	     -4.48469854	    -75.22170517	      0.00000000
      0.30070178	     -4.58902489	    -75.22486194	      0.00000000
      0.30189032	     -4.69417045	    -75.22626402	      0.00000000
      0.30307886	     -4.80000209	    -75.22526611	      0.00000000
      0.30426741	     -4.90641074	    -75.22137755	      0.00000000
      0.30545595	     -5.01327125	    -75.21413673	      0.00000000
      0.30664450	     -5.12049742	    -75.20330303	      0.00000000
      0.30783304	     -5.22795999	    -75.18857722	      0.00000000
      0.30902159	     -5.33558215	    -75.16993912	      0.00000000
      0.31021013	     -5.44321908	    -75.14719795	      0.00000000
      0.31139868	     -5.55078674	    -75.12048285	      0.00000000
      0.31258722	     -5.65811809	    -75.08964448	      0.00000000
      0.31377577	     -5.76510764	    -75.05487071	      0.00000000
      0.31496431	     -5.87156753	    -75.01599559	      0.00000000
      0.31615285	     -5.97736462	    -74.97318039	      0.00000000
      0.31734140	     -6.08229950	    -74.92620777	      0.00000000
      0.31852994	     -6.18621397	    -74.87515141	      0.00000000
      0.31971849	     -6.28891085	    -74.81973601	      0.00000000
      0.32090703	     -6.39021642	    -74.75992008	      0.00000000
      0.32209558	     -6.48995095	    -74.69538928	      0.00000000
      0.32328412	     -6.58793928	    -74.62599435	      0.00000000
      0.32447267	     -6.68403198	    -74.55141782	      0.00000000
      0.32566121	     -6.77806714	    -74.47143678	      0.00000000
      0.32684976	     -6.86993354	    -74.38577148	      0.00000000
      0.32803830	     -6.95949430	    -74.29417349	      0.00000000
      0.32922684	     -7.04667839	    -74.19643647	      0.00000000
      0.33041539	     -7.13138081	    -74.09233539	      0.00000000
      0.33160393	     -7.21356727	    -73.98176072	      0.00000000
      0.33279248	     -7.29316603	    -73.86454999	      0.00000000
      0.33398102	     -7.37017263	    -73.74069908	      0.00000000
      0.33516957	     -7.44454561	    -73.61013202	      0.00000000
      0.33635811	     -7.51630176	    -73.47294486	      0.00000000
      0.33754666	     -7.58542388	    -73.32915529	      0.00000000
      0.33873520	     -7.65194175	    -73.17894416	      0.00000000
      0.33992375	     -7.71585544	    -73.02241611	      0.00000000
      0.34111229	     -7.77720094	    -72.85981567	      0.00000000
      0.34230084	     -7.83598902	    -72.69131821	      0.00000000
      0.34348938	     -7.89225708	    -72.51720866	      0.00000000
      0.34467792	     -7.94602105	    -72.33771140	      0.00000000
      0.34586647	     -7.99731679	    -72.15312908	      0.00000000
      0.34705501	     -8.04616142	    -71.96371186	      0.00000000
      0.34824356	     -8.09258736	    -71.76975909	      0.00000000
      0.34943210	     -8.13660975	    -71.57152330	      0.00000000
      0.35062065	     -8.17825698	    -71.36928265	      0.00000000
      0.35180919	     -8.21754054	    -71.16327139	      0.00000000
      0.35299774	     -8.25448511	    -70.95373280	      0.00000000
      0.35418628	     -8.28909788	    -70.74086610	      0.00000000
      0.35537483	     -8.32140079	    -70.52487112	      0.00000000
      0.35656337	     -8.35139703	    -70.30590062	      0.00000000
      0.35775191	     -8.37910775	    -70.08410909	      0.00000000
      0.35894046	     -8.40453385	    -69.85959911	      0.00000000
      0.36012900	     -8.42769838	    -69.63248568	      0.00000000
      0.36131755	     -8.44860275	    -69.40282601	      0.00000000
      0.36250609	     -8.46727524	    -69.17070881	      0.00000000
      0.36369464	     -8.48372200	    -68.93616072	      0.00000000
      0.36488318	     -8.49797907	    -68.69926159	      0.00000000
      0.36607173	     -8.51006110	    -68.46002792	      0.00000000
      0.36726027	     -8.52001215	    -68.21854598	      0.00000000
      0.36844882	     -8.52785660	    -67.97484035	      0.00000000
      0.36963736	     -8.53364519	    -67.72901300	      0.00000000
      0.37082590	     -8.53741179	    -67.48110950	      0.00000000
      0.37201445	     -8.53921092	    -67.23124923	      0.00000000
      0.37320299	     -8.53908264	    -66.97950093	      0.00000000
      0.37439154	     -8.53708353	    -66.72599973	      0.00000000
      0.37558008	     -8.53325849	    -66.47083761	      0.00000000
      0.37676863	     -8.52766567	    -66.21416460	      0.00000000
      0.37795717	     -8.52035368	    -65.95609405	      0.00000000
      0.37914572	     -8.51138280	    -65.69679176	      0.00000000
      0.38033426	     -8.50080545	    -65.43639257	      0.00000000
      0.38152281	     -8.48868570	    -65.17508261	      0.00000000
      0.38271135	     -8.47508135	    -64.91302232	      0.00000000
      0.38389989	     -8.46006229	    -64.65042580	      0.00000000
      0.38508844	     -8.44369370	    -64.38748650	      0.00000000
      0.38627698	     -8.42605311	    -64.12445560	      0.00000000
      0.38746553	     -8.40721518	    -63.86156943	      0.00000000
      0.38865407	     -8.38726602	    -63.59912486	      0.00000000
      0.38984262	     -8.36629118	    -63.33741072	      0.00000000
      0.39103116	     -8.34438522	    -63.07677514	      0.00000000
      0.39221971	     -8.32164476	    -62.81756628	      0.00000000
      0.39340825	     -8.29817121	    -62.56018382	      0.00000000
      0.39459680	     -8.27407073	    -62.30503628	      0.00000000
      0.39578534	     -8.24944859	    -62.05256817	      0.00000000
      0.39697389	     -8.22441739	    -61.80324171	      0.00000000
      0.39816243	     -8.19908199	    -61.55753170	      0.00000000
      0.39935097	     -8.17355640	    -61.31593805	      0.00000000
      0.40053952	     -8.14794029	    -61.07894448	      0.00000000
      0.40172806	     -8.12234324	    -60.84706448	      0.00000000
      0.40291661	     -8.09685516	    -60.62076445	      0.00000000
      0.40410515	     -8.07157542	    -60.40054164	      0.00000000
      0.40529370	     -8.04657995	    -60.18681607	      0.00000000
      0.40648224	     -8.02195189	    -59.98003464	      0.00000000
      0.40767079	     -7.99775046	    -59.78054297	      0.00000000
      0.40885933	     -7.97403867	    -59.58870530	      0.00000000
      0.41004788	     -7.95085787	    -59.40476929	      0.00000000
      0.41123642	     -7.92824865	    -59.22898856	      0.00000000
      0.41242496	     -7.90623472	    -59.06149553	      0.00000000
      0.41361351	     -7.88483407	    -58.90241330	      0.00000000
      0.41480205	     -7.86405392	    -58.75174946	      0.00000000
      0.41599060	     -7.84389071	    -58.60948563	      0.00000000
      0.41717914	     -7.82433702	    -58.47550270	      0.00000000
      0.41836769	     -7.80537049	    -58.34963975	      0.00000000
      0.41955623	     -7.78697058	    -58.23165495	      0.00000000
      0.42074478	     -7.76909862	    -58.12125055	      0.00000000
      0.42193332	     -7.75172206	    -58.01807058	      0.00000000
      0.42312187	     -7.73478962	    -57.92169310	      0.00000000
      0.42431041	     -7.71825720	    -57.83166015	      0.00000000
      0.42549895	     -7.70206549	    -57.74743841	      0.00000000
      0.42668750	     -7.68616765	    -57.66845392	      0.00000000
      0.42787604	     -7.67047076	    -57.59405223	      0.00000000
      0.42906459	     -7.65491996	    -57.52363483	      0.00000000
      0.43025313	     -7.63944104	    -57.45652273	      0.00000000
      0.43144168	     -7.62397821	    -57.39208051	      0.00000000
      0.43263022	     -7.60845787	    -57.32959461	      0.00000000
      0.43381877	     -7.59282256	    -57.26840990	      0.00000000
      0.43500731	     -7.57700073	    -57.20779969	      0.00000000
      0.43619586	     -7.56093481	    -57.14710806	      0.00000000
      0.43738440	     -7.54455623	    -57.08561471	      0.00000000
      0.43857294	     -7.52780955	    -57.02268140	      0.00000000
      0.43976149	     -7.51063130	    -56.95761345	      0.00000000
      0.44095003	     -7.49297233	    -56.88981133	      0.00000000
      0.44213858	     -7.47477871	    -56.81862957	      0.00000000
      0.44332712	     -7.45600885	    -56.74352704	      0.00000000
      0.44451567	     -7.43662762	    -56.66395201	      0.00000000
      0.44570421	     -7.41658892	    -56.57942624	      0.00000000
      0.44689276	     -7.39590995	    -56.48951264	      0.00000000
      0.44808130	     -7.37445659	    -56.39369926	      0.00000000
      0.44926985	     -7.35251120	    -56.29191920	      0.00000000
      0.45045839	     -7.32921149	    -56.18417862	      0.00000000
      0.45164694	     -7.30632816	    -56.06886226	      0.00000000
      0.45283548	     -7.28175478	    -55.94553953	      0.00000000
      0.45402402	     -7.25647349	    -55.81520958	      0.00000000
      0.45521257	     -7.23051310	    -55.67775714	      0.00000000
      0.45640111	     -7.20379430	    -55.53299374	      0.00000000
      0.45758966	     -7.17637946	    -55.38093623	      0.00000000
      0.45877820	     -7.14825121	    -55.22153305	      0.00000000
      0.45996675	     -7.11942681	    -55.05480610	      0.00000000
      0.46115529	     -7.08991663	    -54.88079671	      0.00000000
      0.46234384	     -7.05972254	    -54.69955303	      0.00000000
      0.46353238	     -7.02886100	    -54.51117291	      0.00000000
      0.46472093	     -6.99732517	    -54.31572323	      0.00000000
      0.46590947	     -6.96512740	    -54.11332944	      0.00000000
      0.46709801	     -6.93225021	    -53.90405464	      0.00000000
      0.46828656	     -6.89869614	    -53.68802350	      0.00000000
      0.46947510	     -6.86443272	    -53.46526651	      0.00000000
      0.47066365	     -6.82944727	    -53.23587615	      0.00000000
      0.47185219	     -6.79368517	    -52.99981403	      0.00000000
      0.47304074	     -6.75711043	    -52.75710131	      0.00000000
      0.47422928	     -6.71963667	    -52.50758488	      0.00000000
      0.47541783	     -6.68119382	    -52.25116476	      0.00000000
      0.47660637	     -6.64165326	    -51.98751917	      0.00000000
      0.47779492	     -6.60089874	    -51.71636737	      0.00000000
      0.47898346	     -6.55875061	    -51.43716250	      0.00000000
      0.48017200	     -6.51503575	    -51.14938046	      0.00000000
      0.48136055	     -6.46951752	    -50.85219748	      0.00000000
      0.48254909	     -6.42195905	    -50.54478895	      0.00000000
      0.48373764	     -6.37206226	    -50.22601051	      0.00000000
      0.48492618	     -6.31952524	    -49.89469263	      0.00000000
      0.48611473	     -6.26398261	    -49.54933346	      0.00000000
      0.48730327	     -6.20507357	    -49.18835626	      0.00000000
      0.48849182	     -6.14236872	    -48.80984813	      0.00000000
      0.48968036	     -6.07539660	    -48.41182225	      0.00000000
      0.49086891	     -6.00365490	    -47.99198604	      0.00000000
      0.49205745	     -5.92660176	    -47.54791610	      0.00000000
      0.49324600	     -5.84364728	    -47.07685841	      0.00000000
      0.49443454	     -5.75415672	    -46.57589864	      0.00000000
      0.49562308	     -5.65744702	    -46.04179084	      0.00000000
      0.49681163	     -5.55277998	    -45.47108966	      0.00000000
      0.49800017	     -5.43937376	    -44.86002961	      0.00000000
      0.49918872	     -5.31637926	    -44.20460192	      0.00000000
      0.50037726	     -5.18291200	    -43.50050375	      0.00000000
      0.50156581	     -5.03800795	    -42.74314448	      0.00000000
      0.50275435	     -4.88067377	    -41.92767076	      0.00000000
      0.50394290	     -4.70982602	    -41.04890205	      0.00000000
      0.50513144	     -4.52434497	    -40.10140409	      0.00000000
      0.50631999	     -4.32301400	    -39.07938792	      0.00000000
      0.50750853	     -4.10454629	    -37.97675018	      0.00000000
      0.50869707	     -3.86755531	    -36.78702091	      0.00000000
      0.50988562	     -3.61051065	    -35.50322535	      0.00000000
      0.51107416	     -3.33177908	    -34.11801833	      0.00000000
      0.51226271	     -3.02946929	    -32.62318085	      0.00000000
      0.51345125	     -2.70157199	    -31.01010377	      0.00000000
      0.51463980	     -2.34568208	    -29.26874240	      0.00000000
      0.51582834	     -1.95922382	    -27.38859112	      0.00000000
      0.51701689	     -1.53909064	    -25.35701643	      0.00000000
      0.51820543	     -1.08195255	    -23.16064662	      0.00000000
      0.51939398	     -0.58390825	    -20.78334438	      0.00000000
      0.52058252	     -0.04058339	    -18.20766033	      0.00000000
      0.52177106	      0.55260923	    -15.41356763	      0.00000000
      0.52295961	      1.20111133	    -12.37860831	      0.00000000
      0.52414815	      1.90953051	     -9.07986716	      0.00000000
      0.52533670	      2.68374591	     -5.49064548	      0.00000000
      0.52652524	      3.52713673	     -1.58854671	      0.00000000
      0.52771379	      4.44446888	      2.65319293	      0.00000000
      0.52890233	      5.43698733	      7.25166456	      0.00000000
      0.53009088	      6.50691671	     12.22733459	      0.00000000
      0.53127942	      7.65391496	     17.58899924	      0.00000000
      0.53246797	      8.87787401	     23.34663593	      0.00000000
      0.53365651	     10.17840243	     29.50134939	      0.00000000
      0.53484505	     11.55454891	     36.05282431	      0.00000000
      0.53603360	     13.00694155	     42.99710708	      0.00000000
      0.53722214	     14.53501490	     50.32644305	      0.00000000
      0.53841069	     16.14037924	     58.03398413	      0.00000000
      0.53959923	     17.82310085	     66.10741398	      0.00000000
      0.54078778	     19.58505784	     74.53768621	      0.00000000
      0.54197632	     21.42650482	     83.30951396	      0.00000000
      0.54316487	     23.34888539	     92.41139279	      0.00000000
      0.54435341	     25.35210206	    101.82554421	      0.00000000
      0.54554196	     27.43681848	    111.53779213	      0.00000000
      0.54673050	     29.60230808	    121.52817520	      0.00000000
      0.54791905	     31.84849292	    131.78025499	      0.00000000
      0.54910759	     34.17409493	    142.27263984	      0.00000000
      0.55029613	     36.57845317	    152.98764938	      0.00000000
      0.55148468	     39.05995790	    163.90375262	      0.00000000
      0.55267322	     41.61751678	    175.00322924	      0.00000000
      0.55386177	     44.24939352	    186.26577611	      0.00000000
      0.55505031	     46.95417599	    197.67462133	      0.00000000
      0.55623886	     49.73013760	    209.21171086	      0.00000000
      0.55742740	     52.57565090	    220.86184757	      0.00000000
      0.55861595	     55.48908317	    232.60974127	      0.00000000
      0.55980449	     58.46871248	    244.44208391	      0.00000000
      0.56099304	     61.51306575	    256.34644968	      0.00000000
      0.56218158	     64.62044667	    268.31151607	      0.00000000
      0.56337012	     67.78959062	    280.32755091	      0.00000000
      0.56455867	     71.01892273	    292.38515971	      0.00000000
      0.56574721	     74.30741308	    304.47698120	      0.00000000
      0.56693576	     77.65366585	    316.59537368	      0.00000000
      0.56812430	     81.05688397	    328.73494081	      0.00000000
      0.56931285	     84.51586823	    340.88952695	      0.00000000
      0.57050139	     88.03002256	    353.05524514	      0.00000000
      0.57168994	     91.59833492	    365.22711636	      0.00000000
      0.57287848	     95.22036762	    377.40231909	      0.00000000
      0.57406703	     98.89527179	    389.57673624	      0.00000000
      0.57525557	    102.62271256	    401.74820597	      0.00000000
      0.57644411	    106.40196688	    413.91319193	      0.00000000
      0.57763266	    110.23275365	    426.06986132	      0.00000000
      0.57882120	    114.11443807	    438.21502666	      0.00000000
      0.58000975	    118.04674794	    450.34693196	      0.00000000
      0.58119829	    122.02910161	    462.46256235	      0.00000000
      0.58238684	    126.06119834	    474.56006435	      0.00000000
      0.58357538	    130.14248410	    486.63647681	      0.00000000
      0.58476393	    134.27258783	    498.68973477	      0.00000000
      0.58595247	    138.45100484	    510.71683159	      0.00000000
      0.58714102	    142.67719255	    522.71555283	      0.00000000
      0.58832956	    146.95069420	    534.68281966	      0.00000000
      0.58951810	    151.27095334	    546.61603750	      0.00000000
      0.59070665	    155.63731692	    558.51203414	      0.00000000
      0.59189519	    160.04919432	    570.36799722	      0.00000000
      0.59308374	    164.50587207	    582.18062252	      0.00000000
      0.59427228	    169.00666225	    593.94686690	      0.00000000
      0.59546083	    173.55078135	    605.66331696	      0.00000000
      0.59664937	    178.13744051	    617.32672487	      0.00000000
      0.59783792	    182.76577830	    628.93357675	      0.00000000
      0.59902646	    187.43490476	    640.48045083	      0.00000000
      0.60021501	    192.14387744	    651.96374828	      0.00000000
      0.60140355	    196.89170826	    663.37990998	      0.00000000
      0.60259210	    201.67737055	    674.72526608	      0.00000000
      0.60378064	    206.49977929	    685.99614766	      0.00000000
      0.60496918	    211.35782259	    697.18882789	      0.00000000
      0.60615773	    216.25032025	    708.29955341	      0.00000000
      0.60734627	    221.17607414	    719.32455404	      0.00000000
      0.60853482	    226.13380935	    730.26001339	      0.00000000
      0.60972336	    231.12224154	    741.10213173	      0.00000000
      0.61091191	    236.14000239	    751.84704925	      0.00000000
      0.61210045	    241.18572307	    762.49095122	      0.00000000
      0.61328900	    246.25794412	    773.02995310	      0.00000000
      0.61447754	    251.35521622	    783.46024148	      0.00000000
      0.61566609	    256.47599341	    793.77792662	      0.00000000
      0.61685463	    261.61875109	    803.97921335	      0.00000000
      0.61804317	    266.78186302	    814.06022709	      0.00000000
      0.61923172	    271.96373287	    824.01720408	      0.00000000
      0.62042026	    277.16265844	    833.84629977	      0.00000000
      0.62160881	    282.37697575	    843.54379307	      0.00000000
      0.62279735	    287.60491161	    853.10588239	      0.00000000
      0.62398590	    292.84473962	    862.52890018	      0.00000000
      0.62517444	    298.09462151	    871.80909910	      0.00000000
      0.62636299	    303.35277626	    880.94287724	      0.00000000
      0.62755153	    308.61731043	    889.92655440	      0.00000000
      0.62874008	    313.88639777	    898.75661031	      0.00000000
      0.62992862	    319.15810092	    907.42944947	      0.00000000
      0.63111716	    324.43055551	    915.94164999	      0.00000000
      0.63230571	    329.70178949	    924.28971995	      0.00000000
      0.63349425	    334.96990450	    932.47034789	      0.00000000
      0.63468280	    340.23289998	    940.48015780	      0.00000000
      0.63587134	    345.48884991	    948.31596283	      0.00000000
      0.63705989	    350.73573251	    955.97451722	      0.00000000
      0.63824843	    355.97160160	    963.45277484	      0.00000000
      0.63943698	    361.19442261	    970.74763606	      0.00000000
      0.64062552	    366.40223894	    977.85621667	      0.00000000
      0.64181407	    371.59301239	    984.77558146	      0.00000000
      0.64300261	    376.76479112	    991.50304087	      0.00000000
      0.64419115	    381.91554938	    998.03585885	      0.00000000
      0.64537970	    387.04335356	   1004.37157078	      0.00000000
      0.64656824	    392.14620628	   1010.50767505	      0.00000000
      0.64775679	    397.22218969	   1016.44192741	      0.00000000
      0.64894533	    402.26933094	   1022.17205214	      0.00000000
      0.65013388	    407.28571742	   1027.69599786	      0.00000000
      0.65132242	    412.26938072	   1033.01166780	      0.00000000
      0.65251097	    417.21843575	   1038.11723729	      0.00000000
      0.65369951	    422.13093296	   1043.01081822	      0.00000000
      0.65488806	    427.00504197	   1047.69086471	      0.00000000
      0.65607660	    431.83886154	   1052.15576028	      0.00000000
      0.65726515	    436.63059984	   1056.40419398	      0.00000000
      0.65845369	    441.37838557	   1060.43476526	      0.00000000
      0.65964223	    446.08045489	   1064.24633318	      0.00000000
      0.66083078	    450.73495054	   1067.83763650	      0.00000000
      0.66201932	    455.34013963	   1071.20766953	      0.00000000
      0.66320787	    459.89419308	   1074.35528514	      0.00000000
      0.66439641	    464.39538522	   1077.27954717	      0.00000000
      0.66558496	    468.84193576	   1079.97938547	      0.00000000
      0.66677350	    473.23207808	   1082.45382013	      0.00000000
      0.66796205	    477.56412219	   1084.70180207	      0.00000000
      0.66915059	    481.83619956	   1086.72216682	      0.00000000
      0.67033914	    486.04678557	   1088.51383115	      0.00000000
      0.67152768	    490.19386836	   1090.07533705	      0.00000000
      0.67271622	    494.27617472	   1091.40553518	      0.00000000
      0.67390477	    498.29158652	   1092.50268056	      0.00000000
      0.67509331	    502.23905971	   1093.36550987	      0.00000000
      0.67628186	    506.11654660	   1093.99223525	      0.00000000
      0.67747040	    509.92294318	   1094.38136496	      0.00000000
      0.67865895	    513.65656086	   1094.53146074	      0.00000000
      0.67984749	    517.31558270	   1094.44062540	      0.00000000
      0.68103604	    520.89873994	   1094.10811275	      0.00000000
      0.68222458	    524.40329996	   1093.53181350	      0.00000000
      0.68341313	    527.82798575	   1092.71137126	      0.00000000
      0.68460167	    531.17041594	   1091.64531299	      0.00000000
      0.68579021	    534.42899604	   1090.33290867	      0.00000000
      0.68697876	    537.60328231	   1088.77370944	      0.00000000
      0.68816730	    540.69205835	   1086.96687355	      0.00000000
      0.68935585	    543.69476196	   1084.91164486	      0.00000000
      0.69054439	    546.61037566	   1082.60793262	      0.00000000
      0.69173294	    549.43654595	   1080.05444223	      0.00000000
      0.69292148	    552.17234630	   1077.25159636	      0.00000000
      0.69411003	    554.81548764	   1074.19843907	      0.00000000
      0.69529857	    557.36491302	   1070.89506600	      0.00000000
      0.69648712	    559.81886544	   1067.34068901	      0.00000000
      0.69767566	    562.17585811	   1063.53489134	      0.00000000
      0.69886421	    564.43418233	   1059.47667887	      0.00000000
      0.70005275	    566.59195076	   1055.16529284	      0.00000000
      0.70124129	    568.64720549	   1050.59942236	      0.00000000
      0.70242984	    570.59772405	   1045.77807397	      0.00000000
      0.70361838	    572.44121907	   1040.69954039	      0.00000000
      0.70480693	    574.17529672	   1035.36297579	      0.00000000
      0.70599547	    575.79732839	   1029.76644843	      0.00000000
      0.70718402	    577.30417632	   1023.90866099	      0.00000000
      0.70837256	    578.69164838	   1017.78438278	      0.00000000
      0.70956111	    579.96035554	   1011.39978779	      0.00000000
      0.71074965	    581.10601672	   1004.74716719	      0.00000000
      0.71193820	    582.12168371	    997.83423960	      0.00000000
      0.71312674	    582.95399338	    990.55928458	      0.00000000
