PointPosition
version=1
nRows=601
nColumns=4
inDegrees=no
No description.
endheader
time	state_0	state_1	state_2
      0.00000000	     -0.27657762	      0.06681849	      0.09478690
      0.00118854	     -0.27368353	      0.06582511	      0.09478690
      0.00237709	     -0.27076682	      0.06480277	      0.09478690
      0.00356563	     -0.26782702	      0.06375121	      0.09478690
      0.00475418	     -0.26486363	      0.06267016	      0.09478690
      0.00594272	     -0.26187615	      0.06155941	      0.09478690
      0.00713127	     -0.25886406	      0.06041874	      0.09478690
      0.00831981	     -0.25582681	      0.05924800	      0.09478690
      0.00950836	     -0.25276384	      0.05804703	      0.09478690
      0.01069690	     -0.24967458	      0.05681574	      0.09478690
      0.01188545	     -0.24655842	      0.05555406	      0.09478690
      0.01307399	     -0.24341476	      0.05426194	      0.09478690
      0.01426253	     -0.24024296	      0.05293939	      0.09478690
      0.01545108	     -0.23704239	      0.05158644	      0.09478690
      0.01663962	     -0.23381237	      0.05020317	      0.09478690
      0.01782817	     -0.23055222	      0.04878969	      0.09478690
      0.01901671	     -0.22726127	      0.04734615	      0.09478690
      0.02020526	     -0.22393879	      0.04587277	      0.09478690
      0.02139380	     -0.22058406	      0.04436977	      0.09478690
      0.02258235	     -0.21719636	      0.04283744	      0.09478690
      0.02377089	     -0.21377492	      0.04127613	      0.09478690
      0.02495944	     -0.21031898	      0.03968620	      0.09478690
      0.02614798	     -0.20682779	      0.03806808	      0.09478690
      0.02733653	     -0.20330054	      0.03642226	      0.09478690
      0.02852507	     -0.19973649	      0.03474926	      0.09478690
      0.02971361	     -0.19613485	      0.03304965	      0.09478690
      0.03090216	     -0.19249500	      0.03132406	      0.09478690
      0.03209070	     -0.18881640	      0.02957313	      0.09478690
      0.03327925	     -0.18509930	      0.02779748	      0.09478690
      0.03446779	     -0.18134461	      0.02599766	      0.09478690
      0.03565634	     -0.17755771	      0.02417367	      0.09478690
      0.03684488	     -0.17374782	      0.02232495	      0.09478690
      0.03803343	     -0.16994368	      0.02044824	      0.09478690
      0.03922197	     -0.16619143	      0.01853754	      0.09478690
      0.04041052	     -0.16257770	      0.01658161	      0.09478690
      0.04159906	     -0.15920207	      0.01456723	      0.09478690
      0.04278760	     -0.15629683	      0.01247006	      0.09478690
      0.04397615	     -0.15427177	      0.01025493	      0.09478690
      0.04516469	     -0.15332896	      0.00799105	      0.09478690
      0.04635324	     -0.15302793	      0.00589339	      0.09478690
      0.04754178	     -0.15280194	      0.00413061	      0.09478690
      0.04873033	     -0.15259623	      0.00272064	      0.09478690
      0.04991887	     -0.15242698	      0.00162669	      0.09478690
      0.05110742	     -0.15227384	      0.00080628	      0.09478690
      0.05229596	     -0.15214171	      0.00020510	      0.09478690
      0.05348451	     -0.15201745	     -0.00022473	      0.09478690
      0.05467305	     -0.15190557	     -0.00052498	      0.09478690
      0.05586159	     -0.15179715	     -0.00072941	      0.09478690
      0.05705014	     -0.15169577	     -0.00086373	      0.09478690
      0.05823868	     -0.15159674	     -0.00094814	      0.09478690
      0.05942723	     -0.15150180	     -0.00099701	      0.09478690
      0.06061577	     -0.15140926	     -0.00102167	      0.09478690
      0.06180432	     -0.15131969	     -0.00102983	      0.09478690
      0.06299286	     -0.15123272	     -0.00102760	      0.09478690
      0.06418141	     -0.15114849	     -0.00101902	      0.09478690
      0.06536995	     -0.15106697	     -0.00100732	      0.09478690
      0.06655850	     -0.15098821	     -0.00099455	      0.09478690
      0.06774704	     -0.15091222	     -0.00098234	      0.09478690
      0.06893558	     -0.15083900	     -0.00097170	      0.09478690
      0.07012413	     -0.15076856	     -0.00096338	      0.09478690
      0.07131267	     -0.15070086	     -0.00095782	      0.09478690
      0.07250122	     -0.15063591	     -0.00095531	      0.09478690
      0.07368976	     -0.15057366	     -0.00095599	      0.09478690
      0.07487831	     -0.15051409	     -0.00095991	      0.09478690
      0.07606685	     -0.15045717	     -0.00096707	      0.09478690
      0.07725540	     -0.15040285	     -0.00097740	      0.09478690
      0.07844394	     -0.15035111	     -0.00099079	      0.09478690
      0.07963249	     -0.15030190	     -0.00100706	      0.09478690
      0.08082103	     -0.15025518	     -0.00102609	      0.09478690
      0.08200958	     -0.15021092	     -0.00104779	      0.09478690
      0.08319812	     -0.15016909	     -0.00107207	      0.09478690
      0.08438666	     -0.15012967	     -0.00109873	      0.09478690
      0.08557521	     -0.15009262	     -0.00112739	      0.09478690
      0.08676375	     -0.15005788	     -0.00115764	      0.09478690
      0.08795230	     -0.15002537	     -0.00118909	      0.09478690
      0.08914084	     -0.14999502	     -0.00122136	      0.09478690
      0.09032939	     -0.14996676	     -0.00125413	      0.09478690
      0.09151793	     -0.14994053	     -0.00128709	      0.09478690
      0.09270648	     -0.14991625	     -0.00131994	      0.09478690
      0.09389502	     -0.14989385	     -0.00135235	      0.09478690
      0.09508357	     -0.14987326	     -0.00138400	      0.09478690
      0.09627211	     -0.14985442	     -0.00141456	      0.09478690
      0.09746065	     -0.14983726	     -0.00144365	      0.09478690
      0.09864920	     -0.14982170	     -0.00147089	      0.09478690
      0.09983774	     -0.14980768	     -0.00149592	      0.09478690
      0.10102629	     -0.14979512	     -0.00151835	      0.09478690
      0.10221483	     -0.14978396	     -0.00153784	      0.09478690
      0.10340338	     -0.14977414	     -0.00155403	      0.09478690
      0.10459192	     -0.14976559	     -0.00156660	      0.09478690
      0.10578047	     -0.14975824	     -0.00157520	      0.09478690
      0.10696901	     -0.14975204	     -0.00157955	      0.09478690
      0.10815756	     -0.14974691	     -0.00157934	      0.09478690
      0.10934610	     -0.14974281	     -0.00157430	      0.09478690
      0.11053464	     -0.14973967	     -0.00156415	      0.09478690
      0.11172319	     -0.14973744	     -0.00154865	      0.09478690
      0.11291173	     -0.14973606	     -0.00152755	      0.09478690
      0.11410028	     -0.14973549	     -0.00150064	      0.09478690
      0.11528882	     -0.14973566	     -0.00146771	      0.09478690
      0.11647737	     -0.14973655	     -0.00142857	      0.09478690
      0.11766591	     -0.14973810	     -0.00138304	      0.09478690
      0.11885446	     -0.14974027	     -0.00133098	      0.09478690
      0.12004300	     -0.14974303	     -0.00127226	      0.09478690
      0.12123155	     -0.14974634	     -0.00120677	      0.09478690
      0.12242009	     -0.14975019	     -0.00113442	      0.09478690
      0.12360863	     -0.14975454	     -0.00105514	      0.09478690
      0.12479718	     -0.14975939	     -0.00096888	      0.09478690
      0.12598572	     -0.14976472	     -0.00087563	      0.09478690
      0.12717427	     -0.14977054	     -0.00077538	      0.09478690
      0.12836281	     -0.14977685	     -0.00066816	      0.09478690
      0.12955136	     -0.14978366	     -0.00055402	      0.09478690
      0.13073990	     -0.14979102	     -0.00043304	      0.09478690
      0.13192845	     -0.14979896	     -0.00030531	      0.09478690
      0.13311699	     -0.14980753	     -0.00017097	      0.09478690
      0.13430554	     -0.14981680	     -0.00003016	      0.09478690
      0.13549408	     -0.14982685	      0.00011693	      0.09478690
      0.13668263	     -0.14983778	      0.00027012	      0.09478690
      0.13787117	     -0.14984970	      0.00042919	      0.09478690
      0.13905971	     -0.14986274	      0.00059389	      0.09478690
      0.14024826	     -0.14987704	      0.00076398	      0.09478690
      0.14143680	     -0.14989276	      0.00093918	      0.09478690
      0.14262535	     -0.14991007	      0.00111921	      0.09478690
      0.14381389	     -0.14992915	      0.00130377	      0.09478690
      0.14500244	     -0.14995017	      0.00149257	      0.09478690
      0.14619098	     -0.14997333	      0.00168531	      0.09478690
      0.14737953	     -0.14999883	      0.00188169	      0.09478690
      0.14856807	     -0.15002684	      0.00208139	      0.09478690
      0.14975662	     -0.15005756	      0.00228414	      0.09478690
      0.15094516	     -0.15009116	      0.00248964	      0.09478690
      0.15213370	     -0.15012780	      0.00269763	      0.09478690
      0.15332225	     -0.15016764	      0.00290784	      0.09478690
      0.15451079	     -0.15021081	      0.00312003	      0.09478690
      0.15569934	     -0.15025743	      0.00333397	      0.09478690
      0.15688788	     -0.15030760	      0.00354944	      0.09478690
      0.15807643	     -0.15036141	      0.00376623	      0.09478690
      0.15926497	     -0.15041893	      0.00398415	      0.09478690
      0.16045352	     -0.15048022	      0.00420302	      0.09478690
      0.16164206	     -0.15054530	      0.00442265	      0.09478690
      0.16283061	     -0.15061421	      0.00464289	      0.09478690
      0.16401915	     -0.15068696	      0.00486356	      0.09478690
      0.16520769	     -0.15076354	      0.00508451	      0.09478690
      0.16639624	     -0.15084395	      0.00530559	      0.09478690
      0.16758478	     -0.15092817	      0.00552664	      0.09478690
      0.16877333	     -0.15101617	      0.00574753	      0.09478690
      0.16996187	     -0.15110793	      0.00596809	      0.09478690
      0.17115042	     -0.15120341	      0.00618819	      0.09478690
      0.17233896	     -0.15130259	      0.00640769	      0.09478690
      0.17352751	     -0.15140543	      0.00662645	      0.09478690
      0.17471605	     -0.15151190	      0.00684432	      0.09478690
      0.17590460	     -0.15162198	      0.00706119	      0.09478690
      0.17709314	     -0.15173565	      0.00727692	      0.09478690
      0.17828168	     -0.15185291	      0.00749138	      0.09478690
      0.17947023	     -0.15197374	      0.00770446	      0.09478690
      0.18065877	     -0.15209818	      0.00791603	      0.09478690
      0.18184732	     -0.15222623	      0.00812599	      0.09478690
      0.18303586	     -0.15235794	      0.00833421	      0.09478690
      0.18422441	     -0.15249335	      0.00854059	      0.09478690
      0.18541295	     -0.15263252	      0.00874501	      0.09478690
      0.18660150	     -0.15277553	      0.00894736	      0.09478690
      0.18779004	     -0.15292243	      0.00914750	      0.09478690
      0.18897859	     -0.15307333	      0.00934532	      0.09478690
      0.19016713	     -0.15322829	      0.00954066	      0.09478690
      0.19135568	     -0.15338742	      0.00973337	      0.09478690
      0.19254422	     -0.15355078	      0.00992329	      0.09478690
      0.19373276	     -0.15371846	      0.01011022	      0.09478690
      0.19492131	     -0.15389053	      0.01029398	      0.09478690
      0.19610985	     -0.15406705	      0.01047433	      0.09478690
      0.19729840	     -0.15424806	      0.01065107	      0.09478690
      0.19848694	     -0.15443359	      0.01082394	      0.09478690
      0.19967549	     -0.15462366	      0.01099271	      0.09478690
      0.20086403	     -0.15481825	      0.01115713	      0.09478690
      0.20205258	     -0.15501734	      0.01131692	      0.09478690
      0.20324112	     -0.15522085	      0.01147184	      0.09478690
      0.20442967	     -0.15542873	      0.01162163	      0.09478690
      0.20561821	     -0.15564089	      0.01176609	      0.09478690
      0.20680675	     -0.15585730	      0.01190507	      0.09478690
      0.20799530	     -0.15607794	      0.01203848	      0.09478690
      0.20918384	     -0.15630277	      0.01216630	      0.09478690
      0.21037239	     -0.15653177	      0.01228856	      0.09478690
      0.21156093	     -0.15676488	      0.01240535	      0.09478690
      0.21274948	     -0.15700203	      0.01251676	      0.09478690
      0.21393802	     -0.15724308	      0.01262298	      0.09478690
      0.21512657	     -0.15748788	      0.01272417	      0.09478690
      0.21631511	     -0.15773620	      0.01282054	      0.09478690
      0.21750366	     -0.15798755	      0.01291215	      0.09478690
      0.21869220	     -0.15824113	      0.01299884	      0.09478690
      0.21988074	     -0.15849651	      0.01308072	      0.09478690
      0.22106929	     -0.15875367	      0.01315830	      0.09478690
      0.22225783	     -0.15901249	      0.01323206	      0.09478690
      0.22344638	     -0.15927276	      0.01330264	      0.09478690
      0.22463492	     -0.15953425	      0.01337065	      0.09478690
      0.22582347	     -0.15979665	      0.01343676	      0.09478690
      0.22701201	     -0.16005964	      0.01350162	      0.09478690
      0.22820056	     -0.16032286	      0.01356592	      0.09478690
      0.22938910	     -0.16058595	      0.01363030	      0.09478690
      0.23057765	     -0.16084851	      0.01369540	      0.09478690
      0.23176619	     -0.16111019	      0.01376184	      0.09478690
      0.23295474	     -0.16137062	      0.01383021	      0.09478690
      0.23414328	     -0.16162948	      0.01390107	      0.09478690
      0.23533182	     -0.16188648	      0.01397501	      0.09478690
      0.23652037	     -0.16214143	      0.01405258	      0.09478690
      0.23770891	     -0.16239423	      0.01413440	      0.09478690
      0.23889746	     -0.16264477	      0.01422104	      0.09478690
      0.24008600	     -0.16289297	      0.01431305	      0.09478690
      0.24127455	     -0.16313865	      0.01441094	      0.09478690
      0.24246309	     -0.16338159	      0.01451508	      0.09478690
      0.24365164	     -0.16362155	      0.01462581	      0.09478690
      0.24484018	     -0.16385827	      0.01474333	      0.09478690
      0.24602873	     -0.16409147	      0.01486782	      0.09478690
      0.24721727	     -0.16432089	      0.01499934	      0.09478690
      0.24840581	     -0.16454627	      0.01513794	      0.09478690
      0.24959436	     -0.16476736	      0.01528361	      0.09478690
      0.25078290	     -0.16498391	      0.01543630	      0.09478690
      0.25197145	     -0.16519567	      0.01559596	      0.09478690
      0.25315999	     -0.16540240	      0.01576252	      0.09478690
      0.25434854	     -0.16560385	      0.01593592	      0.09478690
      0.25553708	     -0.16579977	      0.01611608	      0.09478690
      0.25672563	     -0.16598991	      0.01630294	      0.09478690
      0.25791417	     -0.16617402	      0.01649645	      0.09478690
      0.25910272	     -0.16635186	      0.01669656	      0.09478690
      0.26029126	     -0.16652318	      0.01690325	      0.09478690
      0.26147980	     -0.16668774	      0.01711649	      0.09478690
      0.26266835	     -0.16684530	      0.01733627	      0.09478690
      0.26385689	     -0.16699562	      0.01756261	      0.09478690
      0.26504544	     -0.16713845	      0.01779554	      0.09478690
      0.26623398	     -0.16727355	      0.01803512	      0.09478690
      0.26742253	     -0.16740065	      0.01828141	      0.09478690
      0.26861107	     -0.16751950	      0.01853453	      0.09478690
      0.26979962	     -0.16762982	      0.01879460	      0.09478690
      0.27098816	     -0.16773135	      0.01906180	      0.09478690
      0.27217671	     -0.16782378	      0.01933629	      0.09478690
      0.27336525	     -0.16790682	      0.01961828	      0.09478690
      0.27455379	     -0.16798016	      0.01990797	      0.09478690
      0.27574234	     -0.16804347	      0.02020558	      0.09478690
      0.27693088	     -0.16809643	      0.02051132	      0.09478690
      0.27811943	     -0.16813873	      0.02082539	      0.09478690
      0.27930797	     -0.16817005	      0.02114799	      0.09478690
      0.28049652	     -0.16819012	      0.02147929	      0.09478690
      0.28168506	     -0.16819866	      0.02181946	      0.09478690
      0.28287361	     -0.16819543	      0.02216861	      0.09478690
      0.28406215	     -0.16818020	      0.02252683	      0.09478690
      0.28525070	     -0.16815281	      0.02289419	      0.09478690
      0.28643924	     -0.16811310	      0.02327071	      0.09478690
      0.28762779	     -0.16806096	      0.02365637	      0.09478690
      0.28881633	     -0.16799632	      0.02405113	      0.09478690
      0.29000487	     -0.16791913	      0.02445492	      0.09478690
      0.29119342	     -0.16782939	      0.02486761	      0.09478690
      0.29238196	     -0.16772714	      0.02528905	      0.09478690
      0.29357051	     -0.16761247	      0.02571905	      0.09478690
      0.29475905	     -0.16748549	      0.02615737	      0.09478690
      0.29594760	     -0.16734635	      0.02660377	      0.09478690
      0.29713614	     -0.16719523	      0.02705793	      0.09478690
      0.29832469	     -0.16703236	      0.02751955	      0.09478690
      0.29951323	     -0.16685796	      0.02798828	      0.09478690
      0.30070178	     -0.16667229	      0.02846375	      0.09478690
      0.30189032	     -0.16647564	      0.02894557	      0.09478690
      0.30307886	     -0.16626830	      0.02943336	      0.09478690
      0.30426741	     -0.16605056	      0.02992671	      0.09478690
      0.30545595	     -0.16582275	      0.03042519	      0.09478690
      0.30664450	     -0.16558518	      0.03092838	      0.09478690
      0.30783304	     -0.16533817	      0.03143587	      0.09478690
      0.30902159	     -0.16508206	      0.03194723	      0.09478690
      0.31021013	     -0.16481717	      0.03246203	      0.09478690
      0.31139868	     -0.16454381	      0.03297986	      0.09478690
      0.31258722	     -0.16426233	      0.03350030	      0.09478690
      0.31377577	     -0.16397302	      0.03402294	      0.09478690
      0.31496431	     -0.16367620	      0.03454740	      0.09478690
      0.31615285	     -0.16337218	      0.03507327	      0.09478690
      0.31734140	     -0.16306124	      0.03560019	      0.09478690
      0.31852994	     -0.16274368	      0.03612777	      0.09478690
      0.31971849	     -0.16241977	      0.03665567	      0.09478690
      0.32090703	     -0.16208978	      0.03718354	      0.09478690
      0.32209558	     -0.16175398	      0.03771104	      0.09478690
      0.32328412	     -0.16141260	      0.03823786	      0.09478690
      0.32447267	     -0.16106589	      0.03876368	      0.09478690
      0.32566121	     -0.16071407	      0.03928820	      0.09478690
      0.32684976	     -0.16035737	      0.03981115	      0.09478690
      0.32803830	     -0.15999598	      0.04033224	      0.09478690
      0.32922684	     -0.15963013	      0.04085122	      0.09478690
      0.33041539	     -0.15925998	      0.04136782	      0.09478690
      0.33160393	     -0.15888573	      0.04188183	      0.09478690
      0.33279248	     -0.15850754	      0.04239299	      0.09478690
      0.33398102	     -0.15812559	      0.04290110	      0.09478690
      0.33516957	     -0.15774003	      0.04340594	      0.09478690
      0.33635811	     -0.15735102	      0.04390731	      0.09478690
      0.33754666	     -0.15695869	      0.04440501	      0.09478690
      0.33873520	     -0.15656318	      0.04489887	      0.09478690
      0.33992375	     -0.15616464	      0.04538870	      0.09478690
      0.34111229	     -0.15576318	      0.04587434	      0.09478690
      0.34230084	     -0.15535894	      0.04635561	      0.09478690
      0.34348938	     -0.15495203	      0.04683236	      0.09478690
      0.34467792	     -0.15454257	      0.04730444	      0.09478690
      0.34586647	     -0.15413067	      0.04777171	      0.09478690
      0.34705501	     -0.15371644	      0.04823400	      0.09478690
      0.34824356	     -0.15329999	      0.04869121	      0.09478690
      0.34943210	     -0.15288143	      0.04914317	      0.09478690
      0.35062065	     -0.15246086	      0.04958978	      0.09478690
      0.35180919	     -0.15203838	      0.05003091	      0.09478690
      0.35299774	     -0.15161409	      0.05046643	      0.09478690
      0.35418628	     -0.15118809	      0.05089623	      0.09478690
      0.35537483	     -0.15076047	      0.05132020	      0.09478690
      0.35656337	     -0.15033134	      0.05173823	      0.09478690
      0.35775191	     -0.14990078	      0.05215021	      0.09478690
      0.35894046	     -0.14946890	      0.05255606	      0.09478690
      0.36012900	     -0.14903577	      0.05295567	      0.09478690
      0.36131755	     -0.14860149	      0.05334895	      0.09478690
      0.36250609	     -0.14816616	      0.05373581	      0.09478690
      0.36369464	     -0.14772985	      0.05411619	      0.09478690
      0.36488318	     -0.14729266	      0.05449000	      0.09478690
      0.36607173	     -0.14685466	      0.05485716	      0.09478690
      0.36726027	     -0.14641595	      0.05521761	      0.09478690
      0.36844882	     -0.14597661	      0.05557129	      0.09478690
      0.36963736	     -0.14553673	      0.05591813	      0.09478690
      0.37082590	     -0.14509638	      0.05625808	      0.09478690
      0.37201445	     -0.14465565	      0.05659108	      0.09478690
      0.37320299	     -0.14421462	      0.05691708	      0.09478690
      0.37439154	     -0.14377339	      0.05723602	      0.09478690
      0.37558008	     -0.14333203	      0.05754786	      0.09478690
      0.37676863	     -0.14289064	      0.05785255	      0.09478690
      0.37795717	     -0.14244929	      0.05815004	      0.09478690
      0.37914572	     -0.14200808	      0.05844030	      0.09478690
      0.38033426	     -0.14156710	      0.05872328	      0.09478690
      0.38152281	     -0.14112642	      0.05899893	      0.09478690
      0.38271135	     -0.14068615	      0.05926723	      0.09478690
      0.38389989	     -0.14024636	      0.05952814	      0.09478690
      0.38508844	     -0.13980714	      0.05978161	      0.09478690
      0.38627698	     -0.13936859	      0.06002764	      0.09478690
      0.38746553	     -0.13893078	      0.06026617	      0.09478690
      0.38865407	     -0.13849379	      0.06049720	      0.09478690
      0.38984262	     -0.13805772	      0.06072070	      0.09478690
      0.39103116	     -0.13762265	      0.06093665	      0.09478690
      0.39221971	     -0.13718865	      0.06114504	      0.09478690
      0.39340825	     -0.13675580	      0.06134585	      0.09478690
      0.39459680	     -0.13632417	      0.06153907	      0.09478690
      0.39578534	     -0.13589385	      0.06172471	      0.09478690
      0.39697389	     -0.13546490	      0.06190277	      0.09478690
      0.39816243	     -0.13503738	      0.06207324	      0.09478690
      0.39935097	     -0.13461137	      0.06223614	      0.09478690
      0.40053952	     -0.13418692	      0.06239148	      0.09478690
      0.40172806	     -0.13376409	      0.06253928	      0.09478690
      0.40291661	     -0.13334294	      0.06267956	      0.09478690
      0.40410515	     -0.13292352	      0.06281234	      0.09478690
      0.40529370	     -0.13250587	      0.06293767	      0.09478690
      0.40648224	     -0.13209004	      0.06305557	      0.09478690
      0.40767079	     -0.13167607	      0.06316609	      0.09478690
      0.40885933	     -0.13126399	      0.06326927	      0.09478690
      0.41004788	     -0.13085382	      0.06336516	      0.09478690
      0.41123642	     -0.13044559	      0.06345383	      0.09478690
      0.41242496	     -0.13003932	      0.06353533	      0.09478690
      0.41361351	     -0.12963503	      0.06360973	      0.09478690
      0.41480205	     -0.12923271	      0.06367711	      0.09478690
      0.41599060	     -0.12883237	      0.06373755	      0.09478690
      0.41717914	     -0.12843400	      0.06379113	      0.09478690
      0.41836769	     -0.12803759	      0.06383794	      0.09478690
      0.41955623	     -0.12764312	      0.06387808	      0.09478690
      0.42074478	     -0.12725057	      0.06391166	      0.09478690
      0.42193332	     -0.12685989	      0.06393878	      0.09478690
      0.42312187	     -0.12647104	      0.06395956	      0.09478690
      0.42431041	     -0.12608398	      0.06397413	      0.09478690
      0.42549895	     -0.12569864	      0.06398261	      0.09478690
      0.42668750	     -0.12531496	      0.06398514	      0.09478690
      0.42787604	     -0.12493287	      0.06398185	      0.09478690
      0.42906459	     -0.12455228	      0.06397290	      0.09478690
      0.43025313	     -0.12417311	      0.06395844	      0.09478690
      0.43144168	     -0.12379527	      0.06393864	      0.09478690
      0.43263022	     -0.12341866	      0.06391366	      0.09478690
      0.43381877	     -0.12304319	      0.06388370	      0.09478690
      0.43500731	     -0.12266875	      0.06384891	      0.09478690
      0.43619586	     -0.12229523	      0.06380951	      0.09478690
      0.43738440	     -0.12192252	      0.06376567	      0.09478690
      0.43857294	     -0.12155050	      0.06371761	      0.09478690
      0.43976149	     -0.12117906	      0.06366552	      0.09478690
      0.44095003	     -0.12080808	      0.06360960	      0.09478690
      0.44213858	     -0.12043744	      0.06355008	      0.09478690
      0.44332712	     -0.12006702	      0.06348717	      0.09478690
      0.44451567	     -0.11969668	      0.06342108	      0.09478690
      0.44570421	     -0.11932632	      0.06335204	      0.09478690
      0.44689276	     -0.11895580	      0.06328025	      0.09478690
      0.44808130	     -0.11858500	      0.06320595	      0.09478690
      0.44926985	     -0.11821380	      0.06312936	      0.09478690
      0.45045839	     -0.11784206	      0.06305068	      0.09478690
      0.45164694	     -0.11746963	      0.06297012	      0.09478690
      0.45283548	     -0.11709640	      0.06288792	      0.09478690
      0.45402402	     -0.11672228	      0.06280431	      0.09478690
      0.45521257	     -0.11634720	      0.06271956	      0.09478690
      0.45640111	     -0.11597106	      0.06263388	      0.09478690
      0.45758966	     -0.11559378	      0.06254751	      0.09478690
      0.45877820	     -0.11521528	      0.06246069	      0.09478690
      0.45996675	     -0.11483547	      0.06237365	      0.09478690
      0.46115529	     -0.11445427	      0.06228661	      0.09478690
      0.46234384	     -0.11407159	      0.06219980	      0.09478690
      0.46353238	     -0.11368737	      0.06211343	      0.09478690
      0.46472093	     -0.11330151	      0.06202773	      0.09478690
      0.46590947	     -0.11291393	      0.06194292	      0.09478690
      0.46709801	     -0.11252455	      0.06185919	      0.09478690
      0.46828656	     -0.11213329	      0.06177678	      0.09478690
      0.46947510	     -0.11174006	      0.06169589	      0.09478690
      0.47066365	     -0.11134478	      0.06161672	      0.09478690
      0.47185219	     -0.11094734	      0.06153949	      0.09478690
      0.47304074	     -0.11054767	      0.06146439	      0.09478690
      0.47422928	     -0.11014565	      0.06139163	      0.09478690
      0.47541783	     -0.10974120	      0.06132140	      0.09478690
      0.47660637	     -0.10933421	      0.06125391	      0.09478690
      0.47779492	     -0.10892457	      0.06118934	      0.09478690
      0.47898346	     -0.10851217	      0.06112788	      0.09478690
      0.48017200	     -0.10809689	      0.06106972	      0.09478690
      0.48136055	     -0.10767862	      0.06101504	      0.09478690
      0.48254909	     -0.10725722	      0.06096402	      0.09478690
      0.48373764	     -0.10683256	      0.06091683	      0.09478690
      0.48492618	     -0.10640452	      0.06087364	      0.09478690
      0.48611473	     -0.10597294	      0.06083461	      0.09478690
      0.48730327	     -0.10553768	      0.06079989	      0.09478690
      0.48849182	     -0.10509858	      0.06076963	      0.09478690
      0.48968036	     -0.10465548	      0.06074399	      0.09478690
      0.49086891	     -0.10420824	      0.06072311	      0.09478690
      0.49205745	     -0.10375668	      0.06070711	      0.09478690
      0.49324600	     -0.10330065	      0.06069614	      0.09478690
      0.49443454	     -0.10283998	      0.06069032	      0.09478690
      0.49562308	     -0.10237451	      0.06068977	      0.09478690
      0.49681163	     -0.10190406	      0.06069461	      0.09478690
      0.49800017	     -0.10142848	      0.06070494	      0.09478690
      0.49918872	     -0.10094759	      0.06072089	      0.09478690
      0.50037726	     -0.10046122	      0.06074253	      0.09478690
      0.50156581	     -0.09996922	      0.06076997	      0.09478690
      0.50275435	     -0.09947142	      0.06080328	      0.09478690
      0.50394290	     -0.09896765	      0.06084256	      0.09478690
      0.50513144	     -0.09845775	      0.06088788	      0.09478690
      0.50631999	     -0.09794157	      0.06093930	      0.09478690
      0.50750853	     -0.09741895	      0.06099687	      0.09478690
      0.50869707	     -0.09688974	      0.06106066	      0.09478690
      0.50988562	     -0.09635380	      0.06113071	      0.09478690
      0.51107416	     -0.09581099	      0.06120706	      0.09478690
      0.51226271	     -0.09526116	      0.06128974	      0.09478690
      0.51345125	     -0.09470421	      0.06137878	      0.09478690
      0.51463980	     -0.09414000	      0.06147418	      0.09478690
      0.51582834	     -0.09356842	      0.06157596	      0.09478690
      0.51701689	     -0.09298938	      0.06168413	      0.09478690
      0.51820543	     -0.09240276	      0.06179866	      0.09478690
      0.51939398	     -0.09180849	      0.06191955	      0.09478690
      0.52058252	     -0.09120647	      0.06204676	      0.09478690
      0.52177106	     -0.09059662	      0.06218025	      0.09478690
      0.52295961	     -0.08997886	      0.06231997	      0.09478690
      0.52414815	     -0.08935313	      0.06246587	      0.09478690
      0.52533670	     -0.08871936	      0.06261789	      0.09478690
      0.52652524	     -0.08807749	      0.06277594	      0.09478690
      0.52771379	     -0.08742747	      0.06293995	      0.09478690
      0.52890233	     -0.08676925	      0.06310983	      0.09478690
      0.53009088	     -0.08610279	      0.06328549	      0.09478690
      0.53127942	     -0.08542804	      0.06346683	      0.09478690
      0.53246797	     -0.08474497	      0.06365377	      0.09478690
      0.53365651	     -0.08405353	      0.06384618	      0.09478690
      0.53484505	     -0.08335371	      0.06404398	      0.09478690
      0.53603360	     -0.08264545	      0.06424704	      0.09478690
      0.53722214	     -0.08192873	      0.06445528	      0.09478690
      0.53841069	     -0.08120353	      0.06466857	      0.09478690
      0.53959923	     -0.08046980	      0.06488682	      0.09478690
      0.54078778	     -0.07972750	      0.06510992	      0.09478690
      0.54197632	     -0.07897662	      0.06533777	      0.09478690
      0.54316487	     -0.07821711	      0.06557027	      0.09478690
      0.54435341	     -0.07744892	      0.06580732	      0.09478690
      0.54554196	     -0.07667203	      0.06604881	      0.09478690
      0.54673050	     -0.07588637	      0.06629467	      0.09478690
      0.54791905	     -0.07509189	      0.06654478	      0.09478690
      0.54910759	     -0.07428854	      0.06679906	      0.09478690
      0.55029613	     -0.07347625	      0.06705741	      0.09478690
      0.55148468	     -0.07265495	      0.06731974	      0.09478690
      0.55267322	     -0.07182456	      0.06758595	      0.09478690
      0.55386177	     -0.07098500	      0.06785597	      0.09478690
      0.55505031	     -0.07013618	      0.06812969	      0.09478690
      0.55623886	     -0.06927800	      0.06840703	      0.09478690
      0.55742740	     -0.06841037	      0.06868790	      0.09478690
      0.55861595	     -0.06753318	      0.06897220	      0.09478690
      0.55980449	     -0.06664631	      0.06925985	      0.09478690
      0.56099304	     -0.06574965	      0.06955075	      0.09478690
      0.56218158	     -0.06484307	      0.06984482	      0.09478690
      0.56337012	     -0.06392645	      0.07014195	      0.09478690
      0.56455867	     -0.06299965	      0.07044205	      0.09478690
      0.56574721	     -0.06206253	      0.07074503	      0.09478690
      0.56693576	     -0.06111495	      0.07105077	      0.09478690
      0.56812430	     -0.06015677	      0.07135918	      0.09478690
      0.56931285	     -0.05918782	      0.07167015	      0.09478690
      0.57050139	     -0.05820797	      0.07198357	      0.09478690
      0.57168994	     -0.05721704	      0.07229932	      0.09478690
      0.57287848	     -0.05621488	      0.07261727	      0.09478690
      0.57406703	     -0.05520133	      0.07293732	      0.09478690
      0.57525557	     -0.05417622	      0.07325932	      0.09478690
      0.57644411	     -0.05313939	      0.07358315	      0.09478690
      0.57763266	     -0.05209067	      0.07390866	      0.09478690
      0.57882120	     -0.05102989	      0.07423572	      0.09478690
      0.58000975	     -0.04995689	      0.07456416	      0.09478690
      0.58119829	     -0.04887151	      0.07489385	      0.09478690
      0.58238684	     -0.04777356	      0.07522461	      0.09478690
      0.58357538	     -0.04666289	      0.07555627	      0.09478690
      0.58476393	     -0.04553933	      0.07588867	      0.09478690
      0.58595247	     -0.04440272	      0.07622163	      0.09478690
      0.58714102	     -0.04325286	      0.07655497	      0.09478690
      0.58832956	     -0.04208959	      0.07688850	      0.09478690
      0.58951810	     -0.04091274	      0.07722204	      0.09478690
      0.59070665	     -0.03972216	      0.07755538	      0.09478690
      0.59189519	     -0.03851770	      0.07788831	      0.09478690
      0.59308374	     -0.03729920	      0.07822062	      0.09478690
      0.59427228	     -0.03606650	      0.07855209	      0.09478690
      0.59546083	     -0.03481948	      0.07888251	      0.09478690
      0.59664937	     -0.03355798	      0.07921163	      0.09478690
      0.59783792	     -0.03228188	      0.07953923	      0.09478690
      0.59902646	     -0.03099103	      0.07986506	      0.09478690
      0.60021501	     -0.02968532	      0.08018887	      0.09478690
      0.60140355	     -0.02836461	      0.08051043	      0.09478690
      0.60259210	     -0.02702878	      0.08082948	      0.09478690
      0.60378064	     -0.02567773	      0.08114575	      0.09478690
      0.60496918	     -0.02431133	      0.08145899	      0.09478690
      0.60615773	     -0.02292949	      0.08176893	      0.09478690
      0.60734627	     -0.02153210	      0.08207531	      0.09478690
      0.60853482	     -0.02011906	      0.08237786	      0.09478690
      0.60972336	     -0.01869029	      0.08267631	      0.09478690
      0.61091191	     -0.01724568	      0.08297038	      0.09478690
      0.61210045	     -0.01578516	      0.08325979	      0.09478690
      0.61328900	     -0.01430865	      0.08354429	      0.09478690
      0.61447754	     -0.01281608	      0.08382358	      0.09478690
      0.61566609	     -0.01130737	      0.08409740	      0.09478690
      0.61685463	     -0.00978247	      0.08436548	      0.09478690
      0.61804317	     -0.00824130	      0.08462753	      0.09478690
      0.61923172	     -0.00668382	      0.08488329	      0.09478690
      0.62042026	     -0.00510998	      0.08513249	      0.09478690
      0.62160881	     -0.00351973	      0.08537486	      0.09478690
      0.62279735	     -0.00191303	      0.08561014	      0.09478690
      0.62398590	     -0.00028985	      0.08583807	      0.09478690
      0.62517444	      0.00134984	      0.08605839	      0.09478690
      0.62636299	      0.00300607	      0.08627086	      0.09478690
      0.62755153	      0.00467886	      0.08647521	      0.09478690
      0.62874008	      0.00636821	      0.08667122	      0.09478690
      0.62992862	      0.00807415	      0.08685864	      0.09478690
      0.63111716	      0.00979668	      0.08703723	      0.09478690
      0.63230571	      0.01153579	      0.08720677	      0.09478690
      0.63349425	      0.01329148	      0.08736704	      0.09478690
      0.63468280	      0.01506375	      0.08751782	      0.09478690
      0.63587134	      0.01685258	      0.08765889	      0.09478690
      0.63705989	      0.01865796	      0.08779005	      0.09478690
      0.63824843	      0.02047987	      0.08791110	      0.09478690
      0.63943698	      0.02231827	      0.08802184	      0.09478690
      0.64062552	      0.02417316	      0.08812207	      0.09478690
      0.64181407	      0.02604448	      0.08821162	      0.09478690
      0.64300261	      0.02793222	      0.08829030	      0.09478690
      0.64419115	      0.02983633	      0.08835794	      0.09478690
      0.64537970	      0.03175677	      0.08841436	      0.09478690
      0.64656824	      0.03369350	      0.08845941	      0.09478690
      0.64775679	      0.03564647	      0.08849291	      0.09478690
      0.64894533	      0.03761565	      0.08851471	      0.09478690
      0.65013388	      0.03960097	      0.08852465	      0.09478690
      0.65132242	      0.04160239	      0.08852260	      0.09478690
      0.65251097	      0.04361985	      0.08850839	      0.09478690
      0.65369951	      0.04565331	      0.08848189	      0.09478690
      0.65488806	      0.04770270	      0.08844297	      0.09478690
      0.65607660	      0.04976797	      0.08839147	      0.09478690
      0.65726515	      0.05184906	      0.08832728	      0.09478690
      0.65845369	      0.05394592	      0.08825024	      0.09478690
      0.65964223	      0.05605849	      0.08816024	      0.09478690
      0.66083078	      0.05818671	      0.08805714	      0.09478690
      0.66201932	      0.06033052	      0.08794081	      0.09478690
      0.66320787	      0.06248987	      0.08781112	      0.09478690
      0.66439641	      0.06466470	      0.08766792	      0.09478690
      0.66558496	      0.06685497	      0.08751109	      0.09478690
      0.66677350	      0.06906062	      0.08734047	      0.09478690
      0.66796205	      0.07128162	      0.08715592	      0.09478690
      0.66915059	      0.07351791	      0.08695728	      0.09478690
      0.67033914	      0.07576947	      0.08674438	      0.09478690
      0.67152768	      0.07803627	      0.08651703	      0.09478690
      0.67271622	      0.08031830	      0.08627503	      0.09478690
      0.67390477	      0.08261553	      0.08601818	      0.09478690
      0.67509331	      0.08492797	      0.08574624	      0.09478690
      0.67628186	      0.08725562	      0.08545894	      0.09478690
      0.67747040	      0.08959852	      0.08515603	      0.09478690
      0.67865895	      0.09195669	      0.08483720	      0.09478690
      0.67984749	      0.09433019	      0.08450214	      0.09478690
      0.68103604	      0.09671906	      0.08415051	      0.09478690
      0.68222458	      0.09912338	      0.08378194	      0.09478690
      0.68341313	      0.10154324	      0.08339607	      0.09478690
      0.68460167	      0.10397872	      0.08299251	      0.09478690
      0.68579021	      0.10642995	      0.08257083	      0.09478690
      0.68697876	      0.10889704	      0.08213062	      0.09478690
      0.68816730	      0.11138012	      0.08167144	      0.09478690
      0.68935585	      0.11387934	      0.08119284	      0.09478690
      0.69054439	      0.11639486	      0.08069436	      0.09478690
      0.69173294	      0.11892686	      0.08017554	      0.09478690
      0.69292148	      0.12147550	      0.07963591	      0.09478690
      0.69411003	      0.12404099	      0.07907497	      0.09478690
      0.69529857	      0.12662354	      0.07849226	      0.09478690
      0.69648712	      0.12922335	      0.07788729	      0.09478690
      0.69767566	      0.13184067	      0.07725958	      0.09478690
      0.69886421	      0.13447574	      0.07660864	      0.09478690
      0.70005275	      0.13712880	      0.07593399	      0.09478690
      0.70124129	      0.13980014	      0.07523516	      0.09478690
      0.70242984	      0.14249003	      0.07451168	      0.09478690
      0.70361838	      0.14519876	      0.07376309	      0.09478690
      0.70480693	      0.14792666	      0.07298893	      0.09478690
      0.70599547	      0.15067403	      0.07218876	      0.09478690
      0.70718402	      0.15344122	      0.07136215	      0.09478690
      0.70837256	      0.15622859	      0.07050869	      0.09478690
      0.70956111	      0.15903650	      0.06962796	      0.09478690
      0.71074965	      0.16186533	      0.06871959	      0.09478690
      0.71193820	      0.16471549	      0.06778322	      0.09478690
      0.71312674	      0.16758741	      0.06681849	      0.09478690
