PointAcceleration
version=1
nRows=601
nColumns=4
inDegrees=no
No description.
endheader
time	state_0	state_1	state_2
      0.00000000	   -140.10783627	     58.32582960	      0.00000000
      0.00162591	    -75.59478537	    135.90038972	      0.00000000
      0.00325182	     -3.26685863	    201.93497669	      0.00000000
      0.00487773	     -5.87561755	    191.34490395	      0.00000000
      0.00650364	      2.60052826	    200.61352949	      0.00000000
      0.00812954	      4.33053005	    204.80663459	      0.00000000
      0.00975545	      6.44750225	    209.57455240	      0.00000000
      0.01138136	      7.30142675	    213.17512074	      0.00000000
      0.01300727	      7.24709818	    214.50688531	      0.00000000
      0.01463318	      6.23625929	    213.70030387	      0.00000000
      0.01625909	      4.11418069	    210.17934814	      0.00000000
      0.01788500	      0.81547757	    204.02575619	      0.00000000
      0.01951091	     -2.90776201	    195.68439646	      0.00000000
      0.02113681	     -6.89462631	    185.20301112	      0.00000000
      0.02276272	    -11.07915144	    172.68604710	      0.00000000
      0.02438863	    -15.34576528	    158.64760688	      0.00000000
      0.02601454	    -19.90502040	    143.41672898	      0.00000000
      0.02764045	    -24.53333131	    127.61999230	      0.00000000
      0.02926636	    -29.21470072	    111.72369697	      0.00000000
      0.03089227	    -33.83464494	     96.13833799	      0.00000000
      0.03251818	    -38.25923622	     81.26476334	      0.00000000
      0.03414409	    -42.47176631	     67.31508905	      0.00000000
      0.03576999	    -46.34148192	     54.50226138	      0.00000000
      0.03739590	    -49.92213692	     42.84083908	      0.00000000
      0.03902181	    -53.17423567	     32.28516324	      0.00000000
      0.04064772	    -56.15444391	     22.79221239	      0.00000000
      0.04227363	    -58.86840698	     14.26218133	      0.00000000
      0.04389954	    -61.30573688	      6.65832689	      0.00000000
      0.04552545	    -63.45450657	     -0.12371850	      0.00000000
      0.04715136	    -65.31613791	     -6.14185182	      0.00000000
      0.04877727	    -66.91325732	    -11.50285943	      0.00000000
      0.05040317	    -68.24162812	    -16.24243161	      0.00000000
      0.05202908	    -69.32633528	    -20.43148832	      0.00000000
      0.05365499	    -70.16716190	    -24.09863904	      0.00000000
      0.05528090	    -70.78722147	    -27.29073416	      0.00000000
      0.05690681	    -71.18972090	    -30.03015674	      0.00000000
      0.05853272	    -71.39232885	    -32.34343838	      0.00000000
      0.06015863	    -71.40013049	    -34.24603355	      0.00000000
      0.06178454	    -71.22460288	    -35.74935026	      0.00000000
      0.06341044	    -70.87032852	    -36.86194559	      0.00000000
      0.06503635	    -70.34258017	    -37.58403889	      0.00000000
      0.06666226	    -69.64388765	    -37.91765998	      0.00000000
      0.06828817	    -68.77409622	    -37.85467833	      0.00000000
      0.06991408	    -67.73286336	    -37.39090643	      0.00000000
      0.07153999	    -66.51544876	    -36.51135669	      0.00000000
      0.07316590	    -65.11852247	    -35.20647407	      0.00000000
      0.07479181	    -63.53348177	    -33.45512835	      0.00000000
      0.07641772	    -61.75524281	    -31.24606844	      0.00000000
      0.07804362	    -59.77259408	    -28.55392850	      0.00000000
      0.07966953	    -57.58310148	    -25.37772927	      0.00000000
      0.08129544	    -55.17674144	    -21.69584498	      0.00000000
      0.08292135	    -52.57249450	    -17.56569941	      0.00000000
      0.08454726	    -49.78550440	    -13.03661406	      0.00000000
      0.08617317	    -46.86275865	     -8.24645823	      0.00000000
      0.08779908	    -43.86100300	     -3.36414910	      0.00000000
      0.08942499	    -40.79370828	      1.54575443	      0.00000000
      0.09105089	    -37.68153508	      6.41860910	      0.00000000
      0.09267680	    -34.52975958	     11.24040561	      0.00000000
      0.09430271	    -31.34321159	     15.99718313	      0.00000000
      0.09592862	    -28.12800842	     20.68254911	      0.00000000
      0.09755453	    -24.88829546	     25.29117616	      0.00000000
      0.09918044	    -21.62927962	     29.82086620	      0.00000000
      0.10080635	    -18.35398634	     34.27389518	      0.00000000
      0.10243226	    -15.06708231	     38.65300414	      0.00000000
      0.10405817	    -11.77052756	     42.96683926	      0.00000000
      0.10568407	     -8.46944115	     47.21996506	      0.00000000
      0.10730998	     -5.16586268	     51.42291315	      0.00000000
      0.10893589	     -1.86586726	     55.57892712	      0.00000000
      0.11056180	      1.42743417	     59.69626797	      0.00000000
      0.11218771	      4.70736806	     63.77648751	      0.00000000
      0.11381362	      7.96977702	     67.82480727	      0.00000000
      0.11543953	     11.20799529	     71.84223287	      0.00000000
      0.11706544	     14.41739468	     75.83215324	      0.00000000
      0.11869135	     17.59183499	     79.79598433	      0.00000000
      0.12031725	     20.72683939	     83.73642799	      0.00000000
      0.12194316	     23.81721159	     87.65562092	      0.00000000
      0.12356907	     26.85909998	     91.55614691	      0.00000000
      0.12519498	     29.84854704	     95.44076331	      0.00000000
      0.12682089	     32.78265278	     99.31211853	      0.00000000
      0.12844680	     35.65884539	    103.17329922	      0.00000000
      0.13007271	     38.47545547	    107.02705923	      0.00000000
      0.13169862	     41.23128835	    110.87643372	      0.00000000
      0.13332452	     43.92629003	    114.72433831	      0.00000000
      0.13495043	     46.56048447	    118.57328110	      0.00000000
      0.13657634	     49.13586132	    122.42631751	      0.00000000
      0.13820225	     51.65369791	    126.28508638	      0.00000000
      0.13982816	     54.11799291	    130.15246072	      0.00000000
      0.14145407	     56.53205998	    134.02965892	      0.00000000
      0.14307998	     58.90073151	    137.91884627	      0.00000000
      0.14470589	     61.22986715	    141.82172324	      0.00000000
      0.14633180	     63.52351625	    145.73922836	      0.00000000
      0.14795770	     65.78896754	    149.67267899	      0.00000000
      0.14958361	     68.03022637	    153.62147196	      0.00000000
      0.15120952	     70.25545823	    157.58584701	      0.00000000
      0.15283543	     72.47121035	    161.56594629	      0.00000000
      0.15446134	     74.68638494	    165.56424152	      0.00000000
      0.15608725	     76.90819503	    169.58307710	      0.00000000
      0.15771316	     79.14312704	    173.62348547	      0.00000000
      0.15933907	     81.39666424	    177.68641803	      0.00000000
      0.16096497	     83.67181707	    181.76846795	      0.00000000
      0.16259088	     85.97135538	    185.86655073	      0.00000000
      0.16421679	     88.29715030	    189.97592349	      0.00000000
      0.16584270	     90.65269706	    194.09453234	      0.00000000
      0.16746861	     93.04140233	    198.22237529	      0.00000000
      0.16909452	     95.46621881	    202.35915810	      0.00000000
      0.17072043	     97.93008162	    206.50546184	      0.00000000
      0.17234634	    100.43523456	    210.66105973	      0.00000000
      0.17397225	    102.98107488	    214.82108354	      0.00000000
      0.17559815	    105.56889071	    218.98362749	      0.00000000
      0.17722406	    108.20010723	    223.14791294	      0.00000000
      0.17884997	    110.87550075	    227.31209170	      0.00000000
      0.18047588	    113.59512456	    231.47368083	      0.00000000
      0.18210179	    116.35949991	    235.63068817	      0.00000000
      0.18372770	    119.16848943	    239.78090112	      0.00000000
      0.18535361	    122.02221687	    243.92226114	      0.00000000
      0.18697952	    124.92009985	    248.05244106	      0.00000000
      0.18860542	    127.86183283	    252.16922490	      0.00000000
      0.19023133	    130.84650344	    256.27030327	      0.00000000
      0.19185724	    133.87341843	    260.35337943	      0.00000000
      0.19348315	    136.94135541	    264.41617689	      0.00000000
      0.19510906	    140.04926728	    268.45636300	      0.00000000
      0.19673497	    143.19563587	    272.47168724	      0.00000000
      0.19836088	    146.37908306	    276.45979847	      0.00000000
      0.19998679	    149.59781316	    280.41846103	      0.00000000
      0.20161270	    152.85014571	    284.34531899	      0.00000000
      0.20323860	    156.13404613	    288.23816224	      0.00000000
      0.20486451	    159.44757224	    292.09465178	      0.00000000
      0.20649042	    162.78850053	    295.91262416	      0.00000000
      0.20811633	    166.15467730	    299.68978421	      0.00000000
      0.20974224	    169.54374499	    303.42403937	      0.00000000
      0.21136815	    172.95339332	    307.11316603	      0.00000000
      0.21299406	    176.38118633	    310.75516722	      0.00000000
      0.21461997	    179.82471321	    314.34791726	      0.00000000
      0.21624588	    183.28151291	    317.88953796	      0.00000000
      0.21787178	    186.74912801	    321.37802505	      0.00000000
      0.21949769	    190.22512150	    324.81164032	      0.00000000
      0.22112360	    193.70703963	    328.18852182	      0.00000000
      0.22274951	    197.19251302	    331.50708991	      0.00000000
      0.22437542	    200.67913646	    334.76564273	      0.00000000
      0.22600133	    204.16464464	    337.96277369	      0.00000000
      0.22762724	    207.64671937	    341.09695508	      0.00000000
      0.22925315	    211.12322719	    344.16696195	      0.00000000
      0.23087905	    214.59196713	    347.17144921	      0.00000000
      0.23250496	    218.05095576	    350.10937475	      0.00000000
      0.23413087	    221.49813058	    352.97957796	      0.00000000
      0.23575678	    224.93166596	    355.78119214	      0.00000000
      0.23738269	    228.34964926	    358.51323515	      0.00000000
      0.23900860	    231.75041090	    361.17500029	      0.00000000
      0.24063451	    235.13219008	    363.76567011	      0.00000000
      0.24226042	    238.49346485	    366.28467796	      0.00000000
      0.24388633	    241.83262076	    368.73135211	      0.00000000
      0.24551223	    245.14827248	    371.10524655	      0.00000000
      0.24713814	    248.43894294	    373.40581574	      0.00000000
      0.24876405	    251.70337549	    375.63272206	      0.00000000
      0.25038996	    254.94022305	    377.78553271	      0.00000000
      0.25201587	    258.14835662	    379.86401778	      0.00000000
      0.25364178	    261.32655720	    381.86785419	      0.00000000
      0.25526769	    264.47382923	    383.79692977	      0.00000000
      0.25689360	    267.58908568	    385.65103831	      0.00000000
      0.25851950	    270.67147258	    387.43019972	      0.00000000
      0.26014541	    273.72004104	    389.13433649	      0.00000000
      0.26177132	    276.73408199	    390.76360969	      0.00000000
      0.26339723	    279.71278726	    392.31807874	      0.00000000
      0.26502314	    282.65558533	    393.79804244	      0.00000000
      0.26664905	    285.56180223	    395.20369448	      0.00000000
      0.26827496	    288.43098463	    396.53545383	      0.00000000
      0.26990087	    291.26257627	    397.79363387	      0.00000000
      0.27152678	    294.05621419	    398.97874670	      0.00000000
      0.27315268	    296.81143651	    400.09120268	      0.00000000
      0.27477859	    299.52794041	    401.13157785	      0.00000000
      0.27640450	    302.20533314	    402.10035496	      0.00000000
      0.27803041	    304.84334561	    402.99814921	      0.00000000
      0.27965632	    307.44163284	    403.82549564	      0.00000000
      0.28128223	    309.99994184	    404.58303283	      0.00000000
      0.28290814	    312.51796092	    405.27133529	      0.00000000
      0.28453405	    314.99544760	    405.89105988	      0.00000000
      0.28615996	    317.43211944	    406.44281718	      0.00000000
      0.28778586	    319.82775264	    406.92728784	      0.00000000
      0.28941177	    322.18210145	    407.34512396	      0.00000000
      0.29103768	    324.49498238	    407.69704377	      0.00000000
      0.29266359	    326.76620522	    407.98375305	      0.00000000
      0.29428950	    328.99565715	    408.20602370	      0.00000000
      0.29591541	    331.18323046	    408.36462916	      0.00000000
      0.29754132	    333.32891113	    408.46040265	      0.00000000
      0.29916723	    335.43269843	    408.49418984	      0.00000000
      0.30079313	    337.49468770	    408.46687172	      0.00000000
      0.30241904	    339.51498911	    408.37934526	      0.00000000
      0.30404495	    341.49378981	    408.23249930	      0.00000000
      0.30567086	    343.43128044	    408.02722696	      0.00000000
      0.30729677	    345.32771270	    407.76438373	      0.00000000
      0.30892268	    347.18331714	    407.44480130	      0.00000000
      0.31054859	    348.99842132	    407.06931367	      0.00000000
      0.31217450	    350.77330445	    406.63869898	      0.00000000
      0.31380041	    352.50843722	    406.15385319	      0.00000000
      0.31542631	    354.20421864	    405.61558930	      0.00000000
      0.31705222	    355.86133992	    405.02496103	      0.00000000
      0.31867813	    357.48040412	    404.38291952	      0.00000000
      0.32030404	    359.06234967	    403.69070827	      0.00000000
      0.32192995	    360.60802760	    402.94946401	      0.00000000
      0.32355586	    362.11858030	    402.16057259	      0.00000000
      0.32518177	    363.59508618	    401.32533043	      0.00000000
      0.32680768	    365.03880031	    400.44517559	      0.00000000
      0.32843358	    366.45095202	    399.52149038	      0.00000000
      0.33005949	    367.83280283	    398.55567025	      0.00000000
      0.33168540	    369.18562851	    397.54909139	      0.00000000
      0.33331131	    370.51060560	    396.50303299	      0.00000000
      0.33493722	    371.80895594	    395.41878537	      0.00000000
      0.33656313	    373.08172264	    394.29748066	      0.00000000
      0.33818904	    374.33001558	    393.14028392	      0.00000000
      0.33981495	    375.55476347	    391.94820827	      0.00000000
      0.34144086	    376.75697082	    390.72230955	      0.00000000
      0.34306676	    377.93751185	    389.46354702	      0.00000000
      0.34469267	    379.09733233	    388.17291819	      0.00000000
      0.34631858	    380.23732184	    386.85141134	      0.00000000
      0.34794449	    381.35842879	    385.50005069	      0.00000000
      0.34957040	    382.46161054	    384.11991203	      0.00000000
      0.35119631	    383.54785077	    382.71208975	      0.00000000
      0.35282222	    384.61817903	    381.27772886	      0.00000000
      0.35444813	    385.67357071	    379.81792949	      0.00000000
      0.35607404	    386.71509755	    378.33391157	      0.00000000
      0.35769994	    387.74405849	    376.82725235	      0.00000000
      0.35932585	    388.76197042	    375.29931584	      0.00000000
      0.36095176	    389.76867509	    373.75112090	      0.00000000
      0.36257767	    390.76666708	    372.18260262	      0.00000000
      0.36420358	    391.75778089	    370.59668820	      0.00000000
      0.36582949	    392.74332632	    368.99419885	      0.00000000
      0.36745540	    393.72412556	    367.37575511	      0.00000000
      0.36908131	    394.70064849	    365.74162932	      0.00000000
      0.37070721	    395.67330028	    364.09196365	      0.00000000
      0.37233312	    396.64173662	    362.42672171	      0.00000000
      0.37395903	    397.60583920	    360.74615290	      0.00000000
      0.37558494	    398.56573075	    359.05065756	      0.00000000
      0.37721085	    399.52128093	    357.34059645	      0.00000000
      0.37883676	    400.47201087	    355.61548839	      0.00000000
      0.38046267	    401.41736236	    353.87482897	      0.00000000
      0.38208858	    402.35544178	    352.11661295	      0.00000000
      0.38371449	    403.28465698	    350.33887483	      0.00000000
      0.38534039	    404.20319866	    348.53974256	      0.00000000
      0.38696630	    405.10899275	    346.71742912	      0.00000000
      0.38859221	    406.00002018	    344.87052947	      0.00000000
      0.39021812	    406.87410376	    342.99764827	      0.00000000
      0.39184403	    407.72897271	    341.09721931	      0.00000000
      0.39346994	    408.56212829	    339.16752203	      0.00000000
      0.39509585	    409.37078096	    337.20642289	      0.00000000
      0.39672176	    410.15201638	    335.21177610	      0.00000000
      0.39834766	    410.90296965	    333.18130133	      0.00000000
      0.39997357	    411.62065876	    331.11271507	      0.00000000
      0.40159948	    412.30224720	    329.00378758	      0.00000000
      0.40322539	    412.94472037	    326.85224019	      0.00000000
      0.40485130	    413.54508261	    324.65588924	      0.00000000
      0.40647721	    414.10020920	    322.41253753	      0.00000000
      0.40810312	    414.60692786	    320.12005319	      0.00000000
      0.40972903	    415.06202640	    317.77632745	      0.00000000
      0.41135494	    415.46224179	    315.37928033	      0.00000000
      0.41298084	    415.80433659	    312.92688776	      0.00000000
      0.41460675	    416.08499159	    310.41713614	      0.00000000
      0.41623266	    416.30097494	    307.84810579	      0.00000000
      0.41785857	    416.44889597	    305.21788291	      0.00000000
      0.41948448	    416.52551469	    302.52468462	      0.00000000
      0.42111039	    416.52733987	    299.76672997	      0.00000000
      0.42273630	    416.45112054	    296.94241368	      0.00000000
      0.42436221	    416.29331212	    294.05014366	      0.00000000
      0.42598812	    416.05068057	    291.08854397	      0.00000000
      0.42761402	    415.71962660	    288.05622910	      0.00000000
      0.42923993	    415.29694563	    284.95206850	      0.00000000
      0.43086584	    414.77908647	    281.77493424	      0.00000000
      0.43249175	    414.16296401	    278.52400305	      0.00000000
      0.43411766	    413.44517416	    275.19845842	      0.00000000
      0.43574357	    412.62283261	    271.79784717	      0.00000000
      0.43736948	    411.69303401	    268.32162388	      0.00000000
      0.43899539	    410.65364818	    264.76957183	      0.00000000
      0.44062129	    409.50140832	    261.14143204	      0.00000000
      0.44224720	    408.23371324	    257.43737307	      0.00000000
      0.44387311	    406.84691102	    253.65729591	      0.00000000
      0.44549902	    405.33822780	    249.80155120	      0.00000000
      0.44712493	    403.70342567	    245.86996624	      0.00000000
      0.44875084	    401.93919501	    241.86281656	      0.00000000
      0.45037675	    400.04027871	    237.77974348	      0.00000000
      0.45200266	    398.00210580	    233.62077526	      0.00000000
      0.45362857	    395.81779354	    229.38523876	      0.00000000
      0.45525447	    393.48058251	    225.07271987	      0.00000000
      0.45688038	    390.98151309	    220.68194054	      0.00000000
      0.45850629	    388.31121990	    216.21179724	      0.00000000
      0.46013220	    385.46004824	    211.66054599	      0.00000000
      0.46175811	    382.41819904	    207.02696969	      0.00000000
      0.46338402	    379.17738009	    202.30937377	      0.00000000
      0.46500993	    375.73358703	    197.50819460	      0.00000000
      0.46663584	    372.07749936	    192.62176931	      0.00000000
      0.46826174	    368.20250808	    187.64963192	      0.00000000
      0.46988765	    364.08831623	    182.58841436	      0.00000000
      0.47151356	    359.71714939	    177.43548791	      0.00000000
      0.47313947	    355.05915888	    172.18921953	      0.00000000
      0.47476538	    350.09010110	    166.85013747	      0.00000000
      0.47639129	    344.77546336	    161.42099023	      0.00000000
      0.47801720	    339.09099515	    155.91130216	      0.00000000
      0.47964311	    332.98896206	    150.32554928	      0.00000000
      0.48126902	    326.44196173	    144.68539198	      0.00000000
      0.48289492	    319.36272414	    138.98691722	      0.00000000
      0.48452083	    311.68579782	    133.22656038	      0.00000000
      0.48614674	    303.28504717	    127.36435438	      0.00000000
      0.48777265	    294.06995181	    121.35276985	      0.00000000
      0.48939856	    283.92910417	    115.14765251	      0.00000000
      0.49102447	    272.74187377	    108.65600783	      0.00000000
      0.49265038	    260.48376846	    101.89792906	      0.00000000
      0.49427629	    247.11215630	     94.65012902	      0.00000000
      0.49590220	    232.60392355	     87.61435042	      0.00000000
      0.49752810	    217.42824243	     80.50248107	      0.00000000
      0.49915401	    201.89226820	     73.50221931	      0.00000000
      0.50077992	    186.18871592	     66.69398361	      0.00000000
      0.50240583	    170.46083499	     60.09697343	      0.00000000
      0.50403174	    154.97306376	     53.79758501	      0.00000000
      0.50565765	    139.74892511	     47.80893660	      0.00000000
      0.50728356	    125.26793357	     42.21455341	      0.00000000
      0.50890947	    111.01984717	     36.95304110	      0.00000000
      0.51053537	     98.27383200	     32.18853858	      0.00000000
      0.51216128	     82.80136879	     27.39785292	      0.00000000
      0.51378719	     60.74546672	     21.84127804	      0.00000000
      0.51541310	     38.89552824	     15.81627925	      0.00000000
      0.51703901	     26.44213387	      9.89048443	      0.00000000
      0.51866492	     27.61332529	      5.34278729	      0.00000000
      0.52029083	     30.38152166	      3.38965381	      0.00000000
      0.52191674	     28.38834105	      2.54474928	      0.00000000
      0.52354265	     25.92766980	      1.85737204	      0.00000000
      0.52516855	     24.27009357	      1.15531660	      0.00000000
      0.52679446	     23.06561816	      0.47314669	      0.00000000
      0.52842037	     22.07927801	     -0.16970590	      0.00000000
      0.53004628	     21.20952349	     -0.76496385	      0.00000000
      0.53167219	     20.42764182	     -1.30983472	      0.00000000
      0.53329810	     19.73726871	     -1.80311511	      0.00000000
      0.53492401	     19.14194209	     -2.24758671	      0.00000000
      0.53654992	     18.63974598	     -2.64761705	      0.00000000
      0.53817582	     18.21486019	     -3.01005090	      0.00000000
      0.53980173	     17.85052116	     -3.34066176	      0.00000000
      0.54142764	     17.53315160	     -3.64406753	      0.00000000
      0.54305355	     17.24978378	     -3.92408640	      0.00000000
      0.54467946	     16.99666395	     -4.18284283	      0.00000000
      0.54630537	     16.76853193	     -4.42255055	      0.00000000
      0.54793128	     16.56494127	     -4.64509927	      0.00000000
      0.54955719	     16.38369830	     -4.85248456	      0.00000000
      0.55118310	     16.22359612	     -5.04637570	      0.00000000
      0.55280900	     16.08261589	     -5.22856925	      0.00000000
      0.55443491	     15.95900070	     -5.40071344	      0.00000000
      0.55606082	     15.85084143	     -5.56448896	      0.00000000
      0.55768673	     15.75654863	     -5.72135084	      0.00000000
      0.55931264	     15.67432758	     -5.87278756	      0.00000000
      0.56093855	     15.60265511	     -6.02001510	      0.00000000
      0.56256446	     15.53960766	     -6.16428820	      0.00000000
      0.56419037	     15.48401171	     -6.30651002	      0.00000000
      0.56581627	     15.43471135	     -6.44755306	      0.00000000
      0.56744218	     15.39121294	     -6.58800499	      0.00000000
      0.56906809	     15.35285782	     -6.72843505	      0.00000000
      0.57069400	     15.31901536	     -6.86930622	      0.00000000
      0.57231991	     15.28888905	     -7.01113096	      0.00000000
      0.57394582	     15.26140052	     -7.15425398	      0.00000000
      0.57557173	     15.23518029	     -7.29899599	      0.00000000
      0.57719764	     15.20910617	     -7.44526708	      0.00000000
      0.57882355	     15.18193673	     -7.59294745	      0.00000000
      0.58044945	     15.15324524	     -7.74152240	      0.00000000
      0.58207536	     15.12245632	     -7.89052156	      0.00000000
      0.58370127	     15.08970545	     -8.03928800	      0.00000000
      0.58532718	     15.05494336	     -8.18722610	      0.00000000
      0.58695309	     15.01845552	     -8.33371698	      0.00000000
      0.58857900	     14.98038398	     -8.47819016	      0.00000000
      0.59020491	     14.94100015	     -8.62011906	      0.00000000
      0.59183082	     14.90053450	     -8.75900350	      0.00000000
      0.59345673	     14.85923567	     -8.89458304	      0.00000000
      0.59508263	     14.81732723	     -9.02713181	      0.00000000
      0.59670854	     14.77503491	     -9.15646326	      0.00000000
      0.59833445	     14.73253877	     -9.28234152	      0.00000000
      0.59996036	     14.68998665	     -9.40460867	      0.00000000
      0.60158627	     14.64760468	     -9.52311725	      0.00000000
      0.60321218	     14.60552055	     -9.63777903	      0.00000000
      0.60483809	     14.56391251	     -9.74851519	      0.00000000
      0.60646400	     14.52261486	     -9.85529041	      0.00000000
      0.60808990	     14.48144808	     -9.95807562	      0.00000000
      0.60971581	     14.43982400	    -10.05686487	      0.00000000
      0.61134172	     14.39702945	    -10.15165426	      0.00000000
      0.61296763	     14.35236296	    -10.24244025	      0.00000000
      0.61459354	     14.30503811	    -10.32921999	      0.00000000
      0.61621945	     14.25483698	    -10.41198504	      0.00000000
      0.61784536	     14.20159269	    -10.49073380	      0.00000000
      0.61947127	     14.14559407	    -10.56547157	      0.00000000
      0.62109718	     14.08719327	    -10.63621704	      0.00000000
      0.62272308	     14.02643308	    -10.70300268	      0.00000000
      0.62434899	     13.96326022	    -10.76586797	      0.00000000
      0.62597490	     13.89695659	    -10.82484941	      0.00000000
      0.62760081	     13.82651671	    -10.87997526	      0.00000000
      0.62922672	     13.75122549	    -10.93125560	      0.00000000
      0.63085263	     13.67051056	    -10.97869209	      0.00000000
      0.63247854	     13.58474260	    -11.02229545	      0.00000000
      0.63410445	     13.49465497	    -11.06208609	      0.00000000
      0.63573035	     13.40060987	    -11.09810126	      0.00000000
      0.63735626	     13.30255378	    -11.13029190	      0.00000000
      0.63898217	     13.19961295	    -11.15867788	      0.00000000
      0.64060808	     13.09098285	    -11.18332309	      0.00000000
      0.64223399	     12.97588642	    -11.20431635	      0.00000000
      0.64385990	     12.85411047	    -11.22179076	      0.00000000
      0.64548581	     12.72470416	    -11.23587674	      0.00000000
      0.64711172	     12.58673806	    -11.24671331	      0.00000000
      0.64873763	     12.43725351	    -11.25434737	      0.00000000
      0.65036353	     12.27238801	    -11.25874301	      0.00000000
      0.65198944	     12.08783725	    -11.25978793	      0.00000000
      0.65361535	     11.87477623	    -11.25711704	      0.00000000
      0.65524126	     11.63944172	    -11.25095097	      0.00000000
      0.65686717	     11.41612775	    -11.24286031	      0.00000000
      0.65849308	     11.21323716	    -11.23344475	      0.00000000
      0.66011899	     11.31768030	    -11.23393995	      0.00000000
      0.66174490	     11.06895341	    -11.21550570	      0.00000000
      0.66337081	     10.82039299	    -11.19494634	      0.00000000
      0.66499671	     10.57070526	    -11.17233973	      0.00000000
      0.66662262	     10.30949593	    -11.14726099	      0.00000000
      0.66824853	     10.03305742	    -11.11960195	      0.00000000
      0.66987444	      9.73808032	    -11.08927153	      0.00000000
      0.67150035	      9.42614296	    -11.05645464	      0.00000000
      0.67312626	      9.09781130	    -11.02129991	      0.00000000
      0.67475217	      8.75357185	    -10.98396639	      0.00000000
      0.67637808	      8.39278490	    -10.94456229	      0.00000000
      0.67800398	      8.01440603	    -10.90318341	      0.00000000
      0.67962989	      7.61788911	    -10.85996822	      0.00000000
      0.68125580	      7.20290175	    -10.81508234	      0.00000000
      0.68288171	      6.76900730	    -10.76870103	      0.00000000
      0.68450762	      6.31578455	    -10.72101648	      0.00000000
      0.68613353	      5.84280337	    -10.67223746	      0.00000000
      0.68775944	      5.34965317	    -10.62259129	      0.00000000
      0.68938535	      4.83593106	    -10.57232389	      0.00000000
      0.69101126	      4.30126839	    -10.52170197	      0.00000000
      0.69263716	      3.74530674	    -10.47101180	      0.00000000
      0.69426307	      3.16773262	    -10.42056188	      0.00000000
      0.69588898	      2.56824905	    -10.37068104	      0.00000000
      0.69751489	      1.94662023	    -10.32172158	      0.00000000
      0.69914080	      1.30263431	    -10.27405634	      0.00000000
      0.70076671	      0.63616460	    -10.22808261	      0.00000000
      0.70239262	     -0.05288387	    -10.18421763	      0.00000000
      0.70401853	     -0.76448956	    -10.14290352	      0.00000000
      0.70564443	     -1.49859088	    -10.10460069	      0.00000000
      0.70727034	     -2.25497354	    -10.06979384	      0.00000000
      0.70889625	     -3.03337416	    -10.03898298	      0.00000000
      0.71052216	     -3.83334124	    -10.01269026	      0.00000000
      0.71214807	     -4.65436470	     -9.99144855	      0.00000000
      0.71377398	     -5.49571926	     -9.97580855	      0.00000000
      0.71539989	     -6.35661196	     -9.96632542	      0.00000000
      0.71702580	     -7.23602421	     -9.96356540	      0.00000000
      0.71865171	     -8.13286267	     -9.96809136	      0.00000000
      0.72027761	     -9.04582109	     -9.98046821	      0.00000000
      0.72190352	     -9.97351584	    -10.00124859	      0.00000000
      0.72352943	    -10.91438829	    -10.03097668	      0.00000000
      0.72515534	    -11.86680599	    -10.07017516	      0.00000000
      0.72678125	    -12.82902185	    -10.11934760	      0.00000000
      0.72840716	    -13.79922590	    -10.17896756	      0.00000000
      0.73003307	    -14.77557007	    -10.24948022	      0.00000000
      0.73165898	    -15.75616102	    -10.33129400	      0.00000000
      0.73328489	    -16.73915174	    -10.42478232	      0.00000000
      0.73491079	    -17.72267066	    -10.53027784	      0.00000000
      0.73653670	    -18.70497878	    -10.64807509	      0.00000000
      0.73816261	    -19.68433191	    -10.77842697	      0.00000000
      0.73978852	    -20.65920479	    -10.92154909	      0.00000000
      0.74141443	    -21.62808146	    -11.07761779	      0.00000000
      0.74304034	    -22.58974974	    -11.24677703	      0.00000000
      0.74466625	    -23.54301446	    -11.42913709	      0.00000000
      0.74629216	    -24.48706081	    -11.62478476	      0.00000000
      0.74791806	    -25.42109300	    -11.83378175	      0.00000000
      0.74954397	    -26.34474924	    -12.05617861	      0.00000000
      0.75116988	    -27.25768614	    -12.29201191	      0.00000000
      0.75279579	    -28.16000552	    -12.54132129	      0.00000000
      0.75442170	    -29.05182627	    -12.80414492	      0.00000000
      0.75604761	    -29.93367073	    -13.08053751	      0.00000000
      0.75767352	    -30.80607718	    -13.37056457	      0.00000000
      0.75929943	    -31.66990386	    -13.67431837	      0.00000000
      0.76092534	    -32.52602554	    -13.99191259	      0.00000000
      0.76255124	    -33.37554230	    -14.32349403	      0.00000000
      0.76417715	    -34.21957551	    -14.66923930	      0.00000000
      0.76580306	    -35.05939757	    -15.02936251	      0.00000000
      0.76742897	    -35.89631459	    -15.40411480	      0.00000000
      0.76905488	    -36.73174240	    -15.79378961	      0.00000000
      0.77068079	    -37.56715411	    -16.19872528	      0.00000000
      0.77230670	    -38.40411383	    -16.61930881	      0.00000000
      0.77393261	    -39.24427983	    -17.05598209	      0.00000000
      0.77555851	    -40.08938519	    -17.50924244	      0.00000000
      0.77718442	    -40.94130711	    -17.97965452	      0.00000000
      0.77881033	    -41.80197348	    -18.46784404	      0.00000000
      0.78043624	    -42.67351790	    -18.97451850	      0.00000000
      0.78206215	    -43.55809777	    -19.50045090	      0.00000000
      0.78368806	    -44.45814497	    -20.04651157	      0.00000000
      0.78531397	    -45.37610079	    -20.61364250	      0.00000000
      0.78693988	    -46.31474979	    -21.20289871	      0.00000000
      0.78856579	    -47.27689976	    -21.81542012	      0.00000000
      0.79019169	    -48.26576001	    -22.45247564	      0.00000000
      0.79181760	    -49.28461337	    -23.11544422	      0.00000000
      0.79344351	    -50.33717788	    -23.80585192	      0.00000000
      0.79506942	    -51.42732243	    -24.52536812	      0.00000000
      0.79669533	    -52.55933691	    -25.27582955	      0.00000000
      0.79832124	    -53.73774079	    -26.05924070	      0.00000000
      0.79994715	    -54.96739477	    -26.87779154	      0.00000000
      0.80157306	    -56.25342257	    -27.73383558	      0.00000000
      0.80319897	    -57.60114146	    -28.62990775	      0.00000000
      0.80482487	    -59.01605063	    -29.56869823	      0.00000000
      0.80645078	    -60.50361994	    -30.55305841	      0.00000000
      0.80807669	    -62.06919975	    -31.58600876	      0.00000000
      0.80970260	    -63.71775272	    -32.67068616	      0.00000000
      0.81132851	    -65.45352459	    -33.81035223	      0.00000000
      0.81295442	    -67.27982314	    -35.00825203	      0.00000000
      0.81458033	    -69.19844563	    -36.26757407	      0.00000000
      0.81620624	    -71.20954721	    -37.59126878	      0.00000000
      0.81783214	    -73.31096111	    -38.98192359	      0.00000000
      0.81945805	    -75.49815088	    -40.44159692	      0.00000000
      0.82108396	    -77.76367162	    -41.97162164	      0.00000000
      0.82270987	    -80.09722543	    -43.57249974	      0.00000000
      0.82433578	    -82.48555862	    -45.24370547	      0.00000000
      0.82596169	    -84.91264528	    -46.98367516	      0.00000000
      0.82758760	    -87.36024423	    -48.78971241	      0.00000000
      0.82921351	    -89.80818790	    -50.65808805	      0.00000000
      0.83083942	    -92.23559552	    -52.58412143	      0.00000000
      0.83246532	    -94.62116676	    -54.56237244	      0.00000000
      0.83409123	    -96.94475674	    -56.58689292	      0.00000000
      0.83571714	    -99.18752277	    -58.65145442	      0.00000000
      0.83734305	   -101.33338966	    -60.74988371	      0.00000000
      0.83896896	   -103.36892093	    -62.87624535	      0.00000000
      0.84059487	   -105.28425881	    -65.02514703	      0.00000000
      0.84222078	   -107.07269967	    -67.19180573	      0.00000000
      0.84384669	   -108.73094647	    -69.37224592	      0.00000000
      0.84547259	   -110.25850948	    -71.56322595	      0.00000000
      0.84709850	   -111.65739255	    -73.76231869	      0.00000000
      0.84872441	   -112.93152066	    -75.96773557	      0.00000000
      0.85035032	   -114.08613182	    -78.17832380	      0.00000000
      0.85197623	   -115.12740279	    -80.39336389	      0.00000000
      0.85360214	   -116.06179853	    -82.61251733	      0.00000000
      0.85522805	   -116.89596567	    -84.83567494	      0.00000000
      0.85685396	   -117.63617883	    -87.06286275	      0.00000000
      0.85847987	   -118.28847464	    -89.29419236	      0.00000000
      0.86010577	   -118.85822435	    -91.52971275	      0.00000000
      0.86173168	   -119.35043153	    -93.76947333	      0.00000000
      0.86335759	   -119.76940409	    -96.01332657	      0.00000000
      0.86498350	   -120.11912984	    -98.26106760	      0.00000000
      0.86660941	   -120.40300934	   -100.51224282	      0.00000000
      0.86823532	   -120.62423152	   -102.76627878	      0.00000000
      0.86986123	   -120.78554544	   -105.02242204	      0.00000000
      0.87148714	   -120.88957316	   -107.27977185	      0.00000000
      0.87311304	   -120.93860604	   -109.53739591	      0.00000000
      0.87473895	   -120.93483733	   -111.79424892	      0.00000000
      0.87636486	   -120.88019178	   -114.04931578	      0.00000000
      0.87799077	   -120.77650974	   -116.30146671	      0.00000000
      0.87961668	   -120.62543728	   -118.54957935	      0.00000000
      0.88124259	   -120.42856182	   -120.79234246	      0.00000000
      0.88286850	   -120.18738493	   -123.02870909	      0.00000000
      0.88449441	   -119.90333146	   -125.25781960	      0.00000000
      0.88612032	   -119.57785202	   -127.47931595	      0.00000000
      0.88774622	   -119.21229852	   -129.69517846	      0.00000000
      0.88937213	   -118.80809855	   -131.90453610	      0.00000000
      0.89099804	   -118.36698056	   -134.11760767	      0.00000000
      0.89262395	   -117.89017155	   -136.33127086	      0.00000000
      0.89424986	   -118.45721627	   -139.94044748	      0.00000000
      0.89587577	   -117.95313350	   -142.10750668	      0.00000000
      0.89750168	   -117.42314669	   -144.27440558	      0.00000000
      0.89912759	   -116.86952177	   -146.43929665	      0.00000000
      0.90075350	   -116.29452085	   -148.59421046	      0.00000000
      0.90237940	   -115.70094085	   -150.73758686	      0.00000000
      0.90400531	   -115.09157237	   -152.86499417	      0.00000000
      0.90563122	   -114.46957759	   -154.97560779	      0.00000000
      0.90725713	   -113.83801889	   -157.06716587	      0.00000000
      0.90888304	   -113.20028996	   -159.13911334	      0.00000000
      0.91050895	   -112.55969450	   -161.19061304	      0.00000000
      0.91213486	   -111.91985479	   -163.22145351	      0.00000000
      0.91376077	   -111.28430361	   -165.23151438	      0.00000000
      0.91538667	   -110.65690419	   -167.22060942	      0.00000000
      0.91701258	   -110.04152580	   -169.18867645	      0.00000000
      0.91863849	   -109.44242101	   -171.13544351	      0.00000000
      0.92026440	   -108.86389397	   -173.06077738	      0.00000000
      0.92189031	   -108.31076263	   -174.96450841	      0.00000000
      0.92351622	   -107.78803168	   -176.84664455	      0.00000000
      0.92514213	   -107.30139327	   -178.70724762	      0.00000000
      0.92676804	   -106.85697221	   -180.54658084	      0.00000000
      0.92839395	   -106.46183542	   -182.36478879	      0.00000000
      0.93001985	   -106.12393350	   -184.16218920	      0.00000000
      0.93164576	   -105.85262069	   -185.93862625	      0.00000000
      0.93327167	   -105.65895103	   -187.69400039	      0.00000000
      0.93489758	   -105.55622564	   -189.42723272	      0.00000000
      0.93652349	   -105.56085950	   -191.13694395	      0.00000000
      0.93814940	   -105.69293827	   -192.82005946	      0.00000000
      0.93977531	   -105.97800874	   -194.47238803	      0.00000000
      0.94140122	   -106.44744865	   -196.08697054	      0.00000000
      0.94302712	   -107.14170264	   -197.65402865	      0.00000000
      0.94465303	   -108.10976417	   -199.15895238	      0.00000000
      0.94627894	   -109.41440547	   -200.58064870	      0.00000000
      0.94790485	   -111.12899778	   -201.88828081	      0.00000000
      0.94953076	   -113.34483213	   -203.03616198	      0.00000000
      0.95115667	   -116.16167110	   -203.95748721	      0.00000000
      0.95278258	   -119.69616852	   -204.55123634	      0.00000000
      0.95440849	   -124.05932594	   -204.67320319	      0.00000000
      0.95603440	   -129.36219354	   -204.10425569	      0.00000000
      0.95766030	   -135.66731361	   -202.54705285	      0.00000000
      0.95928621	   -142.98045512	   -199.55679226	      0.00000000
      0.96091212	   -151.16151418	   -194.57625563	      0.00000000
      0.96253803	   -159.86072155	   -186.85255690	      0.00000000
      0.96416394	   -168.48574966	   -175.49136912	      0.00000000
      0.96578985	   -176.11564932	   -159.32483926	      0.00000000
      0.96741576	   -181.61931043	   -137.30506429	      0.00000000
      0.96904167	   -183.52834072	   -108.65598252	      0.00000000
      0.97066758	   -180.70424620	    -73.53915752	      0.00000000
      0.97229348	   -172.35331995	    -34.57559493	      0.00000000
      0.97391939	   -159.19352154	      7.34604844	      0.00000000
      0.97554530	   -141.95028108	     53.60566172	      0.00000000
