moco_WoC_Solution_iter01_metabolic
nRows=601
nColumns=6
inDegrees=no
Body mass(kg)=90.0000
Distance(m)=1.0783
Total metabolic energy(J)=367.3106
Avg metabolic rate(W)=366.2452
endheader
time	met_rate_W	act_rate_W	maint_rate_W	short_rate_W	mech_rate_W
0.000000	438.021619	85.361939	96.136519	33.051987	115.476333
0.001672	442.698047	88.519772	99.437303	34.653603	112.084072
0.003343	446.743088	92.198000	103.018384	38.452531	104.973145
0.005015	435.688878	89.032604	100.117768	46.103722	92.375197
0.006686	429.943866	86.013084	97.307445	65.987013	72.612759
0.008358	426.973540	81.968253	93.311771	91.982492	51.686326
0.010029	424.227921	78.227786	89.486563	108.579499	39.899042
0.011701	427.133097	77.165906	88.470380	119.555204	33.896931
0.013372	430.640521	76.158038	87.486270	127.242182	31.699986
0.015044	432.236839	74.058614	85.268738	132.147767	32.698110
0.016715	434.354242	72.084336	83.124869	134.608274	36.464078
0.018387	436.282820	70.028340	80.878674	134.929887	42.365343
0.020058	438.249952	68.107061	78.711122	133.279065	50.065130
0.021730	439.488500	66.043688	76.447687	129.814784	59.089097
0.023401	440.269449	64.099377	74.250830	124.796243	69.025110
0.025073	440.456057	62.245261	72.258060	118.607998	79.243723
0.026744	439.715432	60.483950	70.312791	111.674199	89.141616
0.028416	437.915061	58.753130	68.509748	104.499103	98.049870
0.030087	434.779370	57.118684	66.751574	97.413395	105.393332
0.031759	429.125256	54.991428	64.524670	90.610236	110.898617
0.033430	421.911029	52.983225	62.365528	84.108071	114.356846
0.035102	411.958710	50.523322	59.687532	77.955325	115.698972
0.036773	401.435096	48.226469	57.105183	73.062569	114.951602
0.038445	394.217296	45.501043	53.832909	74.464485	112.334350
0.040116	385.960269	43.014484	50.704817	76.050441	108.111046
0.041788	379.808709	43.672243	51.585229	75.025477	101.451569
0.043459	373.844867	44.693488	52.656304	76.840718	91.585664
0.045131	371.848121	48.390191	56.322666	80.865862	78.206351
0.046802	371.399351	53.109599	60.475561	87.558071	62.198950
0.048474	352.146607	47.954325	55.641575	90.019905	50.479746
0.050145	334.311317	43.582617	51.270778	84.815794	46.598009
0.051817	322.158305	41.965695	49.726768	75.402986	46.974622
0.053488	311.265654	40.488560	48.275572	65.590736	48.479288
0.055160	302.877922	39.761438	47.724484	57.023341	49.802587
0.056832	297.055973	39.069418	47.196034	52.056898	50.726848
0.058503	293.297930	38.546564	46.826359	48.393441	51.337871
0.060175	290.107640	38.036669	46.462328	45.456610	51.784166
0.061846	287.532499	37.607095	46.173523	43.045459	52.215889
0.063518	285.276815	37.188168	45.888278	40.891357	52.720498
0.065189	283.198952	36.746270	45.569728	38.832409	53.357291
0.066861	281.328015	36.313503	45.254195	36.808364	54.146764
0.068532	279.499926	35.836681	44.885809	34.782411	55.087370
0.070204	277.778157	35.368362	44.520118	32.731326	56.166581
0.071875	276.387718	34.852219	44.095430	30.687446	57.362506
0.073547	275.194211	34.344662	43.673334	28.600032	58.652163
0.075218	273.885785	33.789581	43.196526	26.739290	60.011548
0.076890	272.564316	33.243626	42.722527	25.228174	61.415889
0.078561	271.103315	32.658096	42.207599	23.595904	62.840801
0.080233	271.228238	32.082587	41.694761	23.457830	64.263282
0.081904	271.425872	31.485315	41.162411	23.427906	65.661212
0.083576	271.612675	30.899543	40.632157	23.417532	67.014495
0.085247	271.774748	30.313895	40.102710	23.443176	68.305184
0.086919	271.886642	29.741901	39.578253	23.475718	69.518036
0.088590	271.959048	29.188678	39.066301	23.523329	70.640406
0.090262	271.964290	28.651472	38.560600	23.563075	71.661417
0.091933	271.912799	28.150358	38.072495	23.853591	72.571447
0.093605	271.831114	27.667042	37.591808	24.322662	73.361344
0.095276	272.020889	27.242579	37.152722	24.726368	74.022319
0.096948	272.067520	26.837649	36.722274	25.111113	74.546425
0.098619	272.076551	26.529399	36.380743	25.460395	74.927382
0.100291	271.935546	26.243547	36.049683	25.825970	75.160525
0.101962	271.797012	26.081675	35.837875	26.115761	75.243939
0.103634	271.628557	25.946485	35.639123	26.478269	75.177283
0.105305	271.548179	25.925074	35.547560	26.856106	74.962980
0.106977	271.326835	25.934477	35.471484	27.178203	74.604883
0.108648	271.149986	26.038525	35.483152	27.456316	74.108688
0.110320	270.916363	26.175217	35.511349	27.687759	73.481547
0.111991	270.770928	26.422264	35.657059	27.875916	72.734022
0.113663	270.517198	26.699658	35.817827	28.020271	71.878803
0.115335	270.387367	27.082535	36.097072	28.161144	70.930546
0.117006	270.661330	27.492980	36.389674	28.743985	69.904868
0.118678	270.969309	28.034432	36.838101	29.132137	68.822656
0.120349	271.243070	28.601092	37.298568	29.484936	67.704924
0.122021	271.684137	29.367513	38.013830	29.559129	66.580413
0.123692	272.167716	30.157349	38.740363	29.620230	65.477329
0.125364	272.839940	31.057033	39.592834	29.601395	64.410273
0.127035	273.603450	31.980299	40.456796	29.591672	63.390810
0.128707	274.491567	32.941153	41.354667	29.587804	62.423696
0.130378	275.471757	33.924616	42.263479	29.587559	61.511311
0.132050	276.517020	34.911717	43.169686	29.597578	60.657125
0.133721	277.659158	35.919551	44.085864	29.611130	59.863051
0.135393	278.852577	36.919527	44.995120	29.628441	59.130274
0.137064	280.150811	37.937985	45.913278	29.656823	58.459305
0.138736	281.469971	38.935535	46.818881	29.679603	57.844783
0.140407	282.878768	39.949252	47.732299	29.714705	57.281522
0.142079	284.300061	40.945053	48.638418	29.741020	56.763901
0.143750	285.787499	41.955141	49.551505	29.772455	56.286312
0.145422	287.266712	42.942547	50.447830	29.799025	55.845480
0.147093	288.776888	43.942770	51.336574	29.818342	55.438194
0.148765	290.311027	44.931514	52.212767	29.845417	55.071809
0.150436	291.894888	45.931796	53.095214	29.857696	54.752528
0.152108	293.607180	46.960291	54.012685	29.872045	54.496822
0.153779	295.409826	47.999731	54.936269	29.882981	54.318159
0.155451	297.115088	48.963280	55.784801	29.887819	54.199512
0.157122	298.942400	49.936070	56.622656	29.905492	54.191885
0.158794	300.678704	50.870407	57.447412	29.909661	54.158569
0.160465	302.453845	51.812796	58.276638	29.910237	54.155515
0.162137	304.170127	52.712396	59.069106	29.902965	54.180984
0.163808	305.918133	53.618963	59.865596	29.889945	54.233094
0.165480	307.528659	54.445408	60.582309	29.874389	54.309331
0.167151	309.162904	55.277631	61.302501	29.850180	54.407392
0.168823	310.693448	56.047213	61.969144	29.815536	54.525674
0.170495	312.247091	56.821597	62.638908	29.779742	54.662535
0.172166	313.716608	57.540996	63.264075	29.770668	54.812680
0.173838	315.200714	58.264392	63.891943	29.799822	54.971560
0.175509	316.672319	58.973135	64.518685	29.841944	55.137818
0.177181	318.155231	59.685450	65.147866	29.885837	55.310512
0.178852	319.661961	60.411026	65.807708	29.904139	55.488945
0.180524	321.199211	61.139995	66.469877	29.925897	55.672768
0.182195	322.801243	61.876682	67.151153	29.939789	55.860810
0.183867	324.439093	62.616641	67.834680	29.958498	56.051986
0.185538	326.075359	63.350019	68.517905	29.982613	56.245166
0.187210	327.716152	64.086490	69.203287	30.011443	56.439208
0.188881	329.325720	64.801385	69.871991	30.045231	56.632814
0.190553	330.973773	65.519114	70.542723	30.083336	56.824774
0.192224	332.592307	66.201581	71.182938	30.123438	57.013726
0.193896	334.223240	66.886554	71.825019	30.167198	57.198460
0.195567	335.759996	67.525632	72.425740	30.212227	57.377843
0.197239	337.294543	68.166861	73.028154	30.259641	57.550861
0.198910	338.720687	68.754542	73.581024	30.308668	57.716564
0.200582	340.143564	69.344020	74.135413	30.357022	57.874073
0.202253	341.450812	69.875743	74.635452	30.413449	58.022548
0.203925	342.752396	70.408942	75.136847	30.499702	58.161181
0.205596	343.937512	70.883886	75.582997	30.633921	58.289247
0.207268	345.114614	71.360032	76.030358	30.781078	58.406031
0.208939	346.179789	71.780584	76.425039	30.934542	58.510930
0.210611	347.234941	72.202120	76.820808	31.086194	58.603345
0.212282	348.185964	72.572786	77.168781	31.244751	58.682775
0.213954	349.125275	72.944265	77.517737	31.403194	58.748731
0.215625	349.969379	73.270479	77.824793	31.567801	58.800792
0.217297	350.800268	73.597374	78.132741	31.732183	58.838559
0.218968	351.544250	73.884479	78.404564	31.900652	58.861661
0.220640	352.273524	74.172160	78.677195	32.068340	58.869765
0.222311	352.922521	74.424778	78.918634	32.237788	58.862520
0.223983	353.555181	74.677884	79.160802	32.405646	58.839638
0.225654	354.112075	74.899622	79.375549	32.572957	58.800777
0.227326	354.650769	75.121769	79.590946	32.737578	58.745681
0.228998	355.116352	75.315311	79.781635	32.899413	58.674044
0.230669	355.561652	75.509193	79.972894	33.057145	58.585654
0.232341	355.935379	75.676607	80.141455	33.209906	58.480317
0.234012	356.286707	75.844300	80.310504	33.356899	58.357921
0.235684	356.568045	75.987471	80.458655	33.496829	58.218501
0.237355	356.825227	76.130871	80.607217	33.629245	58.062144
0.239027	357.015327	76.251919	80.736939	33.752759	57.889255
0.240698	357.180443	76.373153	80.867006	33.867232	57.700235
0.242370	357.283667	76.474636	80.980788	33.971490	57.495978
0.244041	357.362603	76.576276	81.094866	34.065776	57.277294
0.245713	357.387408	76.661124	81.195631	34.149376	57.045599
0.247384	357.390552	76.746113	81.296664	34.223016	56.802135
0.249056	357.349329	76.817293	81.387393	34.286586	56.548737
0.250727	357.291009	76.888609	81.478390	34.341339	56.287001
0.252399	357.198826	76.948667	81.561625	34.387759	56.018938
0.254070	357.094729	77.008875	81.644358	34.427544	55.746305
0.255742	356.965138	77.059547	81.719717	34.461606	55.470973
0.257413	356.830830	77.110395	81.795408	34.491851	55.194606
0.259085	356.679384	77.152341	81.865432	34.519314	54.918640
0.260756	356.528860	77.194498	81.935851	34.545767	54.644406
0.262428	356.364448	77.227231	81.999735	34.572002	54.372731
0.264099	356.204729	77.260205	82.064066	34.599297	54.104443
0.265771	356.029749	77.282154	82.119710	34.627876	53.839711
0.267442	355.860634	77.304359	82.175826	34.658246	53.578792
0.269114	355.670524	77.313220	82.220175	34.689856	53.321240
0.270785	355.484651	77.322325	82.264983	34.722336	53.066743
0.272457	355.268894	77.315555	82.294606	34.754317	52.814336
0.274128	355.053352	77.308999	82.324637	34.784640	52.563210
0.275800	354.798100	77.284497	82.336537	34.811249	52.312027
0.277471	354.537662	77.260168	82.348762	34.832466	52.059606
0.279143	354.229289	77.216953	82.341148	34.845794	51.804421
0.280814	353.909963	77.173875	82.333759	34.849451	51.545103
0.282486	353.537215	77.112309	82.306395	34.840828	51.280137
0.284158	353.147406	77.050860	82.279158	34.818472	51.008165
0.285829	352.701098	76.972729	82.233433	34.779956	50.727867
0.287501	352.231142	76.894712	82.187746	34.724539	50.438067
0.289172	351.704150	76.802890	82.126437	34.650233	50.137786
0.290844	351.148178	76.711192	82.065093	34.557241	49.826159
0.292515	350.538208	76.609146	81.991760	34.444146	49.502607
0.294187	349.896935	76.507237	81.918334	34.312171	49.166634
0.295858	349.208118	76.398497	81.836727	34.160515	48.818044
0.297530	348.488701	76.289906	81.754983	33.991330	48.456693
0.299201	347.730095	76.177614	81.668495	33.804374	48.082680
0.300873	346.943761	76.065477	81.581837	33.602515	47.696134
0.302544	346.127458	75.952301	81.493406	33.385969	47.297343
0.304216	345.287622	75.839284	81.404779	33.158034	46.886621
0.305887	344.423015	75.727217	81.312993	32.919255	46.464314
0.307559	343.535540	75.615309	81.216931	32.673026	46.030803
0.309230	342.633070	75.504987	81.122120	32.420060	45.586267
0.310902	341.716168	75.394824	81.027220	32.163445	45.130931
0.312573	340.787769	75.286079	80.933246	31.903917	44.664698
0.314245	339.847978	75.177496	80.839159	31.643922	44.187518
0.315916	338.905969	75.072990	80.749368	31.384225	43.699465
0.317588	337.955456	74.968643	80.659446	31.126736	43.200685
0.319259	337.011887	74.870968	80.577152	30.872344	42.691460
0.320931	336.062773	74.773446	80.494716	30.622483	42.172152
0.322602	335.112295	74.678038	80.413874	30.378158	41.642242
0.324274	334.156557	74.582804	80.332865	30.139740	41.101160
0.325945	333.200979	74.490368	80.254145	29.908375	40.548099
0.327617	332.239472	74.398146	80.175248	29.683822	39.982261
0.329288	331.324612	74.328010	80.123965	29.467544	39.405098
0.330960	330.409668	74.258027	80.072528	29.260452	38.818665
0.332631	329.543069	74.208233	80.046372	29.063810	38.224665
0.334303	328.679630	74.158565	80.020085	28.876124	37.624934
0.335974	327.711102	74.064460	79.931962	28.700740	37.014516
0.337646	326.753139	73.970979	79.843802	28.556053	36.385944
0.339317	326.061660	73.981685	79.924260	28.450704	35.718540
0.340989	325.412800	73.992535	79.975377	28.373284	35.042310
0.342661	324.680144	73.931945	79.926277	28.305235	34.368272
0.344332	323.939757	73.871940	79.877191	28.248846	33.684723
0.346004	323.335576	73.865415	79.898255	28.200265	32.990464
0.347675	322.848696	73.859127	79.919252	28.161692	32.288106
0.349347	322.407976	73.870574	79.961130	28.131547	31.579601
0.351018	321.965088	73.882244	80.002974	28.114239	30.867366
0.352690	321.547535	73.905262	80.056457	28.107884	30.154236
0.354361	321.137893	73.928516	80.109932	28.114794	29.442801
0.356033	320.775065	73.969608	80.183769	28.127748	28.736053
0.357704	320.424456	74.010918	80.257626	28.253370	28.037106
0.359376	320.107725	74.062694	80.341432	29.171207	27.349055
0.361047	320.063263	74.114706	80.425274	30.067309	26.674168
0.362719	320.395406	74.178583	80.520957	30.949218	26.014971
0.364390	320.730309	74.242701	80.616687	31.816929	25.373626
0.366062	321.091703	74.316738	80.721427	32.671347	24.752929
0.367733	321.458825	74.391013	80.826225	33.507474	24.155529
0.369405	321.848936	74.472819	80.936792	34.326123	23.584617
0.371076	322.245890	74.554851	81.047431	35.120787	23.043270
0.372748	322.666850	74.644106	81.156909	35.899116	22.534936
0.374419	323.094925	74.733571	81.266098	36.646540	22.063080
0.376091	323.543845	74.828780	81.379495	37.362898	21.631234
0.377762	323.998943	74.924191	81.493046	38.039859	21.242394
0.379434	324.457045	75.018246	81.601239	38.678172	20.899555
0.381105	324.921080	75.112510	81.709594	39.272258	20.604221
0.382777	325.395459	75.207933	81.816796	39.826363	20.357037
0.384448	325.876876	75.303567	81.924177	40.336594	20.158276
0.386120	326.369757	75.400083	82.030804	40.807565	20.007881
0.387791	326.871217	75.496804	82.137643	41.235260	19.906218
0.389463	327.381757	75.592922	82.242482	41.622242	19.853568
0.391134	327.901704	75.689246	82.347573	41.964822	19.850218
0.392806	328.427994	75.783890	82.449956	42.264510	19.896135
0.394477	328.963104	75.878751	82.552623	42.519879	19.990570
0.396149	329.504195	75.972276	82.653844	42.733326	20.132173
0.397821	330.053257	76.066034	82.755381	42.906039	20.319189
0.399492	330.608863	76.159152	82.857104	43.040563	20.549343
0.401164	331.172314	76.252517	82.959183	43.139844	20.820484
0.402835	331.744333	76.346387	83.063424	43.205480	21.130051
0.404507	332.324474	76.440519	83.168067	43.241521	21.475784
0.406178	332.916236	76.536613	83.276985	43.248608	21.855092
0.407850	333.516466	76.632991	83.386356	43.231418	22.265686
0.409521	334.130230	76.732274	83.501170	43.190148	22.704801
0.411193	334.752224	76.831866	83.616490	43.129256	23.170156
0.412864	335.388740	76.934205	83.736866	43.050085	23.659644
0.414536	336.034125	77.036887	83.857805	42.955758	24.171332
0.416207	336.692781	77.140251	83.980865	42.850633	24.703345
0.417879	337.360936	77.243995	84.104542	42.734503	25.253943
0.419550	338.037806	77.343814	84.224326	42.617077	25.821503
0.421222	338.724741	77.444054	84.344779	42.492349	26.404518
0.422893	339.410944	77.532229	84.451182	42.377995	27.001662
0.424565	340.108066	77.620874	84.558302	42.259392	27.611669
0.426236	340.790372	77.685703	84.637211	42.164444	28.233581
0.427908	341.485263	77.751068	84.716890	42.067405	28.866431
0.429579	342.146806	77.777748	84.750997	42.007442	29.509857
0.431251	342.822449	77.805080	84.785950	41.946108	30.163414
0.432922	343.440660	77.777096	84.756346	41.932857	30.827635
0.434594	344.072245	77.749981	84.727093	41.917573	31.502884
0.436265	344.618008	77.651713	84.612119	41.959060	32.190624
0.437937	345.175155	77.554681	84.498523	41.994599	32.892069
0.439608	345.622244	77.376013	84.289305	42.082232	33.609115
0.441280	346.080186	77.199119	84.081909	42.160436	34.343344
0.442951	346.424627	76.943470	83.779787	42.281733	35.096346
0.444623	346.781910	76.690278	83.480039	42.391953	35.869418
0.446294	347.065221	76.384844	83.115082	42.527166	36.663741
0.447966	347.365594	76.082592	82.753087	42.651878	37.480422
0.449637	347.681321	75.781137	82.394388	42.767289	38.321851
0.451309	348.019772	75.483350	82.038996	42.872100	39.190547
0.452980	348.481769	75.246599	81.777983	42.919862	40.093010
0.454652	348.973482	75.013664	81.520180	42.949873	41.036373
0.456324	349.687456	74.891676	81.449483	42.881447	42.029124
0.457995	350.441931	74.774309	81.382305	42.782877	43.083207
0.459667	351.495936	74.777214	81.523028	42.693396	44.216951
0.461338	352.802770	74.787595	81.669779	42.588584	45.451424
0.463010	355.419473	75.309187	82.539735	42.267733	46.983615
0.464681	358.615920	75.873707	83.437827	42.014992	48.957295
0.466353	361.894923	76.304315	84.058966	41.904506	51.281261
0.468024	365.498654	76.763489	84.698978	41.794435	53.881846
0.469696	370.402697	77.761904	85.973477	41.498155	56.795373
0.471367	376.048866	78.821042	87.286704	41.504870	60.048791
0.473039	382.814410	80.228734	89.041727	41.529214	63.614004
0.474710	390.091262	81.710665	90.843237	41.653400	67.470926
0.476382	398.357079	83.516894	93.118209	41.679281	71.618708
0.478053	407.862991	85.425041	95.454771	42.486761	76.062890
0.479725	418.036877	87.495480	98.012451	43.271335	80.815556
0.481396	428.831626	89.701491	100.647061	44.138969	85.893500
0.483068	439.756714	91.831577	103.179463	45.034201	91.250183
0.484739	451.198808	94.119768	105.802368	45.933322	96.865795
0.486411	462.068946	96.075911	108.080113	46.754933	102.655345
0.488082	473.171068	98.205494	110.466306	47.445919	108.515928
0.489754	482.181694	99.433682	111.970265	47.948378	114.250248
0.491425	490.798622	100.781704	113.555661	48.348876	119.494432
0.493097	496.385202	101.028197	114.156504	48.809407	123.748761
0.494768	500.745726	101.337336	114.807252	49.562013	126.398593
0.496440	500.689986	100.348560	114.047283	50.871963	126.821603
0.498111	498.595122	99.395745	113.281936	52.976273	124.414888
0.499783	489.597525	96.421916	110.024079	56.059916	118.622895
0.501454	478.285411	93.606545	106.889683	60.279718	109.003024
0.503126	468.887031	92.842985	106.385032	66.248639	95.253258
0.504797	457.137582	92.137103	105.934969	72.837439	78.170628
0.506469	428.698352	85.580076	98.033145	78.845720	57.799579
0.508140	416.581925	80.129043	90.952418	86.171203	51.321282
0.509812	413.902716	77.322447	88.542334	74.808489	64.988255
0.511484	410.982390	74.637502	86.197024	61.886816	79.608432
0.513155	416.211264	74.744672	86.051712	55.280955	90.880984
0.514827	428.506325	75.053922	86.038697	60.137417	99.210112
0.516498	436.186143	81.057653	93.000938	52.663328	101.469855
0.518170	455.515324	89.575382	101.300929	60.924615	95.709133
0.519841	446.992365	83.973558	96.092882	70.789477	88.128293
0.521513	437.400467	78.665985	91.026020	76.775835	82.922354
0.523184	431.339579	76.016833	88.456106	81.341424	77.513489
0.524856	423.734575	73.504342	85.955260	85.354467	70.907899
0.526527	411.857172	69.571240	82.108516	88.885610	63.278932
0.528199	399.373045	65.851365	78.376551	92.403984	54.728406
0.529870	385.802865	61.881790	74.052707	96.852794	45.003388
0.531542	378.711242	58.394753	70.020328	108.039194	34.245475
0.533213	368.787698	56.919443	68.528699	111.356689	23.972211
0.534885	359.290363	55.481574	67.047297	113.533789	15.218101
0.536556	355.919906	56.137422	68.583340	118.933157	4.257573
0.538228	355.782764	57.874282	71.021614	130.765762	-11.885732
0.539899	345.648463	54.854133	67.625784	141.649599	-26.486092
0.541571	336.398356	51.973280	64.267440	146.772101	-34.617027
0.543242	329.134827	49.814940	61.757455	146.314944	-36.750287
0.544914	322.386327	47.823781	59.311452	141.463014	-34.198293
0.546585	317.336234	46.765797	58.027206	134.235779	-29.688766
0.548257	312.474619	45.782224	56.794288	126.602306	-24.783578
0.549928	309.135577	45.252688	56.207635	119.691206	-20.189196
0.551600	306.036880	44.744520	55.637639	113.462932	-16.062984
0.553271	304.060244	44.576559	55.471159	108.000266	-12.315071
0.554943	302.332358	44.426614	55.314207	103.062403	-8.864309
0.556614	301.040837	44.444722	55.311056	98.352206	-5.521507
0.558286	299.954645	44.479615	55.316844	93.858749	-2.211179
0.559957	299.126107	44.572554	55.365361	89.513682	1.111767
0.561629	298.580996	44.680979	55.422333	85.410295	4.456365
0.563300	298.255935	44.830383	55.515725	81.456539	7.797448
0.564972	298.069531	44.994126	55.616572	77.643318	11.118027
0.566643	298.095483	45.195925	55.750460	74.019138	14.393724
0.568315	298.218647	45.411666	55.886990	70.538311	17.609312
0.569987	298.503555	45.665093	56.052320	67.229500	20.750605
0.571658	298.840004	45.932888	56.224316	64.037311	23.807975
0.573330	299.288879	46.240838	56.428623	60.979865	26.772700
0.575001	299.748279	46.564060	56.639949	58.011741	29.638199
0.576673	300.273758	46.930853	56.885446	55.137413	32.400084
0.578344	300.778032	47.313994	57.138994	52.326124	35.054891
0.580016	301.320065	47.745958	57.433679	49.571811	37.602053
0.581687	301.819856	48.195221	57.736970	46.858557	40.041290
0.583359	302.353737	48.705010	58.096105	44.167846	42.376913
0.585030	302.835742	49.232425	58.464077	41.499495	44.612852
0.586702	303.341063	49.824120	58.888418	38.825712	46.757782
0.588373	303.835017	50.433861	59.321955	36.197794	48.818891
0.590045	304.911454	51.161287	59.875998	33.986799	50.807654
0.591716	306.025023	51.905920	60.438840	31.844824	52.738123
0.593388	307.218588	52.810546	61.189867	29.478750	54.623407
0.595059	308.405675	53.730331	61.948545	27.110157	56.481210
0.596731	309.542978	54.690455	62.760592	24.637036	58.319007
0.598402	312.062910	55.665067	63.579914	22.516500	60.140375
0.600074	315.156349	56.603999	64.369122	22.413757	61.945850
0.601745	318.289465	57.556674	65.165213	22.328586	63.732128
0.603417	321.365890	58.473530	65.927210	22.234911	65.498949
0.605088	324.495460	59.403491	66.695825	22.152122	67.244438
0.606760	327.784574	60.320710	67.451356	22.066453	68.968501
0.608431	331.074033	61.250459	68.213293	21.989924	70.670902
0.610103	334.346927	62.182135	68.976066	21.916283	72.350803
0.611774	337.809044	63.125687	69.744959	22.032346	74.007916
0.613446	341.387385	64.074212	70.518284	22.275757	75.640670
0.615117	344.961706	65.033852	71.297366	22.520742	77.248145
0.616789	348.537994	65.996366	72.081840	22.784139	78.828719
0.618460	352.110307	66.969161	72.871707	23.055719	80.381189
0.620132	355.662734	67.941879	73.669525	23.327200	81.905438
0.621803	359.209525	68.923948	74.472420	23.607514	83.400566
0.623475	362.713995	69.896898	75.277626	23.880461	84.866740
0.625147	366.211084	70.878197	76.087594	24.161788	86.303098
0.626818	369.647736	71.835003	76.884091	24.450477	87.708425
0.628490	373.070891	72.799122	77.684938	24.745215	89.081327
0.630161	376.415120	73.723855	78.455832	25.064305	90.418997
0.631833	379.735698	74.654889	79.230565	25.385542	91.719480
0.633504	382.954257	75.534722	79.963181	25.737379	92.979404
0.635176	386.137780	76.420021	80.699200	26.086786	94.196656
0.636847	389.182076	77.262286	81.412906	26.394600	95.380451
0.638519	392.203493	78.109091	82.129921	26.699401	96.535383
0.640190	395.083237	78.929477	82.848080	26.926666	97.650210
0.641862	397.915012	79.753737	83.569192	27.145495	98.717600
0.643533	400.573629	80.420348	84.092926	27.578822	99.751290
0.645205	403.213371	81.090389	84.630102	28.005156	100.755292
0.646876	405.665828	81.764824	85.216697	28.234305	101.714293
0.648548	408.060726	82.441946	85.804977	28.448243	102.624722
0.650219	410.270871	83.027684	86.295271	28.708612	103.487383
0.651891	412.422845	83.615779	86.787853	28.959630	104.302578
0.653562	414.382783	84.130861	87.215096	29.313349	105.071688
0.655234	416.278900	84.647998	87.644415	29.685622	105.795217
0.656905	418.005516	85.109094	88.029257	30.025312	106.471599
0.658577	419.788045	85.572115	88.415975	30.350982	107.099968
0.660248	421.422195	85.972112	88.749005	30.667072	107.680824
0.661920	422.993240	86.373872	89.083747	30.970593	108.214366
0.663591	424.396170	86.717167	89.370758	31.260598	108.700224
0.665263	425.742675	87.062125	89.659318	31.538665	109.138126
0.666934	426.924848	87.349777	89.901424	31.804096	109.527774
0.668606	428.051032	87.639016	90.144914	32.058671	109.869008
0.670277	429.016937	87.873400	90.344843	32.299536	110.161796
0.671949	429.927886	88.109297	90.546002	32.530805	110.406205
0.673620	430.687051	88.294362	90.706738	32.749214	110.602683
0.675292	431.393337	88.480895	90.868560	32.959261	110.751841
0.676963	431.961604	88.622876	90.994875	33.157213	110.854904
0.678635	432.480586	88.766312	91.122151	33.347899	110.913316
0.680306	432.879681	88.872723	91.220226	33.527317	110.929140
0.681978	433.234787	88.980592	91.319154	33.700540	110.904685
0.683650	433.489616	89.058455	91.395522	33.863559	110.842565
0.685321	433.707135	89.137785	91.472645	34.021734	110.745629
0.686993	433.841783	89.192188	91.532814	34.170985	110.616518
0.688664	433.946296	89.248055	91.593642	34.317255	110.458046
0.690336	433.981341	89.282077	91.641228	34.456208	110.272447
0.692007	433.993025	89.317534	91.689381	34.594586	110.062025
0.693679	433.944950	89.332821	91.726046	34.728045	109.828405
0.695350	433.879299	89.349479	91.763184	34.863739	109.573144
0.697022	433.758978	89.345765	91.788353	34.997836	109.297197
0.698693	433.625369	89.343323	91.813901	35.137020	109.001317
0.700365	433.436374	89.317991	91.824781	35.278159	108.685817
0.702036	433.236458	89.293811	91.835956	35.426780	108.350761
0.703708	432.975468	89.242717	91.828507	35.580091	107.995983
0.705379	432.701953	89.192650	91.821280	35.740539	107.621122
0.707051	432.350829	89.111828	91.791731	35.898090	107.225812
0.708722	432.084557	89.031924	91.762355	36.161394	106.809600
0.710394	431.828095	88.919720	91.708975	36.511092	106.372248
0.712065	431.553282	88.808350	91.655742	36.856220	105.913536
0.713737	431.220028	88.667134	91.580252	37.201803	105.433650
0.715408	430.876466	88.526696	91.504901	37.540892	104.932864
0.717080	430.580675	88.363277	91.412819	37.977966	104.411967
0.718751	430.413831	88.200600	91.320875	38.559756	103.871877
0.720423	430.190565	88.024718	91.220227	39.125418	103.313997
0.722094	429.949653	87.849550	91.119715	39.689931	102.739858
0.723766	429.681897	87.671125	91.018663	40.246499	102.151316
0.725437	429.397618	87.493386	90.917738	40.798327	101.550321
0.727109	429.101357	87.319806	90.822241	41.338566	100.938897
0.728780	428.789280	87.146879	90.726855	41.869567	100.319100
0.730452	428.471911	86.981535	90.639014	42.385357	99.692816
0.732123	428.138467	86.816810	90.550666	42.889889	99.061887
0.733795	427.797910	86.659328	90.468000	43.383795	98.427805
0.735466	427.435910	86.502428	90.379711	43.878789	97.791965
0.737138	427.062628	86.349887	90.296481	44.372543	97.155325
0.738810	426.672467	86.197889	90.213297	44.859443	96.518729
0.740481	426.262241	86.046335	90.131948	45.325990	95.882598
0.742153	425.833043	85.895288	90.050634	45.771319	95.247249
0.743824	425.374602	85.740957	89.968069	46.190083	94.612678
0.745496	424.894154	85.587099	89.885527	46.584903	93.978805
0.747167	424.376449	85.427188	89.799323	46.951531	93.345391
0.748839	423.832942	85.267719	89.713127	47.291669	92.712158
0.750510	423.246034	85.100702	89.621741	47.601431	92.078859
0.752182	422.629086	84.934103	89.530347	47.881220	91.445242
0.753853	421.964345	84.759718	89.432877	48.127756	90.811284
0.755525	421.262434	84.585734	89.332518	48.340182	90.176976
0.757196	420.510659	84.404782	89.226423	48.515770	89.542717
0.758868	419.720770	84.224219	89.120293	48.652678	88.908917
0.760539	418.880264	84.038238	89.009030	48.748485	88.276539
0.762211	417.998753	83.852644	88.897698	48.800868	87.646529
0.763882	417.067313	83.663589	88.782168	48.807424	87.020475
0.765554	416.093380	83.474925	88.666543	48.766004	86.399892
0.767225	415.071638	83.284906	88.547845	48.673956	85.786960
0.768897	414.007722	83.095293	88.429037	48.530062	85.183712
0.770568	412.899821	82.906467	88.308479	48.331231	84.592782
0.772240	411.752193	82.718070	88.187810	48.077958	84.016582
0.773911	410.566600	82.532673	88.067074	47.766611	83.457955
0.775583	409.339673	82.347739	87.939876	47.400147	82.919472
0.777254	408.075540	82.168268	87.806858	46.974383	82.403831
0.778926	406.783412	81.989300	87.673760	46.495313	81.913474
0.780597	405.473857	81.818740	87.546130	45.957880	81.450567
0.782269	404.141664	81.648725	87.418484	45.368251	81.017118
0.783940	402.805531	81.490742	87.300598	44.722469	80.614499
0.785612	401.586385	81.333348	87.182767	44.161299	80.244082
0.787283	400.435026	81.192067	87.079697	43.604683	79.906465
0.788955	399.279659	81.051417	86.976753	43.010257	79.602412
0.790626	398.165530	80.930385	86.893010	42.385110	79.331995
0.792298	397.062428	80.810022	86.809463	41.736720	79.095561
0.793969	396.011922	80.710197	86.746532	41.066782	78.892688
0.795641	394.982406	80.611080	86.683861	40.384046	78.723278
0.797313	394.021875	80.529136	86.637971	39.705129	78.585750
0.798984	393.109479	80.447952	86.592408	39.043301	78.478903
0.800656	392.256974	80.377836	86.556286	38.394950	78.398746
0.802327	391.431311	80.308556	86.520569	37.749826	78.341780
0.803999	390.638515	80.246447	86.489885	37.109398	78.301664
0.805670	389.865663	80.185268	86.459689	36.477343	78.272634
0.807342	389.129857	80.133247	86.438059	35.860603	78.248548
0.809013	388.412605	80.082255	86.416977	35.262574	78.223765
0.810685	387.747329	80.047009	86.413771	34.688950	78.193807
0.812356	387.099391	80.012882	86.411147	34.141221	78.154597
0.814028	386.517607	80.000995	86.434693	33.623620	78.103500
0.815699	385.954019	79.990310	86.458848	33.137119	78.038170
0.817371	385.461314	80.003691	86.511271	32.682937	77.958494
0.819042	384.990366	80.018326	86.564330	32.262075	77.864352
0.820714	384.584183	80.052824	86.641286	31.871922	77.758066
0.822385	384.204732	80.088565	86.718888	31.513762	77.641541
0.824057	383.875231	80.135343	86.811643	31.182335	77.518246
0.825728	383.575565	80.183278	86.905026	30.879314	77.390952
0.827400	383.309729	80.233439	87.005589	30.598610	77.262847
0.829071	383.072760	80.284636	87.106719	30.341665	77.136396
0.830743	382.880076	80.340808	87.222649	30.103071	77.015309
0.832414	382.717332	80.397981	87.339095	29.884225	76.902884
0.834086	382.625635	80.469150	87.483320	29.681314	76.804252
0.835757	382.572245	80.541485	87.628132	29.496662	76.724581
0.837429	382.729226	80.680251	87.863493	29.329532	76.681445
0.839100	382.964950	80.821503	88.097946	29.185779	76.692805
0.840772	383.344086	80.992657	88.365457	29.061867	76.765489
0.842443	383.815967	81.167047	88.634523	28.958460	76.906223
0.844115	384.475373	81.373820	88.947047	28.892440	77.121713
0.845786	385.302359	81.584511	89.261552	28.907102	77.418568
0.847458	386.419557	81.852310	89.654779	28.979013	77.812872
0.849129	387.693587	82.126137	90.051190	29.085717	78.320297
0.850801	389.091237	82.390043	90.436694	29.225116	78.939738
0.852473	390.612268	82.659637	90.791033	29.402944	79.669825
0.854144	392.156410	82.878214	91.085463	29.616308	80.498561
0.855816	393.826712	83.100839	91.380752	29.864415	81.413860
0.857487	395.462088	83.260775	91.600355	30.145272	82.399786
0.859159	397.181846	83.423223	91.820082	30.453126	83.440235
0.860830	398.841997	83.529575	91.969859	30.788322	84.519373
0.862502	400.544273	83.637453	92.119343	31.141311	85.621007
0.864173	402.176350	83.702527	92.212659	31.514018	86.730890
0.865845	403.811594	83.768584	92.305512	31.894805	87.834352
0.867516	405.366718	83.804298	92.355865	32.286067	88.918917
0.869188	406.890157	83.840711	92.405732	32.675809	89.971873
0.870859	408.316682	83.854463	92.422126	33.066112	90.982229
0.872531	409.680591	83.868770	92.438107	33.445930	91.939103
0.874202	410.921116	83.861973	92.422970	33.816812	92.832649
0.875874	412.071395	83.855667	92.407587	34.169090	93.653374
0.877545	413.068777	83.826748	92.360093	34.503956	94.392577
0.879217	413.951876	83.798332	92.312609	34.813098	95.042140
0.880888	414.660782	83.747372	92.233856	35.097981	95.595179
0.882560	415.237228	83.697030	92.155418	35.351663	96.045781
0.884231	415.622432	83.622997	92.044570	35.577182	96.389270
0.885903	415.863085	83.549769	91.934383	35.767698	96.621705
0.887574	415.899603	83.451084	91.784550	35.933206	96.740137
0.889246	415.783110	83.353445	91.630302	36.066049	96.741658
0.890917	415.470811	83.236955	91.448887	36.167320	96.625044
0.892589	415.001838	83.121790	91.268994	36.228173	96.389426
0.894260	414.373876	83.004393	91.081690	36.256264	96.037307
0.895932	413.597884	82.888566	90.896054	36.245562	95.572812
0.897603	412.657265	82.759805	90.691168	36.210683	95.000160
0.899275	411.573078	82.632766	90.488359	36.135983	94.320051
0.900946	410.344263	82.499585	90.274563	36.038309	93.535558
0.902618	408.970772	82.368189	90.063217	35.894776	92.648093
0.904289	407.771489	82.376832	90.000778	35.703953	91.693058
0.905961	406.321747	82.388253	89.832844	35.438640	90.664824
0.907632	404.635889	82.301700	89.667867	35.183480	89.485556
0.909304	403.013423	82.216517	89.504607	34.947166	88.347798
0.910976	401.433004	82.145408	89.354232	34.709811	87.226152
0.912647	399.860516	82.075535	89.205080	34.472492	86.109992
0.914319	398.381749	82.051292	89.102039	34.228617	85.002698
0.915990	397.244958	82.028083	88.999355	34.299805	83.920293
0.917662	396.242779	82.033231	88.930154	34.395267	82.886681
0.919333	395.305009	82.039032	88.860819	34.485960	81.921801
0.921005	394.450035	82.063515	88.814956	34.533387	81.040838
0.922676	393.694754	82.088461	88.768614	34.584880	80.255525
0.924348	393.033976	82.119889	88.732005	34.614666	79.570212
0.926019	392.481467	82.151721	88.694707	34.651923	78.985994
0.927691	392.014997	82.181067	88.655697	34.682228	78.498974
0.929362	391.646727	82.210806	88.612260	34.722971	78.103764
0.931034	391.336817	82.226870	88.554988	34.766058	77.792085
0.932705	391.104738	82.243306	88.496935	34.812856	77.554944
0.934377	390.890411	82.232699	88.409419	34.869646	77.382056
0.936048	390.728319	82.222425	88.321162	34.925377	77.262871
0.937720	390.547686	82.176272	88.193489	34.994446	77.187075
0.939391	390.393417	82.130434	88.065226	35.056640	77.144783
0.941063	390.200565	82.048341	87.898904	35.129516	77.127512
0.942734	390.011841	81.966589	87.732247	35.189041	77.127695
0.944406	389.783951	81.857149	87.540955	35.249850	77.139735
0.946077	389.543365	81.748089	87.349671	35.290247	77.159085
0.947749	389.278824	81.626738	87.155572	35.316723	77.183521
0.949420	388.991292	81.505797	86.961885	35.315506	77.211814
0.951092	388.700704	81.389228	86.788044	35.281530	77.245649
0.952763	388.385521	81.273132	86.615102	35.213685	77.287363
0.954435	388.083198	81.173557	86.478151	35.091062	77.344297
0.956106	387.767394	81.074667	86.342737	34.931107	77.422849
0.957778	387.475130	81.001073	86.254027	34.683962	77.540230
0.959449	387.205997	80.928774	86.167753	34.401437	77.712397
0.961121	386.986314	80.893413	86.141820	33.987372	77.968342
0.962792	386.859288	80.861035	86.119823	33.549802	78.333585
0.964464	386.812291	80.859791	86.152233	32.973293	78.832356
0.966136	386.923588	80.864468	86.190737	32.388724	79.485844
0.967807	387.106618	80.868209	86.247948	31.696459	80.301880
0.969479	387.470744	80.880656	86.313211	31.001644	81.286902
0.971150	387.833476	80.859814	86.357385	30.195255	82.438754
0.972822	389.074861	80.849749	86.411027	30.077999	83.754584
0.974493	390.415003	80.795382	86.426601	29.952639	85.234806
0.976165	391.993183	80.754580	86.453514	29.851230	86.876843
0.977836	393.560867	80.658252	86.440607	29.664201	88.680664
0.979508	395.342208	80.580578	86.442664	29.503848	90.638486
0.981179	396.936782	80.408266	86.395367	29.167959	92.727564
0.982851	399.103843	80.262091	86.368378	29.252014	94.919411
0.984522	401.243551	79.990979	86.280910	29.479223	97.166488
0.986194	403.496597	79.755720	86.219859	29.808540	99.434737
0.987865	405.405445	79.351410	86.055782	30.093005	101.685757
0.989537	407.394169	78.996329	85.925617	30.402211	103.908733
0.991208	408.684230	78.281733	85.514961	30.699656	106.088222
0.992880	410.060220	77.649071	85.154147	30.997804	108.217621
0.994551	410.839575	76.726723	84.566057	31.267931	110.277175
0.996223	412.120699	75.897126	84.030528	31.897000	112.307237
0.997894	416.652698	76.532682	85.234888	32.639093	114.232688
0.999566	420.912969	77.344512	86.539293	33.149834	115.766372
1.001237	430.938061	81.765553	91.935804	32.607893	116.418051
1.002909	440.823527	86.829550	97.692567	32.830167	115.476333
