PointAcceleration
version=1
nRows=601
nColumns=4
inDegrees=no
No description.
endheader
time	state_0	state_1	state_2
      0.00000000	    -11.45873822	    -26.22686934	      0.00000000
      0.00188376	    -12.84019289	    -27.56082392	      0.00000000
      0.00376753	    -14.43838991	    -28.87805736	      0.00000000
      0.00565129	    -16.30809952	    -30.13275795	      0.00000000
      0.00753506	    -18.53675522	    -31.30900362	      0.00000000
      0.00941882	    -21.26561991	    -32.47781329	      0.00000000
      0.01130259	    -24.71727136	    -33.86981923	      0.00000000
      0.01318635	    -29.22190471	    -35.87198179	      0.00000000
      0.01507012	    -35.27526631	    -38.46860469	      0.00000000
      0.01695388	    -43.62034084	    -40.17702605	      0.00000000
      0.01883765	    -54.93732436	    -36.59107262	      0.00000000
      0.02072141	    -69.02335718	    -23.87890061	      0.00000000
      0.02260518	    -83.56874178	     -2.30510611	      0.00000000
      0.02448894	    -96.38789642	     21.62080961	      0.00000000
      0.02637271	    -53.38508469	     82.91618756	      0.00000000
      0.02825647	    -16.12878541	     96.53771298	      0.00000000
      0.03014024	    -13.52113944	     58.92686396	      0.00000000
      0.03202400	     -7.25979239	     32.97411582	      0.00000000
      0.03390777	     -2.54677566	     16.67545145	      0.00000000
      0.03579153	     -0.64625500	      6.09779907	      0.00000000
      0.03767530	      1.03743988	      1.60684815	      0.00000000
      0.03955906	      1.19690916	     -0.15389368	      0.00000000
      0.04144283	      1.45509327	      0.08329589	      0.00000000
      0.04332659	      1.18468558	      1.03766141	      0.00000000
      0.04521036	      1.03268078	      2.17539757	      0.00000000
      0.04709412	      0.76759287	      3.18437752	      0.00000000
      0.04897789	      0.59015485	      3.94182973	      0.00000000
      0.05086165	      0.42564093	      4.41939127	      0.00000000
      0.05274542	      0.33296825	      4.68205214	      0.00000000
      0.05462918	      0.26099059	      4.70086390	      0.00000000
      0.05651295	      0.19368010	      4.54322192	      0.00000000
      0.05839671	      0.13170427	      4.25518296	      0.00000000
      0.06028048	      0.08958610	      3.92758951	      0.00000000
      0.06216424	      0.07731280	      3.59360479	      0.00000000
      0.06404801	      0.09631598	      3.31833848	      0.00000000
      0.06593177	      0.14079211	      3.09427224	      0.00000000
      0.06781553	      0.19160127	      2.91228040	      0.00000000
      0.06969930	      0.24516389	      2.75334201	      0.00000000
      0.07158306	      0.28979680	      2.59949039	      0.00000000
      0.07346683	      0.32706538	      2.44553889	      0.00000000
      0.07535059	      0.35458620	      2.28725032	      0.00000000
      0.07723436	      0.37724584	      2.13231460	      0.00000000
      0.07911812	      0.39683453	      1.98692556	      0.00000000
      0.08100189	      0.41588833	      1.85703552	      0.00000000
      0.08288565	      0.43574325	      1.74774429	      0.00000000
      0.08476942	      0.45677825	      1.65982702	      0.00000000
      0.08665318	      0.47901959	      1.59456800	      0.00000000
      0.08853695	      0.50177188	      1.54932798	      0.00000000
      0.09042071	      0.52428124	      1.52261739	      0.00000000
      0.09230448	      0.54569505	      1.50985074	      0.00000000
      0.09418824	      0.56502095	      1.50748401	      0.00000000
      0.09607201	      0.58211154	      1.51028038	      0.00000000
      0.09795577	      0.59486642	      1.51190711	      0.00000000
      0.09983954	      0.60424926	      1.50791375	      0.00000000
      0.10172330	      0.61192169	      1.50425062	      0.00000000
      0.10360707	      0.61920645	      1.49302092	      0.00000000
      0.10549083	      0.61895965	      1.46133880	      0.00000000
      0.10737460	      0.61629110	      1.41939105	      0.00000000
      0.10925836	      0.61463627	      1.37311202	      0.00000000
      0.11114213	      0.60973585	      1.31798138	      0.00000000
      0.11302589	      0.60236710	      1.25582815	      0.00000000
      0.11490966	      0.59351804	      1.18979780	      0.00000000
      0.11679342	      0.58413429	      1.12323167	      0.00000000
      0.11867719	      0.57428537	      1.05823611	      0.00000000
      0.12056095	      0.56378347	      0.99622288	      0.00000000
      0.12244472	      0.55226550	      0.93802671	      0.00000000
      0.12432848	      0.53913051	      0.88387342	      0.00000000
      0.12621225	      0.52494588	      0.83589226	      0.00000000
      0.12809601	      0.51026202	      0.79608607	      0.00000000
      0.12997978	      0.49548145	      0.76649851	      0.00000000
      0.13186354	      0.48095875	      0.74863812	      0.00000000
      0.13374730	      0.46672448	      0.74344778	      0.00000000
      0.13563107	      0.45271404	      0.75120636	      0.00000000
      0.13751483	      0.43908582	      0.77240923	      0.00000000
      0.13939860	      0.42591940	      0.80699406	      0.00000000
      0.14128236	      0.41350984	      0.85523172	      0.00000000
      0.14316613	      0.40209145	      0.91684951	      0.00000000
      0.14504989	      0.39178339	      0.99146090	      0.00000000
      0.14693366	      0.38261188	      1.07806485	      0.00000000
      0.14881742	      0.37460172	      1.17575675	      0.00000000
      0.15070119	      0.36768487	      1.28310245	      0.00000000
      0.15258495	      0.36190946	      1.39906191	      0.00000000
      0.15446872	      0.35725398	      1.52220099	      0.00000000
      0.15635248	      0.35375594	      1.65148389	      0.00000000
      0.15823625	      0.35140837	      1.78560594	      0.00000000
      0.16012001	      0.35020832	      1.92357198	      0.00000000
      0.16200378	      0.35013865	      2.06425946	      0.00000000
      0.16388754	      0.35117132	      2.20675574	      0.00000000
      0.16577131	      0.35329545	      2.35016448	      0.00000000
      0.16765507	      0.35646066	      2.49364188	      0.00000000
      0.16953884	      0.36065697	      2.63647274	      0.00000000
      0.17142260	      0.36577452	      2.77779420	      0.00000000
      0.17330637	      0.37174461	      2.91693070	      0.00000000
      0.17519013	      0.37838248	      3.05295063	      0.00000000
      0.17707390	      0.38553186	      3.18512269	      0.00000000
      0.17895766	      0.39298825	      3.31250530	      0.00000000
      0.18084143	      0.40056929	      3.43434682	      0.00000000
      0.18272519	      0.40811695	      3.54979860	      0.00000000
      0.18460896	      0.41549095	      3.65819333	      0.00000000
      0.18649272	      0.42259427	      3.75886331	      0.00000000
      0.18837649	      0.42934028	      3.85132454	      0.00000000
      0.19026025	      0.43567188	      3.93514223	      0.00000000
      0.19214402	      0.44153935	      4.01007606	      0.00000000
      0.19402778	      0.44690090	      4.07591669	      0.00000000
      0.19591155	      0.45172253	      4.13265023	      0.00000000
      0.19779531	      0.45595839	      4.18021212	      0.00000000
      0.19967907	      0.45956662	      4.21869464	      0.00000000
      0.20156284	      0.46250062	      4.24808185	      0.00000000
      0.20344660	      0.46471114	      4.26845739	      0.00000000
      0.20533037	      0.46615917	      4.27979728	      0.00000000
      0.20721413	      0.46679335	      4.28212092	      0.00000000
      0.20909790	      0.46660244	      4.27543512	      0.00000000
      0.21098166	      0.46556053	      4.25978307	      0.00000000
      0.21286543	      0.46368470	      4.23527856	      0.00000000
      0.21474919	      0.46098206	      4.20209242	      0.00000000
      0.21663296	      0.45747940	      4.16046070	      0.00000000
      0.21851672	      0.45319896	      4.11069350	      0.00000000
      0.22040049	      0.44816837	      4.05311325	      0.00000000
      0.22228425	      0.44241237	      3.98812400	      0.00000000
      0.22416802	      0.43596295	      3.91609342	      0.00000000
      0.22605178	      0.42884401	      3.83746448	      0.00000000
      0.22793555	      0.42109676	      3.75261927	      0.00000000
      0.22981931	      0.41274265	      3.66199411	      0.00000000
      0.23170308	      0.40383280	      3.56596425	      0.00000000
      0.23358684	      0.39438267	      3.46492697	      0.00000000
      0.23547061	      0.38445387	      3.35924374	      0.00000000
      0.23735437	      0.37405646	      3.24926197	      0.00000000
      0.23923814	      0.36326708	      3.13534405	      0.00000000
      0.24112190	      0.35210005	      3.01780721	      0.00000000
      0.24300567	      0.34064970	      2.89704876	      0.00000000
      0.24488943	      0.32894506	      2.77340258	      0.00000000
      0.24677320	      0.31709764	      2.64735315	      0.00000000
      0.24865696	      0.30516069	      2.51932422	      0.00000000
      0.25054073	      0.29326677	      2.38995421	      0.00000000
      0.25242449	      0.28151017	      2.25985036	      0.00000000
      0.25430826	      0.27004482	      2.12985170	      0.00000000
      0.25619202	      0.25901661	      2.00081826	      0.00000000
      0.25807579	      0.24858466	      1.87377694	      0.00000000
      0.25995955	      0.23893324	      1.74983690	      0.00000000
      0.26184332	      0.23019751	      1.63013427	      0.00000000
      0.26372708	      0.22256669	      1.51594177	      0.00000000
      0.26561084	      0.21612366	      1.40838560	      0.00000000
      0.26749461	      0.21102503	      1.30876344	      0.00000000
      0.26937837	      0.20728512	      1.21807090	      0.00000000
      0.27126214	      0.20500145	      1.13748556	      0.00000000
      0.27314590	      0.20412200	      1.06778711	      0.00000000
      0.27502967	      0.20468065	      1.00992610	      0.00000000
      0.27691343	      0.20657926	      0.96443676	      0.00000000
      0.27879720	      0.20980876	      0.93200086	      0.00000000
      0.28068096	      0.21425632	      0.91293541	      0.00000000
      0.28256473	      0.21991056	      0.90768348	      0.00000000
      0.28444849	      0.22667667	      0.91642129	      0.00000000
      0.28633226	      0.23459216	      0.93944929	      0.00000000
      0.28821602	      0.24360398	      0.97691015	      0.00000000
      0.29009979	      0.25384904	      1.02910810	      0.00000000
      0.29198355	      0.26532184	      1.09626280	      0.00000000
      0.29386732	      0.27829552	      1.17884675	      0.00000000
      0.29575108	      0.29279331	      1.27722855	      0.00000000
      0.29763485	      0.30922721	      1.39216768	      0.00000000
      0.29951861	      0.32760330	      1.52416774	      0.00000000
      0.30140238	      0.34843573	      1.67428568	      0.00000000
      0.30328614	      0.37166541	      1.84306021	      0.00000000
      0.30516991	      0.39783596	      2.03171765	      0.00000000
      0.30705367	      0.42676644	      2.24064675	      0.00000000
      0.30893744	      0.45894261	      2.47101255	      0.00000000
      0.31082120	      0.49404467	      2.72287204	      0.00000000
      0.31270497	      0.53247973	      2.99709695	      0.00000000
      0.31458873	      0.57374109	      3.29319717	      0.00000000
      0.31647250	      0.61818020	      3.61153870	      0.00000000
      0.31835626	      0.66462774	      3.95054145	      0.00000000
      0.32024003	      0.71285984	      4.30951946	      0.00000000
      0.32212379	      0.76062753	      4.68557370	      0.00000000
      0.32400756	      0.80627035	      5.07658462	      0.00000000
      0.32589132	      0.84993028	      5.48181078	      0.00000000
      0.32777509	      0.89171660	      5.90111379	      0.00000000
      0.32965885	      0.93326534	      6.33225864	      0.00000000
      0.33154261	      0.97403361	      6.77325830	      0.00000000
      0.33342638	      1.01474866	      7.22256580	      0.00000000
      0.33531014	      1.05540727	      7.67734218	      0.00000000
      0.33719391	      1.09603801	      8.13566722	      0.00000000
      0.33907767	      1.13648752	      8.59503046	      0.00000000
      0.34096144	      1.17647038	      9.05458173	      0.00000000
      0.34284520	      1.21376357	      9.51252314	      0.00000000
      0.34472897	      1.24752679	      9.97200692	      0.00000000
      0.34661273	      1.27287488	     10.43593010	      0.00000000
      0.34849650	      1.28789016	     10.91175781	      0.00000000
      0.35038026	      1.29263546	     11.40212048	      0.00000000
      0.35226403	      1.29801135	     11.90354174	      0.00000000
      0.35414779	      1.30284129	     12.41524978	      0.00000000
      0.35603156	      1.29274625	     12.95634327	      0.00000000
      0.35791532	      1.28874494	     13.53904677	      0.00000000
      0.35979909	      1.30489445	     14.11129078	      0.00000000
      0.36168285	      1.33819411	     14.62232595	      0.00000000
      0.36356662	      1.38531065	     15.06788504	      0.00000000
      0.36545038	      1.44046512	     15.45694665	      0.00000000
      0.36733415	      1.50449181	     15.79747524	      0.00000000
      0.36921791	      1.58256763	     16.09527592	      0.00000000
      0.37110168	      1.65909377	     16.33466008	      0.00000000
      0.37298544	      1.75758331	     16.52487162	      0.00000000
      0.37486921	      1.82961707	     16.62921084	      0.00000000
      0.37675297	      1.98773876	     16.58881524	      0.00000000
      0.37863674	      1.97921689	     16.58012732	      0.00000000
      0.38052050	      2.04682940	     16.62647474	      0.00000000
      0.38240427	      2.09065757	     16.58704232	      0.00000000
      0.38428803	      2.10255705	     16.48476785	      0.00000000
      0.38617180	      2.10614843	     16.34774184	      0.00000000
      0.38805556	      2.09782990	     16.18026985	      0.00000000
      0.38993933	      2.08084865	     15.99200974	      0.00000000
      0.39182309	      2.05580057	     15.79263538	      0.00000000
      0.39370686	      2.02282861	     15.59262855	      0.00000000
      0.39559062	      1.98841999	     15.40682398	      0.00000000
      0.39747438	      1.95957287	     15.24880345	      0.00000000
      0.39935815	      1.94300406	     15.12076081	      0.00000000
      0.40124191	      1.93961254	     15.02480871	      0.00000000
      0.40312568	      1.95926649	     14.96515994	      0.00000000
      0.40500944	      2.01197126	     14.94483706	      0.00000000
      0.40689321	      2.10244791	     14.95830610	      0.00000000
      0.40877697	      2.23791790	     15.00505979	      0.00000000
      0.41066074	      2.42054593	     15.07706062	      0.00000000
      0.41254450	      2.65684409	     15.17419001	      0.00000000
      0.41442827	      2.94369458	     15.28640334	      0.00000000
      0.41631203	      3.28268738	     15.41660043	      0.00000000
      0.41819580	      3.61328526	     15.52499195	      0.00000000
      0.42007956	      3.82408645	     15.55779631	      0.00000000
      0.42196333	      3.78359615	     15.44791589	      0.00000000
      0.42384709	      3.52265961	     15.22300329	      0.00000000
      0.42573086	      3.21901523	     15.01634753	      0.00000000
      0.42761462	      2.97696573	     14.88009885	      0.00000000
      0.42949839	      2.82203164	     14.81636134	      0.00000000
      0.43138215	      2.73273700	     14.79523880	      0.00000000
      0.43326592	      2.68582156	     14.78865336	      0.00000000
      0.43514968	      2.66881718	     14.78728927	      0.00000000
      0.43703345	      2.67073670	     14.78095489	      0.00000000
      0.43891721	      2.68803567	     14.77030744	      0.00000000
      0.44080098	      2.71667947	     14.75458571	      0.00000000
      0.44268474	      2.75541098	     14.73626505	      0.00000000
      0.44456851	      2.80261842	     14.71748476	      0.00000000
      0.44645227	      2.85759373	     14.70048919	      0.00000000
      0.44833604	      2.91948890	     14.68757921	      0.00000000
      0.45021980	      2.98775629	     14.68022381	      0.00000000
      0.45210357	      3.06176007	     14.67990261	      0.00000000
      0.45398733	      3.14102502	     14.68722694	      0.00000000
      0.45587110	      3.22497160	     14.70267206	      0.00000000
      0.45775486	      3.31318238	     14.72613575	      0.00000000
      0.45963863	      3.40511160	     14.75726285	      0.00000000
      0.46152239	      3.50039419	     14.79546659	      0.00000000
      0.46340615	      3.59851248	     14.83982193	      0.00000000
      0.46528992	      3.69915921	     14.88951811	      0.00000000
      0.46717368	      3.80186363	     14.94335783	      0.00000000
      0.46905745	      3.90646487	     15.00069487	      0.00000000
      0.47094121	      4.01271541	     15.06065774	      0.00000000
      0.47282498	      4.12073218	     15.12316288	      0.00000000
      0.47470874	      4.23066092	     15.18811048	      0.00000000
      0.47659251	      4.34282381	     15.25584910	      0.00000000
      0.47847627	      4.45758993	     15.32676273	      0.00000000
      0.48036004	      4.57523802	     15.40110862	      0.00000000
      0.48224380	      4.69603774	     15.47914904	      0.00000000
      0.48412757	      4.82017217	     15.56076039	      0.00000000
      0.48601133	      4.94718793	     15.64531443	      0.00000000
      0.48789510	      5.07783486	     15.73064142	      0.00000000
      0.48977886	      5.20701101	     15.81927542	      0.00000000
      0.49166263	      5.34098364	     15.91162995	      0.00000000
      0.49354639	      5.48012515	     16.00750849	      0.00000000
      0.49543016	      5.62407883	     16.10672611	      0.00000000
      0.49731392	      5.77340565	     16.20963123	      0.00000000
      0.49919769	      5.92833468	     16.31644268	      0.00000000
      0.50108145	      6.08932279	     16.42753605	      0.00000000
      0.50296522	      6.25660260	     16.54304756	      0.00000000
      0.50484898	      6.43053044	     16.66323069	      0.00000000
      0.50673275	      6.61124882	     16.78805009	      0.00000000
      0.50861651	      6.79898853	     16.91756147	      0.00000000
      0.51050028	      6.99380765	     17.05156352	      0.00000000
      0.51238404	      7.19582699	     17.18991312	      0.00000000
      0.51426781	      7.40502462	     17.33227427	      0.00000000
      0.51615157	      7.62141331	     17.47834265	      0.00000000
      0.51803534	      7.84487528	     17.62766798	      0.00000000
      0.51991910	      8.07530233	     17.77981084	      0.00000000
      0.52180287	      8.31245794	     17.93419781	      0.00000000
      0.52368663	      8.55609331	     18.09024728	      0.00000000
      0.52557040	      8.80583150	     18.24723734	      0.00000000
      0.52745416	      9.06126194	     18.40442191	      0.00000000
      0.52933792	      9.32184925	     18.56090369	      0.00000000
      0.53122169	      9.58700268	     18.71574496	      0.00000000
      0.53310545	      9.85600750	     18.86785361	      0.00000000
      0.53498922	     10.12807340	     19.01608383	      0.00000000
      0.53687298	     10.40227512	     19.15911775	      0.00000000
      0.53875675	     10.67759125	     19.29556808	      0.00000000
      0.54064051	     10.95283910	     19.42384768	      0.00000000
      0.54252428	     11.22671638	     19.54228099	      0.00000000
      0.54440804	     11.49772592	     19.64896471	      0.00000000
      0.54629181	     11.76421885	     19.74187850	      0.00000000
      0.54817557	     12.02434204	     19.81878319	      0.00000000
      0.55005934	     12.27604751	     19.87728225	      0.00000000
      0.55194310	     12.51715217	     19.91486607	      0.00000000
      0.55382687	     12.74523135	     19.92882276	      0.00000000
      0.55571063	     12.95793477	     19.91659396	      0.00000000
      0.55759440	     13.15266853	     19.87542183	      0.00000000
      0.55947816	     13.32722768	     19.80308234	      0.00000000
      0.56136193	     13.47929064	     19.69728942	      0.00000000
      0.56324569	     13.60704303	     19.55645413	      0.00000000
      0.56512946	     13.70883325	     19.37921519	      0.00000000
      0.56701322	     13.78292447	     19.16432259	      0.00000000
      0.56889699	     13.82795230	     18.91096694	      0.00000000
      0.57078075	     13.84109317	     18.61706865	      0.00000000
      0.57266452	     13.81921880	     18.28031253	      0.00000000
      0.57454828	     13.75820956	     17.89754562	      0.00000000
      0.57643205	     13.65322520	     17.46496047	      0.00000000
      0.57831581	     13.50238558	     16.98172393	      0.00000000
      0.58019958	     13.30561713	     16.44873255	      0.00000000
      0.58208334	     13.06411723	     15.86843316	      0.00000000
      0.58396711	     12.77934017	     15.24354259	      0.00000000
      0.58585087	     12.45042990	     14.57498935	      0.00000000
      0.58773464	     12.07674276	     13.86388147	      0.00000000
      0.58961840	     11.65585141	     13.10987678	      0.00000000
      0.59150217	     11.18611733	     12.31328117	      0.00000000
      0.59338593	     10.66667960	     11.47515241	      0.00000000
      0.59526969	     10.09756373	     10.59723555	      0.00000000
      0.59715346	      9.48127527	      9.68350569	      0.00000000
      0.59903722	      8.82149888	      8.73883293	      0.00000000
      0.60092099	      8.12340678	      7.76951331	      0.00000000
      0.60280475	      7.39305327	      6.78248506	      0.00000000
      0.60468852	      6.63598749	      5.78425625	      0.00000000
      0.60657228	      5.85893801	      4.78213291	      0.00000000
      0.60845605	      5.06623687	      3.78140112	      0.00000000
      0.61033981	      4.26353415	      2.78820396	      0.00000000
      0.61222358	      3.45318145	      1.80581052	      0.00000000
      0.61410734	      2.63882119	      0.83826108	      0.00000000
      0.61599111	      1.82178254	     -0.11257782	      0.00000000
      0.61787487	      1.00478969	     -1.04403154	      0.00000000
      0.61975864	      0.19033624	     -1.95398067	      0.00000000
      0.62164240	     -0.61793508	     -2.83969351	      0.00000000
      0.62352617	     -1.41531560	     -3.69795426	      0.00000000
      0.62540993	     -2.19676966	     -4.52552772	      0.00000000
      0.62729370	     -2.95637745	     -5.31876382	      0.00000000
      0.62917746	     -3.68913015	     -6.07488395	      0.00000000
      0.63106123	     -4.38947488	     -6.79088482	      0.00000000
      0.63294499	     -5.05358293	     -7.46524712	      0.00000000
      0.63482876	     -5.67692090	     -8.09603839	      0.00000000
      0.63671252	     -6.25689836	     -8.68304122	      0.00000000
      0.63859629	     -6.79026484	     -9.22558430	      0.00000000
      0.64048005	     -7.27489196	     -9.72422565	      0.00000000
      0.64236382	     -7.70925036	    -10.17985307	      0.00000000
      0.64424758	     -8.08849973	    -10.59116597	      0.00000000
      0.64613135	     -8.24081676	    -10.88924011	      0.00000000
      0.64801511	     -7.97117260	    -11.00169727	      0.00000000
      0.64989888	     -7.71262993	    -11.11650870	      0.00000000
      0.65178264	     -7.46425856	    -11.23195532	      0.00000000
      0.65366641	     -7.22547685	    -11.34545997	      0.00000000
      0.65555017	     -6.99628877	    -11.45568235	      0.00000000
      0.65743394	     -6.77698940	    -11.56164084	      0.00000000
      0.65931770	     -6.56838063	    -11.66249469	      0.00000000
      0.66120146	     -6.37132273	    -11.75798381	      0.00000000
      0.66308523	     -6.18675000	    -11.84787556	      0.00000000
      0.66496899	     -6.01546886	    -11.93228442	      0.00000000
      0.66685276	     -5.85807593	    -12.01127002	      0.00000000
      0.66873652	     -5.71487527	    -12.08514134	      0.00000000
      0.67062029	     -5.58586789	    -12.15413555	      0.00000000
      0.67250405	     -5.47081372	    -12.21862399	      0.00000000
      0.67438782	     -5.36923266	    -12.27890107	      0.00000000
      0.67627158	     -5.28052187	    -12.33533083	      0.00000000
      0.67815535	     -5.20394720	    -12.38820596	      0.00000000
      0.68003911	     -5.13876028	    -12.43785786	      0.00000000
      0.68192288	     -5.08417268	    -12.48455906	      0.00000000
      0.68380664	     -5.03945299	    -12.52860850	      0.00000000
      0.68569041	     -5.00388641	    -12.57025941	      0.00000000
      0.68757417	     -4.97685121	    -12.60978663	      0.00000000
      0.68945794	     -4.95777081	    -12.64743142	      0.00000000
      0.69134170	     -4.94617178	    -12.68345123	      0.00000000
      0.69322547	     -4.94163711	    -12.71808018	      0.00000000
      0.69510923	     -4.94384242	    -12.75155690	      0.00000000
      0.69699300	     -4.95252168	    -12.78410506	      0.00000000
      0.69887676	     -4.96747488	    -12.81593533	      0.00000000
      0.70076053	     -4.98855778	    -12.84725057	      0.00000000
      0.70264429	     -5.01565722	    -12.87822311	      0.00000000
      0.70452806	     -5.04871251	    -12.90902456	      0.00000000
      0.70641182	     -5.08765809	    -12.93978303	      0.00000000
      0.70829559	     -5.13247638	    -12.97063177	      0.00000000
      0.71017935	     -5.18311402	    -13.00165496	      0.00000000
      0.71206312	     -5.23956008	    -13.03294675	      0.00000000
      0.71394688	     -5.30174783	    -13.06455572	      0.00000000
      0.71583065	     -5.36964766	    -13.09654497	      0.00000000
      0.71771441	     -5.44316564	    -13.12894232	      0.00000000
      0.71959818	     -5.52223787	    -13.16179314	      0.00000000
      0.72148194	     -5.60673722	    -13.19512169	      0.00000000
      0.72336571	     -5.69655933	    -13.22897207	      0.00000000
      0.72524947	     -5.79154501	    -13.26338239	      0.00000000
      0.72713323	     -5.89155014	    -13.29841174	      0.00000000
      0.72901700	     -5.99638747	    -13.33412630	      0.00000000
      0.73090076	     -6.10587709	    -13.37061309	      0.00000000
      0.73278453	     -6.21980759	    -13.40797547	      0.00000000
      0.73466829	     -6.33796757	    -13.44633632	      0.00000000
      0.73655206	     -6.46012361	    -13.48583969	      0.00000000
      0.73843582	     -6.58603568	    -13.52664681	      0.00000000
      0.74031959	     -6.71544825	    -13.56894089	      0.00000000
      0.74220335	     -6.84809369	    -13.61291908	      0.00000000
      0.74408712	     -6.98369297	    -13.65879833	      0.00000000
      0.74597088	     -7.12195090	    -13.70680566	      0.00000000
      0.74785465	     -7.26256355	    -13.75718358	      0.00000000
      0.74973841	     -7.40520816	    -13.81018037	      0.00000000
      0.75162218	     -7.54955538	    -13.86605427	      0.00000000
      0.75350594	     -7.69525585	    -13.92506470	      0.00000000
      0.75538971	     -7.84195612	    -13.98747494	      0.00000000
      0.75727347	     -7.98928288	    -14.05354484	      0.00000000
      0.75915724	     -8.13686210	    -14.12353175	      0.00000000
      0.76104100	     -8.28430131	    -14.19768504	      0.00000000
      0.76292477	     -8.43121150	    -14.27624552	      0.00000000
      0.76480853	     -8.57718763	    -14.35944159	      0.00000000
      0.76669230	     -8.72183304	    -14.44748753	      0.00000000
      0.76857606	     -8.86473805	    -14.54058110	      0.00000000
      0.77045983	     -9.00550657	    -14.63890091	      0.00000000
      0.77234359	     -9.14373271	    -14.74260531	      0.00000000
      0.77422736	     -9.27902922	    -14.85182905	      0.00000000
      0.77611112	     -9.41100207	    -14.96668318	      0.00000000
      0.77799489	     -9.53928025	    -15.08725122	      0.00000000
      0.77987865	     -9.66348854	    -15.21358989	      0.00000000
      0.78176242	     -9.78327818	    -15.34572478	      0.00000000
      0.78364618	     -9.89829817	    -15.48365202	      0.00000000
      0.78552995	    -10.00822637	    -15.62733334	      0.00000000
      0.78741371	    -10.11273985	    -15.77669873	      0.00000000
      0.78929748	    -10.21154605	    -15.93164097	      0.00000000
      0.79118124	    -10.30435262	    -16.09201929	      0.00000000
      0.79306500	    -10.39089848	    -16.25765347	      0.00000000
      0.79494877	    -10.47092361	    -16.42832863	      0.00000000
      0.79683253	    -10.54419990	    -16.60378894	      0.00000000
      0.79871630	    -10.61050118	    -16.78374360	      0.00000000
      0.80060006	    -10.66963377	    -16.96786046	      0.00000000
      0.80248383	    -10.72140718	    -17.15577311	      0.00000000
      0.80436759	    -10.76566405	    -17.34707463	      0.00000000
      0.80625136	    -10.80225188	    -17.54132568	      0.00000000
      0.80813512	    -10.83105203	    -17.73804870	      0.00000000
      0.81001889	    -10.85195289	    -17.93673680	      0.00000000
      0.81190265	    -10.86487734	    -18.13684863	      0.00000000
      0.81378642	    -10.86975796	    -18.33781768	      0.00000000
      0.81567018	    -10.86656372	    -18.53904726	      0.00000000
      0.81755395	    -10.85530856	    -18.73990147	      0.00000000
      0.81943771	    -10.83602003	    -18.93973643	      0.00000000
      0.82132148	    -10.80872595	    -19.13790470	      0.00000000
      0.82320524	    -10.77348990	    -19.33374181	      0.00000000
      0.82508901	    -10.73039158	    -19.52657834	      0.00000000
      0.82697277	    -10.67954733	    -19.71573468	      0.00000000
      0.82885654	    -10.62109055	    -19.90053464	      0.00000000
      0.83074030	    -10.55519257	    -20.08029931	      0.00000000
      0.83262407	    -10.48204180	    -20.25436209	      0.00000000
      0.83450783	    -10.40186674	    -20.42206185	      0.00000000
      0.83639160	    -10.31491194	    -20.58275943	      0.00000000
      0.83827536	    -10.22146523	    -20.73583062	      0.00000000
      0.84015913	    -10.12182852	    -20.88068393	      0.00000000
      0.84204289	    -10.01635047	    -21.01675424	      0.00000000
      0.84392666	     -9.90539135	    -21.14352150	      0.00000000
      0.84581042	     -9.78936025	    -21.26050595	      0.00000000
      0.84769419	     -9.66867512	    -21.36728680	      0.00000000
      0.84957795	     -9.54380080	    -21.46349954	      0.00000000
      0.85146172	     -9.41520795	    -21.54885307	      0.00000000
      0.85334548	     -9.28340567	    -21.62312777	      0.00000000
      0.85522925	     -9.14890475	    -21.68618969	      0.00000000
      0.85711301	     -9.01223812	    -21.73798521	      0.00000000
      0.85899677	     -8.87393446	    -21.77855178	      0.00000000
      0.86088054	     -8.73452116	    -21.80800345	      0.00000000
      0.86276430	     -8.59451344	    -21.82654007	      0.00000000
      0.86464807	     -8.45439853	    -21.83441941	      0.00000000
      0.86653183	     -8.31464306	    -21.83196978	      0.00000000
      0.86841560	     -8.17566186	    -21.81954922	      0.00000000
      0.87029936	     -8.03784312	    -21.79756713	      0.00000000
      0.87218313	     -7.90148729	    -21.76644227	      0.00000000
      0.87406689	     -7.76685762	    -21.72663099	      0.00000000
      0.87595066	     -7.63418526	    -21.67856043	      0.00000000
      0.87783442	     -7.50367711	    -21.62268354	      0.00000000
      0.87971819	     -7.37547512	    -21.55943080	      0.00000000
      0.88160195	     -7.24970283	    -21.48925406	      0.00000000
      0.88348572	     -7.12642978	    -21.41258227	      0.00000000
      0.88536948	     -7.00571462	    -21.32986364	      0.00000000
      0.88725325	     -6.88757449	    -21.24152587	      0.00000000
      0.88913701	     -6.77202366	    -21.14801420	      0.00000000
      0.89102078	     -6.65904826	    -21.04975703	      0.00000000
      0.89290454	     -6.54864011	    -20.94719851	      0.00000000
      0.89478831	     -6.44077787	    -20.84077190	      0.00000000
      0.89667207	     -6.33545465	    -20.73092494	      0.00000000
      0.89855584	     -6.23266653	    -20.61810348	      0.00000000
      0.90043960	     -6.13243179	    -20.50276758	      0.00000000
      0.90232337	     -6.03478627	    -20.38538607	      0.00000000
      0.90420713	     -5.93979334	    -20.26644222	      0.00000000
      0.90609090	     -5.84754349	    -20.14643707	      0.00000000
      0.90797466	     -5.75815605	    -20.02588534	      0.00000000
      0.90985843	     -5.67177964	    -19.90532339	      0.00000000
      0.91174219	     -5.58858753	    -19.78529732	      0.00000000
      0.91362596	     -5.50877574	    -19.66637066	      0.00000000
      0.91550972	     -5.43255462	    -19.54910772	      0.00000000
      0.91739349	     -5.36014201	    -19.43407571	      0.00000000
      0.91927725	     -5.29175370	    -19.32182725	      0.00000000
      0.92116102	     -5.22759115	    -19.21289274	      0.00000000
      0.92304478	     -5.16783240	    -19.10776422	      0.00000000
      0.92492854	     -5.11261864	    -19.00688388	      0.00000000
      0.92681231	     -5.06204436	    -18.91062570	      0.00000000
      0.92869607	     -5.01740141	    -18.81903108	      0.00000000
      0.93057984	     -4.97673207	    -18.73278748	      0.00000000
      0.93246360	     -4.94062222	    -18.65190274	      0.00000000
      0.93434737	     -4.90891766	    -18.57644735	      0.00000000
      0.93623113	     -4.88138570	    -18.50638154	      0.00000000
      0.93811490	     -4.85771998	    -18.44155692	      0.00000000
      0.93999866	     -4.83755797	    -18.38171521	      0.00000000
      0.94188243	     -4.82048366	    -18.32651259	      0.00000000
      0.94376619	     -4.80601457	    -18.27553684	      0.00000000
      0.94564996	     -4.79363088	    -18.22830960	      0.00000000
      0.94753372	     -4.78279481	    -18.18430464	      0.00000000
      0.94941749	     -4.77295667	    -18.14295889	      0.00000000
      0.95130125	     -4.76357427	    -18.10368930	      0.00000000
      0.95318502	     -4.75412040	    -18.06590951	      0.00000000
      0.95506878	     -4.74409960	    -18.02904323	      0.00000000
      0.95695255	     -4.73305431	    -17.99254137	      0.00000000
      0.95883631	     -4.72057738	    -17.95589117	      0.00000000
      0.96072008	     -4.70631524	    -17.91863027	      0.00000000
      0.96260384	     -4.68997482	    -17.88035014	      0.00000000
      0.96448761	     -4.67132395	    -17.84070652	      0.00000000
      0.96637137	     -4.65019220	    -17.79941602	      0.00000000
      0.96825514	     -4.62646962	    -17.75626390	      0.00000000
      0.97013890	     -4.60008184	    -17.71109755	      0.00000000
      0.97202267	     -4.57100794	    -17.66382829	      0.00000000
      0.97390643	     -4.53929724	    -17.61441227	      0.00000000
      0.97579020	     -4.50504259	    -17.56285995	      0.00000000
      0.97767396	     -4.46836934	    -17.50922010	      0.00000000
      0.97955773	     -4.42943460	    -17.45358211	      0.00000000
      0.98144149	     -4.38841565	    -17.39606078	      0.00000000
      0.98332526	     -4.34550985	    -17.33679664	      0.00000000
      0.98520902	     -4.30092381	    -17.27594363	      0.00000000
      0.98709279	     -4.25487392	    -17.21366758	      0.00000000
      0.98897655	     -4.20757724	    -17.15013805	      0.00000000
      0.99086031	     -4.15925233	    -17.08552444	      0.00000000
      0.99274408	     -4.11011210	    -17.01999306	      0.00000000
      0.99462784	     -4.06036491	    -16.95370042	      0.00000000
      0.99651161	     -4.01020939	    -16.88679590	      0.00000000
      0.99839537	     -3.95983562	    -16.81941221	      0.00000000
      1.00027914	     -3.90942168	    -16.75167353	      0.00000000
      1.00216290	     -3.85913499	    -16.68368302	      0.00000000
      1.00404667	     -3.80913012	    -16.61553617	      0.00000000
      1.00593043	     -3.75955024	    -16.54730530	      0.00000000
      1.00781420	     -3.71052589	    -16.47905762	      0.00000000
      1.00969796	     -3.66217650	    -16.41083680	      0.00000000
      1.01158173	     -3.61460981	    -16.34268533	      0.00000000
      1.01346549	     -3.56792339	    -16.27462309	      0.00000000
      1.01534926	     -3.52220460	    -16.20667376	      0.00000000
      1.01723302	     -3.47753191	    -16.13884026	      0.00000000
      1.01911679	     -3.43397537	    -16.07113502	      0.00000000
      1.02100055	     -3.39159757	    -16.00355227	      0.00000000
      1.02288432	     -3.35045452	    -15.93610170	      0.00000000
      1.02476808	     -3.31059614	    -15.86877774	      0.00000000
      1.02665185	     -3.27206743	    -15.80159608	      0.00000000
      1.02853561	     -3.23490858	    -15.73456038	      0.00000000
      1.03041938	     -3.19915591	    -15.66770071	      0.00000000
      1.03230314	     -3.16484219	    -15.60103850	      0.00000000
      1.03418691	     -3.13199667	    -15.53462599	      0.00000000
      1.03607067	     -3.10064625	    -15.46851038	      0.00000000
      1.03795444	     -3.07081405	    -15.40277336	      0.00000000
      1.03983820	     -3.04252212	    -15.33749554	      0.00000000
      1.04172197	     -3.01578782	    -15.27279446	      0.00000000
      1.04360573	     -2.99062897	    -15.20879145	      0.00000000
      1.04548950	     -2.96705700	    -15.14564405	      0.00000000
      1.04737326	     -2.94508573	    -15.08351963	      0.00000000
      1.04925703	     -2.92471967	    -15.02261505	      0.00000000
      1.05114079	     -2.90596790	    -14.96314323	      0.00000000
      1.05302456	     -2.88882662	    -14.90533338	      0.00000000
      1.05490832	     -2.87329810	    -14.84943497	      0.00000000
      1.05679208	     -2.85937154	    -14.79570232	      0.00000000
      1.05867585	     -2.84703973	    -14.74441069	      0.00000000
      1.06055961	     -2.83630052	    -14.69584754	      0.00000000
      1.06244338	     -2.82713917	    -14.65032443	      0.00000000
      1.06432714	     -2.81961806	    -14.60819544	      0.00000000
      1.06621091	     -2.81371404	    -14.56986578	      0.00000000
      1.06809467	     -2.80988729	    -14.53576779	      0.00000000
      1.06997844	     -2.80881366	    -14.50635436	      0.00000000
      1.07186220	     -2.81085874	    -14.48211951	      0.00000000
      1.07374597	     -2.81627445	    -14.46362338	      0.00000000
      1.07562973	     -2.82522344	    -14.45151009	      0.00000000
      1.07751350	     -2.83796306	    -14.44650005	      0.00000000
      1.07939726	     -2.85475810	    -14.44941153	      0.00000000
      1.08128103	     -2.87594527	    -14.46117306	      0.00000000
      1.08316479	     -2.90195750	    -14.48281577	      0.00000000
      1.08504856	     -2.93330896	    -14.51552289	      0.00000000
      1.08693232	     -2.97067876	    -14.56058465	      0.00000000
      1.08881609	     -3.01487333	    -14.61950220	      0.00000000
      1.09069985	     -3.06685459	    -14.69389500	      0.00000000
      1.09258362	     -3.12774615	    -14.78567005	      0.00000000
      1.09446738	     -3.19885032	    -14.89687411	      0.00000000
      1.09635115	     -3.28170331	    -15.02994081	      0.00000000
      1.09823491	     -3.37808689	    -15.18747603	      0.00000000
      1.10011868	     -3.49010998	    -15.37259146	      0.00000000
      1.10200244	     -3.62022626	    -15.58862437	      0.00000000
      1.10388621	     -3.77133372	    -15.83954378	      0.00000000
      1.10576997	     -3.94680794	    -16.12964078	      0.00000000
      1.10765374	     -4.15061668	    -16.46393600	      0.00000000
      1.10953750	     -4.38737460	    -16.84793322	      0.00000000
      1.11142127	     -4.66246320	    -17.28785068	      0.00000000
      1.11330503	     -4.98211948	    -17.79061154	      0.00000000
      1.11518880	     -5.35354089	    -18.36360343	      0.00000000
      1.11707256	     -5.78503161	    -19.01502424	      0.00000000
      1.11895633	     -6.28604313	    -19.75276551	      0.00000000
      1.12084009	     -6.86736956	    -20.58496594	      0.00000000
      1.12272385	     -7.54112549	    -21.51777880	      0.00000000
      1.12460762	     -8.32102298	    -22.55501744	      0.00000000
      1.12649138	     -9.22219867	    -23.69495194	      0.00000000
      1.12837515	    -10.26191602	    -24.92695016	      0.00000000
      1.13025891	    -11.45894257	    -26.22828008	      0.00000000
