PointPosition
version=1
nRows=601
nColumns=4
inDegrees=no
No description.
endheader
time	state_0	state_1	state_2
      0.00000000	     -0.06723352	      0.85178638	      0.00000000
      0.00188376	     -0.06521897	      0.85136140	      0.00000000
      0.00376753	     -0.06319559	      0.85092905	      0.00000000
      0.00565129	     -0.06116373	      0.85048902	      0.00000000
      0.00753506	     -0.05912384	      0.85004103	      0.00000000
      0.00941882	     -0.05707637	      0.84958481	      0.00000000
      0.01130259	     -0.05502190	      0.84912017	      0.00000000
      0.01318635	     -0.05296101	      0.84864698	      0.00000000
      0.01507012	     -0.05089446	      0.84816532	      0.00000000
      0.01695388	     -0.04882303	      0.84767545	      0.00000000
      0.01883765	     -0.04674785	      0.84717823	      0.00000000
      0.02072141	     -0.04467029	      0.84667502	      0.00000000
      0.02260518	     -0.04259226	      0.84616834	      0.00000000
      0.02448894	     -0.04051618	      0.84566163	      0.00000000
      0.02637271	     -0.03844391	      0.84515801	      0.00000000
      0.02825647	     -0.03637606	      0.84465904	      0.00000000
      0.03014024	     -0.03431288	      0.84416623	      0.00000000
      0.03202400	     -0.03225522	      0.84368214	      0.00000000
      0.03390777	     -0.03020432	      0.84320976	      0.00000000
      0.03579153	     -0.02816159	      0.84275208	      0.00000000
      0.03767530	     -0.02612854	      0.84231195	      0.00000000
      0.03955906	     -0.02410668	      0.84189204	      0.00000000
      0.04144283	     -0.02209734	      0.84149455	      0.00000000
      0.04332659	     -0.02010173	      0.84112143	      0.00000000
      0.04521036	     -0.01812076	      0.84077410	      0.00000000
      0.04709412	     -0.01615521	      0.84045378	      0.00000000
      0.04897789	     -0.01420541	      0.84016122	      0.00000000
      0.05086165	     -0.01227144	      0.83989703	      0.00000000
      0.05274542	     -0.01035334	      0.83966136	      0.00000000
      0.05462918	     -0.00845139	      0.83945403	      0.00000000
      0.05651295	     -0.00656625	      0.83927415	      0.00000000
      0.05839671	     -0.00469870	      0.83912042	      0.00000000
      0.06028048	     -0.00284964	      0.83899123	      0.00000000
      0.06216424	     -0.00101984	      0.83888497	      0.00000000
      0.06404801	      0.00079036	      0.83880034	      0.00000000
      0.06593177	      0.00258093	      0.83873628	      0.00000000
      0.06781553	      0.00435220	      0.83869208	      0.00000000
      0.06969930	      0.00610465	      0.83866707	      0.00000000
      0.07158306	      0.00783888	      0.83866053	      0.00000000
      0.07346683	      0.00955549	      0.83867166	      0.00000000
      0.07535059	      0.01125505	      0.83869950	      0.00000000
      0.07723436	      0.01293814	      0.83874301	      0.00000000
      0.07911812	      0.01460532	      0.83880107	      0.00000000
      0.08100189	      0.01625714	      0.83887255	      0.00000000
      0.08288565	      0.01789417	      0.83895636	      0.00000000
      0.08476942	      0.01951698	      0.83905145	      0.00000000
      0.08665318	      0.02112614	      0.83915682	      0.00000000
      0.08853695	      0.02272221	      0.83927152	      0.00000000
      0.09042071	      0.02430573	      0.83939463	      0.00000000
      0.09230448	      0.02587723	      0.83952527	      0.00000000
      0.09418824	      0.02743720	      0.83966257	      0.00000000
      0.09607201	      0.02898612	      0.83980570	      0.00000000
      0.09795577	      0.03052442	      0.83995384	      0.00000000
      0.09983954	      0.03205253	      0.84010622	      0.00000000
      0.10172330	      0.03357084	      0.84026211	      0.00000000
      0.10360707	      0.03507976	      0.84042083	      0.00000000
      0.10549083	      0.03657961	      0.84058171	      0.00000000
      0.10737460	      0.03807076	      0.84074408	      0.00000000
      0.10925836	      0.03955350	      0.84090735	      0.00000000
      0.11114213	      0.04102815	      0.84107094	      0.00000000
      0.11302589	      0.04249498	      0.84123434	      0.00000000
      0.11490966	      0.04395427	      0.84139703	      0.00000000
      0.11679342	      0.04540629	      0.84155859	      0.00000000
      0.11867719	      0.04685131	      0.84171858	      0.00000000
      0.12056095	      0.04828957	      0.84187667	      0.00000000
      0.12244472	      0.04972133	      0.84203250	      0.00000000
      0.12432848	      0.05114684	      0.84218579	      0.00000000
      0.12621225	      0.05256633	      0.84233625	      0.00000000
      0.12809601	      0.05398005	      0.84248362	      0.00000000
      0.12997978	      0.05538824	      0.84262765	      0.00000000
      0.13186354	      0.05679114	      0.84276816	      0.00000000
      0.13374730	      0.05818900	      0.84290494	      0.00000000
      0.13563107	      0.05958204	      0.84303783	      0.00000000
      0.13751483	      0.06097051	      0.84316668	      0.00000000
      0.13939860	      0.06235464	      0.84329137	      0.00000000
      0.14128236	      0.06373468	      0.84341178	      0.00000000
      0.14316613	      0.06511085	      0.84352782	      0.00000000
      0.14504989	      0.06648339	      0.84363940	      0.00000000
      0.14693366	      0.06785252	      0.84374644	      0.00000000
      0.14881742	      0.06921847	      0.84384891	      0.00000000
      0.15070119	      0.07058145	      0.84394674	      0.00000000
      0.15258495	      0.07194168	      0.84403991	      0.00000000
      0.15446872	      0.07329937	      0.84412839	      0.00000000
      0.15635248	      0.07465473	      0.84421216	      0.00000000
      0.15823625	      0.07600795	      0.84429119	      0.00000000
      0.16012001	      0.07735925	      0.84436549	      0.00000000
      0.16200378	      0.07870880	      0.84443505	      0.00000000
      0.16388754	      0.08005681	      0.84449987	      0.00000000
      0.16577131	      0.08140345	      0.84455995	      0.00000000
      0.16765507	      0.08274892	      0.84461531	      0.00000000
      0.16953884	      0.08409340	      0.84466596	      0.00000000
      0.17142260	      0.08543706	      0.84471192	      0.00000000
      0.17330637	      0.08678008	      0.84475321	      0.00000000
      0.17519013	      0.08812264	      0.84478984	      0.00000000
      0.17707390	      0.08946488	      0.84482185	      0.00000000
      0.17895766	      0.09080699	      0.84484926	      0.00000000
      0.18084143	      0.09214912	      0.84487210	      0.00000000
      0.18272519	      0.09349144	      0.84489039	      0.00000000
      0.18460896	      0.09483409	      0.84490418	      0.00000000
      0.18649272	      0.09617724	      0.84491349	      0.00000000
      0.18837649	      0.09752103	      0.84491835	      0.00000000
      0.19026025	      0.09886562	      0.84491880	      0.00000000
      0.19214402	      0.10021115	      0.84491486	      0.00000000
      0.19402778	      0.10155775	      0.84490658	      0.00000000
      0.19591155	      0.10290558	      0.84489397	      0.00000000
      0.19779531	      0.10425476	      0.84487707	      0.00000000
      0.19967907	      0.10560544	      0.84485591	      0.00000000
      0.20156284	      0.10695773	      0.84483051	      0.00000000
      0.20344660	      0.10831179	      0.84480092	      0.00000000
      0.20533037	      0.10966775	      0.84476717	      0.00000000
      0.20721413	      0.11102576	      0.84472929	      0.00000000
      0.20909790	      0.11238595	      0.84468734	      0.00000000
      0.21098166	      0.11374849	      0.84464137	      0.00000000
      0.21286543	      0.11511352	      0.84459141	      0.00000000
      0.21474919	      0.11648120	      0.84453752	      0.00000000
      0.21663296	      0.11785169	      0.84447976	      0.00000000
      0.21851672	      0.11922514	      0.84441818	      0.00000000
      0.22040049	      0.12060172	      0.84435282	      0.00000000
      0.22228425	      0.12198158	      0.84428375	      0.00000000
      0.22416802	      0.12336489	      0.84421101	      0.00000000
      0.22605178	      0.12475180	      0.84413466	      0.00000000
      0.22793555	      0.12614249	      0.84405474	      0.00000000
      0.22981931	      0.12753712	      0.84397130	      0.00000000
      0.23170308	      0.12893585	      0.84388440	      0.00000000
      0.23358684	      0.13033884	      0.84379407	      0.00000000
      0.23547061	      0.13174626	      0.84370035	      0.00000000
      0.23735437	      0.13315828	      0.84360330	      0.00000000
      0.23923814	      0.13457506	      0.84350295	      0.00000000
      0.24112190	      0.13599678	      0.84339933	      0.00000000
      0.24300567	      0.13742360	      0.84329249	      0.00000000
      0.24488943	      0.13885568	      0.84318246	      0.00000000
      0.24677320	      0.14029320	      0.84306927	      0.00000000
      0.24865696	      0.14173633	      0.84295295	      0.00000000
      0.25054073	      0.14318524	      0.84283353	      0.00000000
      0.25242449	      0.14464008	      0.84271104	      0.00000000
      0.25430826	      0.14610105	      0.84258549	      0.00000000
      0.25619202	      0.14756829	      0.84245692	      0.00000000
      0.25807579	      0.14904199	      0.84232534	      0.00000000
      0.25995955	      0.15052232	      0.84219077	      0.00000000
      0.26184332	      0.15200942	      0.84205321	      0.00000000
      0.26372708	      0.15350349	      0.84191268	      0.00000000
      0.26561084	      0.15500467	      0.84176919	      0.00000000
      0.26749461	      0.15651313	      0.84162274	      0.00000000
      0.26937837	      0.15802902	      0.84147332	      0.00000000
      0.27126214	      0.15955251	      0.84132094	      0.00000000
      0.27314590	      0.16108375	      0.84116557	      0.00000000
      0.27502967	      0.16262288	      0.84100720	      0.00000000
      0.27691343	      0.16417005	      0.84084581	      0.00000000
      0.27879720	      0.16572542	      0.84068136	      0.00000000
      0.28068096	      0.16728911	      0.84051381	      0.00000000
      0.28256473	      0.16886129	      0.84034310	      0.00000000
      0.28444849	      0.17044209	      0.84016919	      0.00000000
      0.28633226	      0.17203166	      0.83999200	      0.00000000
      0.28821602	      0.17363014	      0.83981146	      0.00000000
      0.29009979	      0.17523768	      0.83962747	      0.00000000
      0.29198355	      0.17685443	      0.83943995	      0.00000000
      0.29386732	      0.17848054	      0.83924878	      0.00000000
      0.29575108	      0.18011617	      0.83905386	      0.00000000
      0.29763485	      0.18176149	      0.83885506	      0.00000000
      0.29951861	      0.18341665	      0.83865224	      0.00000000
      0.30140238	      0.18508184	      0.83844528	      0.00000000
      0.30328614	      0.18675724	      0.83823401	      0.00000000
      0.30516991	      0.18844302	      0.83801830	      0.00000000
      0.30705367	      0.19013939	      0.83779797	      0.00000000
      0.30893744	      0.19184655	      0.83757286	      0.00000000
      0.31082120	      0.19356471	      0.83734278	      0.00000000
      0.31270497	      0.19529407	      0.83710757	      0.00000000
      0.31458873	      0.19703487	      0.83686702	      0.00000000
      0.31647250	      0.19878734	      0.83662094	      0.00000000
      0.31835626	      0.20055172	      0.83636913	      0.00000000
      0.32024003	      0.20232826	      0.83611137	      0.00000000
      0.32212379	      0.20411725	      0.83584745	      0.00000000
      0.32400756	      0.20591903	      0.83557711	      0.00000000
      0.32589132	      0.20773399	      0.83530008	      0.00000000
      0.32777509	      0.20956258	      0.83501607	      0.00000000
      0.32965885	      0.21140526	      0.83472478	      0.00000000
      0.33154261	      0.21326249	      0.83442589	      0.00000000
      0.33342638	      0.21513475	      0.83411909	      0.00000000
      0.33531014	      0.21702254	      0.83380408	      0.00000000
      0.33719391	      0.21892633	      0.83348054	      0.00000000
      0.33907767	      0.22084663	      0.83314818	      0.00000000
      0.34096144	      0.22278392	      0.83280670	      0.00000000
      0.34284520	      0.22473873	      0.83245582	      0.00000000
      0.34472897	      0.22671156	      0.83209524	      0.00000000
      0.34661273	      0.22870281	      0.83172468	      0.00000000
      0.34849650	      0.23071276	      0.83134388	      0.00000000
      0.35038026	      0.23274125	      0.83095264	      0.00000000
      0.35226403	      0.23478792	      0.83055089	      0.00000000
      0.35414779	      0.23685211	      0.83013873	      0.00000000
      0.35603156	      0.23893299	      0.82971641	      0.00000000
      0.35791532	      0.24102866	      0.82928472	      0.00000000
      0.35979909	      0.24313655	      0.82884481	      0.00000000
      0.36168285	      0.24525415	      0.82839822	      0.00000000
      0.36356662	      0.24737960	      0.82794652	      0.00000000
      0.36545038	      0.24951211	      0.82749134	      0.00000000
      0.36733415	      0.25165126	      0.82703430	      0.00000000
      0.36921791	      0.25379707	      0.82657717	      0.00000000
      0.37110168	      0.25594959	      0.82612178	      0.00000000
      0.37298544	      0.25810896	      0.82567004	      0.00000000
      0.37486921	      0.26027496	      0.82522386	      0.00000000
      0.37675297	      0.26244866	      0.82478470	      0.00000000
      0.37863674	      0.26463187	      0.82435379	      0.00000000
      0.38052050	      0.26682323	      0.82393300	      0.00000000
      0.38240427	      0.26902004	      0.82352437	      0.00000000
      0.38428803	      0.27121963	      0.82312964	      0.00000000
      0.38617180	      0.27341935	      0.82275043	      0.00000000
      0.38805556	      0.27561670	      0.82238823	      0.00000000
      0.38993933	      0.27780937	      0.82204447	      0.00000000
      0.39182309	      0.27999548	      0.82172041	      0.00000000
      0.39370686	      0.28217344	      0.82141717	      0.00000000
      0.39559062	      0.28434219	      0.82113562	      0.00000000
      0.39747438	      0.28650086	      0.82087650	      0.00000000
      0.39935815	      0.28864892	      0.82064029	      0.00000000
      0.40124191	      0.29078593	      0.82042736	      0.00000000
      0.40312568	      0.29291164	      0.82023786	      0.00000000
      0.40500944	      0.29502580	      0.82007183	      0.00000000
      0.40689321	      0.29712823	      0.81992915	      0.00000000
      0.40877697	      0.29921873	      0.81980962	      0.00000000
      0.41066074	      0.30129713	      0.81971291	      0.00000000
      0.41254450	      0.30336325	      0.81963865	      0.00000000
      0.41442827	      0.30541691	      0.81958635	      0.00000000
      0.41631203	      0.30745797	      0.81955552	      0.00000000
      0.41819580	      0.30948629	      0.81954555	      0.00000000
      0.42007956	      0.31150175	      0.81955585	      0.00000000
      0.42196333	      0.31350435	      0.81958583	      0.00000000
      0.42384709	      0.31549414	      0.81963495	      0.00000000
      0.42573086	      0.31747130	      0.81970267	      0.00000000
      0.42761462	      0.31943601	      0.81978844	      0.00000000
      0.42949839	      0.32138850	      0.81989163	      0.00000000
      0.43138215	      0.32332899	      0.82001155	      0.00000000
      0.43326592	      0.32525772	      0.82014748	      0.00000000
      0.43514968	      0.32717495	      0.82029865	      0.00000000
      0.43703345	      0.32908092	      0.82046429	      0.00000000
      0.43891721	      0.33097592	      0.82064358	      0.00000000
      0.44080098	      0.33286022	      0.82083573	      0.00000000
      0.44268474	      0.33473412	      0.82103995	      0.00000000
      0.44456851	      0.33659789	      0.82125545	      0.00000000
      0.44645227	      0.33845186	      0.82148146	      0.00000000
      0.44833604	      0.34029630	      0.82171724	      0.00000000
      0.45021980	      0.34213153	      0.82196206	      0.00000000
      0.45210357	      0.34395784	      0.82221522	      0.00000000
      0.45398733	      0.34577554	      0.82247606	      0.00000000
      0.45587110	      0.34758491	      0.82274395	      0.00000000
      0.45775486	      0.34938625	      0.82301827	      0.00000000
      0.45963863	      0.35117982	      0.82329845	      0.00000000
      0.46152239	      0.35296590	      0.82358396	      0.00000000
      0.46340615	      0.35474474	      0.82387427	      0.00000000
      0.46528992	      0.35651657	      0.82416889	      0.00000000
      0.46717368	      0.35828163	      0.82446737	      0.00000000
      0.46905745	      0.36004012	      0.82476925	      0.00000000
      0.47094121	      0.36179224	      0.82507415	      0.00000000
      0.47282498	      0.36353818	      0.82538164	      0.00000000
      0.47470874	      0.36527810	      0.82569138	      0.00000000
      0.47659251	      0.36701217	      0.82600299	      0.00000000
      0.47847627	      0.36874054	      0.82631617	      0.00000000
      0.48036004	      0.37046334	      0.82663060	      0.00000000
      0.48224380	      0.37218071	      0.82694599	      0.00000000
      0.48412757	      0.37389278	      0.82726206	      0.00000000
      0.48601133	      0.37559965	      0.82757858	      0.00000000
      0.48789510	      0.37730143	      0.82789530	      0.00000000
      0.48977886	      0.37899823	      0.82821203	      0.00000000
      0.49166263	      0.38069015	      0.82852855	      0.00000000
      0.49354639	      0.38237726	      0.82884471	      0.00000000
      0.49543016	      0.38405965	      0.82916033	      0.00000000
      0.49731392	      0.38573738	      0.82947530	      0.00000000
      0.49919769	      0.38741053	      0.82978947	      0.00000000
      0.50108145	      0.38907914	      0.83010275	      0.00000000
      0.50296522	      0.39074328	      0.83041506	      0.00000000
      0.50484898	      0.39240297	      0.83072631	      0.00000000
      0.50673275	      0.39405826	      0.83103645	      0.00000000
      0.50861651	      0.39570918	      0.83134544	      0.00000000
      0.51050028	      0.39735573	      0.83165323	      0.00000000
      0.51238404	      0.39899792	      0.83195981	      0.00000000
      0.51426781	      0.40063576	      0.83226516	      0.00000000
      0.51615157	      0.40226923	      0.83256928	      0.00000000
      0.51803534	      0.40389830	      0.83287217	      0.00000000
      0.51991910	      0.40552295	      0.83317383	      0.00000000
      0.52180287	      0.40714311	      0.83347429	      0.00000000
      0.52368663	      0.40875875	      0.83377355	      0.00000000
      0.52557040	      0.41036981	      0.83407163	      0.00000000
      0.52745416	      0.41197620	      0.83436854	      0.00000000
      0.52933792	      0.41357786	      0.83466431	      0.00000000
      0.53122169	      0.41517471	      0.83495893	      0.00000000
      0.53310545	      0.41676665	      0.83525244	      0.00000000
      0.53498922	      0.41835361	      0.83554482	      0.00000000
      0.53687298	      0.41993548	      0.83583610	      0.00000000
      0.53875675	      0.42151217	      0.83612628	      0.00000000
      0.54064051	      0.42308359	      0.83641534	      0.00000000
      0.54252428	      0.42464961	      0.83670330	      0.00000000
      0.54440804	      0.42621015	      0.83699013	      0.00000000
      0.54629181	      0.42776509	      0.83727584	      0.00000000
      0.54817557	      0.42931433	      0.83756040	      0.00000000
      0.55005934	      0.43085775	      0.83784381	      0.00000000
      0.55194310	      0.43239524	      0.83812604	      0.00000000
      0.55382687	      0.43392670	      0.83840708	      0.00000000
      0.55571063	      0.43545202	      0.83868690	      0.00000000
      0.55759440	      0.43697108	      0.83896549	      0.00000000
      0.55947816	      0.43848377	      0.83924282	      0.00000000
      0.56136193	      0.43998998	      0.83951887	      0.00000000
      0.56324569	      0.44148961	      0.83979362	      0.00000000
      0.56512946	      0.44298255	      0.84006705	      0.00000000
      0.56701322	      0.44446870	      0.84033916	      0.00000000
      0.56889699	      0.44594795	      0.84060991	      0.00000000
      0.57078075	      0.44742021	      0.84087931	      0.00000000
      0.57266452	      0.44888538	      0.84114733	      0.00000000
      0.57454828	      0.45034337	      0.84141398	      0.00000000
      0.57643205	      0.45179408	      0.84167925	      0.00000000
      0.57831581	      0.45323744	      0.84194314	      0.00000000
      0.58019958	      0.45467336	      0.84220564	      0.00000000
      0.58208334	      0.45610176	      0.84246677	      0.00000000
      0.58396711	      0.45752258	      0.84272653	      0.00000000
      0.58585087	      0.45893574	      0.84298493	      0.00000000
      0.58773464	      0.46034119	      0.84324199	      0.00000000
      0.58961840	      0.46173887	      0.84349772	      0.00000000
      0.59150217	      0.46312875	      0.84375213	      0.00000000
      0.59338593	      0.46451077	      0.84400526	      0.00000000
      0.59526969	      0.46588492	      0.84425713	      0.00000000
      0.59715346	      0.46725118	      0.84450775	      0.00000000
      0.59903722	      0.46860951	      0.84475717	      0.00000000
      0.60092099	      0.46995993	      0.84500540	      0.00000000
      0.60280475	      0.47130243	      0.84525247	      0.00000000
      0.60468852	      0.47263703	      0.84549843	      0.00000000
      0.60657228	      0.47396374	      0.84574330	      0.00000000
      0.60845605	      0.47528260	      0.84598713	      0.00000000
      0.61033981	      0.47659364	      0.84622994	      0.00000000
      0.61222358	      0.47789691	      0.84647177	      0.00000000
      0.61410734	      0.47919247	      0.84671266	      0.00000000
      0.61599111	      0.48048038	      0.84695265	      0.00000000
      0.61787487	      0.48176073	      0.84719178	      0.00000000
      0.61975864	      0.48303358	      0.84743009	      0.00000000
      0.62164240	      0.48429905	      0.84766761	      0.00000000
      0.62352617	      0.48555721	      0.84790440	      0.00000000
      0.62540993	      0.48680819	      0.84814048	      0.00000000
      0.62729370	      0.48805210	      0.84837591	      0.00000000
      0.62917746	      0.48928906	      0.84861073	      0.00000000
      0.63106123	      0.49051919	      0.84884500	      0.00000000
      0.63294499	      0.49174262	      0.84907876	      0.00000000
      0.63482876	      0.49295948	      0.84931208	      0.00000000
      0.63671252	      0.49416992	      0.84954502	      0.00000000
      0.63859629	      0.49537406	      0.84977765	      0.00000000
      0.64048005	      0.49657205	      0.85001004	      0.00000000
      0.64236382	      0.49776402	      0.85024228	      0.00000000
      0.64424758	      0.49895011	      0.85047444	      0.00000000
      0.64613135	      0.50013045	      0.85070661	      0.00000000
      0.64801511	      0.50130517	      0.85093887	      0.00000000
      0.64989888	      0.50247441	      0.85117129	      0.00000000
      0.65178264	      0.50363830	      0.85140395	      0.00000000
      0.65366641	      0.50479696	      0.85163693	      0.00000000
      0.65555017	      0.50595053	      0.85187031	      0.00000000
      0.65743394	      0.50709913	      0.85210414	      0.00000000
      0.65931770	      0.50824288	      0.85233850	      0.00000000
      0.66120146	      0.50938190	      0.85257344	      0.00000000
      0.66308523	      0.51051629	      0.85280903	      0.00000000
      0.66496899	      0.51164617	      0.85304530	      0.00000000
      0.66685276	      0.51277165	      0.85328231	      0.00000000
      0.66873652	      0.51389283	      0.85352011	      0.00000000
      0.67062029	      0.51500980	      0.85375871	      0.00000000
      0.67250405	      0.51612266	      0.85399817	      0.00000000
      0.67438782	      0.51723151	      0.85423849	      0.00000000
      0.67627158	      0.51833643	      0.85447971	      0.00000000
      0.67815535	      0.51943752	      0.85472184	      0.00000000
      0.68003911	      0.52053484	      0.85496489	      0.00000000
      0.68192288	      0.52162849	      0.85520887	      0.00000000
      0.68380664	      0.52271854	      0.85545377	      0.00000000
      0.68569041	      0.52380506	      0.85569958	      0.00000000
      0.68757417	      0.52488811	      0.85594630	      0.00000000
      0.68945794	      0.52596776	      0.85619390	      0.00000000
      0.69134170	      0.52704408	      0.85644237	      0.00000000
      0.69322547	      0.52811711	      0.85669166	      0.00000000
      0.69510923	      0.52918691	      0.85694174	      0.00000000
      0.69699300	      0.53025353	      0.85719257	      0.00000000
      0.69887676	      0.53131700	      0.85744410	      0.00000000
      0.70076053	      0.53237738	      0.85769627	      0.00000000
      0.70264429	      0.53343471	      0.85794904	      0.00000000
      0.70452806	      0.53448902	      0.85820233	      0.00000000
      0.70641182	      0.53554035	      0.85845608	      0.00000000
      0.70829559	      0.53658875	      0.85871022	      0.00000000
      0.71017935	      0.53763426	      0.85896468	      0.00000000
      0.71206312	      0.53867692	      0.85921939	      0.00000000
      0.71394688	      0.53971678	      0.85947426	      0.00000000
      0.71583065	      0.54075388	      0.85972923	      0.00000000
      0.71771441	      0.54178827	      0.85998420	      0.00000000
      0.71959818	      0.54282001	      0.86023912	      0.00000000
      0.72148194	      0.54384915	      0.86049388	      0.00000000
      0.72336571	      0.54487575	      0.86074842	      0.00000000
      0.72524947	      0.54589986	      0.86100265	      0.00000000
      0.72713323	      0.54692155	      0.86125649	      0.00000000
      0.72901700	      0.54794087	      0.86150986	      0.00000000
      0.73090076	      0.54895790	      0.86176269	      0.00000000
      0.73278453	      0.54997271	      0.86201489	      0.00000000
      0.73466829	      0.55098536	      0.86226638	      0.00000000
      0.73655206	      0.55199591	      0.86251710	      0.00000000
      0.73843582	      0.55300445	      0.86276695	      0.00000000
      0.74031959	      0.55401104	      0.86301586	      0.00000000
      0.74220335	      0.55501576	      0.86326376	      0.00000000
      0.74408712	      0.55601867	      0.86351057	      0.00000000
      0.74597088	      0.55701984	      0.86375620	      0.00000000
      0.74785465	      0.55801934	      0.86400059	      0.00000000
      0.74973841	      0.55901724	      0.86424365	      0.00000000
      0.75162218	      0.56001360	      0.86448531	      0.00000000
      0.75350594	      0.56100849	      0.86472549	      0.00000000
      0.75538971	      0.56200195	      0.86496412	      0.00000000
      0.75727347	      0.56299407	      0.86520110	      0.00000000
      0.75915724	      0.56398488	      0.86543638	      0.00000000
      0.76104100	      0.56497445	      0.86566986	      0.00000000
      0.76292477	      0.56596283	      0.86590148	      0.00000000
      0.76480853	      0.56695006	      0.86613116	      0.00000000
      0.76669230	      0.56793621	      0.86635881	      0.00000000
      0.76857606	      0.56892132	      0.86658438	      0.00000000
      0.77045983	      0.56990543	      0.86680777	      0.00000000
      0.77234359	      0.57088859	      0.86702892	      0.00000000
      0.77422736	      0.57187085	      0.86724776	      0.00000000
      0.77611112	      0.57285225	      0.86746422	      0.00000000
      0.77799489	      0.57383283	      0.86767822	      0.00000000
      0.77987865	      0.57481264	      0.86788970	      0.00000000
      0.78176242	      0.57579171	      0.86809859	      0.00000000
      0.78364618	      0.57677010	      0.86830483	      0.00000000
      0.78552995	      0.57774783	      0.86850836	      0.00000000
      0.78741371	      0.57872494	      0.86870911	      0.00000000
      0.78929748	      0.57970148	      0.86890702	      0.00000000
      0.79118124	      0.58067748	      0.86910203	      0.00000000
      0.79306500	      0.58165296	      0.86929409	      0.00000000
      0.79494877	      0.58262798	      0.86948314	      0.00000000
      0.79683253	      0.58360255	      0.86966913	      0.00000000
      0.79871630	      0.58457671	      0.86985199	      0.00000000
      0.80060006	      0.58555050	      0.87003169	      0.00000000
      0.80248383	      0.58652393	      0.87020818	      0.00000000
      0.80436759	      0.58749704	      0.87038140	      0.00000000
      0.80625136	      0.58846986	      0.87055131	      0.00000000
      0.80813512	      0.58944242	      0.87071788	      0.00000000
      0.81001889	      0.59041474	      0.87088104	      0.00000000
      0.81190265	      0.59138685	      0.87104078	      0.00000000
      0.81378642	      0.59235878	      0.87119704	      0.00000000
      0.81567018	      0.59333055	      0.87134980	      0.00000000
      0.81755395	      0.59430219	      0.87149902	      0.00000000
      0.81943771	      0.59527374	      0.87164466	      0.00000000
      0.82132148	      0.59624521	      0.87178671	      0.00000000
      0.82320524	      0.59721663	      0.87192512	      0.00000000
      0.82508901	      0.59818804	      0.87205989	      0.00000000
      0.82697277	      0.59915945	      0.87219097	      0.00000000
      0.82885654	      0.60013089	      0.87231836	      0.00000000
      0.83074030	      0.60110240	      0.87244202	      0.00000000
      0.83262407	      0.60207400	      0.87256195	      0.00000000
      0.83450783	      0.60304572	      0.87267812	      0.00000000
      0.83639160	      0.60401758	      0.87279053	      0.00000000
      0.83827536	      0.60498962	      0.87289916	      0.00000000
      0.84015913	      0.60596187	      0.87300400	      0.00000000
      0.84204289	      0.60693435	      0.87310505	      0.00000000
      0.84392666	      0.60790710	      0.87320228	      0.00000000
      0.84581042	      0.60888015	      0.87329571	      0.00000000
      0.84769419	      0.60985353	      0.87338533	      0.00000000
      0.84957795	      0.61082728	      0.87347114	      0.00000000
      0.85146172	      0.61180143	      0.87355313	      0.00000000
      0.85334548	      0.61277601	      0.87363131	      0.00000000
      0.85522925	      0.61375107	      0.87370568	      0.00000000
      0.85711301	      0.61472664	      0.87377625	      0.00000000
      0.85899677	      0.61570276	      0.87384302	      0.00000000
      0.86088054	      0.61667947	      0.87390600	      0.00000000
      0.86276430	      0.61765682	      0.87396519	      0.00000000
      0.86464807	      0.61863484	      0.87402062	      0.00000000
      0.86653183	      0.61961357	      0.87407228	      0.00000000
      0.86841560	      0.62059307	      0.87412020	      0.00000000
      0.87029936	      0.62157337	      0.87416438	      0.00000000
      0.87218313	      0.62255453	      0.87420483	      0.00000000
      0.87406689	      0.62353658	      0.87424158	      0.00000000
      0.87595066	      0.62451957	      0.87427465	      0.00000000
      0.87783442	      0.62550355	      0.87430404	      0.00000000
      0.87971819	      0.62648858	      0.87432978	      0.00000000
      0.88160195	      0.62747470	      0.87435190	      0.00000000
      0.88348572	      0.62846196	      0.87437042	      0.00000000
      0.88536948	      0.62945042	      0.87438536	      0.00000000
      0.88725325	      0.63044014	      0.87439675	      0.00000000
      0.88913701	      0.63143117	      0.87440461	      0.00000000
      0.89102078	      0.63242356	      0.87440898	      0.00000000
      0.89290454	      0.63341738	      0.87440989	      0.00000000
      0.89478831	      0.63441270	      0.87440737	      0.00000000
      0.89667207	      0.63540957	      0.87440146	      0.00000000
      0.89855584	      0.63640805	      0.87439218	      0.00000000
      0.90043960	      0.63740822	      0.87437958	      0.00000000
      0.90232337	      0.63841015	      0.87436369	      0.00000000
      0.90420713	      0.63941391	      0.87434455	      0.00000000
      0.90609090	      0.64041957	      0.87432220	      0.00000000
      0.90797466	      0.64142720	      0.87429668	      0.00000000
      0.90985843	      0.64243688	      0.87426803	      0.00000000
      0.91174219	      0.64344871	      0.87423629	      0.00000000
      0.91362596	      0.64446275	      0.87420150	      0.00000000
      0.91550972	      0.64547910	      0.87416371	      0.00000000
      0.91739349	      0.64649784	      0.87412296	      0.00000000
      0.91927725	      0.64751906	      0.87407928	      0.00000000
      0.92116102	      0.64854286	      0.87403273	      0.00000000
      0.92304478	      0.64956934	      0.87398334	      0.00000000
      0.92492854	      0.65059859	      0.87393116	      0.00000000
      0.92681231	      0.65163072	      0.87387623	      0.00000000
      0.92869607	      0.65266583	      0.87381859	      0.00000000
      0.93057984	      0.65370403	      0.87375828	      0.00000000
      0.93246360	      0.65474542	      0.87369535	      0.00000000
      0.93434737	      0.65579013	      0.87362982	      0.00000000
      0.93623113	      0.65683825	      0.87356175	      0.00000000
      0.93811490	      0.65788992	      0.87349116	      0.00000000
      0.93999866	      0.65894525	      0.87341810	      0.00000000
      0.94188243	      0.66000436	      0.87334261	      0.00000000
      0.94376619	      0.66106739	      0.87326470	      0.00000000
      0.94564996	      0.66213445	      0.87318443	      0.00000000
      0.94753372	      0.66320567	      0.87310182	      0.00000000
      0.94941749	      0.66428120	      0.87301691	      0.00000000
      0.95130125	      0.66536115	      0.87292972	      0.00000000
      0.95318502	      0.66644568	      0.87284028	      0.00000000
      0.95506878	      0.66753492	      0.87274862	      0.00000000
      0.95695255	      0.66862900	      0.87265475	      0.00000000
      0.95883631	      0.66972807	      0.87255872	      0.00000000
      0.96072008	      0.67083227	      0.87246052	      0.00000000
      0.96260384	      0.67194175	      0.87236018	      0.00000000
      0.96448761	      0.67305665	      0.87225772	      0.00000000
      0.96637137	      0.67417712	      0.87215315	      0.00000000
      0.96825514	      0.67530329	      0.87204648	      0.00000000
      0.97013890	      0.67643533	      0.87193772	      0.00000000
      0.97202267	      0.67757338	      0.87182687	      0.00000000
      0.97390643	      0.67871758	      0.87171394	      0.00000000
      0.97579020	      0.67986809	      0.87159892	      0.00000000
      0.97767396	      0.68102505	      0.87148182	      0.00000000
      0.97955773	      0.68218862	      0.87136262	      0.00000000
      0.98144149	      0.68335895	      0.87124133	      0.00000000
      0.98332526	      0.68453619	      0.87111793	      0.00000000
      0.98520902	      0.68572049	      0.87099241	      0.00000000
      0.98709279	      0.68691201	      0.87086475	      0.00000000
      0.98897655	      0.68811090	      0.87073494	      0.00000000
      0.99086031	      0.68931732	      0.87060296	      0.00000000
      0.99274408	      0.69053142	      0.87046877	      0.00000000
      0.99462784	      0.69175337	      0.87033236	      0.00000000
      0.99651161	      0.69298332	      0.87019370	      0.00000000
      0.99839537	      0.69422144	      0.87005276	      0.00000000
      1.00027914	      0.69546789	      0.86990950	      0.00000000
      1.00216290	      0.69672282	      0.86976388	      0.00000000
      1.00404667	      0.69798642	      0.86961588	      0.00000000
      1.00593043	      0.69925883	      0.86946544	      0.00000000
      1.00781420	      0.70054024	      0.86931252	      0.00000000
      1.00969796	      0.70183082	      0.86915709	      0.00000000
      1.01158173	      0.70313072	      0.86899908	      0.00000000
      1.01346549	      0.70444014	      0.86883846	      0.00000000
      1.01534926	      0.70575924	      0.86867517	      0.00000000
      1.01723302	      0.70708819	      0.86850916	      0.00000000
      1.01911679	      0.70842719	      0.86834037	      0.00000000
      1.02100055	      0.70977639	      0.86816874	      0.00000000
      1.02288432	      0.71113598	      0.86799423	      0.00000000
      1.02476808	      0.71250614	      0.86781677	      0.00000000
      1.02665185	      0.71388704	      0.86763631	      0.00000000
      1.02853561	      0.71527885	      0.86745277	      0.00000000
      1.03041938	      0.71668175	      0.86726611	      0.00000000
      1.03230314	      0.71809590	      0.86707626	      0.00000000
      1.03418691	      0.71952147	      0.86688315	      0.00000000
      1.03607067	      0.72095862	      0.86668674	      0.00000000
      1.03795444	      0.72240751	      0.86648695	      0.00000000
      1.03983820	      0.72386829	      0.86628373	      0.00000000
      1.04172197	      0.72534110	      0.86607701	      0.00000000
      1.04360573	      0.72682607	      0.86586675	      0.00000000
      1.04548950	      0.72832335	      0.86565289	      0.00000000
      1.04737326	      0.72983304	      0.86543537	      0.00000000
      1.04925703	      0.73135525	      0.86521414	      0.00000000
      1.05114079	      0.73289008	      0.86498916	      0.00000000
      1.05302456	      0.73443760	      0.86476039	      0.00000000
      1.05490832	      0.73599790	      0.86452779	      0.00000000
      1.05679208	      0.73757101	      0.86429133	      0.00000000
      1.05867585	      0.73915697	      0.86405098	      0.00000000
      1.06055961	      0.74075580	      0.86380672	      0.00000000
      1.06244338	      0.74236747	      0.86355855	      0.00000000
      1.06432714	      0.74399195	      0.86330645	      0.00000000
      1.06621091	      0.74562913	      0.86305041	      0.00000000
      1.06809467	      0.74727888	      0.86279043	      0.00000000
      1.06997844	      0.74894102	      0.86252648	      0.00000000
      1.07186220	      0.75061543	      0.86225856	      0.00000000
      1.07374597	      0.75230196	      0.86198668	      0.00000000
      1.07562973	      0.75400048	      0.86171082	      0.00000000
      1.07751350	      0.75571089	      0.86143098	      0.00000000
      1.07939726	      0.75743307	      0.86114717	      0.00000000
      1.08128103	      0.75916694	      0.86085937	      0.00000000
      1.08316479	      0.76091238	      0.86056758	      0.00000000
      1.08504856	      0.76266929	      0.86027177	      0.00000000
      1.08693232	      0.76443759	      0.85997193	      0.00000000
      1.08881609	      0.76621716	      0.85966802	      0.00000000
      1.09069985	      0.76800791	      0.85936001	      0.00000000
      1.09258362	      0.76980971	      0.85904785	      0.00000000
      1.09446738	      0.77162247	      0.85873148	      0.00000000
      1.09635115	      0.77344607	      0.85841083	      0.00000000
      1.09823491	      0.77528042	      0.85808584	      0.00000000
      1.10011868	      0.77712541	      0.85775641	      0.00000000
      1.10200244	      0.77898096	      0.85742246	      0.00000000
      1.10388621	      0.78084695	      0.85708389	      0.00000000
      1.10576997	      0.78272333	      0.85674060	      0.00000000
      1.10765374	      0.78461001	      0.85639246	      0.00000000
      1.10953750	      0.78650694	      0.85603937	      0.00000000
      1.11142127	      0.78841405	      0.85568120	      0.00000000
      1.11330503	      0.79033130	      0.85531781	      0.00000000
      1.11518880	      0.79225864	      0.85494907	      0.00000000
      1.11707256	      0.79419603	      0.85457483	      0.00000000
      1.11895633	      0.79614340	      0.85419494	      0.00000000
      1.12084009	      0.79810072	      0.85380922	      0.00000000
      1.12272385	      0.80006789	      0.85341749	      0.00000000
      1.12460762	      0.80204484	      0.85301956	      0.00000000
      1.12649138	      0.80403144	      0.85261522	      0.00000000
      1.12837515	      0.80602755	      0.85220424	      0.00000000
      1.13025891	      0.80803298	      0.85178638	      0.00000000
