PointPosition
version=1
nRows=601
nColumns=4
inDegrees=no
No description.
endheader
time	state_0	state_1	state_2
      0.00000000	      0.23140784	      0.02662468	      0.09478690
      0.00168894	      0.23545860	      0.02680405	      0.09478690
      0.00337787	      0.23945810	      0.02696460	      0.09478690
      0.00506681	      0.24340208	      0.02710246	      0.09478690
      0.00675575	      0.24728608	      0.02721512	      0.09478690
      0.00844468	      0.25110559	      0.02730082	      0.09478690
      0.01013362	      0.25485572	      0.02735898	      0.09478690
      0.01182256	      0.25853135	      0.02738935	      0.09478690
      0.01351149	      0.26212646	      0.02739180	      0.09478690
      0.01520043	      0.26563444	      0.02736577	      0.09478690
      0.01688937	      0.26904651	      0.02730834	      0.09478690
      0.01857831	      0.27235242	      0.02721443	      0.09478690
      0.02026724	      0.27553742	      0.02707247	      0.09478690
      0.02195618	      0.27858385	      0.02686637	      0.09478690
      0.02364512	      0.28146678	      0.02656963	      0.09478690
      0.02533405	      0.28415697	      0.02614972	      0.09478690
      0.02702299	      0.28661687	      0.02556312	      0.09478690
      0.02871193	      0.28880475	      0.02476137	      0.09478690
      0.03040086	      0.29067434	      0.02368947	      0.09478690
      0.03208980	      0.29217823	      0.02229112	      0.09478690
      0.03377874	      0.29327538	      0.02052231	      0.09478690
      0.03546767	      0.29393212	      0.01835996	      0.09478690
      0.03715661	      0.29427972	      0.01600225	      0.09478690
      0.03884555	      0.29452985	      0.01373793	      0.09478690
      0.04053448	      0.29474635	      0.01171860	      0.09478690
      0.04222342	      0.29492119	      0.01004340	      0.09478690
      0.04391236	      0.29504998	      0.00873575	      0.09478690
      0.04560129	      0.29513538	      0.00774649	      0.09478690
      0.04729023	      0.29519051	      0.00698997	      0.09478690
      0.04897917	      0.29522655	      0.00639159	      0.09478690
      0.05066811	      0.29525132	      0.00590251	      0.09478690
      0.05235704	      0.29527039	      0.00548827	      0.09478690
      0.05404598	      0.29528636	      0.00513302	      0.09478690
      0.05573492	      0.29530095	      0.00482598	      0.09478690
      0.05742385	      0.29531480	      0.00456222	      0.09478690
      0.05911279	      0.29532834	      0.00433753	      0.09478690
      0.06080173	      0.29534171	      0.00414871	      0.09478690
      0.06249066	      0.29535503	      0.00399282	      0.09478690
      0.06417960	      0.29536845	      0.00386728	      0.09478690
      0.06586854	      0.29538209	      0.00376956	      0.09478690
      0.06755747	      0.29539610	      0.00369719	      0.09478690
      0.06924641	      0.29541062	      0.00364766	      0.09478690
      0.07093535	      0.29542578	      0.00361844	      0.09478690
      0.07262428	      0.29544172	      0.00360699	      0.09478690
      0.07431322	      0.29545855	      0.00361079	      0.09478690
      0.07600216	      0.29547639	      0.00362739	      0.09478690
      0.07769109	      0.29549535	      0.00365443	      0.09478690
      0.07938003	      0.29551552	      0.00368967	      0.09478690
      0.08106897	      0.29553699	      0.00373102	      0.09478690
      0.08275791	      0.29555983	      0.00377655	      0.09478690
      0.08444684	      0.29558409	      0.00382450	      0.09478690
      0.08613578	      0.29560983	      0.00387324	      0.09478690
      0.08782472	      0.29563708	      0.00392096	      0.09478690
      0.08951365	      0.29566594	      0.00396572	      0.09478690
      0.09120259	      0.29569651	      0.00400577	      0.09478690
      0.09289153	      0.29572886	      0.00403951	      0.09478690
      0.09458046	      0.29576304	      0.00406579	      0.09478690
      0.09626940	      0.29579907	      0.00408363	      0.09478690
      0.09795834	      0.29583694	      0.00409232	      0.09478690
      0.09964727	      0.29587662	      0.00409125	      0.09478690
      0.10133621	      0.29591806	      0.00407998	      0.09478690
      0.10302515	      0.29596122	      0.00405822	      0.09478690
      0.10471408	      0.29600602	      0.00402580	      0.09478690
      0.10640302	      0.29605240	      0.00398266	      0.09478690
      0.10809196	      0.29610026	      0.00392883	      0.09478690
      0.10978089	      0.29614952	      0.00386440	      0.09478690
      0.11146983	      0.29620008	      0.00378955	      0.09478690
      0.11315877	      0.29625187	      0.00370450	      0.09478690
      0.11484771	      0.29630479	      0.00360953	      0.09478690
      0.11653664	      0.29635875	      0.00350498	      0.09478690
      0.11822558	      0.29641366	      0.00339122	      0.09478690
      0.11991452	      0.29646944	      0.00326867	      0.09478690
      0.12160345	      0.29652599	      0.00313778	      0.09478690
      0.12329239	      0.29658323	      0.00299903	      0.09478690
      0.12498133	      0.29664106	      0.00285289	      0.09478690
      0.12667026	      0.29669941	      0.00269988	      0.09478690
      0.12835920	      0.29675819	      0.00254051	      0.09478690
      0.13004814	      0.29681731	      0.00237527	      0.09478690
      0.13173707	      0.29687670	      0.00220469	      0.09478690
      0.13342601	      0.29693628	      0.00202924	      0.09478690
      0.13511495	      0.29699598	      0.00184943	      0.09478690
      0.13680388	      0.29705573	      0.00166571	      0.09478690
      0.13849282	      0.29711548	      0.00147855	      0.09478690
      0.14018176	      0.29717516	      0.00128836	      0.09478690
      0.14187070	      0.29723471	      0.00109555	      0.09478690
      0.14355963	      0.29729411	      0.00090051	      0.09478690
      0.14524857	      0.29735329	      0.00070361	      0.09478690
      0.14693751	      0.29741222	      0.00050517	      0.09478690
      0.14862644	      0.29747087	      0.00030553	      0.09478690
      0.15031538	      0.29752921	      0.00010497	      0.09478690
      0.15200432	      0.29758721	     -0.00009622	      0.09478690
      0.15369325	      0.29764484	     -0.00029780	      0.09478690
      0.15538219	      0.29770209	     -0.00049952	      0.09478690
      0.15707113	      0.29775893	     -0.00070116	      0.09478690
      0.15876006	      0.29781535	     -0.00090254	      0.09478690
      0.16044900	      0.29787134	     -0.00110344	      0.09478690
      0.16213794	      0.29792689	     -0.00130371	      0.09478690
      0.16382687	      0.29798198	     -0.00150318	      0.09478690
      0.16551581	      0.29803660	     -0.00170170	      0.09478690
      0.16720475	      0.29809076	     -0.00189912	      0.09478690
      0.16889368	      0.29814445	     -0.00209533	      0.09478690
      0.17058262	      0.29819765	     -0.00229019	      0.09478690
      0.17227156	      0.29825037	     -0.00248359	      0.09478690
      0.17396050	      0.29830260	     -0.00267542	      0.09478690
      0.17564943	      0.29835435	     -0.00286559	      0.09478690
      0.17733837	      0.29840560	     -0.00305400	      0.09478690
      0.17902731	      0.29845637	     -0.00324055	      0.09478690
      0.18071624	      0.29850664	     -0.00342517	      0.09478690
      0.18240518	      0.29855643	     -0.00360777	      0.09478690
      0.18409412	      0.29860572	     -0.00378828	      0.09478690
      0.18578305	      0.29865452	     -0.00396663	      0.09478690
      0.18747199	      0.29870283	     -0.00414274	      0.09478690
      0.18916093	      0.29875065	     -0.00431656	      0.09478690
      0.19084986	      0.29879798	     -0.00448802	      0.09478690
      0.19253880	      0.29884482	     -0.00465708	      0.09478690
      0.19422774	      0.29889117	     -0.00482366	      0.09478690
      0.19591667	      0.29893704	     -0.00498773	      0.09478690
      0.19760561	      0.29898242	     -0.00514923	      0.09478690
      0.19929455	      0.29902732	     -0.00530812	      0.09478690
      0.20098348	      0.29907172	     -0.00546436	      0.09478690
      0.20267242	      0.29911564	     -0.00561792	      0.09478690
      0.20436136	      0.29915907	     -0.00576876	      0.09478690
      0.20605030	      0.29920201	     -0.00591685	      0.09478690
      0.20773923	      0.29924445	     -0.00606215	      0.09478690
      0.20942817	      0.29928639	     -0.00620466	      0.09478690
      0.21111711	      0.29932781	     -0.00634433	      0.09478690
      0.21280604	      0.29936871	     -0.00648117	      0.09478690
      0.21449498	      0.29940908	     -0.00661515	      0.09478690
      0.21618392	      0.29944889	     -0.00674626	      0.09478690
      0.21787285	      0.29948813	     -0.00687449	      0.09478690
      0.21956179	      0.29952677	     -0.00699984	      0.09478690
      0.22125073	      0.29956480	     -0.00712229	      0.09478690
      0.22293966	      0.29960217	     -0.00724185	      0.09478690
      0.22462860	      0.29963888	     -0.00735851	      0.09478690
      0.22631754	      0.29967489	     -0.00747228	      0.09478690
      0.22800647	      0.29971019	     -0.00758316	      0.09478690
      0.22969541	      0.29974476	     -0.00769116	      0.09478690
      0.23138435	      0.29977859	     -0.00779627	      0.09478690
      0.23307328	      0.29981168	     -0.00789852	      0.09478690
      0.23476222	      0.29984403	     -0.00799791	      0.09478690
      0.23645116	      0.29987564	     -0.00809448	      0.09478690
      0.23814010	      0.29990652	     -0.00818823	      0.09478690
      0.23982903	      0.29993666	     -0.00827920	      0.09478690
      0.24151797	      0.29996608	     -0.00836742	      0.09478690
      0.24320691	      0.29999478	     -0.00845291	      0.09478690
      0.24489584	      0.30002277	     -0.00853572	      0.09478690
      0.24658478	      0.30005005	     -0.00861588	      0.09478690
      0.24827372	      0.30007663	     -0.00869343	      0.09478690
      0.24996265	      0.30010252	     -0.00876841	      0.09478690
      0.25165159	      0.30012772	     -0.00884087	      0.09478690
      0.25334053	      0.30015225	     -0.00891084	      0.09478690
      0.25502946	      0.30017611	     -0.00897837	      0.09478690
      0.25671840	      0.30019932	     -0.00904350	      0.09478690
      0.25840734	      0.30022188	     -0.00910629	      0.09478690
      0.26009627	      0.30024380	     -0.00916676	      0.09478690
      0.26178521	      0.30026509	     -0.00922497	      0.09478690
      0.26347415	      0.30028574	     -0.00928096	      0.09478690
      0.26516308	      0.30030577	     -0.00933478	      0.09478690
      0.26685202	      0.30032516	     -0.00938646	      0.09478690
      0.26854096	      0.30034393	     -0.00943605	      0.09478690
      0.27022990	      0.30036207	     -0.00948360	      0.09478690
      0.27191883	      0.30037959	     -0.00952915	      0.09478690
      0.27360777	      0.30039647	     -0.00957274	      0.09478690
      0.27529671	      0.30041272	     -0.00961443	      0.09478690
      0.27698564	      0.30042834	     -0.00965425	      0.09478690
      0.27867458	      0.30044333	     -0.00969225	      0.09478690
      0.28036352	      0.30045768	     -0.00972849	      0.09478690
      0.28205245	      0.30047140	     -0.00976300	      0.09478690
      0.28374139	      0.30048447	     -0.00979583	      0.09478690
      0.28543033	      0.30049691	     -0.00982703	      0.09478690
      0.28711926	      0.30050870	     -0.00985665	      0.09478690
      0.28880820	      0.30051985	     -0.00988472	      0.09478690
      0.29049714	      0.30053036	     -0.00991130	      0.09478690
      0.29218607	      0.30054022	     -0.00993642	      0.09478690
      0.29387501	      0.30054944	     -0.00996013	      0.09478690
      0.29556395	      0.30055801	     -0.00998248	      0.09478690
      0.29725288	      0.30056593	     -0.01000350	      0.09478690
      0.29894182	      0.30057321	     -0.01002323	      0.09478690
      0.30063076	      0.30057983	     -0.01004171	      0.09478690
      0.30231970	      0.30058580	     -0.01005899	      0.09478690
      0.30400863	      0.30059112	     -0.01007510	      0.09478690
      0.30569757	      0.30059579	     -0.01009008	      0.09478690
      0.30738651	      0.30059980	     -0.01010396	      0.09478690
      0.30907544	      0.30060317	     -0.01011678	      0.09478690
      0.31076438	      0.30060587	     -0.01012858	      0.09478690
      0.31245332	      0.30060793	     -0.01013937	      0.09478690
      0.31414225	      0.30060932	     -0.01014921	      0.09478690
      0.31583119	      0.30061007	     -0.01015812	      0.09478690
      0.31752013	      0.30061016	     -0.01016612	      0.09478690
      0.31920906	      0.30060959	     -0.01017326	      0.09478690
      0.32089800	      0.30060836	     -0.01017955	      0.09478690
      0.32258694	      0.30060649	     -0.01018503	      0.09478690
      0.32427587	      0.30060395	     -0.01018973	      0.09478690
      0.32596481	      0.30060076	     -0.01019367	      0.09478690
      0.32765375	      0.30059691	     -0.01019688	      0.09478690
      0.32934268	      0.30059241	     -0.01019939	      0.09478690
      0.33103162	      0.30058725	     -0.01020122	      0.09478690
      0.33272056	      0.30058144	     -0.01020240	      0.09478690
      0.33440950	      0.30057497	     -0.01020295	      0.09478690
      0.33609843	      0.30056784	     -0.01020290	      0.09478690
      0.33778737	      0.30056006	     -0.01020226	      0.09478690
      0.33947631	      0.30055162	     -0.01020107	      0.09478690
      0.34116524	      0.30054252	     -0.01019934	      0.09478690
      0.34285418	      0.30053277	     -0.01019710	      0.09478690
      0.34454312	      0.30052236	     -0.01019437	      0.09478690
      0.34623205	      0.30051129	     -0.01019116	      0.09478690
      0.34792099	      0.30049956	     -0.01018750	      0.09478690
      0.34960993	      0.30048717	     -0.01018341	      0.09478690
      0.35129886	      0.30047412	     -0.01017889	      0.09478690
      0.35298780	      0.30046041	     -0.01017398	      0.09478690
      0.35467674	      0.30044604	     -0.01016869	      0.09478690
      0.35636567	      0.30043100	     -0.01016302	      0.09478690
      0.35805461	      0.30041529	     -0.01015701	      0.09478690
      0.35974355	      0.30039892	     -0.01015066	      0.09478690
      0.36143248	      0.30038188	     -0.01014399	      0.09478690
      0.36312142	      0.30036417	     -0.01013700	      0.09478690
      0.36481036	      0.30034579	     -0.01012972	      0.09478690
      0.36649930	      0.30032673	     -0.01012215	      0.09478690
      0.36818823	      0.30030699	     -0.01011430	      0.09478690
      0.36987717	      0.30028657	     -0.01010618	      0.09478690
      0.37156611	      0.30026547	     -0.01009781	      0.09478690
      0.37325504	      0.30024369	     -0.01008918	      0.09478690
      0.37494398	      0.30022121	     -0.01008031	      0.09478690
      0.37663292	      0.30019804	     -0.01007120	      0.09478690
      0.37832185	      0.30017417	     -0.01006186	      0.09478690
      0.38001079	      0.30014960	     -0.01005229	      0.09478690
      0.38169973	      0.30012433	     -0.01004250	      0.09478690
      0.38338866	      0.30009835	     -0.01003248	      0.09478690
      0.38507760	      0.30007166	     -0.01002225	      0.09478690
      0.38676654	      0.30004426	     -0.01001180	      0.09478690
      0.38845547	      0.30001613	     -0.01000114	      0.09478690
      0.39014441	      0.29998729	     -0.00999026	      0.09478690
      0.39183335	      0.29995771	     -0.00997916	      0.09478690
      0.39352228	      0.29992741	     -0.00996785	      0.09478690
      0.39521122	      0.29989637	     -0.00995633	      0.09478690
      0.39690016	      0.29986459	     -0.00994458	      0.09478690
      0.39858910	      0.29983207	     -0.00993261	      0.09478690
      0.40027803	      0.29979881	     -0.00992042	      0.09478690
      0.40196697	      0.29976479	     -0.00990800	      0.09478690
      0.40365591	      0.29973003	     -0.00989535	      0.09478690
      0.40534484	      0.29969450	     -0.00988247	      0.09478690
      0.40703378	      0.29965822	     -0.00986934	      0.09478690
      0.40872272	      0.29962116	     -0.00985596	      0.09478690
      0.41041165	      0.29958334	     -0.00984233	      0.09478690
      0.41210059	      0.29954474	     -0.00982843	      0.09478690
      0.41378953	      0.29950536	     -0.00981426	      0.09478690
      0.41547846	      0.29946520	     -0.00979981	      0.09478690
      0.41716740	      0.29942424	     -0.00978507	      0.09478690
      0.41885634	      0.29938248	     -0.00977002	      0.09478690
      0.42054527	      0.29933991	     -0.00975466	      0.09478690
      0.42223421	      0.29929653	     -0.00973898	      0.09478690
      0.42392315	      0.29925232	     -0.00972295	      0.09478690
      0.42561209	      0.29920729	     -0.00970657	      0.09478690
      0.42730102	      0.29916141	     -0.00968982	      0.09478690
      0.42898996	      0.29911468	     -0.00967269	      0.09478690
      0.43067890	      0.29906708	     -0.00965516	      0.09478690
      0.43236783	      0.29901861	     -0.00963722	      0.09478690
      0.43405677	      0.29896925	     -0.00961884	      0.09478690
      0.43574571	      0.29891898	     -0.00960001	      0.09478690
      0.43743464	      0.29886779	     -0.00958070	      0.09478690
      0.43912358	      0.29881565	     -0.00956090	      0.09478690
      0.44081252	      0.29876256	     -0.00954057	      0.09478690
      0.44250145	      0.29870848	     -0.00951971	      0.09478690
      0.44419039	      0.29865340	     -0.00949827	      0.09478690
      0.44587933	      0.29859730	     -0.00947623	      0.09478690
      0.44756826	      0.29854018	     -0.00945358	      0.09478690
      0.44925720	      0.29848201	     -0.00943029	      0.09478690
      0.45094614	      0.29842279	     -0.00940633	      0.09478690
      0.45263507	      0.29836252	     -0.00938168	      0.09478690
      0.45432401	      0.29830119	     -0.00935633	      0.09478690
      0.45601295	      0.29823880	     -0.00933023	      0.09478690
      0.45770189	      0.29817535	     -0.00930337	      0.09478690
      0.45939082	      0.29811083	     -0.00927572	      0.09478690
      0.46107976	      0.29804523	     -0.00924722	      0.09478690
      0.46276870	      0.29797855	     -0.00921786	      0.09478690
      0.46445763	      0.29791078	     -0.00918757	      0.09478690
      0.46614657	      0.29784191	     -0.00915633	      0.09478690
      0.46783551	      0.29777194	     -0.00912408	      0.09478690
      0.46952444	      0.29770084	     -0.00909077	      0.09478690
      0.47121338	      0.29762861	     -0.00905633	      0.09478690
      0.47290232	      0.29755524	     -0.00902072	      0.09478690
      0.47459125	      0.29748071	     -0.00898387	      0.09478690
      0.47628019	      0.29740502	     -0.00894569	      0.09478690
      0.47796913	      0.29732816	     -0.00890613	      0.09478690
      0.47965806	      0.29725010	     -0.00886510	      0.09478690
      0.48134700	      0.29717083	     -0.00882251	      0.09478690
      0.48303594	      0.29709035	     -0.00877827	      0.09478690
      0.48472487	      0.29700864	     -0.00873229	      0.09478690
      0.48641381	      0.29692569	     -0.00868445	      0.09478690
      0.48810275	      0.29684150	     -0.00863466	      0.09478690
      0.48979169	      0.29675604	     -0.00858279	      0.09478690
      0.49148062	      0.29666932	     -0.00852873	      0.09478690
      0.49316956	      0.29658132	     -0.00847235	      0.09478690
      0.49485850	      0.29649204	     -0.00841352	      0.09478690
      0.49654743	      0.29640147	     -0.00835210	      0.09478690
      0.49823637	      0.29630961	     -0.00828794	      0.09478690
      0.49992531	      0.29621642	     -0.00822088	      0.09478690
      0.50161424	      0.29612191	     -0.00815076	      0.09478690
      0.50330318	      0.29602604	     -0.00807739	      0.09478690
      0.50499212	      0.29592880	     -0.00800059	      0.09478690
      0.50668105	      0.29583017	     -0.00792015	      0.09478690
      0.50836999	      0.29573013	     -0.00783587	      0.09478690
      0.51005893	      0.29562867	     -0.00774754	      0.09478690
      0.51174786	      0.29552577	     -0.00765494	      0.09478690
      0.51343680	      0.29542142	     -0.00755783	      0.09478690
      0.51512574	      0.29531563	     -0.00745597	      0.09478690
      0.51681467	      0.29520840	     -0.00734913	      0.09478690
      0.51850361	      0.29509972	     -0.00723705	      0.09478690
      0.52019255	      0.29498960	     -0.00711946	      0.09478690
      0.52188149	      0.29487805	     -0.00699609	      0.09478690
      0.52357042	      0.29476508	     -0.00686663	      0.09478690
      0.52525936	      0.29465071	     -0.00673078	      0.09478690
      0.52694830	      0.29453494	     -0.00658819	      0.09478690
      0.52863723	      0.29441778	     -0.00643850	      0.09478690
      0.53032617	      0.29429925	     -0.00628131	      0.09478690
      0.53201511	      0.29417938	     -0.00611617	      0.09478690
      0.53370404	      0.29405816	     -0.00594259	      0.09478690
      0.53539298	      0.29393564	     -0.00576003	      0.09478690
      0.53708192	      0.29381181	     -0.00556787	      0.09478690
      0.53877085	      0.29368671	     -0.00536541	      0.09478690
      0.54045979	      0.29356035	     -0.00515186	      0.09478690
      0.54214873	      0.29343274	     -0.00492633	      0.09478690
      0.54383766	      0.29330396	     -0.00468786	      0.09478690
      0.54552660	      0.29317405	     -0.00443544	      0.09478690
      0.54721554	      0.29304310	     -0.00416802	      0.09478690
      0.54890447	      0.29291134	     -0.00388486	      0.09478690
      0.55059341	      0.29277929	     -0.00358600	      0.09478690
      0.55228235	      0.29264726	     -0.00327116	      0.09478690
      0.55397129	      0.29251515	     -0.00293885	      0.09478690
      0.55566022	      0.29238281	     -0.00258737	      0.09478690
      0.55734916	      0.29225027	     -0.00221487	      0.09478690
      0.55903810	      0.29211760	     -0.00181948	      0.09478690
      0.56072703	      0.29198573	     -0.00140016	      0.09478690
      0.56241597	      0.29185669	     -0.00095630	      0.09478690
      0.56410491	      0.29173810	     -0.00048459	      0.09478690
      0.56579384	      0.29163915	      0.00002000	      0.09478690
      0.56748278	      0.29159830	      0.00056936	      0.09478690
      0.56917172	      0.29169171	      0.00118113	      0.09478690
      0.57086065	      0.29199875	      0.00187064	      0.09478690
      0.57254959	      0.29255376	      0.00263952	      0.09478690
      0.57423853	      0.29333815	      0.00347626	      0.09478690
      0.57592746	      0.29432738	      0.00436945	      0.09478690
      0.57761640	      0.29549226	      0.00530777	      0.09478690
      0.57930534	      0.29680614	      0.00628163	      0.09478690
      0.58099427	      0.29824965	      0.00728357	      0.09478690
      0.58268321	      0.29980771	      0.00830754	      0.09478690
      0.58437215	      0.30147090	      0.00934889	      0.09478690
      0.58606109	      0.30323134	      0.01040352	      0.09478690
      0.58775002	      0.30508327	      0.01146797	      0.09478690
      0.58943896	      0.30702141	      0.01253904	      0.09478690
      0.59112790	      0.30904126	      0.01361390	      0.09478690
      0.59281683	      0.31113857	      0.01468991	      0.09478690
      0.59450577	      0.31330964	      0.01576476	      0.09478690
      0.59619471	      0.31555108	      0.01683631	      0.09478690
      0.59788364	      0.31786008	      0.01790270	      0.09478690
      0.59957258	      0.32023412	      0.01896224	      0.09478690
      0.60126152	      0.32267112	      0.02001346	      0.09478690
      0.60295045	      0.32516916	      0.02105502	      0.09478690
      0.60463939	      0.32772654	      0.02208576	      0.09478690
      0.60632833	      0.33034161	      0.02310461	      0.09478690
      0.60801726	      0.33301278	      0.02411063	      0.09478690
      0.60970620	      0.33573846	      0.02510297	      0.09478690
      0.61139514	      0.33851703	      0.02608086	      0.09478690
      0.61308407	      0.34134691	      0.02704363	      0.09478690
      0.61477301	      0.34422650	      0.02799067	      0.09478690
      0.61646195	      0.34715424	      0.02892144	      0.09478690
      0.61815089	      0.35012866	      0.02983548	      0.09478690
      0.61983982	      0.35314834	      0.03073238	      0.09478690
      0.62152876	      0.35621204	      0.03161179	      0.09478690
      0.62321770	      0.35931859	      0.03247342	      0.09478690
      0.62490663	      0.36246703	      0.03331703	      0.09478690
      0.62659557	      0.36565650	      0.03414242	      0.09478690
      0.62828451	      0.36888633	      0.03494946	      0.09478690
      0.62997344	      0.37215593	      0.03573801	      0.09478690
      0.63166238	      0.37546484	      0.03650802	      0.09478690
      0.63335132	      0.37881265	      0.03725941	      0.09478690
      0.63504025	      0.38219900	      0.03799216	      0.09478690
      0.63672919	      0.38562358	      0.03870625	      0.09478690
      0.63841813	      0.38908603	      0.03940168	      0.09478690
      0.64010706	      0.39258600	      0.04007846	      0.09478690
      0.64179600	      0.39612311	      0.04073659	      0.09478690
      0.64348494	      0.39969699	      0.04137609	      0.09478690
      0.64517387	      0.40330722	      0.04199700	      0.09478690
      0.64686281	      0.40695340	      0.04259935	      0.09478690
      0.64855175	      0.41063497	      0.04318316	      0.09478690
      0.65024069	      0.41435127	      0.04374844	      0.09478690
      0.65192962	      0.41810186	      0.04429523	      0.09478690
      0.65361856	      0.42188653	      0.04482359	      0.09478690
      0.65530750	      0.42570481	      0.04533355	      0.09478690
      0.65699643	      0.42955603	      0.04582517	      0.09478690
      0.65868537	      0.43343974	      0.04629851	      0.09478690
      0.66037431	      0.43735559	      0.04675367	      0.09478690
      0.66206324	      0.44130332	      0.04719074	      0.09478690
      0.66375218	      0.44528265	      0.04760984	      0.09478690
      0.66544112	      0.44929324	      0.04801105	      0.09478690
      0.66713005	      0.45333473	      0.04839447	      0.09478690
      0.66881899	      0.45740679	      0.04876021	      0.09478690
      0.67050793	      0.46150918	      0.04910837	      0.09478690
      0.67219686	      0.46564170	      0.04943907	      0.09478690
      0.67388580	      0.46980422	      0.04975246	      0.09478690
      0.67557474	      0.47399661	      0.05004867	      0.09478690
      0.67726368	      0.47821874	      0.05032783	      0.09478690
      0.67895261	      0.48247050	      0.05059008	      0.09478690
      0.68064155	      0.48675180	      0.05083558	      0.09478690
      0.68233049	      0.49106254	      0.05106446	      0.09478690
      0.68401942	      0.49540263	      0.05127688	      0.09478690
      0.68570836	      0.49977195	      0.05147298	      0.09478690
      0.68739730	      0.50417034	      0.05165291	      0.09478690
      0.68908623	      0.50859764	      0.05181680	      0.09478690
      0.69077517	      0.51305364	      0.05196478	      0.09478690
      0.69246411	      0.51753814	      0.05209698	      0.09478690
      0.69415304	      0.52205092	      0.05221354	      0.09478690
      0.69584198	      0.52659176	      0.05231458	      0.09478690
      0.69753092	      0.53116044	      0.05240023	      0.09478690
      0.69921985	      0.53575671	      0.05247061	      0.09478690
      0.70090879	      0.54038036	      0.05252587	      0.09478690
      0.70259773	      0.54503114	      0.05256611	      0.09478690
      0.70428666	      0.54970883	      0.05259148	      0.09478690
      0.70597560	      0.55441320	      0.05260212	      0.09478690
      0.70766454	      0.55914404	      0.05259814	      0.09478690
      0.70935348	      0.56390114	      0.05257971	      0.09478690
      0.71104241	      0.56868432	      0.05254696	      0.09478690
      0.71273135	      0.57349336	      0.05250005	      0.09478690
      0.71442029	      0.57832808	      0.05243913	      0.09478690
      0.71610922	      0.58318829	      0.05236437	      0.09478690
      0.71779816	      0.58807383	      0.05227593	      0.09478690
      0.71948710	      0.59298451	      0.05217399	      0.09478690
      0.72117603	      0.59792017	      0.05205873	      0.09478690
      0.72286497	      0.60288063	      0.05193034	      0.09478690
      0.72455391	      0.60786573	      0.05178900	      0.09478690
      0.72624284	      0.61287528	      0.05163492	      0.09478690
      0.72793178	      0.61790907	      0.05146830	      0.09478690
      0.72962072	      0.62296692	      0.05128932	      0.09478690
      0.73130965	      0.62804861	      0.05109821	      0.09478690
      0.73299859	      0.63315391	      0.05089516	      0.09478690
      0.73468753	      0.63828261	      0.05068039	      0.09478690
      0.73637646	      0.64343447	      0.05045413	      0.09478690
      0.73806540	      0.64860926	      0.05021658	      0.09478690
      0.73975434	      0.65380675	      0.04996798	      0.09478690
      0.74144328	      0.65902670	      0.04970857	      0.09478690
      0.74313221	      0.66426888	      0.04943859	      0.09478690
      0.74482115	      0.66953305	      0.04915829	      0.09478690
      0.74651009	      0.67481897	      0.04886791	      0.09478690
      0.74819902	      0.68012641	      0.04856774	      0.09478690
      0.74988796	      0.68545513	      0.04825802	      0.09478690
      0.75157690	      0.69080490	      0.04793905	      0.09478690
      0.75326583	      0.69617547	      0.04761109	      0.09478690
      0.75495477	      0.70156662	      0.04727443	      0.09478690
      0.75664371	      0.70697809	      0.04692938	      0.09478690
      0.75833264	      0.71240965	      0.04657622	      0.09478690
      0.76002158	      0.71786107	      0.04621527	      0.09478690
      0.76171052	      0.72333210	      0.04584683	      0.09478690
      0.76339945	      0.72882250	      0.04547123	      0.09478690
      0.76508839	      0.73433203	      0.04508878	      0.09478690
      0.76677733	      0.73986045	      0.04469982	      0.09478690
      0.76846626	      0.74540751	      0.04430469	      0.09478690
      0.77015520	      0.75097298	      0.04390372	      0.09478690
      0.77184414	      0.75655660	      0.04349726	      0.09478690
      0.77353308	      0.76215814	      0.04308566	      0.09478690
      0.77522201	      0.76777733	      0.04266928	      0.09478690
      0.77691095	      0.77341393	      0.04224848	      0.09478690
      0.77859989	      0.77906769	      0.04182363	      0.09478690
      0.78028882	      0.78473834	      0.04139509	      0.09478690
      0.78197776	      0.79042562	      0.04096323	      0.09478690
      0.78366670	      0.79612928	      0.04052843	      0.09478690
      0.78535563	      0.80184903	      0.04009108	      0.09478690
      0.78704457	      0.80758459	      0.03965154	      0.09478690
      0.78873351	      0.81333570	      0.03921021	      0.09478690
      0.79042244	      0.81910206	      0.03876745	      0.09478690
      0.79211138	      0.82488338	      0.03832366	      0.09478690
      0.79380032	      0.83067936	      0.03787921	      0.09478690
      0.79548925	      0.83648971	      0.03743450	      0.09478690
      0.79717819	      0.84231413	      0.03698989	      0.09478690
      0.79886713	      0.84815234	      0.03654579	      0.09478690
      0.80055606	      0.85400403	      0.03610257	      0.09478690
      0.80224500	      0.85986892	      0.03566064	      0.09478690
      0.80393394	      0.86574672	      0.03522037	      0.09478690
      0.80562288	      0.87163715	      0.03478217	      0.09478690
      0.80731181	      0.87753992	      0.03434643	      0.09478690
      0.80900075	      0.88345476	      0.03391353	      0.09478690
      0.81068969	      0.88938137	      0.03348388	      0.09478690
      0.81237862	      0.89531945	      0.03305785	      0.09478690
      0.81406756	      0.90126872	      0.03263582	      0.09478690
      0.81575650	      0.90722884	      0.03221814	      0.09478690
      0.81744543	      0.91319949	      0.03180517	      0.09478690
      0.81913437	      0.91918031	      0.03139723	      0.09478690
      0.82082331	      0.92517095	      0.03099464	      0.09478690
      0.82251224	      0.93117100	      0.03059768	      0.09478690
      0.82420118	      0.93718009	      0.03020666	      0.09478690
      0.82589012	      0.94319781	      0.02982184	      0.09478690
      0.82757905	      0.94922373	      0.02944348	      0.09478690
      0.82926799	      0.95525740	      0.02907181	      0.09478690
      0.83095693	      0.96129834	      0.02870703	      0.09478690
      0.83264586	      0.96734604	      0.02834932	      0.09478690
      0.83433480	      0.97340002	      0.02799888	      0.09478690
      0.83602374	      0.97945980	      0.02765592	      0.09478690
      0.83771268	      0.98552488	      0.02732064	      0.09478690
      0.83940161	      0.99159472	      0.02699321	      0.09478690
      0.84109055	      0.99766869	      0.02667370	      0.09478690
      0.84277949	      1.00374612	      0.02636215	      0.09478690
      0.84446842	      1.00982636	      0.02605863	      0.09478690
      0.84615736	      1.01590882	      0.02576329	      0.09478690
      0.84784630	      1.02199309	      0.02547648	      0.09478690
      0.84953523	      1.02807893	      0.02519878	      0.09478690
      0.85122417	      1.03416558	      0.02493026	      0.09478690
      0.85291311	      1.04025170	      0.02467045	      0.09478690
      0.85460204	      1.04633654	      0.02441948	      0.09478690
      0.85629098	      1.05241963	      0.02417777	      0.09478690
      0.85797992	      1.05850022	      0.02394539	      0.09478690
      0.85966885	      1.06457743	      0.02372230	      0.09478690
      0.86135779	      1.07065029	      0.02350831	      0.09478690
      0.86304673	      1.07671784	      0.02330324	      0.09478690
      0.86473566	      1.08277916	      0.02310690	      0.09478690
      0.86642460	      1.08883332	      0.02291916	      0.09478690
      0.86811354	      1.09487945	      0.02273984	      0.09478690
      0.86980248	      1.10091665	      0.02256876	      0.09478690
      0.87149141	      1.10694403	      0.02240572	      0.09478690
      0.87318035	      1.11296073	      0.02225049	      0.09478690
      0.87486929	      1.11896588	      0.02210283	      0.09478690
      0.87655822	      1.12495863	      0.02196247	      0.09478690
      0.87824716	      1.13093818	      0.02182917	      0.09478690
      0.87993610	      1.13690375	      0.02170266	      0.09478690
      0.88162503	      1.14285456	      0.02158267	      0.09478690
      0.88331397	      1.14878991	      0.02146894	      0.09478690
      0.88500291	      1.15470909	      0.02136122	      0.09478690
      0.88669184	      1.16061144	      0.02125925	      0.09478690
      0.88838078	      1.16649634	      0.02116280	      0.09478690
      0.89006972	      1.17236319	      0.02107161	      0.09478690
      0.89175865	      1.17821143	      0.02098549	      0.09478690
      0.89344759	      1.18404053	      0.02090421	      0.09478690
      0.89513653	      1.18985001	      0.02082759	      0.09478690
      0.89682546	      1.19563940	      0.02075545	      0.09478690
      0.89851440	      1.20140827	      0.02068764	      0.09478690
      0.90020334	      1.20715622	      0.02062402	      0.09478690
      0.90189228	      1.21288290	      0.02056449	      0.09478690
      0.90358121	      1.21858795	      0.02050894	      0.09478690
      0.90527015	      1.22427107	      0.02045732	      0.09478690
      0.90695909	      1.22993199	      0.02040958	      0.09478690
      0.90864802	      1.23557046	      0.02036569	      0.09478690
      0.91033696	      1.24118624	      0.02032566	      0.09478690
      0.91202590	      1.24677915	      0.02028950	      0.09478690
      0.91371483	      1.25234898	      0.02025724	      0.09478690
      0.91540377	      1.25789560	      0.02022895	      0.09478690
      0.91709271	      1.26341886	      0.02020467	      0.09478690
      0.91878164	      1.26891864	      0.02018450	      0.09478690
      0.92047058	      1.27439484	      0.02016849	      0.09478690
      0.92215952	      1.27984736	      0.02015676	      0.09478690
      0.92384845	      1.28527613	      0.02014937	      0.09478690
      0.92553739	      1.29068109	      0.02014645	      0.09478690
      0.92722633	      1.29606218	      0.02014807	      0.09478690
      0.92891527	      1.30141936	      0.02015436	      0.09478690
      0.93060420	      1.30675260	      0.02016540	      0.09478690
      0.93229314	      1.31206188	      0.02018131	      0.09478690
      0.93398208	      1.31734718	      0.02020219	      0.09478690
      0.93567101	      1.32260852	      0.02022816	      0.09478690
      0.93735995	      1.32784587	      0.02025933	      0.09478690
      0.93904889	      1.33305926	      0.02029580	      0.09478690
      0.94073782	      1.33824871	      0.02033768	      0.09478690
      0.94242676	      1.34341421	      0.02038506	      0.09478690
      0.94411570	      1.34855580	      0.02043803	      0.09478690
      0.94580463	      1.35367348	      0.02049666	      0.09478690
      0.94749357	      1.35876726	      0.02056100	      0.09478690
      0.94918251	      1.36383713	      0.02063105	      0.09478690
      0.95087144	      1.36888310	      0.02070681	      0.09478690
      0.95256038	      1.37390513	      0.02078823	      0.09478690
      0.95424932	      1.37890320	      0.02087523	      0.09478690
      0.95593825	      1.38387726	      0.02096768	      0.09478690
      0.95762719	      1.38882724	      0.02106544	      0.09478690
      0.95931613	      1.39375309	      0.02116834	      0.09478690
      0.96100507	      1.39865474	      0.02127619	      0.09478690
      0.96269400	      1.40353210	      0.02138880	      0.09478690
      0.96438294	      1.40838510	      0.02150601	      0.09478690
      0.96607188	      1.41321368	      0.02162764	      0.09478690
      0.96776081	      1.41801780	      0.02175356	      0.09478690
      0.96944975	      1.42279744	      0.02188369	      0.09478690
      0.97113869	      1.42755263	      0.02201793	      0.09478690
      0.97282762	      1.43228348	      0.02215629	      0.09478690
      0.97451656	      1.43699013	      0.02229877	      0.09478690
      0.97620550	      1.44167283	      0.02244542	      0.09478690
      0.97789443	      1.44633186	      0.02259633	      0.09478690
      0.97958337	      1.45096756	      0.02275160	      0.09478690
      0.98127231	      1.45558028	      0.02291136	      0.09478690
      0.98296124	      1.46017037	      0.02307571	      0.09478690
      0.98465018	      1.46473818	      0.02324475	      0.09478690
      0.98633912	      1.46928396	      0.02341850	      0.09478690
      0.98802805	      1.47380793	      0.02359692	      0.09478690
      0.98971699	      1.47831014	      0.02377988	      0.09478690
      0.99140593	      1.48279056	      0.02396718	      0.09478690
      0.99309487	      1.48724896	      0.02415859	      0.09478690
      0.99478380	      1.49168500	      0.02435384	      0.09478690
      0.99647274	      1.49609808	      0.02455271	      0.09478690
      0.99816168	      1.50048749	      0.02475495	      0.09478690
      0.99985061	      1.50485221	      0.02496036	      0.09478690
      1.00153955	      1.50919107	      0.02516867	      0.09478690
      1.00322849	      1.51350251	      0.02537944	      0.09478690
      1.00491742	      1.51778480	      0.02559201	      0.09478690
      1.00660636	      1.52203578	      0.02580528	      0.09478690
      1.00829530	      1.52625308	      0.02601782	      0.09478690
      1.00998423	      1.53043384	      0.02622734	      0.09478690
      1.01167317	      1.53457495	      0.02643095	      0.09478690
      1.01336211	      1.53867281	      0.02662468	      0.09478690
