PointVelocity
version=1
nRows=601
nColumns=4
inDegrees=no
No description.
endheader
time	state_0	state_1	state_2
      0.00000000	      1.59403772	     -0.23387592	      0.00000000
      0.00168894	      1.59888129	     -0.23907030	      0.00000000
      0.00337787	      1.60368578	     -0.24429955	      0.00000000
      0.00506681	      1.60841052	     -0.24959397	      0.00000000
      0.00675575	      1.61304766	     -0.25495783	      0.00000000
      0.00844468	      1.61758417	     -0.26039628	      0.00000000
      0.01013362	      1.62200899	     -0.26591605	      0.00000000
      0.01182256	      1.62631027	     -0.27150866	      0.00000000
      0.01351149	      1.63048167	     -0.27717185	      0.00000000
      0.01520043	      1.63450837	     -0.28287177	      0.00000000
      0.01688937	      1.63838382	     -0.28858428	      0.00000000
      0.01857831	      1.64206802	     -0.29423627	      0.00000000
      0.02026724	      1.64552900	     -0.29976542	      0.00000000
      0.02195618	      1.64867757	     -0.30505098	      0.00000000
      0.02364512	      1.65142613	     -0.30998116	      0.00000000
      0.02533405	      1.65364356	     -0.31439406	      0.00000000
      0.02702299	      1.65518840	     -0.31812818	      0.00000000
      0.02871193	      1.65593906	     -0.32100884	      0.00000000
      0.03040086	      1.65573127	     -0.32282268	      0.00000000
      0.03208980	      1.65457379	     -0.32345456	      0.00000000
      0.03377874	      1.65222639	     -0.32259552	      0.00000000
      0.03546767	      1.64924427	     -0.32059290	      0.00000000
      0.03715661	      1.64708128	     -0.31857244	      0.00000000
      0.03884555	      1.64480448	     -0.31554808	      0.00000000
      0.04053448	      1.64057468	     -0.30972835	      0.00000000
      0.04222342	      1.63417126	     -0.30062713	      0.00000000
      0.04391236	      1.62576540	     -0.28805938	      0.00000000
      0.04560129	      1.61592744	     -0.27265402	      0.00000000
      0.04729023	      1.60500407	     -0.25488221	      0.00000000
      0.04897917	      1.59322441	     -0.23522360	      0.00000000
      0.05066811	      1.58088024	     -0.21408884	      0.00000000
      0.05235704	      1.56817016	     -0.19184779	      0.00000000
      0.05404598	      1.55532598	     -0.16884335	      0.00000000
      0.05573492	      1.54234835	     -0.14551927	      0.00000000
      0.05742385	      1.52912942	     -0.12256018	      0.00000000
      0.05911279	      1.51565015	     -0.10034246	      0.00000000
      0.06080173	      1.50202333	     -0.07898218	      0.00000000
      0.06249066	      1.48854752	     -0.05820875	      0.00000000
      0.06417960	      1.47550694	     -0.03791854	      0.00000000
      0.06586854	      1.46306352	     -0.01812728	      0.00000000
      0.06755747	      1.45134809	      0.00111811	      0.00000000
      0.06924641	      1.44034620	      0.01967599	      0.00000000
      0.07093535	      1.43006853	      0.03742289	      0.00000000
      0.07262428	      1.42046675	      0.05426780	      0.00000000
      0.07431322	      1.41151349	      0.07012751	      0.00000000
      0.07600216	      1.40316598	      0.08498300	      0.00000000
      0.07769109	      1.39538781	      0.09880529	      0.00000000
      0.07938003	      1.38813805	      0.11161243	      0.00000000
      0.08106897	      1.38137704	      0.12341181	      0.00000000
      0.08275791	      1.37506415	      0.13423796	      0.00000000
      0.08444684	      1.36915887	      0.14411788	      0.00000000
      0.08613578	      1.36362269	      0.15309488	      0.00000000
      0.08782472	      1.35841642	      0.16121001	      0.00000000
      0.08951365	      1.35350567	      0.16851102	      0.00000000
      0.09120259	      1.34885508	      0.17504369	      0.00000000
      0.09289153	      1.34443569	      0.18085378	      0.00000000
      0.09458046	      1.34021706	      0.18598659	      0.00000000
      0.09626940	      1.33617525	      0.19048486	      0.00000000
      0.09795834	      1.33228480	      0.19439237	      0.00000000
      0.09964727	      1.32852616	      0.19774859	      0.00000000
      0.10133621	      1.32487817	      0.20059387	      0.00000000
      0.10302515	      1.32132502	      0.20296346	      0.00000000
      0.10471408	      1.31784948	      0.20489384	      0.00000000
      0.10640302	      1.31443935	      0.20641651	      0.00000000
      0.10809196	      1.31108111	      0.20756421	      0.00000000
      0.10978089	      1.30776601	      0.20836514	      0.00000000
      0.11146983	      1.30448416	      0.20884857	      0.00000000
      0.11315877	      1.30122998	      0.20903973	      0.00000000
      0.11484771	      1.29799694	      0.20896485	      0.00000000
      0.11653664	      1.29478191	      0.20864654	      0.00000000
      0.11822558	      1.29158102	      0.20810832	      0.00000000
      0.11991452	      1.28839268	      0.20737046	      0.00000000
      0.12160345	      1.28521485	      0.20645403	      0.00000000
      0.12329239	      1.28204685	      0.20537705	      0.00000000
      0.12498133	      1.27888777	      0.20415832	      0.00000000
      0.12667026	      1.27573738	      0.20281362	      0.00000000
      0.12835920	      1.27259534	      0.20135950	      0.00000000
      0.13004814	      1.26946152	      0.19980950	      0.00000000
      0.13173707	      1.26633573	      0.19817786	      0.00000000
      0.13342601	      1.26321765	      0.19647589	      0.00000000
      0.13511495	      1.26010699	      0.19471555	      0.00000000
      0.13680388	      1.25700320	      0.19290598	      0.00000000
      0.13849282	      1.25390573	      0.19105697	      0.00000000
      0.14018176	      1.25081387	      0.18917571	      0.00000000
      0.14187070	      1.24772690	      0.18726997	      0.00000000
      0.14355963	      1.24464411	      0.18534531	      0.00000000
      0.14524857	      1.24156479	      0.18340778	      0.00000000
      0.14693751	      1.23848844	      0.18146166	      0.00000000
      0.14862644	      1.23541454	      0.17951162	      0.00000000
      0.15031538	      1.23234296	      0.17756098	      0.00000000
      0.15200432	      1.22927349	      0.17561334	      0.00000000
      0.15369325	      1.22620646	      0.17367136	      0.00000000
      0.15538219	      1.22314206	      0.17173787	      0.00000000
      0.15707113	      1.22008103	      0.16981506	      0.00000000
      0.15876006	      1.21702403	      0.16790524	      0.00000000
      0.16044900	      1.21397217	      0.16601022	      0.00000000
      0.16213794	      1.21092651	      0.16413196	      0.00000000
      0.16382687	      1.20788850	      0.16227196	      0.00000000
      0.16551581	      1.20485954	      0.16043182	      0.00000000
      0.16720475	      1.20184135	      0.15861278	      0.00000000
      0.16889368	      1.19883560	      0.15681611	      0.00000000
      0.17058262	      1.19584413	      0.15504295	      0.00000000
      0.17227156	      1.19286868	      0.15329456	      0.00000000
      0.17396050	      1.18991122	      0.15157201	      0.00000000
      0.17564943	      1.18697326	      0.14987657	      0.00000000
      0.17733837	      1.18405696	      0.14820875	      0.00000000
      0.17902731	      1.18116622	      0.14656862	      0.00000000
      0.18071624	      1.17830260	      0.14495627	      0.00000000
      0.18240518	      1.17546621	      0.14337233	      0.00000000
      0.18409412	      1.17265867	      0.14181653	      0.00000000
      0.18578305	      1.16988201	      0.14028862	      0.00000000
      0.18747199	      1.16713788	      0.13878831	      0.00000000
      0.18916093	      1.16442797	      0.13731548	      0.00000000
      0.19084986	      1.16175371	      0.13586980	      0.00000000
      0.19253880	      1.15911662	      0.13445084	      0.00000000
      0.19422774	      1.15651808	      0.13305788	      0.00000000
      0.19591667	      1.15395949	      0.13169021	      0.00000000
      0.19760561	      1.15144206	      0.13034698	      0.00000000
      0.19929455	      1.14896705	      0.12902739	      0.00000000
      0.20098348	      1.14653548	      0.12773063	      0.00000000
      0.20267242	      1.14414843	      0.12645586	      0.00000000
      0.20436136	      1.14180678	      0.12520234	      0.00000000
      0.20605030	      1.13951147	      0.12396928	      0.00000000
      0.20773923	      1.13726319	      0.12275621	      0.00000000
      0.20942817	      1.13506270	      0.12156254	      0.00000000
      0.21111711	      1.13291050	      0.12038823	      0.00000000
      0.21280604	      1.13080716	      0.11923312	      0.00000000
      0.21449498	      1.12875298	      0.11809771	      0.00000000
      0.21618392	      1.12674830	      0.11698241	      0.00000000
      0.21787285	      1.12479322	      0.11588825	      0.00000000
      0.21956179	      1.12288787	      0.11481625	      0.00000000
      0.22125073	      1.12103223	      0.11376760	      0.00000000
      0.22293966	      1.11922630	      0.11274358	      0.00000000
      0.22462860	      1.11747012	      0.11174488	      0.00000000
      0.22631754	      1.11576373	      0.11077236	      0.00000000
      0.22800647	      1.11410734	      0.10982560	      0.00000000
      0.22969541	      1.11250117	      0.10890438	      0.00000000
      0.23138435	      1.11094559	      0.10800704	      0.00000000
      0.23307328	      1.10944098	      0.10713213	      0.00000000
      0.23476222	      1.10798774	      0.10627721	      0.00000000
      0.23645116	      1.10658624	      0.10544001	      0.00000000
      0.23814010	      1.10523679	      0.10461792	      0.00000000
      0.23982903	      1.10393966	      0.10380842	      0.00000000
      0.24151797	      1.10269508	      0.10300911	      0.00000000
      0.24320691	      1.10150322	      0.10221762	      0.00000000
      0.24489584	      1.10036442	      0.10143194	      0.00000000
      0.24658478	      1.09927895	      0.10064998	      0.00000000
      0.24827372	      1.09824751	      0.09987010	      0.00000000
      0.24996265	      1.09727071	      0.09909057	      0.00000000
      0.25165159	      1.09634964	      0.09831006	      0.00000000
      0.25334053	      1.09548533	      0.09752712	      0.00000000
      0.25502946	      1.09467895	      0.09674062	      0.00000000
      0.25671840	      1.09393168	      0.09594932	      0.00000000
      0.25840734	      1.09324451	      0.09515218	      0.00000000
      0.26009627	      1.09261848	      0.09434810	      0.00000000
      0.26178521	      1.09205428	      0.09353613	      0.00000000
      0.26347415	      1.09155266	      0.09271527	      0.00000000
      0.26516308	      1.09111405	      0.09188468	      0.00000000
      0.26685202	      1.09073895	      0.09104347	      0.00000000
      0.26854096	      1.09042760	      0.09019094	      0.00000000
      0.27022990	      1.09018032	      0.08932634	      0.00000000
      0.27191883	      1.08999724	      0.08844908	      0.00000000
      0.27360777	      1.08987854	      0.08755856	      0.00000000
      0.27529671	      1.08982428	      0.08665429	      0.00000000
      0.27698564	      1.08983457	      0.08573573	      0.00000000
      0.27867458	      1.08990943	      0.08480241	      0.00000000
      0.28036352	      1.09004900	      0.08385376	      0.00000000
      0.28205245	      1.09025321	      0.08288929	      0.00000000
      0.28374139	      1.09052210	      0.08190845	      0.00000000
      0.28543033	      1.09085515	      0.08091087	      0.00000000
      0.28711926	      1.09125176	      0.07989624	      0.00000000
      0.28880820	      1.09171082	      0.07886425	      0.00000000
      0.29049714	      1.09223146	      0.07781461	      0.00000000
      0.29218607	      1.09281252	      0.07674664	      0.00000000
      0.29387501	      1.09345432	      0.07565955	      0.00000000
      0.29556395	      1.09415552	      0.07455244	      0.00000000
      0.29725288	      1.09491050	      0.07342470	      0.00000000
      0.29894182	      1.09571840	      0.07227510	      0.00000000
      0.30063076	      1.09658224	      0.07110221	      0.00000000
      0.30231970	      1.09750112	      0.06990566	      0.00000000
      0.30400863	      1.09847308	      0.06868513	      0.00000000
      0.30569757	      1.09949649	      0.06744037	      0.00000000
      0.30738651	      1.10056980	      0.06617097	      0.00000000
      0.30907544	      1.10169215	      0.06487642	      0.00000000
      0.31076438	      1.10286265	      0.06355619	      0.00000000
      0.31245332	      1.10408086	      0.06220994	      0.00000000
      0.31414225	      1.10534617	      0.06083733	      0.00000000
      0.31583119	      1.10665827	      0.05943832	      0.00000000
      0.31752013	      1.10801676	      0.05801282	      0.00000000
      0.31920906	      1.10942159	      0.05656095	      0.00000000
      0.32089800	      1.11087268	      0.05508281	      0.00000000
      0.32258694	      1.11237027	      0.05357862	      0.00000000
      0.32427587	      1.11391457	      0.05204859	      0.00000000
      0.32596481	      1.11550606	      0.05049306	      0.00000000
      0.32765375	      1.11714515	      0.04891236	      0.00000000
      0.32934268	      1.11883244	      0.04730696	      0.00000000
      0.33103162	      1.12056852	      0.04567729	      0.00000000
      0.33272056	      1.12235408	      0.04402393	      0.00000000
      0.33440950	      1.12418982	      0.04234740	      0.00000000
      0.33609843	      1.12607653	      0.04064832	      0.00000000
      0.33778737	      1.12801496	      0.03892729	      0.00000000
      0.33947631	      1.13000590	      0.03718495	      0.00000000
      0.34116524	      1.13205011	      0.03542193	      0.00000000
      0.34285418	      1.13414829	      0.03363887	      0.00000000
      0.34454312	      1.13630115	      0.03183641	      0.00000000
      0.34623205	      1.13850930	      0.03001515	      0.00000000
      0.34792099	      1.14077338	      0.02817571	      0.00000000
      0.34960993	      1.14309393	      0.02631865	      0.00000000
      0.35129886	      1.14547150	      0.02444454	      0.00000000
      0.35298780	      1.14790653	      0.02255385	      0.00000000
      0.35467674	      1.15039949	      0.02064712	      0.00000000
      0.35636567	      1.15295065	      0.01872471	      0.00000000
      0.35805461	      1.15556033	      0.01678703	      0.00000000
      0.35974355	      1.15822859	      0.01483431	      0.00000000
      0.36143248	      1.16095555	      0.01286681	      0.00000000
      0.36312142	      1.16374101	      0.01088458	      0.00000000
      0.36481036	      1.16658485	      0.00888770	      0.00000000
      0.36649930	      1.16948665	      0.00687604	      0.00000000
      0.36818823	      1.17244604	      0.00484953	      0.00000000
      0.36987717	      1.17546241	      0.00280789	      0.00000000
      0.37156611	      1.17853520	      0.00075087	      0.00000000
      0.37325504	      1.18166367	     -0.00132189	      0.00000000
      0.37494398	      1.18484711	     -0.00341077	      0.00000000
      0.37663292	      1.18808468	     -0.00551621	      0.00000000
      0.37832185	      1.19137557	     -0.00763868	      0.00000000
      0.38001079	      1.19471890	     -0.00977868	      0.00000000
      0.38169973	      1.19811380	     -0.01193672	      0.00000000
      0.38338866	      1.20155938	     -0.01411331	      0.00000000
      0.38507760	      1.20505477	     -0.01630900	      0.00000000
      0.38676654	      1.20859915	     -0.01852425	      0.00000000
      0.38845547	      1.21219170	     -0.02075959	      0.00000000
      0.39014441	      1.21583170	     -0.02301541	      0.00000000
      0.39183335	      1.21951844	     -0.02529215	      0.00000000
      0.39352228	      1.22325128	     -0.02759015	      0.00000000
      0.39521122	      1.22702959	     -0.02990974	      0.00000000
      0.39690016	      1.23085280	     -0.03225117	      0.00000000
      0.39858910	      1.23472038	     -0.03461468	      0.00000000
      0.40027803	      1.23863178	     -0.03700041	      0.00000000
      0.40196697	      1.24258646	     -0.03940853	      0.00000000
      0.40365591	      1.24658382	     -0.04183915	      0.00000000
      0.40534484	      1.25062324	     -0.04429240	      0.00000000
      0.40703378	      1.25470397	     -0.04676842	      0.00000000
      0.40872272	      1.25882526	     -0.04926734	      0.00000000
      0.41041165	      1.26298620	     -0.05178938	      0.00000000
      0.41210059	      1.26718589	     -0.05433472	      0.00000000
      0.41378953	      1.27142328	     -0.05690363	      0.00000000
      0.41547846	      1.27569736	     -0.05949638	      0.00000000
      0.41716740	      1.28000707	     -0.06211325	      0.00000000
      0.41885634	      1.28435136	     -0.06475453	      0.00000000
      0.42054527	      1.28872925	     -0.06742049	      0.00000000
      0.42223421	      1.29313976	     -0.07011140	      0.00000000
      0.42392315	      1.29758203	     -0.07282748	      0.00000000
      0.42561209	      1.30205519	     -0.07556893	      0.00000000
      0.42730102	      1.30655839	     -0.07833591	      0.00000000
      0.42898996	      1.31109082	     -0.08112857	      0.00000000
      0.43067890	      1.31565143	     -0.08394700	      0.00000000
      0.43236783	      1.32023926	     -0.08679134	      0.00000000
      0.43405677	      1.32485291	     -0.08966165	      0.00000000
      0.43574571	      1.32949102	     -0.09255803	      0.00000000
      0.43743464	      1.33415181	     -0.09548056	      0.00000000
      0.43912358	      1.33883343	     -0.09842933	      0.00000000
      0.44081252	      1.34353396	     -0.10140440	      0.00000000
      0.44250145	      1.34825129	     -0.10440585	      0.00000000
      0.44419039	      1.35298403	     -0.10743362	      0.00000000
      0.44587933	      1.35773066	     -0.11048767	      0.00000000
      0.44756826	      1.36249089	     -0.11356777	      0.00000000
      0.44925720	      1.36726437	     -0.11667368	      0.00000000
      0.45094614	      1.37205166	     -0.11980513	      0.00000000
      0.45263507	      1.37685316	     -0.12296181	      0.00000000
      0.45432401	      1.38166945	     -0.12614369	      0.00000000
      0.45601295	      1.38650093	     -0.12935068	      0.00000000
      0.45770189	      1.39134794	     -0.13258314	      0.00000000
      0.45939082	      1.39621061	     -0.13584138	      0.00000000
      0.46107976	      1.40108962	     -0.13912607	      0.00000000
      0.46276870	      1.40598560	     -0.14243778	      0.00000000
      0.46445763	      1.41090042	     -0.14577721	      0.00000000
      0.46614657	      1.41583640	     -0.14914479	      0.00000000
      0.46783551	      1.42079592	     -0.15254144	      0.00000000
      0.46952444	      1.42578171	     -0.15596787	      0.00000000
      0.47121338	      1.43079399	     -0.15942603	      0.00000000
      0.47290232	      1.43583328	     -0.16291768	      0.00000000
      0.47459125	      1.44089624	     -0.16644603	      0.00000000
      0.47628019	      1.44597997	     -0.17001416	      0.00000000
      0.47796913	      1.45107858	     -0.17362591	      0.00000000
      0.47965806	      1.45618649	     -0.17728507	      0.00000000
      0.48134700	      1.46129734	     -0.18099511	      0.00000000
      0.48303594	      1.46640489	     -0.18475947	      0.00000000
      0.48472487	      1.47150428	     -0.18858066	      0.00000000
      0.48641381	      1.47659073	     -0.19246122	      0.00000000
      0.48810275	      1.48166126	     -0.19640312	      0.00000000
      0.48979169	      1.48671286	     -0.20040852	      0.00000000
      0.49148062	      1.49174305	     -0.20447951	      0.00000000
      0.49316956	      1.49674940	     -0.20861823	      0.00000000
      0.49485850	      1.50172812	     -0.21282686	      0.00000000
      0.49654743	      1.50667571	     -0.21710750	      0.00000000
      0.49823637	      1.51158600	     -0.22146231	      0.00000000
      0.49992531	      1.51645320	     -0.22589358	      0.00000000
      0.50161424	      1.52126871	     -0.23040354	      0.00000000
      0.50330318	      1.52602395	     -0.23499449	      0.00000000
      0.50499212	      1.53070941	     -0.23966837	      0.00000000
      0.50668105	      1.53531687	     -0.24442616	      0.00000000
      0.50836999	      1.53983731	     -0.24927033	      0.00000000
      0.51005893	      1.54426194	     -0.25420278	      0.00000000
      0.51174786	      1.54857925	     -0.25923014	      0.00000000
      0.51343680	      1.55277773	     -0.26435932	      0.00000000
      0.51512574	      1.55684350	     -0.26960114	      0.00000000
      0.51681467	      1.56076213	     -0.27496734	      0.00000000
      0.51850361	      1.56452079	     -0.28046705	      0.00000000
      0.52019255	      1.56810611	     -0.28611246	      0.00000000
      0.52188149	      1.57151125	     -0.29190159	      0.00000000
      0.52357042	      1.57473208	     -0.29783657	      0.00000000
      0.52525936	      1.57776688	     -0.30389411	      0.00000000
      0.52694830	      1.58061389	     -0.31005764	      0.00000000
      0.52863723	      1.58326331	     -0.31627868	      0.00000000
      0.53032617	      1.58571486	     -0.32252026	      0.00000000
      0.53201511	      1.58793515	     -0.32870207	      0.00000000
      0.53370404	      1.58989749	     -0.33475631	      0.00000000
      0.53539298	      1.59152360	     -0.34055362	      0.00000000
      0.53708192	      1.59273699	     -0.34597052	      0.00000000
      0.53877085	      1.59342207	     -0.35082944	      0.00000000
      0.54045979	      1.59345898	     -0.35495317	      0.00000000
      0.54214873	      1.59274231	     -0.35815579	      0.00000000
      0.54383766	      1.59115521	     -0.36024970	      0.00000000
      0.54552660	      1.58865898	     -0.36109150	      0.00000000
      0.54721554	      1.58523777	     -0.36057534	      0.00000000
      0.54890447	      1.58184770	     -0.35949783	      0.00000000
      0.55059341	      1.57927542	     -0.35847420	      0.00000000
      0.55228235	      1.57629520	     -0.35612447	      0.00000000
      0.55397129	      1.57198051	     -0.35144552	      0.00000000
      0.55566022	      1.56609554	     -0.34398797	      0.00000000
      0.55734916	      1.55817867	     -0.33287292	      0.00000000
      0.55903810	      1.54857320	     -0.31811325	      0.00000000
      0.56072703	      1.53778688	     -0.29994016	      0.00000000
      0.56241597	      1.52620658	     -0.27920782	      0.00000000
      0.56410491	      1.51398592	     -0.25659745	      0.00000000
      0.56579384	      1.50112053	     -0.23280591	      0.00000000
      0.56748278	      1.48764322	     -0.20858546	      0.00000000
      0.56917172	      1.47372640	     -0.18414164	      0.00000000
      0.57086065	      1.45966384	     -0.15952378	      0.00000000
      0.57254959	      1.44579295	     -0.13474017	      0.00000000
      0.57423853	      1.43235721	     -0.10997719	      0.00000000
      0.57592746	      1.41944053	     -0.08550061	      0.00000000
      0.57761640	      1.40716215	     -0.06155749	      0.00000000
      0.57930534	      1.39553440	     -0.03835808	      0.00000000
      0.58099427	      1.38458799	     -0.01611808	      0.00000000
      0.58268321	      1.37430672	      0.00504957	      0.00000000
      0.58437215	      1.36468943	      0.02501999	      0.00000000
      0.58606109	      1.35571077	      0.04376352	      0.00000000
      0.58775002	      1.34735163	      0.06123125	      0.00000000
      0.58943896	      1.33958002	      0.07743889	      0.00000000
      0.59112790	      1.33236693	      0.09238733	      0.00000000
      0.59281683	      1.32567764	      0.10611612	      0.00000000
      0.59450577	      1.31947911	      0.11865555	      0.00000000
      0.59619471	      1.31373743	      0.13005718	      0.00000000
      0.59788364	      1.30841943	      0.14036772	      0.00000000
      0.59957258	      1.30349328	      0.14964351	      0.00000000
      0.60126152	      1.29892697	      0.15793883	      0.00000000
      0.60295045	      1.29469069	      0.16530945	      0.00000000
      0.60463939	      1.29075419	      0.17181077	      0.00000000
      0.60632833	      1.28708999	      0.17749453	      0.00000000
      0.60801726	      1.28366967	      0.18241316	      0.00000000
      0.60970620	      1.28046840	      0.18661289	      0.00000000
      0.61139514	      1.27746033	      0.19014130	      0.00000000
      0.61308407	      1.27462426	      0.19303917	      0.00000000
      0.61477301	      1.27193781	      0.19534876	      0.00000000
      0.61646195	      1.26938389	      0.19710609	      0.00000000
      0.61815089	      1.26694401	      0.19834855	      0.00000000
      0.61983982	      1.26460505	      0.19910833	      0.00000000
      0.62152876	      1.26235260	      0.19941881	      0.00000000
      0.62321770	      1.26017728	      0.19930936	      0.00000000
      0.62490663	      1.25806856	      0.19881030	      0.00000000
      0.62659557	      1.25602014	      0.19794889	      0.00000000
      0.62828451	      1.25402475	      0.19675311	      0.00000000
      0.62997344	      1.25207827	      0.19524854	      0.00000000
      0.63166238	      1.25017590	      0.19346148	      0.00000000
      0.63335132	      1.24831488	      0.19141595	      0.00000000
      0.63504025	      1.24649207	      0.18913655	      0.00000000
      0.63672919	      1.24470534	      0.18664559	      0.00000000
      0.63841813	      1.24295242	      0.18396597	      0.00000000
      0.64010706	      1.24123125	      0.18111821	      0.00000000
      0.64179600	      1.23953979	      0.17812334	      0.00000000
      0.64348494	      1.23787564	      0.17500000	      0.00000000
      0.64517387	      1.23623636	      0.17176744	      0.00000000
      0.64686281	      1.23461898	      0.16844260	      0.00000000
      0.64855175	      1.23302005	      0.16504336	      0.00000000
      0.65024069	      1.23143630	      0.16158469	      0.00000000
      0.65192962	      1.22986683	      0.15808129	      0.00000000
      0.65361856	      1.22830737	      0.15454628	      0.00000000
      0.65530750	      1.22675175	      0.15099411	      0.00000000
      0.65699643	      1.22519653	      0.14743591	      0.00000000
      0.65868537	      1.22363869	      0.14388304	      0.00000000
      0.66037431	      1.22207547	      0.14034521	      0.00000000
      0.66206324	      1.22050385	      0.13683295	      0.00000000
      0.66375218	      1.21892132	      0.13335524	      0.00000000
      0.66544112	      1.21732515	      0.12992146	      0.00000000
      0.66713005	      1.21571377	      0.12653896	      0.00000000
      0.66881899	      1.21408548	      0.12321529	      0.00000000
      0.67050793	      1.21243993	      0.11995632	      0.00000000
      0.67219686	      1.21077650	      0.11676844	      0.00000000
      0.67388580	      1.20909567	      0.11365671	      0.00000000
      0.67557474	      1.20739772	      0.11062661	      0.00000000
      0.67726368	      1.20568369	      0.10768214	      0.00000000
      0.67895261	      1.20395447	      0.10482762	      0.00000000
      0.68064155	      1.20221134	      0.10206596	      0.00000000
      0.68233049	      1.20045547	      0.09940044	      0.00000000
      0.68401942	      1.19868809	      0.09683305	      0.00000000
      0.68570836	      1.19691042	      0.09436614	      0.00000000
      0.68739730	      1.19512368	      0.09200073	      0.00000000
      0.68908623	      1.19332910	      0.08973815	      0.00000000
      0.69077517	      1.19152795	      0.08757850	      0.00000000
      0.69246411	      1.18972151	      0.08552213	      0.00000000
      0.69415304	      1.18791108	      0.08356831	      0.00000000
      0.69584198	      1.18609795	      0.08171658	      0.00000000
      0.69753092	      1.18428345	      0.07996558	      0.00000000
      0.69921985	      1.18246890	      0.07831415	      0.00000000
      0.70090879	      1.18065571	      0.07676045	      0.00000000
      0.70259773	      1.17884527	      0.07530277	      0.00000000
      0.70428666	      1.17703907	      0.07393885	      0.00000000
      0.70597560	      1.17523861	      0.07266658	      0.00000000
      0.70766454	      1.17344546	      0.07148347	      0.00000000
      0.70935348	      1.17166117	      0.07038710	      0.00000000
      0.71104241	      1.16988741	      0.06937480	      0.00000000
      0.71273135	      1.16812579	      0.06844397	      0.00000000
      0.71442029	      1.16637803	      0.06759181	      0.00000000
      0.71610922	      1.16464584	      0.06681554	      0.00000000
      0.71779816	      1.16293094	      0.06611228	      0.00000000
      0.71948710	      1.16123508	      0.06547917	      0.00000000
      0.72117603	      1.15955993	      0.06491325	      0.00000000
      0.72286497	      1.15790718	      0.06441161	      0.00000000
      0.72455391	      1.15627841	      0.06397124	      0.00000000
      0.72624284	      1.15467520	      0.06358917	      0.00000000
      0.72793178	      1.15309897	      0.06326230	      0.00000000
      0.72962072	      1.15155119	      0.06298758	      0.00000000
      0.73130965	      1.15003312	      0.06276182	      0.00000000
      0.73299859	      1.14854610	      0.06258188	      0.00000000
      0.73468753	      1.14709127	      0.06244451	      0.00000000
      0.73637646	      1.14566983	      0.06234648	      0.00000000
      0.73806540	      1.14428283	      0.06228454	      0.00000000
      0.73975434	      1.14293133	      0.06225542	      0.00000000
      0.74144328	      1.14161635	      0.06225592	      0.00000000
      0.74313221	      1.14033887	      0.06228280	      0.00000000
      0.74482115	      1.13909987	      0.06233296	      0.00000000
      0.74651009	      1.13790032	      0.06240324	      0.00000000
      0.74819902	      1.13674124	      0.06249074	      0.00000000
      0.74988796	      1.13562360	      0.06259245	      0.00000000
      0.75157690	      1.13454849	      0.06270574	      0.00000000
      0.75326583	      1.13351695	      0.06282785	      0.00000000
      0.75495477	      1.13253017	      0.06295652	      0.00000000
      0.75664371	      1.13158929	      0.06308932	      0.00000000
      0.75833264	      1.13069561	      0.06322450	      0.00000000
      0.76002158	      1.12985039	      0.06336009	      0.00000000
      0.76171052	      1.12905502	      0.06349498	      0.00000000
      0.76339945	      1.12831088	      0.06362781	      0.00000000
      0.76508839	      1.12761943	      0.06375823	      0.00000000
      0.76677733	      1.12698209	      0.06388566	      0.00000000
      0.76846626	      1.12640034	      0.06401056	      0.00000000
      0.77015520	      1.12587562	      0.06413320	      0.00000000
      0.77184414	      1.12540934	      0.06425474	      0.00000000
      0.77353308	      1.12500292	      0.06437625	      0.00000000
      0.77522201	      1.12465762	      0.06449913	      0.00000000
      0.77691095	      1.12437475	      0.06462484	      0.00000000
      0.77859989	      1.12415543	      0.06475427	      0.00000000
      0.78028882	      1.12400080	      0.06488850	      0.00000000
      0.78197776	      1.12391180	      0.06502724	      0.00000000
      0.78366670	      1.12388939	      0.06517044	      0.00000000
      0.78535563	      1.12393429	      0.06531646	      0.00000000
      0.78704457	      1.12404726	      0.06546390	      0.00000000
      0.78873351	      1.12422890	      0.06561025	      0.00000000
      0.79042244	      1.12447984	      0.06575322	      0.00000000
      0.79211138	      1.12480058	      0.06589012	      0.00000000
      0.79380032	      1.12519171	      0.06601837	      0.00000000
      0.79548925	      1.12565355	      0.06613546	      0.00000000
      0.79717819	      1.12618652	      0.06623889	      0.00000000
      0.79886713	      1.12679054	      0.06632641	      0.00000000
      0.80055606	      1.12746565	      0.06639568	      0.00000000
      0.80224500	      1.12821128	      0.06644460	      0.00000000
      0.80393394	      1.12902696	      0.06647101	      0.00000000
      0.80562288	      1.12991166	      0.06647291	      0.00000000
      0.80731181	      1.13086445	      0.06644824	      0.00000000
      0.80900075	      1.13188405	      0.06639515	      0.00000000
      0.81068969	      1.13296923	      0.06631171	      0.00000000
      0.81237862	      1.13411862	      0.06619625	      0.00000000
      0.81406756	      1.13533087	      0.06604704	      0.00000000
      0.81575650	      1.13660470	      0.06586263	      0.00000000
      0.81744543	      1.13793878	      0.06564153	      0.00000000
      0.81913437	      1.13933205	      0.06538255	      0.00000000
      0.82082331	      1.14078343	      0.06508442	      0.00000000
      0.82251224	      1.14229213	      0.06474618	      0.00000000
      0.82420118	      1.14385738	      0.06436677	      0.00000000
      0.82589012	      1.14547859	      0.06394547	      0.00000000
      0.82757905	      1.14715501	      0.06348150	      0.00000000
      0.82926799	      1.14888617	      0.06297435	      0.00000000
      0.83095693	      1.15067150	      0.06242344	      0.00000000
      0.83264586	      1.15251095	      0.06182840	      0.00000000
      0.83433480	      1.15440468	      0.06118869	      0.00000000
      0.83602374	      1.15635290	      0.06050414	      0.00000000
      0.83771268	      1.15835555	      0.05977459	      0.00000000
      0.83940161	      1.16041240	      0.05900024	      0.00000000
      0.84109055	      1.16252291	      0.05818131	      0.00000000
      0.84277949	      1.16468747	      0.05731787	      0.00000000
      0.84446842	      1.16690722	      0.05640977	      0.00000000
      0.84615736	      1.16918345	      0.05545680	      0.00000000
      0.84784630	      1.17152004	      0.05445844	      0.00000000
      0.84953523	      1.17391650	      0.05341516	      0.00000000
      0.85122417	      1.17636348	      0.05232816	      0.00000000
      0.85291311	      1.17886168	      0.05119706	      0.00000000
      0.85460204	      1.18141933	      0.05002106	      0.00000000
      0.85629098	      1.18403615	      0.04880177	      0.00000000
      0.85797992	      1.18671025	      0.04754074	      0.00000000
      0.85966885	      1.18944134	      0.04623898	      0.00000000
      0.86135779	      1.19222930	      0.04489738	      0.00000000
      0.86304673	      1.19507494	      0.04351637	      0.00000000
      0.86473566	      1.19797878	      0.04209654	      0.00000000
      0.86642460	      1.20094112	      0.04063838	      0.00000000
      0.86811354	      1.20396212	      0.03914248	      0.00000000
      0.86980248	      1.20704150	      0.03760935	      0.00000000
      0.87149141	      1.21017904	      0.03603951	      0.00000000
      0.87318035	      1.21337425	      0.03443333	      0.00000000
      0.87486929	      1.21662673	      0.03279119	      0.00000000
      0.87655822	      1.21993584	      0.03111329	      0.00000000
      0.87824716	      1.22330101	      0.02939987	      0.00000000
      0.87993610	      1.22672148	      0.02765106	      0.00000000
      0.88162503	      1.23019651	      0.02586698	      0.00000000
      0.88331397	      1.23372524	      0.02404767	      0.00000000
      0.88500291	      1.23730681	      0.02219316	      0.00000000
      0.88669184	      1.24094028	      0.02030341	      0.00000000
      0.88838078	      1.24462474	      0.01837839	      0.00000000
      0.89006972	      1.24835920	      0.01641800	      0.00000000
      0.89175865	      1.25214269	      0.01442213	      0.00000000
      0.89344759	      1.25597426	      0.01239067	      0.00000000
      0.89513653	      1.25985292	      0.01032347	      0.00000000
      0.89682546	      1.26377776	      0.00822039	      0.00000000
      0.89851440	      1.26774785	      0.00608128	      0.00000000
      0.90020334	      1.27176234	      0.00390601	      0.00000000
      0.90189228	      1.27582038	      0.00169444	      0.00000000
      0.90358121	      1.27992118	     -0.00055356	      0.00000000
      0.90527015	      1.28406397	     -0.00283812	      0.00000000
      0.90695909	      1.28824799	     -0.00515936	      0.00000000
      0.90864802	      1.29247250	     -0.00751740	      0.00000000
      0.91033696	      1.29673672	     -0.00991236	      0.00000000
      0.91202590	      1.30103992	     -0.01234436	      0.00000000
      0.91371483	      1.30538126	     -0.01481353	      0.00000000
      0.91540377	      1.30975995	     -0.01732000	      0.00000000
      0.91709271	      1.31417510	     -0.01986390	      0.00000000
      0.91878164	      1.31862587	     -0.02244537	      0.00000000
      0.92047058	      1.32311129	     -0.02506456	      0.00000000
      0.92215952	      1.32763043	     -0.02772163	      0.00000000
      0.92384845	      1.33218228	     -0.03041674	      0.00000000
      0.92553739	      1.33676587	     -0.03315007	      0.00000000
      0.92722633	      1.34138016	     -0.03592174	      0.00000000
      0.92891527	      1.34602416	     -0.03873192	      0.00000000
      0.93060420	      1.35069677	     -0.04158075	      0.00000000
      0.93229314	      1.35539694	     -0.04446838	      0.00000000
      0.93398208	      1.36012342	     -0.04739497	      0.00000000
      0.93567101	      1.36487503	     -0.05036068	      0.00000000
      0.93735995	      1.36965034	     -0.05336569	      0.00000000
      0.93904889	      1.37444795	     -0.05641016	      0.00000000
      0.94073782	      1.37926632	     -0.05949423	      0.00000000
      0.94242676	      1.38410388	     -0.06261805	      0.00000000
      0.94411570	      1.38895909	     -0.06578165	      0.00000000
      0.94580463	      1.39383034	     -0.06898509	      0.00000000
      0.94749357	      1.39871635	     -0.07222829	      0.00000000
      0.94918251	      1.40361576	     -0.07551116	      0.00000000
      0.95087144	      1.40852777	     -0.07883349	      0.00000000
      0.95256038	      1.41345151	     -0.08219507	      0.00000000
      0.95424932	      1.41838674	     -0.08559564	      0.00000000
      0.95593825	      1.42333312	     -0.08903495	      0.00000000
      0.95762719	      1.42829073	     -0.09251286	      0.00000000
      0.95931613	      1.43325953	     -0.09602920	      0.00000000
      0.96100507	      1.43823964	     -0.09958404	      0.00000000
      0.96269400	      1.44323107	     -0.10317742	      0.00000000
      0.96438294	      1.44823390	     -0.10680961	      0.00000000
      0.96607188	      1.45324824	     -0.11048080	      0.00000000
      0.96776081	      1.45827433	     -0.11419142	      0.00000000
      0.96944975	      1.46331258	     -0.11794173	      0.00000000
      0.97113869	      1.46836325	     -0.12173243	      0.00000000
      0.97282762	      1.47342693	     -0.12556400	      0.00000000
      0.97451656	      1.47850301	     -0.12943781	      0.00000000
      0.97620550	      1.48359118	     -0.13335505	      0.00000000
      0.97789443	      1.48868899	     -0.13731806	      0.00000000
      0.97958337	      1.49379421	     -0.14132911	      0.00000000
      0.98127231	      1.49890270	     -0.14539117	      0.00000000
      0.98296124	      1.50401048	     -0.14950724	      0.00000000
      0.98465018	      1.50911319	     -0.15368002	      0.00000000
      0.98633912	      1.51420636	     -0.15791228	      0.00000000
      0.98802805	      1.51928713	     -0.16220565	      0.00000000
      0.98971699	      1.52435235	     -0.16656192	      0.00000000
      0.99140593	      1.52940171	     -0.17098159	      0.00000000
      0.99309487	      1.53443466	     -0.17546537	      0.00000000
      0.99478380	      1.53945314	     -0.18001288	      0.00000000
      0.99647274	      1.54445879	     -0.18462398	      0.00000000
      0.99816168	      1.54945411	     -0.18929757	      0.00000000
      0.99985061	      1.55444152	     -0.19403278	      0.00000000
      1.00153955	      1.55942247	     -0.19882806	      0.00000000
      1.00322849	      1.56439870	     -0.20368174	      0.00000000
      1.00491742	      1.56936917	     -0.20859137	      0.00000000
      1.00660636	      1.57433373	     -0.21355425	      0.00000000
      1.00829530	      1.57928728	     -0.21856870	      0.00000000
      1.00998423	      1.58422525	     -0.22363036	      0.00000000
      1.01167317	      1.58913874	     -0.22874007	      0.00000000
      1.01336211	      1.59403253	     -0.23387768	      0.00000000
