PointPosition
version=1
nRows=601
nColumns=4
inDegrees=no
No description.
endheader
time	state_0	state_1	state_2
      0.00000000	     -0.37457002	      0.00065439	     -0.09478690
      0.00195877	     -0.37464900	      0.00107433	     -0.09478690
      0.00391754	     -0.37472410	      0.00150781	     -0.09478690
      0.00587631	     -0.37479397	      0.00195538	     -0.09478690
      0.00783507	     -0.37485667	      0.00241771	     -0.09478690
      0.00979384	     -0.37490987	      0.00289537	     -0.09478690
      0.01175261	     -0.37495046	      0.00338883	     -0.09478690
      0.01371138	     -0.37497437	      0.00389865	     -0.09478690
      0.01567015	     -0.37496870	      0.00442943	     -0.09478690
      0.01762892	     -0.37491445	      0.00498839	     -0.09478690
      0.01958769	     -0.37477009	      0.00558810	     -0.09478690
      0.02154646	     -0.37447105	      0.00624322	     -0.09478690
      0.02350522	     -0.37396062	      0.00696323	     -0.09478690
      0.02546399	     -0.37321965	      0.00774787	     -0.09478690
      0.02742276	     -0.37227276	      0.00858463	     -0.09478690
      0.02938153	     -0.37115030	      0.00945960	     -0.09478690
      0.03134030	     -0.36988417	      0.01035965	     -0.09478690
      0.03329907	     -0.36850137	      0.01127439	     -0.09478690
      0.03525784	     -0.36702057	      0.01219694	     -0.09478690
      0.03721661	     -0.36545655	      0.01312209	     -0.09478690
      0.03917537	     -0.36381879	      0.01404665	     -0.09478690
      0.04113414	     -0.36211525	      0.01496807	     -0.09478690
      0.04309291	     -0.36035148	      0.01588464	     -0.09478690
      0.04505168	     -0.35853215	      0.01679498	     -0.09478690
      0.04701045	     -0.35666045	      0.01769819	     -0.09478690
      0.04896922	     -0.35473899	      0.01859357	     -0.09478690
      0.05092799	     -0.35276940	      0.01948069	     -0.09478690
      0.05288676	     -0.35075290	      0.02035927	     -0.09478690
      0.05484552	     -0.34869016	      0.02122918	     -0.09478690
      0.05680429	     -0.34658163	      0.02209033	     -0.09478690
      0.05876306	     -0.34442764	      0.02294267	     -0.09478690
      0.06072183	     -0.34222857	      0.02378613	     -0.09478690
      0.06268060	     -0.33998497	      0.02462056	     -0.09478690
      0.06463937	     -0.33769760	      0.02544574	     -0.09478690
      0.06659814	     -0.33536745	      0.02626137	     -0.09478690
      0.06855691	     -0.33299564	      0.02706711	     -0.09478690
      0.07051567	     -0.33058343	      0.02786255	     -0.09478690
      0.07247444	     -0.32813204	      0.02864728	     -0.09478690
      0.07443321	     -0.32564267	      0.02942091	     -0.09478690
      0.07639198	     -0.32311641	      0.03018304	     -0.09478690
      0.07835075	     -0.32055421	      0.03093333	     -0.09478690
      0.08030952	     -0.31795693	      0.03167145	     -0.09478690
      0.08226829	     -0.31532529	      0.03239712	     -0.09478690
      0.08422706	     -0.31265993	      0.03311007	     -0.09478690
      0.08618582	     -0.30996139	      0.03381008	     -0.09478690
      0.08814459	     -0.30723020	      0.03449691	     -0.09478690
      0.09010336	     -0.30446682	      0.03517037	     -0.09478690
      0.09206213	     -0.30167169	      0.03583024	     -0.09478690
      0.09402090	     -0.29884523	      0.03647635	     -0.09478690
      0.09597967	     -0.29598783	      0.03710852	     -0.09478690
      0.09793844	     -0.29309987	      0.03772657	     -0.09478690
      0.09989720	     -0.29018170	      0.03833034	     -0.09478690
      0.10185597	     -0.28723363	      0.03891968	     -0.09478690
      0.10381474	     -0.28425597	      0.03949445	     -0.09478690
      0.10577351	     -0.28124898	      0.04005452	     -0.09478690
      0.10773228	     -0.27821291	      0.04059977	     -0.09478690
      0.10969105	     -0.27514800	      0.04113010	     -0.09478690
      0.11164982	     -0.27205445	      0.04164541	     -0.09478690
      0.11360859	     -0.26893244	      0.04214561	     -0.09478690
      0.11556735	     -0.26578216	      0.04263063	     -0.09478690
      0.11752612	     -0.26260375	      0.04310039	     -0.09478690
      0.11948489	     -0.25939735	      0.04355485	     -0.09478690
      0.12144366	     -0.25616311	      0.04399394	     -0.09478690
      0.12340243	     -0.25290113	      0.04441763	     -0.09478690
      0.12536120	     -0.24961153	      0.04482589	     -0.09478690
      0.12731997	     -0.24629439	      0.04521868	     -0.09478690
      0.12927874	     -0.24294981	      0.04559599	     -0.09478690
      0.13123750	     -0.23957787	      0.04595780	     -0.09478690
      0.13319627	     -0.23617862	      0.04630410	     -0.09478690
      0.13515504	     -0.23275214	      0.04663490	     -0.09478690
      0.13711381	     -0.22929848	      0.04695018	     -0.09478690
      0.13907258	     -0.22581767	      0.04724997	     -0.09478690
      0.14103135	     -0.22230978	      0.04753427	     -0.09478690
      0.14299012	     -0.21877481	      0.04780310	     -0.09478690
      0.14494889	     -0.21521281	      0.04805649	     -0.09478690
      0.14690765	     -0.21162380	      0.04829445	     -0.09478690
      0.14886642	     -0.20800777	      0.04851702	     -0.09478690
      0.15082519	     -0.20436473	      0.04872425	     -0.09478690
      0.15278396	     -0.20069467	      0.04891618	     -0.09478690
      0.15474273	     -0.19699757	      0.04909286	     -0.09478690
      0.15670150	     -0.19327339	      0.04925436	     -0.09478690
      0.15866027	     -0.18952209	      0.04940075	     -0.09478690
      0.16061904	     -0.18574361	      0.04953210	     -0.09478690
      0.16257780	     -0.18193788	      0.04964849	     -0.09478690
      0.16453657	     -0.17810485	      0.04975002	     -0.09478690
      0.16649534	     -0.17424444	      0.04983678	     -0.09478690
      0.16845411	     -0.17035659	      0.04990885	     -0.09478690
      0.17041288	     -0.16644125	      0.04996634	     -0.09478690
      0.17237165	     -0.16249833	      0.05000933	     -0.09478690
      0.17433042	     -0.15852777	      0.05003794	     -0.09478690
      0.17628918	     -0.15452947	      0.05005229	     -0.09478690
      0.17824795	     -0.15050335	      0.05005248	     -0.09478690
      0.18020672	     -0.14644928	      0.05003866	     -0.09478690
      0.18216549	     -0.14236715	      0.05001096	     -0.09478690
      0.18412426	     -0.13825684	      0.04996952	     -0.09478690
      0.18608303	     -0.13411825	      0.04991448	     -0.09478690
      0.18804180	     -0.12995124	      0.04984599	     -0.09478690
      0.19000057	     -0.12575571	      0.04976420	     -0.09478690
      0.19195933	     -0.12153155	      0.04966928	     -0.09478690
      0.19391810	     -0.11727865	      0.04956138	     -0.09478690
      0.19587687	     -0.11299687	      0.04944067	     -0.09478690
      0.19783564	     -0.10868613	      0.04930734	     -0.09478690
      0.19979441	     -0.10434629	      0.04916157	     -0.09478690
      0.20175318	     -0.09997725	      0.04900353	     -0.09478690
      0.20371195	     -0.09557890	      0.04883344	     -0.09478690
      0.20567072	     -0.09115116	      0.04865147	     -0.09478690
      0.20762948	     -0.08669392	      0.04845785	     -0.09478690
      0.20958825	     -0.08220710	      0.04825277	     -0.09478690
      0.21154702	     -0.07769062	      0.04803645	     -0.09478690
      0.21350579	     -0.07314439	      0.04780912	     -0.09478690
      0.21546456	     -0.06856834	      0.04757099	     -0.09478690
      0.21742333	     -0.06396238	      0.04732233	     -0.09478690
      0.21938210	     -0.05932645	      0.04706336	     -0.09478690
      0.22134087	     -0.05466047	      0.04679435	     -0.09478690
      0.22329963	     -0.04996438	      0.04651555	     -0.09478690
      0.22525840	     -0.04523812	      0.04622723	     -0.09478690
      0.22721717	     -0.04048166	      0.04592967	     -0.09478690
      0.22917594	     -0.03569493	      0.04562314	     -0.09478690
      0.23113471	     -0.03087791	      0.04530795	     -0.09478690
      0.23309348	     -0.02603053	      0.04498440	     -0.09478690
      0.23505225	     -0.02115277	      0.04465280	     -0.09478690
      0.23701102	     -0.01624457	      0.04431349	     -0.09478690
      0.23896978	     -0.01130592	      0.04396680	     -0.09478690
      0.24092855	     -0.00633678	      0.04361306	     -0.09478690
      0.24288732	     -0.00133716	      0.04325263	     -0.09478690
      0.24484609	      0.00369294	      0.04288586	     -0.09478690
      0.24680486	      0.00875348	      0.04251308	     -0.09478690
      0.24876363	      0.01384443	      0.04213467	     -0.09478690
      0.25072240	      0.01896574	      0.04175098	     -0.09478690
      0.25268117	      0.02411735	      0.04136239	     -0.09478690
      0.25463993	      0.02929921	      0.04096928	     -0.09478690
      0.25659870	      0.03451123	      0.04057204	     -0.09478690
      0.25855747	      0.03975333	      0.04017107	     -0.09478690
      0.26051624	      0.04502542	      0.03976679	     -0.09478690
      0.26247501	      0.05032742	      0.03935961	     -0.09478690
      0.26443378	      0.05565921	      0.03894995	     -0.09478690
      0.26639255	      0.06102066	      0.03853824	     -0.09478690
      0.26835131	      0.06641164	      0.03812490	     -0.09478690
      0.27031008	      0.07183197	      0.03771038	     -0.09478690
      0.27226885	      0.07728150	      0.03729509	     -0.09478690
      0.27422762	      0.08276002	      0.03687950	     -0.09478690
      0.27618639	      0.08826735	      0.03646406	     -0.09478690
      0.27814516	      0.09380329	      0.03604924	     -0.09478690
      0.28010393	      0.09936762	      0.03563550	     -0.09478690
      0.28206270	      0.10496012	      0.03522332	     -0.09478690
      0.28402146	      0.11058055	      0.03481315	     -0.09478690
      0.28598023	      0.11622864	      0.03440547	     -0.09478690
      0.28793900	      0.12190412	      0.03400076	     -0.09478690
      0.28989777	      0.12760670	      0.03359950	     -0.09478690
      0.29185654	      0.13333606	      0.03320217	     -0.09478690
      0.29381531	      0.13909188	      0.03280925	     -0.09478690
      0.29577408	      0.14487381	      0.03242121	     -0.09478690
      0.29773285	      0.15068149	      0.03203855	     -0.09478690
      0.29969161	      0.15651455	      0.03166175	     -0.09478690
      0.30165038	      0.16237262	      0.03129132	     -0.09478690
      0.30360915	      0.16825529	      0.03092775	     -0.09478690
      0.30556792	      0.17416212	      0.03057154	     -0.09478690
      0.30752669	      0.18009266	      0.03022318	     -0.09478690
      0.30948546	      0.18604643	      0.02988315	     -0.09478690
      0.31144423	      0.19202294	      0.02955195	     -0.09478690
      0.31340300	      0.19802165	      0.02923006	     -0.09478690
      0.31536176	      0.20404204	      0.02891796	     -0.09478690
      0.31732053	      0.21008352	      0.02861612	     -0.09478690
      0.31927930	      0.21614551	      0.02832503	     -0.09478690
      0.32123807	      0.22222737	      0.02804515	     -0.09478690
      0.32319684	      0.22832848	      0.02777694	     -0.09478690
      0.32515561	      0.23444813	      0.02752086	     -0.09478690
      0.32711438	      0.24058563	      0.02727735	     -0.09478690
      0.32907315	      0.24674025	      0.02704684	     -0.09478690
      0.33103191	      0.25291122	      0.02682974	     -0.09478690
      0.33299068	      0.25909775	      0.02662645	     -0.09478690
      0.33494945	      0.26529906	      0.02643733	     -0.09478690
      0.33690822	      0.27151431	      0.02626275	     -0.09478690
      0.33886699	      0.27774266	      0.02610303	     -0.09478690
      0.34082576	      0.28398328	      0.02595849	     -0.09478690
      0.34278453	      0.29023529	      0.02582941	     -0.09478690
      0.34474329	      0.29649783	      0.02571607	     -0.09478690
      0.34670206	      0.30277004	      0.02561870	     -0.09478690
      0.34866083	      0.30905105	      0.02553754	     -0.09478690
      0.35061960	      0.31533998	      0.02547280	     -0.09478690
      0.35257837	      0.32163601	      0.02542467	     -0.09478690
      0.35453714	      0.32793827	      0.02539336	     -0.09478690
      0.35649591	      0.33424593	      0.02537902	     -0.09478690
      0.35845468	      0.34055818	      0.02538184	     -0.09478690
      0.36041344	      0.34687418	      0.02540196	     -0.09478690
      0.36237221	      0.35319313	      0.02543953	     -0.09478690
      0.36433098	      0.35951422	      0.02549467	     -0.09478690
      0.36628975	      0.36583662	      0.02556749	     -0.09478690
      0.36824852	      0.37215954	      0.02565809	     -0.09478690
      0.37020729	      0.37848216	      0.02576656	     -0.09478690
      0.37216606	      0.38480366	      0.02589295	     -0.09478690
      0.37412483	      0.39112323	      0.02603731	     -0.09478690
      0.37608359	      0.39744003	      0.02619963	     -0.09478690
      0.37804236	      0.40375322	      0.02637990	     -0.09478690
      0.38000113	      0.41006194	      0.02657803	     -0.09478690
      0.38195990	      0.41636533	      0.02679392	     -0.09478690
      0.38391867	      0.42266250	      0.02702743	     -0.09478690
      0.38587744	      0.42895257	      0.02727834	     -0.09478690
      0.38783621	      0.43523463	      0.02754642	     -0.09478690
      0.38979498	      0.44150775	      0.02783137	     -0.09478690
      0.39175374	      0.44777101	      0.02813283	     -0.09478690
      0.39371251	      0.45402345	      0.02845039	     -0.09478690
      0.39567128	      0.46026413	      0.02878360	     -0.09478690
      0.39763005	      0.46649208	      0.02913194	     -0.09478690
      0.39958882	      0.47270633	      0.02949483	     -0.09478690
      0.40154759	      0.47890594	      0.02987167	     -0.09478690
      0.40350636	      0.48508992	      0.03026177	     -0.09478690
      0.40546513	      0.49125734	      0.03066441	     -0.09478690
      0.40742389	      0.49740724	      0.03107881	     -0.09478690
      0.40938266	      0.50353868	      0.03150413	     -0.09478690
      0.41134143	      0.50965072	      0.03193949	     -0.09478690
      0.41330020	      0.51574246	      0.03238397	     -0.09478690
      0.41525897	      0.52181300	      0.03283661	     -0.09478690
      0.41721774	      0.52786145	      0.03329638	     -0.09478690
      0.41917651	      0.53388696	      0.03376226	     -0.09478690
      0.42113528	      0.53988868	      0.03423317	     -0.09478690
      0.42309404	      0.54586580	      0.03470801	     -0.09478690
      0.42505281	      0.55181753	      0.03518565	     -0.09478690
      0.42701158	      0.55774309	      0.03566496	     -0.09478690
      0.42897035	      0.56364174	      0.03614476	     -0.09478690
      0.43092912	      0.56951275	      0.03662390	     -0.09478690
      0.43288789	      0.57535542	      0.03710119	     -0.09478690
      0.43484666	      0.58116906	      0.03757542	     -0.09478690
      0.43680542	      0.58695302	      0.03804541	     -0.09478690
      0.43876419	      0.59270665	      0.03850994	     -0.09478690
      0.44072296	      0.59842934	      0.03896780	     -0.09478690
      0.44268173	      0.60412047	      0.03941777	     -0.09478690
      0.44464050	      0.60977947	      0.03985864	     -0.09478690
      0.44659927	      0.61540576	      0.04028920	     -0.09478690
      0.44855804	      0.62099879	      0.04070823	     -0.09478690
      0.45051681	      0.62655802	      0.04111453	     -0.09478690
      0.45247557	      0.63208292	      0.04150690	     -0.09478690
      0.45443434	      0.63757299	      0.04188414	     -0.09478690
      0.45639311	      0.64302771	      0.04224504	     -0.09478690
      0.45835188	      0.64844663	      0.04258843	     -0.09478690
      0.46031065	      0.65382924	      0.04291311	     -0.09478690
      0.46226942	      0.65917512	      0.04321790	     -0.09478690
      0.46422819	      0.66448380	      0.04350163	     -0.09478690
      0.46618696	      0.66975488	      0.04376315	     -0.09478690
      0.46814572	      0.67498794	      0.04400130	     -0.09478690
      0.47010449	      0.68018259	      0.04421499	     -0.09478690
      0.47206326	      0.68533847	      0.04440309	     -0.09478690
      0.47402203	      0.69045521	      0.04456455	     -0.09478690
      0.47598080	      0.69553248	      0.04469830	     -0.09478690
      0.47793957	      0.70056997	      0.04480329	     -0.09478690
      0.47989834	      0.70556738	      0.04487853	     -0.09478690
      0.48185711	      0.71052444	      0.04492302	     -0.09478690
      0.48381587	      0.71544089	      0.04493581	     -0.09478690
      0.48577464	      0.72031653	      0.04491599	     -0.09478690
      0.48773341	      0.72515114	      0.04486267	     -0.09478690
      0.48969218	      0.72994455	      0.04477503	     -0.09478690
      0.49165095	      0.73469659	      0.04465227	     -0.09478690
      0.49360972	      0.73940715	      0.04449365	     -0.09478690
      0.49556849	      0.74407609	      0.04429847	     -0.09478690
      0.49752726	      0.74870326	      0.04406599	     -0.09478690
      0.49948602	      0.75328854	      0.04379544	     -0.09478690
      0.50144479	      0.75783179	      0.04348597	     -0.09478690
      0.50340356	      0.76233287	      0.04313672	     -0.09478690
      0.50536233	      0.76679165	      0.04274684	     -0.09478690
      0.50732110	      0.77120797	      0.04231556	     -0.09478690
      0.50927987	      0.77558173	      0.04184261	     -0.09478690
      0.51123864	      0.77991285	      0.04132824	     -0.09478690
      0.51319741	      0.78420126	      0.04077316	     -0.09478690
      0.51515617	      0.78844687	      0.04017808	     -0.09478690
      0.51711494	      0.79264948	      0.03954281	     -0.09478690
      0.51907371	      0.79680877	      0.03886630	     -0.09478690
      0.52103248	      0.80092425	      0.03814630	     -0.09478690
      0.52299125	      0.80499531	      0.03738023	     -0.09478690
      0.52495002	      0.80902136	      0.03656658	     -0.09478690
      0.52690879	      0.81300187	      0.03570526	     -0.09478690
      0.52886755	      0.81693662	      0.03480006	     -0.09478690
      0.53082632	      0.82082564	      0.03385728	     -0.09478690
      0.53278509	      0.82466915	      0.03288535	     -0.09478690
      0.53474386	      0.82846736	      0.03189248	     -0.09478690
      0.53670263	      0.83221986	      0.03088254	     -0.09478690
      0.53866140	      0.83592569	      0.02985556	     -0.09478690
      0.54062017	      0.83958301	      0.02880745	     -0.09478690
      0.54257894	      0.84318967	      0.02773360	     -0.09478690
      0.54453770	      0.84674290	      0.02662927	     -0.09478690
      0.54649647	      0.85023958	      0.02549004	     -0.09478690
      0.54845524	      0.85367542	      0.02431029	     -0.09478690
      0.55041401	      0.85704527	      0.02308312	     -0.09478690
      0.55237278	      0.86034244	      0.02180473	     -0.09478690
      0.55433155	      0.86355958	      0.02047559	     -0.09478690
      0.55629032	      0.86668751	      0.01910896	     -0.09478690
      0.55824909	      0.86971624	      0.01772632	     -0.09478690
      0.56020785	      0.87263214	      0.01635510	     -0.09478690
      0.56216662	      0.87541958	      0.01502018	     -0.09478690
      0.56412539	      0.87804756	      0.01373582	     -0.09478690
      0.56608416	      0.88047033	      0.01250768	     -0.09478690
      0.56804293	      0.88260245	      0.01130644	     -0.09478690
      0.57000170	      0.88433318	      0.01007906	     -0.09478690
      0.57196047	      0.88553405	      0.00878318	     -0.09478690
      0.57391924	      0.88609618	      0.00744031	     -0.09478690
      0.57587800	      0.88624856	      0.00632479	     -0.09478690
      0.57783677	      0.88632041	      0.00561782	     -0.09478690
      0.57979554	      0.88636967	      0.00510555	     -0.09478690
      0.58175431	      0.88640651	      0.00464070	     -0.09478690
      0.58371308	      0.88644725	      0.00420957	     -0.09478690
      0.58567185	      0.88649096	      0.00380053	     -0.09478690
      0.58763062	      0.88653944	      0.00342933	     -0.09478690
      0.58958939	      0.88659013	      0.00310352	     -0.09478690
      0.59154815	      0.88664316	      0.00282993	     -0.09478690
      0.59350692	      0.88669709	      0.00261033	     -0.09478690
      0.59546569	      0.88675199	      0.00244447	     -0.09478690
      0.59742446	      0.88680712	      0.00232993	     -0.09478690
      0.59938323	      0.88686252	      0.00226358	     -0.09478690
      0.60134200	      0.88691774	      0.00224130	     -0.09478690
      0.60330077	      0.88697278	      0.00225897	     -0.09478690
      0.60525953	      0.88702738	      0.00231231	     -0.09478690
      0.60721830	      0.88708154	      0.00239761	     -0.09478690
      0.60917707	      0.88713515	      0.00251114	     -0.09478690
      0.61113584	      0.88718822	      0.00264959	     -0.09478690
      0.61309461	      0.88724070	      0.00280973	     -0.09478690
      0.61505338	      0.88729264	      0.00298863	     -0.09478690
      0.61701215	      0.88734406	      0.00318347	     -0.09478690
      0.61897092	      0.88739502	      0.00339176	     -0.09478690
      0.62092968	      0.88744557	      0.00361116	     -0.09478690
      0.62288845	      0.88749574	      0.00383956	     -0.09478690
      0.62484722	      0.88754561	      0.00407493	     -0.09478690
      0.62680599	      0.88759525	      0.00431539	     -0.09478690
      0.62876476	      0.88764474	      0.00455921	     -0.09478690
      0.63072353	      0.88769415	      0.00480482	     -0.09478690
      0.63268230	      0.88774355	      0.00505080	     -0.09478690
      0.63464107	      0.88779301	      0.00529590	     -0.09478690
      0.63659983	      0.88784257	      0.00553900	     -0.09478690
      0.63855860	      0.88789226	      0.00577921	     -0.09478690
      0.64051737	      0.88794210	      0.00601575	     -0.09478690
      0.64247614	      0.88799208	      0.00624805	     -0.09478690
      0.64443491	      0.88804219	      0.00647566	     -0.09478690
      0.64639368	      0.88809237	      0.00669831	     -0.09478690
      0.64835245	      0.88814258	      0.00691578	     -0.09478690
      0.65031122	      0.88819275	      0.00712791	     -0.09478690
      0.65226998	      0.88824282	      0.00733456	     -0.09478690
      0.65422875	      0.88829273	      0.00753548	     -0.09478690
      0.65618752	      0.88834245	      0.00773037	     -0.09478690
      0.65814629	      0.88839196	      0.00791878	     -0.09478690
      0.66010506	      0.88844128	      0.00810019	     -0.09478690
      0.66206383	      0.88849044	      0.00827396	     -0.09478690
      0.66402260	      0.88853948	      0.00843945	     -0.09478690
      0.66598137	      0.88858847	      0.00859604	     -0.09478690
      0.66794013	      0.88863747	      0.00874315	     -0.09478690
      0.66989890	      0.88868652	      0.00888034	     -0.09478690
      0.67185767	      0.88873566	      0.00900727	     -0.09478690
      0.67381644	      0.88878491	      0.00912381	     -0.09478690
      0.67577521	      0.88883428	      0.00922989	     -0.09478690
      0.67773398	      0.88888374	      0.00932565	     -0.09478690
      0.67969275	      0.88893325	      0.00941129	     -0.09478690
      0.68165152	      0.88898277	      0.00948718	     -0.09478690
      0.68361028	      0.88903223	      0.00955373	     -0.09478690
      0.68556905	      0.88908155	      0.00961149	     -0.09478690
      0.68752782	      0.88913065	      0.00966104	     -0.09478690
      0.68948659	      0.88917942	      0.00970307	     -0.09478690
      0.69144536	      0.88922776	      0.00973829	     -0.09478690
      0.69340413	      0.88927557	      0.00976742	     -0.09478690
      0.69536290	      0.88932274	      0.00979121	     -0.09478690
      0.69732166	      0.88936916	      0.00981035	     -0.09478690
      0.69928043	      0.88941473	      0.00982550	     -0.09478690
      0.70123920	      0.88945938	      0.00983722	     -0.09478690
      0.70319797	      0.88950302	      0.00984604	     -0.09478690
      0.70515674	      0.88954559	      0.00985236	     -0.09478690
      0.70711551	      0.88958704	      0.00985651	     -0.09478690
      0.70907428	      0.88962735	      0.00985867	     -0.09478690
      0.71103305	      0.88966650	      0.00985894	     -0.09478690
      0.71299181	      0.88970450	      0.00985727	     -0.09478690
      0.71495058	      0.88974139	      0.00985356	     -0.09478690
      0.71690935	      0.88977719	      0.00984769	     -0.09478690
      0.71886812	      0.88981194	      0.00983963	     -0.09478690
      0.72082689	      0.88984567	      0.00982955	     -0.09478690
      0.72278566	      0.88987837	      0.00981777	     -0.09478690
      0.72474443	      0.88990998	      0.00980487	     -0.09478690
      0.72670320	      0.88994044	      0.00979153	     -0.09478690
      0.72866196	      0.88996965	      0.00977843	     -0.09478690
      0.73062073	      0.88999752	      0.00976613	     -0.09478690
      0.73257950	      0.89002398	      0.00975489	     -0.09478690
      0.73453827	      0.89004902	      0.00974468	     -0.09478690
      0.73649704	      0.89007267	      0.00973509	     -0.09478690
      0.73845581	      0.89009501	      0.00972558	     -0.09478690
      0.74041458	      0.89011615	      0.00971565	     -0.09478690
      0.74237335	      0.89013618	      0.00970499	     -0.09478690
      0.74433211	      0.89015513	      0.00969384	     -0.09478690
      0.74629088	      0.89017298	      0.00968278	     -0.09478690
      0.74824965	      0.89018963	      0.00967263	     -0.09478690
      0.75020842	      0.89020496	      0.00966420	     -0.09478690
      0.75216719	      0.89021887	      0.00965787	     -0.09478690
      0.75412596	      0.89023132	      0.00965366	     -0.09478690
      0.75608473	      0.89024236	      0.00965090	     -0.09478690
      0.75804350	      0.89025211	      0.00964862	     -0.09478690
      0.76000226	      0.89026074	      0.00964569	     -0.09478690
      0.76196103	      0.89026846	      0.00964109	     -0.09478690
      0.76391980	      0.89027540	      0.00963463	     -0.09478690
      0.76587857	      0.89028160	      0.00962670	     -0.09478690
      0.76783734	      0.89028697	      0.00961844	     -0.09478690
      0.76979611	      0.89029134	      0.00961120	     -0.09478690
      0.77175488	      0.89029452	      0.00960606	     -0.09478690
      0.77371364	      0.89029636	      0.00960378	     -0.09478690
      0.77567241	      0.89029681	      0.00960401	     -0.09478690
      0.77763118	      0.89029594	      0.00960575	     -0.09478690
      0.77958995	      0.89029400	      0.00960662	     -0.09478690
      0.78154872	      0.89029138	      0.00960361	     -0.09478690
      0.78350749	      0.89028860	      0.00959334	     -0.09478690
      0.78546626	      0.89028619	      0.00957267	     -0.09478690
      0.78742503	      0.89028457	      0.00953995	     -0.09478690
      0.78938379	      0.89028403	      0.00949471	     -0.09478690
      0.79134256	      0.89028455	      0.00943813	     -0.09478690
      0.79330133	      0.89028599	      0.00937198	     -0.09478690
      0.79526010	      0.89028811	      0.00929804	     -0.09478690
      0.79721887	      0.89029066	      0.00921759	     -0.09478690
      0.79917764	      0.89029356	      0.00913063	     -0.09478690
      0.80113641	      0.89029679	      0.00903636	     -0.09478690
      0.80309518	      0.89030059	      0.00893264	     -0.09478690
      0.80505394	      0.89030527	      0.00881693	     -0.09478690
      0.80701271	      0.89031123	      0.00868720	     -0.09478690
      0.80897148	      0.89031876	      0.00854212	     -0.09478690
      0.81093025	      0.89032804	      0.00838096	     -0.09478690
      0.81288902	      0.89033920	      0.00820312	     -0.09478690
      0.81484779	      0.89035234	      0.00800807	     -0.09478690
      0.81680656	      0.89036758	      0.00779522	     -0.09478690
      0.81876533	      0.89038499	      0.00756424	     -0.09478690
      0.82072409	      0.89040465	      0.00731496	     -0.09478690
      0.82268286	      0.89042657	      0.00704768	     -0.09478690
      0.82464163	      0.89045072	      0.00676296	     -0.09478690
      0.82660040	      0.89047702	      0.00646195	     -0.09478690
      0.82855917	      0.89050533	      0.00614613	     -0.09478690
      0.83051794	      0.89053544	      0.00581753	     -0.09478690
      0.83247671	      0.89056711	      0.00547840	     -0.09478690
      0.83443548	      0.89060005	      0.00513115	     -0.09478690
      0.83639424	      0.89063400	      0.00477819	     -0.09478690
      0.83835301	      0.89066867	      0.00442164	     -0.09478690
      0.84031178	      0.89070384	      0.00406343	     -0.09478690
      0.84227055	      0.89073932	      0.00370501	     -0.09478690
      0.84422932	      0.89077495	      0.00334761	     -0.09478690
      0.84618809	      0.89081062	      0.00299204	     -0.09478690
      0.84814686	      0.89084626	      0.00263901	     -0.09478690
      0.85010563	      0.89088181	      0.00228899	     -0.09478690
      0.85206439	      0.89091723	      0.00194239	     -0.09478690
      0.85402316	      0.89095249	      0.00159952	     -0.09478690
      0.85598193	      0.89098757	      0.00126066	     -0.09478690
      0.85794070	      0.89102244	      0.00092605	     -0.09478690
      0.85989947	      0.89105708	      0.00059588	     -0.09478690
      0.86185824	      0.89109149	      0.00027030	     -0.09478690
      0.86381701	      0.89112566	     -0.00005058	     -0.09478690
      0.86577577	      0.89115957	     -0.00036667	     -0.09478690
      0.86773454	      0.89119322	     -0.00067792	     -0.09478690
      0.86969331	      0.89122660	     -0.00098431	     -0.09478690
      0.87165208	      0.89125973	     -0.00128581	     -0.09478690
      0.87361085	      0.89129258	     -0.00158243	     -0.09478690
      0.87556962	      0.89132517	     -0.00187417	     -0.09478690
      0.87752839	      0.89135749	     -0.00216104	     -0.09478690
      0.87948716	      0.89138954	     -0.00244307	     -0.09478690
      0.88144592	      0.89142132	     -0.00272026	     -0.09478690
      0.88340469	      0.89145284	     -0.00299265	     -0.09478690
      0.88536346	      0.89148408	     -0.00326026	     -0.09478690
      0.88732223	      0.89151506	     -0.00352309	     -0.09478690
      0.88928100	      0.89154577	     -0.00378118	     -0.09478690
      0.89123977	      0.89157620	     -0.00403452	     -0.09478690
      0.89319854	      0.89160635	     -0.00428313	     -0.09478690
      0.89515731	      0.89163622	     -0.00452702	     -0.09478690
      0.89711607	      0.89166581	     -0.00476617	     -0.09478690
      0.89907484	      0.89169511	     -0.00500058	     -0.09478690
      0.90103361	      0.89172410	     -0.00523024	     -0.09478690
      0.90299238	      0.89175279	     -0.00545513	     -0.09478690
      0.90495115	      0.89178116	     -0.00567522	     -0.09478690
      0.90690992	      0.89180920	     -0.00589049	     -0.09478690
      0.90886869	      0.89183689	     -0.00610092	     -0.09478690
      0.91082746	      0.89186423	     -0.00630647	     -0.09478690
      0.91278622	      0.89189119	     -0.00650713	     -0.09478690
      0.91474499	      0.89191777	     -0.00670288	     -0.09478690
      0.91670376	      0.89194396	     -0.00689366	     -0.09478690
      0.91866253	      0.89196972	     -0.00707947	     -0.09478690
      0.92062130	      0.89199505	     -0.00726027	     -0.09478690
      0.92258007	      0.89201993	     -0.00743604	     -0.09478690
      0.92453884	      0.89204432	     -0.00760677	     -0.09478690
      0.92649761	      0.89206821	     -0.00777246	     -0.09478690
      0.92845637	      0.89209157	     -0.00793309	     -0.09478690
      0.93041514	      0.89211437	     -0.00808865	     -0.09478690
      0.93237391	      0.89213656	     -0.00823916	     -0.09478690
      0.93433268	      0.89215812	     -0.00838462	     -0.09478690
      0.93629145	      0.89217900	     -0.00852502	     -0.09478690
      0.93825022	      0.89219913	     -0.00866039	     -0.09478690
      0.94020899	      0.89221848	     -0.00879073	     -0.09478690
      0.94216776	      0.89223699	     -0.00891606	     -0.09478690
      0.94412652	      0.89225459	     -0.00903639	     -0.09478690
      0.94608529	      0.89227124	     -0.00915175	     -0.09478690
      0.94804406	      0.89228691	     -0.00926216	     -0.09478690
      0.95000283	      0.89230156	     -0.00936765	     -0.09478690
      0.95196160	      0.89231518	     -0.00946826	     -0.09478690
      0.95392037	      0.89232777	     -0.00956402	     -0.09478690
      0.95587914	      0.89233933	     -0.00965501	     -0.09478690
      0.95783790	      0.89234986	     -0.00974126	     -0.09478690
      0.95979667	      0.89235937	     -0.00982286	     -0.09478690
      0.96175544	      0.89236786	     -0.00989988	     -0.09478690
      0.96371421	      0.89237535	     -0.00997239	     -0.09478690
      0.96567298	      0.89238184	     -0.01004049	     -0.09478690
      0.96763175	      0.89238732	     -0.01010427	     -0.09478690
      0.96959052	      0.89239182	     -0.01016383	     -0.09478690
      0.97154929	      0.89239533	     -0.01021926	     -0.09478690
      0.97350805	      0.89239787	     -0.01027068	     -0.09478690
      0.97546682	      0.89239944	     -0.01031818	     -0.09478690
      0.97742559	      0.89240005	     -0.01036186	     -0.09478690
      0.97938436	      0.89239971	     -0.01040181	     -0.09478690
      0.98134313	      0.89239842	     -0.01043813	     -0.09478690
      0.98330190	      0.89239620	     -0.01047090	     -0.09478690
      0.98526067	      0.89239305	     -0.01050021	     -0.09478690
      0.98721944	      0.89238899	     -0.01052614	     -0.09478690
      0.98917820	      0.89238402	     -0.01054877	     -0.09478690
      0.99113697	      0.89237815	     -0.01056817	     -0.09478690
      0.99309574	      0.89237138	     -0.01058442	     -0.09478690
      0.99505451	      0.89236373	     -0.01059757	     -0.09478690
      0.99701328	      0.89235519	     -0.01060770	     -0.09478690
      0.99897205	      0.89234577	     -0.01061486	     -0.09478690
      1.00093082	      0.89233548	     -0.01061911	     -0.09478690
      1.00288959	      0.89232431	     -0.01062053	     -0.09478690
      1.00484835	      0.89231227	     -0.01061916	     -0.09478690
      1.00680712	      0.89229936	     -0.01061508	     -0.09478690
      1.00876589	      0.89228559	     -0.01060835	     -0.09478690
      1.01072466	      0.89227098	     -0.01059905	     -0.09478690
      1.01268343	      0.89225551	     -0.01058724	     -0.09478690
      1.01464220	      0.89223920	     -0.01057300	     -0.09478690
      1.01660097	      0.89222207	     -0.01055641	     -0.09478690
      1.01855974	      0.89220410	     -0.01053754	     -0.09478690
      1.02051850	      0.89218531	     -0.01051649	     -0.09478690
      1.02247727	      0.89216571	     -0.01049333	     -0.09478690
      1.02443604	      0.89214529	     -0.01046816	     -0.09478690
      1.02639481	      0.89212406	     -0.01044107	     -0.09478690
      1.02835358	      0.89210203	     -0.01041214	     -0.09478690
      1.03031235	      0.89207919	     -0.01038148	     -0.09478690
      1.03227112	      0.89205555	     -0.01034916	     -0.09478690
      1.03422988	      0.89203109	     -0.01031528	     -0.09478690
      1.03618865	      0.89200583	     -0.01027991	     -0.09478690
      1.03814742	      0.89197976	     -0.01024313	     -0.09478690
      1.04010619	      0.89195287	     -0.01020502	     -0.09478690
      1.04206496	      0.89192516	     -0.01016564	     -0.09478690
      1.04402373	      0.89189661	     -0.01012505	     -0.09478690
      1.04598250	      0.89186722	     -0.01008326	     -0.09478690
      1.04794127	      0.89183697	     -0.01004030	     -0.09478690
      1.04990003	      0.89180585	     -0.00999616	     -0.09478690
      1.05185880	      0.89177384	     -0.00995084	     -0.09478690
      1.05381757	      0.89174094	     -0.00990429	     -0.09478690
      1.05577634	      0.89170713	     -0.00985649	     -0.09478690
      1.05773511	      0.89167242	     -0.00980737	     -0.09478690
      1.05969388	      0.89163681	     -0.00975688	     -0.09478690
      1.06165265	      0.89160028	     -0.00970495	     -0.09478690
      1.06361142	      0.89156285	     -0.00965150	     -0.09478690
      1.06557018	      0.89152451	     -0.00959645	     -0.09478690
      1.06752895	      0.89148525	     -0.00953971	     -0.09478690
      1.06948772	      0.89144508	     -0.00948121	     -0.09478690
      1.07144649	      0.89140399	     -0.00942086	     -0.09478690
      1.07340526	      0.89136198	     -0.00935860	     -0.09478690
      1.07536403	      0.89131903	     -0.00929435	     -0.09478690
      1.07732280	      0.89127514	     -0.00922805	     -0.09478690
      1.07928157	      0.89123028	     -0.00915964	     -0.09478690
      1.08124033	      0.89118445	     -0.00908907	     -0.09478690
      1.08319910	      0.89113763	     -0.00901627	     -0.09478690
      1.08515787	      0.89108979	     -0.00894117	     -0.09478690
      1.08711664	      0.89104090	     -0.00886371	     -0.09478690
      1.08907541	      0.89099094	     -0.00878378	     -0.09478690
      1.09103418	      0.89093988	     -0.00870127	     -0.09478690
      1.09299295	      0.89088769	     -0.00861604	     -0.09478690
      1.09495172	      0.89083434	     -0.00852793	     -0.09478690
      1.09691048	      0.89077975	     -0.00843665	     -0.09478690
      1.09886925	      0.89072383	     -0.00834183	     -0.09478690
      1.10082802	      0.89066649	     -0.00824290	     -0.09478690
      1.10278679	      0.89060765	     -0.00813925	     -0.09478690
      1.10474556	      0.89054731	     -0.00803017	     -0.09478690
      1.10670433	      0.89048557	     -0.00791509	     -0.09478690
      1.10866310	      0.89042270	     -0.00779383	     -0.09478690
      1.11062187	      0.89035884	     -0.00766628	     -0.09478690
      1.11258063	      0.89029400	     -0.00753230	     -0.09478690
      1.11453940	      0.89022815	     -0.00739185	     -0.09478690
      1.11649817	      0.89016130	     -0.00724494	     -0.09478690
      1.11845694	      0.89009341	     -0.00709159	     -0.09478690
      1.12041571	      0.89002450	     -0.00693182	     -0.09478690
      1.12237448	      0.88995455	     -0.00676566	     -0.09478690
      1.12433325	      0.88988357	     -0.00659313	     -0.09478690
      1.12629201	      0.88981155	     -0.00641424	     -0.09478690
      1.12825078	      0.88973852	     -0.00622899	     -0.09478690
      1.13020955	      0.88966447	     -0.00603733	     -0.09478690
      1.13216832	      0.88958942	     -0.00583921	     -0.09478690
      1.13412709	      0.88951340	     -0.00563450	     -0.09478690
      1.13608586	      0.88943644	     -0.00542306	     -0.09478690
      1.13804463	      0.88935857	     -0.00520470	     -0.09478690
      1.14000340	      0.88927982	     -0.00497918	     -0.09478690
      1.14196216	      0.88920025	     -0.00474623	     -0.09478690
      1.14392093	      0.88911990	     -0.00450558	     -0.09478690
      1.14587970	      0.88903879	     -0.00425689	     -0.09478690
      1.14783847	      0.88895697	     -0.00399985	     -0.09478690
      1.14979724	      0.88887447	     -0.00373412	     -0.09478690
      1.15175601	      0.88879133	     -0.00345936	     -0.09478690
      1.15371478	      0.88870758	     -0.00317522	     -0.09478690
      1.15567355	      0.88862327	     -0.00288138	     -0.09478690
      1.15763231	      0.88853845	     -0.00257754	     -0.09478690
      1.15959108	      0.88845317	     -0.00226339	     -0.09478690
      1.16154985	      0.88836754	     -0.00193865	     -0.09478690
      1.16350862	      0.88828167	     -0.00160306	     -0.09478690
      1.16546739	      0.88819571	     -0.00125635	     -0.09478690
      1.16742616	      0.88810989	     -0.00089825	     -0.09478690
      1.16938493	      0.88802443	     -0.00052845	     -0.09478690
      1.17134370	      0.88793971	     -0.00014665	     -0.09478690
      1.17330246	      0.88785617	      0.00024752	     -0.09478690
      1.17526123	      0.88777448	      0.00065439	     -0.09478690
