PointAcceleration
version=1
nRows=601
nColumns=4
inDegrees=no
No description.
endheader
time	state_0	state_1	state_2
      0.00000000	    -11.82622732	     -1.15535082	      0.00000000
      0.00195877	    -11.82855488	     -1.04285135	      0.00000000
      0.00391754	    -11.81401661	     -0.94014540	      0.00000000
      0.00587631	    -11.78133155	     -0.84721897	      0.00000000
      0.00783507	    -11.73400621	     -0.76307738	      0.00000000
      0.00979384	    -11.67304941	     -0.68685579	      0.00000000
      0.01175261	    -11.60021141	     -0.61819573	      0.00000000
      0.01371138	    -11.51428960	     -0.55716182	      0.00000000
      0.01567015	    -11.41479234	     -0.50658114	      0.00000000
      0.01762892	    -11.30126929	     -0.47179546	      0.00000000
      0.01958769	    -11.17345468	     -0.46605025	      0.00000000
      0.02154646	    -11.03949265	     -0.42656921	      0.00000000
      0.02350522	    -10.89564564	     -0.32832327	      0.00000000
      0.02546399	    -10.74225865	     -0.24466790	      0.00000000
      0.02742276	    -10.58356401	     -0.17359398	      0.00000000
      0.02938153	    -10.42076913	     -0.11461754	      0.00000000
      0.03134030	    -10.25488129	     -0.06845984	      0.00000000
      0.03329907	    -10.08545082	     -0.03337632	      0.00000000
      0.03525784	     -9.91241146	     -0.00823603	      0.00000000
      0.03721661	     -9.73581147	      0.00802464	      0.00000000
      0.03917537	     -9.55584320	      0.01636374	      0.00000000
      0.04113414	     -9.37306453	      0.01730059	      0.00000000
      0.04309291	     -9.18797202	      0.01153906	      0.00000000
      0.04505168	     -9.00110553	     -0.00045446	      0.00000000
      0.04701045	     -8.81296922	     -0.01808309	      0.00000000
      0.04896922	     -8.62396925	     -0.04092506	      0.00000000
      0.05092799	     -8.43449789	     -0.06847827	      0.00000000
      0.05288676	     -8.24483180	     -0.10040617	      0.00000000
      0.05484552	     -8.05524501	     -0.13631949	      0.00000000
      0.05680429	     -7.86595718	     -0.17597564	      0.00000000
      0.05876306	     -7.67719178	     -0.21910713	      0.00000000
      0.06072183	     -7.48918684	     -0.26553199	      0.00000000
      0.06268060	     -7.30217776	     -0.31505992	      0.00000000
      0.06463937	     -7.11644268	     -0.36749739	      0.00000000
      0.06659814	     -6.93224634	     -0.42265167	      0.00000000
      0.06855691	     -6.74988456	     -0.48026805	      0.00000000
      0.07051567	     -6.56963297	     -0.54009909	      0.00000000
      0.07247444	     -6.39176578	     -0.60183795	      0.00000000
      0.07443321	     -6.21653453	     -0.66518817	      0.00000000
      0.07639198	     -6.04415500	     -0.72984000	      0.00000000
      0.07835075	     -5.87482136	     -0.79549383	      0.00000000
      0.08030952	     -5.70867259	     -0.86188634	      0.00000000
      0.08226829	     -5.54583014	     -0.92876196	      0.00000000
      0.08422706	     -5.38636392	     -0.99592414	      0.00000000
      0.08618582	     -5.23033097	     -1.06318159	      0.00000000
      0.08814459	     -5.07775816	     -1.13039148	      0.00000000
      0.09010336	     -4.92866189	     -1.19741589	      0.00000000
      0.09206213	     -4.78305391	     -1.26413530	      0.00000000
      0.09402090	     -4.64093452	     -1.33043760	      0.00000000
      0.09597967	     -4.50231655	     -1.39619933	      0.00000000
      0.09793844	     -4.36719860	     -1.46130839	      0.00000000
      0.09989720	     -4.23559530	     -1.52562579	      0.00000000
      0.10185597	     -4.10750473	     -1.58902725	      0.00000000
      0.10381474	     -3.98293250	     -1.65136574	      0.00000000
      0.10577351	     -3.86186764	     -1.71251013	      0.00000000
      0.10773228	     -3.74429327	     -1.77232570	      0.00000000
      0.10969105	     -3.63017866	     -1.83069187	      0.00000000
      0.11164982	     -3.51947619	     -1.88750822	      0.00000000
      0.11360859	     -3.41212911	     -1.94268457	      0.00000000
      0.11556735	     -3.30805974	     -1.99616817	      0.00000000
      0.11752612	     -3.20718624	     -2.04791226	      0.00000000
      0.11948489	     -3.10940966	     -2.09791001	      0.00000000
      0.12144366	     -3.01463076	     -2.14615726	      0.00000000
      0.12340243	     -2.92274241	     -2.19267737	      0.00000000
      0.12536120	     -2.83363920	     -2.23749550	      0.00000000
      0.12731997	     -2.74721828	     -2.28064407	      0.00000000
      0.12927874	     -2.66337864	     -2.32215868	      0.00000000
      0.13123750	     -2.58202924	     -2.36206308	      0.00000000
      0.13319627	     -2.50307925	     -2.40038643	      0.00000000
      0.13515504	     -2.42643652	     -2.43713017	      0.00000000
      0.13711381	     -2.35201666	     -2.47230619	      0.00000000
      0.13907258	     -2.27975125	     -2.50590382	      0.00000000
      0.14103135	     -2.20957078	     -2.53792105	      0.00000000
      0.14299012	     -2.14141024	     -2.56833731	      0.00000000
      0.14494889	     -2.07520379	     -2.59713993	      0.00000000
      0.14690765	     -2.01088523	     -2.62430764	      0.00000000
      0.14886642	     -1.94838833	     -2.64982502	      0.00000000
      0.15082519	     -1.88764359	     -2.67367828	      0.00000000
      0.15278396	     -1.82858252	     -2.69585676	      0.00000000
      0.15474273	     -1.77113308	     -2.71635979	      0.00000000
      0.15670150	     -1.71522516	     -2.73518720	      0.00000000
      0.15866027	     -1.66078685	     -2.75235418	      0.00000000
      0.16061904	     -1.60774866	     -2.76787481	      0.00000000
      0.16257780	     -1.55604187	     -2.78177953	      0.00000000
      0.16453657	     -1.50560026	     -2.79409716	      0.00000000
      0.16649534	     -1.45636058	     -2.80486880	      0.00000000
      0.16845411	     -1.40826195	     -2.81413381	      0.00000000
      0.17041288	     -1.36124768	     -2.82193698	      0.00000000
      0.17237165	     -1.31526335	     -2.82832146	      0.00000000
      0.17433042	     -1.27025869	     -2.83333067	      0.00000000
      0.17628918	     -1.22618557	     -2.83700730	      0.00000000
      0.17824795	     -1.18299874	     -2.83939246	      0.00000000
      0.18020672	     -1.14065495	     -2.84052802	      0.00000000
      0.18216549	     -1.09911207	     -2.84045289	      0.00000000
      0.18412426	     -1.05832986	     -2.83920774	      0.00000000
      0.18608303	     -1.01826800	     -2.83682748	      0.00000000
      0.18804180	     -0.97888802	     -2.83334914	      0.00000000
      0.19000057	     -0.94015103	     -2.82880184	      0.00000000
      0.19195933	     -0.90201987	     -2.82321711	      0.00000000
      0.19391810	     -0.86445709	     -2.81661912	      0.00000000
      0.19587687	     -0.82742670	     -2.80903472	      0.00000000
      0.19783564	     -0.79089264	     -2.80048570	      0.00000000
      0.19979441	     -0.75481998	     -2.79099635	      0.00000000
      0.20175318	     -0.71917415	     -2.78058813	      0.00000000
      0.20371195	     -0.68392142	     -2.76928463	      0.00000000
      0.20567072	     -0.64902897	     -2.75710809	      0.00000000
      0.20762948	     -0.61446459	     -2.74408260	      0.00000000
      0.20958825	     -0.58019756	     -2.73023174	      0.00000000
      0.21154702	     -0.54619768	     -2.71558047	      0.00000000
      0.21350579	     -0.51243629	     -2.70015415	      0.00000000
      0.21546456	     -0.47888529	     -2.68397931	      0.00000000
      0.21742333	     -0.44551745	     -2.66708392	      0.00000000
      0.21938210	     -0.41230604	     -2.64949735	      0.00000000
      0.22134087	     -0.37922441	     -2.63125016	      0.00000000
      0.22329963	     -0.34624641	     -2.61237420	      0.00000000
      0.22525840	     -0.31334578	     -2.59290116	      0.00000000
      0.22721717	     -0.28049699	     -2.57286368	      0.00000000
      0.22917594	     -0.24767472	     -2.55229429	      0.00000000
      0.23113471	     -0.21485448	     -2.53122744	      0.00000000
      0.23309348	     -0.18201302	     -2.50969827	      0.00000000
      0.23505225	     -0.14912756	     -2.48774618	      0.00000000
      0.23701102	     -0.11617882	     -2.46540638	      0.00000000
      0.23896978	     -0.08314747	     -2.44271667	      0.00000000
      0.24092855	     -0.05001870	     -2.41970165	      0.00000000
      0.24288732	     -0.01677780	     -2.39637797	      0.00000000
      0.24484609	      0.01659241	     -2.37276027	      0.00000000
      0.24680486	      0.05010785	     -2.34885270	      0.00000000
      0.24876363	      0.08379826	     -2.32470126	      0.00000000
      0.25072240	      0.11769010	     -2.30037562	      0.00000000
      0.25268117	      0.15181404	     -2.27598845	      0.00000000
      0.25463993	      0.18619700	     -2.25170004	      0.00000000
      0.25659870	      0.22083794	     -2.22758472	      0.00000000
      0.25855747	      0.25573910	     -2.20367502	      0.00000000
      0.26051624	      0.29088600	     -2.17983826	      0.00000000
      0.26247501	      0.32627410	     -2.15581965	      0.00000000
      0.26443378	      0.36194851	     -2.13147447	      0.00000000
      0.26639255	      0.39794544	     -2.10672642	      0.00000000
      0.26835131	      0.43432282	     -2.08189873	      0.00000000
      0.27031008	      0.47111657	     -2.05737786	      0.00000000
      0.27226885	      0.50826467	     -2.03367981	      0.00000000
      0.27422762	      0.54272513	     -2.01188100	      0.00000000
      0.27618639	      0.58027750	     -1.99018411	      0.00000000
      0.27814516	      0.61817189	     -1.96789376	      0.00000000
      0.28010393	      0.65642869	     -1.94517989	      0.00000000
      0.28206270	      0.69508883	     -1.92194865	      0.00000000
      0.28402146	      0.73420876	     -1.89849265	      0.00000000
      0.28598023	      0.77377911	     -1.87555974	      0.00000000
      0.28793900	      0.81367933	     -1.85365605	      0.00000000
      0.28989777	      0.85385275	     -1.83280680	      0.00000000
      0.29185654	      0.89433270	     -1.81247944	      0.00000000
      0.29381531	      0.93515087	     -1.79218912	      0.00000000
      0.29577408	      0.97639786	     -1.77169184	      0.00000000
      0.29773285	      1.01810828	     -1.75107109	      0.00000000
      0.29969161	      1.06023284	     -1.73075634	      0.00000000
      0.30165038	      1.10273722	     -1.71103613	      0.00000000
      0.30360915	      1.14557765	     -1.69202249	      0.00000000
      0.30556792	      1.18872813	     -1.67370286	      0.00000000
      0.30752669	      1.23220844	     -1.65588296	      0.00000000
      0.30948546	      1.27602518	     -1.63842951	      0.00000000
      0.31144423	      1.32019204	     -1.62127724	      0.00000000
      0.31340300	      1.36471120	     -1.60439930	      0.00000000
      0.31536176	      1.40956898	     -1.58786485	      0.00000000
      0.31732053	      1.45475173	     -1.57170829	      0.00000000
      0.31927930	      1.50024248	     -1.55597289	      0.00000000
      0.32123807	      1.54600561	     -1.54069263	      0.00000000
      0.32319684	      1.59202426	     -1.52586244	      0.00000000
      0.32515561	      1.63827011	     -1.51148317	      0.00000000
      0.32711438	      1.68472208	     -1.49749558	      0.00000000
      0.32907315	      1.73136370	     -1.48383647	      0.00000000
      0.33103191	      1.77819541	     -1.47034389	      0.00000000
      0.33299068	      1.82522014	     -1.45685934	      0.00000000
      0.33494945	      1.87247116	     -1.44311020	      0.00000000
      0.33690822	      1.91997784	     -1.42887426	      0.00000000
      0.33886699	      1.96780668	     -1.41376166	      0.00000000
      0.34082576	      2.01604271	     -1.39738845	      0.00000000
      0.34278453	      2.06483778	     -1.37912102	      0.00000000
      0.34474329	      2.11438990	     -1.35827248	      0.00000000
      0.34670206	      2.16495921	     -1.33404956	      0.00000000
      0.34866083	      2.21682067	     -1.30571070	      0.00000000
      0.35061960	      2.27020373	     -1.27271815	      0.00000000
      0.35257837	      2.32537156	     -1.23450640	      0.00000000
      0.35453714	      2.38249425	     -1.19085081	      0.00000000
      0.35649591	      2.44176811	     -1.14148607	      0.00000000
      0.35845468	      2.50327379	     -1.08652348	      0.00000000
      0.36041344	      2.56710367	     -1.02603904	      0.00000000
      0.36237221	      2.63324138	     -0.96040491	      0.00000000
      0.36433098	      2.70167589	     -0.88995040	      0.00000000
      0.36628975	      2.77233170	     -0.81514401	      0.00000000
      0.36824852	      2.84512734	     -0.73643141	      0.00000000
      0.37020729	      2.91996363	     -0.65426675	      0.00000000
      0.37216606	      2.99672658	     -0.56910710	      0.00000000
      0.37412483	      3.07531615	     -0.48134438	      0.00000000
      0.37608359	      3.15561384	     -0.39138956	      0.00000000
      0.37804236	      3.23753034	     -0.29956074	      0.00000000
      0.38000113	      3.32095642	     -0.20620368	      0.00000000
      0.38195990	      3.40581541	     -0.11157203	      0.00000000
      0.38391867	      3.49201090	     -0.01595072	      0.00000000
      0.38587744	      3.57945565	      0.08044706	      0.00000000
      0.38783621	      3.66803764	      0.17737791	      0.00000000
      0.38979498	      3.75770996	      0.27468445	      0.00000000
      0.39175374	      3.84841404	      0.37218890	      0.00000000
      0.39371251	      3.94010885	      0.46975442	      0.00000000
      0.39567128	      4.03274345	      0.56722895	      0.00000000
      0.39763005	      4.12627343	      0.66447673	      0.00000000
      0.39958882	      4.22064503	      0.76134525	      0.00000000
      0.40154759	      4.31581212	      0.85768820	      0.00000000
      0.40350636	      4.41170797	      0.95334599	      0.00000000
      0.40546513	      4.50826815	      1.04817545	      0.00000000
      0.40742389	      4.60542103	      1.14202697	      0.00000000
      0.40938266	      4.70310419	      1.23478208	      0.00000000
      0.41134143	      4.80124978	      1.32631895	      0.00000000
      0.41330020	      4.89979596	      1.41653790	      0.00000000
      0.41525897	      4.99867312	      1.50533069	      0.00000000
      0.41721774	      5.09781032	      1.59259468	      0.00000000
      0.41917651	      5.19712592	      1.67821544	      0.00000000
      0.42113528	      5.29653418	      1.76208294	      0.00000000
      0.42309404	      5.39594149	      1.84408095	      0.00000000
      0.42505281	      5.49525722	      1.92411370	      0.00000000
      0.42701158	      5.59438747	      2.00208687	      0.00000000
      0.42897035	      5.69324852	      2.07793465	      0.00000000
      0.43092912	      5.79175234	      2.15159092	      0.00000000
      0.43288789	      5.88981432	      2.22299944	      0.00000000
      0.43484666	      5.98734287	      2.29209906	      0.00000000
      0.43680542	      6.08424847	      2.35882172	      0.00000000
      0.43876419	      6.18045578	      2.42310279	      0.00000000
      0.44072296	      6.27583996	      2.48485163	      0.00000000
      0.44268173	      6.37026999	      2.54397922	      0.00000000
      0.44464050	      6.46360957	      2.60040008	      0.00000000
      0.44659927	      6.55572115	      2.65403248	      0.00000000
      0.44855804	      6.64646762	      2.70480282	      0.00000000
      0.45051681	      6.73570945	      2.75263824	      0.00000000
      0.45247557	      6.82330389	      2.79746036	      0.00000000
      0.45443434	      6.90910415	      2.83918856	      0.00000000
      0.45639311	      6.99295396	      2.87772002	      0.00000000
      0.45835188	      7.07469273	      2.91294938	      0.00000000
      0.46031065	      7.15415037	      2.94474759	      0.00000000
      0.46226942	      7.23115235	      2.97298587	      0.00000000
      0.46422819	      7.30552199	      2.99752465	      0.00000000
      0.46618696	      7.37707870	      3.01822708	      0.00000000
      0.46814572	      7.44565026	      3.03496223	      0.00000000
      0.47010449	      7.51106127	      3.04760214	      0.00000000
      0.47206326	      7.57315182	      3.05603925	      0.00000000
      0.47402203	      7.63175951	      3.06016808	      0.00000000
      0.47598080	      7.68673825	      3.05991405	      0.00000000
      0.47793957	      7.73794006	      3.05520332	      0.00000000
      0.47989834	      7.78523024	      3.04599506	      0.00000000
      0.48185711	      7.82847323	      3.03224547	      0.00000000
      0.48381587	      7.86754075	      3.01393603	      0.00000000
      0.48577464	      7.90230064	      2.99103891	      0.00000000
      0.48773341	      7.93262078	      2.96353803	      0.00000000
      0.48969218	      7.95836210	      2.93140397	      0.00000000
      0.49165095	      7.97935145	      2.89461274	      0.00000000
      0.49360972	      7.99542011	      2.85313715	      0.00000000
      0.49556849	      8.00551356	      2.80675702	      0.00000000
      0.49752726	      8.01077716	      2.75563321	      0.00000000
      0.49948602	      8.01067314	      2.69963978	      0.00000000
      0.50144479	      8.00503108	      2.63866318	      0.00000000
      0.50340356	      7.99368247	      2.57265722	      0.00000000
      0.50536233	      7.97646570	      2.50153394	      0.00000000
      0.50732110	      7.95321078	      2.42537010	      0.00000000
      0.50927987	      7.92369273	      2.34428935	      0.00000000
      0.51123864	      7.88770017	      2.25840190	      0.00000000
      0.51319741	      7.84509971	      2.16792599	      0.00000000
      0.51515617	      7.79581675	      2.07266426	      0.00000000
      0.51711494	      7.73973832	      1.97222308	      0.00000000
      0.51907371	      7.67660240	      1.86592343	      0.00000000
      0.52103248	      7.60616086	      1.75303638	      0.00000000
      0.52299125	      7.52798479	      1.63337394	      0.00000000
      0.52495002	      7.44152119	      1.50661226	      0.00000000
      0.52690879	      7.34622044	      1.37361850	      0.00000000
      0.52886755	      7.24207088	      1.23633960	      0.00000000
      0.53082632	      7.12938311	      1.09657924	      0.00000000
      0.53278509	      7.00812723	      0.95590639	      0.00000000
      0.53474386	      6.87797657	      0.81351235	      0.00000000
      0.53670263	      6.73862606	      0.66820701	      0.00000000
      0.53866140	      6.59233642	      0.51813350	      0.00000000
      0.54062017	      6.42908573	      0.36224259	      0.00000000
      0.54257894	      6.25359599	      0.20044399	      0.00000000
      0.54453770	      6.06484731	      0.03377334	      0.00000000
      0.54649647	      5.86172863	     -0.13526997	      0.00000000
      0.54845524	      5.64262150	     -0.30428391	      0.00000000
      0.55041401	      5.40448532	     -0.46754686	      0.00000000
      0.55237278	      5.14212898	     -0.61699608	      0.00000000
      0.55433155	      4.84758440	     -0.73977048	      0.00000000
      0.55629032	      4.51343118	     -0.82215225	      0.00000000
      0.55824909	      4.13820313	     -0.85699635	      0.00000000
      0.56020785	      3.71942213	     -0.83348332	      0.00000000
      0.56216662	      3.21182953	     -0.69024587	      0.00000000
      0.56412539	      2.51436993	     -0.28987337	      0.00000000
      0.56608416	      1.54207329	      0.49736416	      0.00000000
      0.56804293	      0.22329974	      1.79261763	      0.00000000
      0.57000170	     -1.49465549	      3.70165763	      0.00000000
      0.57196047	     -3.59419113	      6.25662855	      0.00000000
      0.57391924	     -4.96376648	      8.24541417	      0.00000000
      0.57587800	     -4.49623082	      8.38480270	      0.00000000
      0.57783677	     -6.59742765	     11.29874199	      0.00000000
      0.57979554	     -7.95672438	     13.07599950	      0.00000000
      0.58175431	     -9.45738415	     14.73410826	      0.00000000
      0.58371308	    -10.71541582	     15.90717636	      0.00000000
      0.58567185	    -11.66282232	     16.56190331	      0.00000000
      0.58763062	    -12.36861825	     16.83298214	      0.00000000
      0.58958939	    -12.77588313	     16.68394344	      0.00000000
      0.59154815	    -12.98041162	     16.25582907	      0.00000000
      0.59350692	    -12.97571842	     15.55894386	      0.00000000
      0.59546569	    -12.83488229	     14.69195418	      0.00000000
      0.59742446	    -12.57443669	     13.67243899	      0.00000000
      0.59938323	    -12.25451812	     12.54855156	      0.00000000
      0.60134200	    -11.88372156	     11.37047953	      0.00000000
      0.60330077	    -11.40729008	     10.37435039	      0.00000000
      0.60525953	    -10.87195577	      9.46649048	      0.00000000
      0.60721830	    -10.32483549	      8.59998288	      0.00000000
      0.60917707	     -9.77924779	      7.78167750	      0.00000000
      0.61113584	     -9.24802580	      7.01394110	      0.00000000
      0.61309461	     -8.73605971	      6.29606826	      0.00000000
      0.61505338	     -8.25002206	      5.62516092	      0.00000000
      0.61701215	     -7.78823807	      4.99997559	      0.00000000
      0.61897092	     -7.36207826	      4.41329192	      0.00000000
      0.62092968	     -6.96827029	      3.86296414	      0.00000000
      0.62288845	     -6.60533027	      3.34706345	      0.00000000
      0.62484722	     -6.26987179	      2.86539053	      0.00000000
      0.62680599	     -5.95864789	      2.41697031	      0.00000000
      0.62876476	     -5.66936932	      2.00041197	      0.00000000
      0.63072353	     -5.39940532	      1.61411664	      0.00000000
      0.63268230	     -5.14703473	      1.25664622	      0.00000000
      0.63464107	     -4.91012277	      0.92659872	      0.00000000
      0.63659983	     -4.68737508	      0.62280669	      0.00000000
      0.63855860	     -4.47723403	      0.34405729	      0.00000000
      0.64051737	     -4.27891380	      0.08905690	      0.00000000
      0.64247614	     -4.09150080	     -0.14367133	      0.00000000
      0.64443491	     -3.91452733	     -0.35567688	      0.00000000
      0.64639368	     -3.74742622	     -0.54861789	      0.00000000
      0.64835245	     -3.58967638	     -0.72393114	      0.00000000
      0.65031122	     -3.44068356	     -0.88305761	      0.00000000
      0.65226998	     -3.29978285	     -1.02716958	      0.00000000
      0.65422875	     -3.16629379	     -1.15748586	      0.00000000
      0.65618752	     -3.03959184	     -1.27507759	      0.00000000
      0.65814629	     -2.91905810	     -1.38111591	      0.00000000
      0.66010506	     -2.80422764	     -1.47659723	      0.00000000
      0.66206383	     -2.69460745	     -1.56257054	      0.00000000
      0.66402260	     -2.58967456	     -1.63969166	      0.00000000
      0.66598137	     -2.48903100	     -1.70864884	      0.00000000
      0.66794013	     -2.39240883	     -1.76983811	      0.00000000
      0.66989890	     -2.29954964	     -1.82367994	      0.00000000
      0.67185767	     -2.21021818	     -1.87042143	      0.00000000
      0.67381644	     -2.12419015	     -1.91033383	      0.00000000
      0.67577521	     -2.04123788	     -1.94361302	      0.00000000
      0.67773398	     -1.96114636	     -1.97046022	      0.00000000
      0.67969275	     -1.88369702	     -1.99106412	      0.00000000
      0.68165152	     -1.80868660	     -2.00560292	      0.00000000
      0.68361028	     -1.73590464	     -2.01427939	      0.00000000
      0.68556905	     -1.66515733	     -2.01727138	      0.00000000
      0.68752782	     -1.59623052	     -2.01480879	      0.00000000
      0.68948659	     -1.52892654	     -2.00709264	      0.00000000
      0.69144536	     -1.46302635	     -1.99438995	      0.00000000
      0.69340413	     -1.39832522	     -1.97694177	      0.00000000
      0.69536290	     -1.33462215	     -1.95504328	      0.00000000
      0.69732166	     -1.27172697	     -1.92897577	      0.00000000
      0.69928043	     -1.20948379	     -1.89904120	      0.00000000
      0.70123920	     -1.14774199	     -1.86555030	      0.00000000
      0.70319797	     -1.08639254	     -1.82877387	      0.00000000
      0.70515674	     -1.02532941	     -1.78896236	      0.00000000
      0.70711551	     -0.96450571	     -1.74636325	      0.00000000
      0.70907428	     -0.90386611	     -1.70124195	      0.00000000
      0.71103305	     -0.84338803	     -1.65385890	      0.00000000
      0.71299181	     -0.78303506	     -1.60459590	      0.00000000
      0.71495058	     -0.72283350	     -1.55356457	      0.00000000
      0.71690935	     -0.66279613	     -1.50091244	      0.00000000
      0.71886812	     -0.60294094	     -1.44639756	      0.00000000
      0.72082689	     -0.54327871	     -1.38978336	      0.00000000
      0.72278566	     -0.48375700	     -1.33071266	      0.00000000
      0.72474443	     -0.42433516	     -1.26878838	      0.00000000
      0.72670320	     -0.36489702	     -1.20411374	      0.00000000
      0.72866196	     -0.29715604	     -1.14226535	      0.00000000
      0.73062073	     -0.23855034	     -1.07349806	      0.00000000
      0.73257950	     -0.17947900	     -1.00390781	      0.00000000
      0.73453827	     -0.12005753	     -0.93393716	      0.00000000
      0.73649704	     -0.06039093	     -0.86417945	      0.00000000
      0.73845581	     -0.00068240	     -0.79452103	      0.00000000
      0.74041458	      0.05886469	     -0.72479836	      0.00000000
      0.74237335	      0.11821003	     -0.65444229	      0.00000000
      0.74433211	      0.17731446	     -0.58274849	      0.00000000
      0.74629088	      0.23640151	     -0.50969678	      0.00000000
      0.74824965	      0.29565604	     -0.43528011	      0.00000000
      0.75020842	      0.35516024	     -0.36028946	      0.00000000
      0.75216719	      0.41495400	     -0.28557674	      0.00000000
      0.75412596	      0.47480810	     -0.21204518	      0.00000000
      0.75608473	      0.53452489	     -0.14077152	      0.00000000
      0.75804350	      0.59377486	     -0.07194222	      0.00000000
      0.76000226	      0.65224255	     -0.00583418	      0.00000000
      0.76196103	      0.70972715	      0.05848201	      0.00000000
      0.76391980	      0.76606059	      0.12221393	      0.00000000
      0.76587857	      0.82153145	      0.18592603	      0.00000000
      0.76783734	      0.87635597	      0.25021817	      0.00000000
      0.76979611	      0.93072275	      0.31438256	      0.00000000
      0.77175488	      0.98479685	      0.37775010	      0.00000000
      0.77371364	      1.03839528	      0.43879665	      0.00000000
      0.77567241	      1.09136100	      0.49600364	      0.00000000
      0.77763118	      1.14323244	      0.54781221	      0.00000000
      0.77958995	      1.19353282	      0.59232695	      0.00000000
      0.78154872	      1.24168245	      0.62926691	      0.00000000
      0.78350749	      1.28718608	      0.65813114	      0.00000000
      0.78546626	      1.32979660	      0.68067313	      0.00000000
      0.78742503	      1.36930493	      0.69905724	      0.00000000
      0.78938379	      1.40625053	      0.71462709	      0.00000000
      0.79134256	      1.44106976	      0.72881819	      0.00000000
      0.79330133	      1.47420880	      0.74085579	      0.00000000
      0.79526010	      1.50604451	      0.74992288	      0.00000000
      0.79721887	      1.53636271	      0.75421795	      0.00000000
      0.79917764	      1.56500189	      0.75193141	      0.00000000
      0.80113641	      1.59142966	      0.74169247	      0.00000000
      0.80309518	      1.61512998	      0.72185337	      0.00000000
      0.80505394	      1.63546849	      0.69318358	      0.00000000
      0.80701271	      1.65200930	      0.65691391	      0.00000000
      0.80897148	      1.66510975	      0.61322272	      0.00000000
      0.81093025	      1.67494314	      0.56197160	      0.00000000
      0.81288902	      1.68148822	      0.50267562	      0.00000000
      0.81484779	      1.68470728	      0.43485017	      0.00000000
      0.81680656	      1.68442199	      0.35834664	      0.00000000
      0.81876533	      1.68052628	      0.27310331	      0.00000000
      0.82072409	      1.67304878	      0.17918845	      0.00000000
      0.82268286	      1.66201763	      0.07666380	      0.00000000
      0.82464163	      1.64757772	     -0.03417509	      0.00000000
      0.82660040	      1.62991360	     -0.15299188	      0.00000000
      0.82855917	      1.60933554	     -0.27941315	      0.00000000
      0.83051794	      1.58620066	     -0.41299097	      0.00000000
      0.83247671	      1.56089224	     -0.55348535	      0.00000000
      0.83443548	      1.53381250	     -0.70055261	      0.00000000
      0.83639424	      1.50525415	     -0.85406690	      0.00000000
      0.83835301	      1.47550153	     -1.01381605	      0.00000000
      0.84031178	      1.44468830	     -1.17957539	      0.00000000
      0.84227055	      1.41294613	     -1.35109684	      0.00000000
      0.84422932	      1.38033124	     -1.52794535	      0.00000000
      0.84618809	      1.34690694	     -1.70970726	      0.00000000
      0.84814686	      1.31275150	     -1.89580042	      0.00000000
      0.85010563	      1.27794105	     -2.08566223	      0.00000000
      0.85206439	      1.24259652	     -2.27867800	      0.00000000
      0.85402316	      1.20682120	     -2.47423277	      0.00000000
      0.85598193	      1.17074242	     -2.67174458	      0.00000000
      0.85794070	      1.13446481	     -2.87062360	      0.00000000
      0.85989947	      1.09809139	     -3.07033504	      0.00000000
      0.86185824	      1.06170781	     -3.27034292	      0.00000000
      0.86381701	      1.02539019	     -3.47016091	      0.00000000
      0.86577577	      0.98920333	     -3.66931004	      0.00000000
      0.86773454	      0.95320670	     -3.86735614	      0.00000000
      0.86969331	      0.91745070	     -4.06387639	      0.00000000
      0.87165208	      0.88198523	     -4.25849104	      0.00000000
      0.87361085	      0.84685193	     -4.45083265	      0.00000000
      0.87556962	      0.81209171	     -4.64057448	      0.00000000
      0.87752839	      0.77773850	     -4.82740247	      0.00000000
      0.87948716	      0.74382090	     -5.01104008	      0.00000000
      0.88144592	      0.71036186	     -5.19122383	      0.00000000
      0.88340469	      0.67737545	     -5.36772380	      0.00000000
      0.88536346	      0.64487141	     -5.54032326	      0.00000000
      0.88732223	      0.61285342	     -5.70883334	      0.00000000
      0.88928100	      0.58132365	     -5.87307804	      0.00000000
      0.89123977	      0.55028299	     -6.03290308	      0.00000000
      0.89319854	      0.51973307	     -6.18816676	      0.00000000
      0.89515731	      0.48967193	     -6.33874580	      0.00000000
      0.89711607	      0.46008878	     -6.48453076	      0.00000000
      0.89907484	      0.43098380	     -6.62542809	      0.00000000
      0.90103361	      0.40234573	     -6.76137522	      0.00000000
      0.90299238	      0.37420045	     -6.89228561	      0.00000000
      0.90495115	      0.34641507	     -7.01815178	      0.00000000
      0.90690992	      0.31905405	     -7.13887448	      0.00000000
      0.90886869	      0.28853872	     -7.25834883	      0.00000000
      0.91082746	      0.26288897	     -7.36810592	      0.00000000
      0.91278622	      0.23774790	     -7.47245361	      0.00000000
      0.91474499	      0.21324670	     -7.57144642	      0.00000000
      0.91670376	      0.18951117	     -7.66503255	      0.00000000
      0.91866253	      0.16651927	     -7.75318796	      0.00000000
      0.92062130	      0.14426186	     -7.83588709	      0.00000000
      0.92258007	      0.12268610	     -7.91311532	      0.00000000
      0.92453884	      0.10176739	     -7.98484325	      0.00000000
      0.92649761	      0.08151778	     -8.05102825	      0.00000000
      0.92845637	      0.06196210	     -8.11159449	      0.00000000
      0.93041514	      0.04314861	     -8.16643380	      0.00000000
      0.93237391	      0.02512386	     -8.21540578	      0.00000000
      0.93433268	      0.00792527	     -8.25835098	      0.00000000
      0.93629145	     -0.00841035	     -8.29512815	      0.00000000
      0.93825022	     -0.02386236	     -8.32565140	      0.00000000
      0.94020899	     -0.03840466	     -8.34999576	      0.00000000
      0.94216776	     -0.05204755	     -8.36843080	      0.00000000
      0.94412652	     -0.06481983	     -8.38153855	      0.00000000
      0.94608529	     -0.07678918	     -8.39013640	      0.00000000
      0.94804406	     -0.08803113	     -8.39522427	      0.00000000
      0.95000283	     -0.09862407	     -8.39776652	      0.00000000
      0.95196160	     -0.10863745	     -8.39853549	      0.00000000
      0.95392037	     -0.11811821	     -8.39804593	      0.00000000
      0.95587914	     -0.12710464	     -8.39654447	      0.00000000
      0.95783790	     -0.13561876	     -8.39413569	      0.00000000
      0.95979667	     -0.14368302	     -8.39082986	      0.00000000
      0.96175544	     -0.15130939	     -8.38664485	      0.00000000
      0.96371421	     -0.15851016	     -8.38161025	      0.00000000
      0.96567298	     -0.16529288	     -8.37578717	      0.00000000
      0.96763175	     -0.17166741	     -8.36925638	      0.00000000
      0.96959052	     -0.17764889	     -8.36210064	      0.00000000
      0.97154929	     -0.18325752	     -8.35440419	      0.00000000
      0.97350805	     -0.18851580	     -8.34624131	      0.00000000
      0.97546682	     -0.19344236	     -8.33767756	      0.00000000
      0.97742559	     -0.19806051	     -8.32877716	      0.00000000
      0.97938436	     -0.20239580	     -8.31959120	      0.00000000
      0.98134313	     -0.20648234	     -8.31017612	      0.00000000
      0.98330190	     -0.21035846	     -8.30057852	      0.00000000
      0.98526067	     -0.21405951	     -8.29085172	      0.00000000
      0.98721944	     -0.21762172	     -8.28104285	      0.00000000
      0.98917820	     -0.22106522	     -8.27119036	      0.00000000
      0.99113697	     -0.22441986	     -8.26132701	      0.00000000
      0.99309574	     -0.22768714	     -8.25146987	      0.00000000
      0.99505451	     -0.23085769	     -8.24163881	      0.00000000
      0.99701328	     -0.23392889	     -8.23183298	      0.00000000
      0.99897205	     -0.23690151	     -8.22205268	      0.00000000
      1.00093082	     -0.23984572	     -8.21227596	      0.00000000
      1.00288959	     -0.24288329	     -8.20247004	      0.00000000
      1.00484835	     -0.24613396	     -8.19260533	      0.00000000
      1.00680712	     -0.24970221	     -8.18265931	      0.00000000
      1.00876589	     -0.25368675	     -8.17261818	      0.00000000
      1.01072466	     -0.25821385	     -8.16246798	      0.00000000
      1.01268343	     -0.26353223	     -8.15217571	      0.00000000
      1.01464220	     -0.26999235	     -8.14168924	      0.00000000
      1.01660097	     -0.27804309	     -8.13094745	      0.00000000
      1.01855974	     -0.28816719	     -8.11988448	      0.00000000
      1.02051850	     -0.30090988	     -8.10843409	      0.00000000
      1.02247727	     -0.31685993	     -8.09651101	      0.00000000
      1.02443604	     -0.33667095	     -8.08401301	      0.00000000
      1.02639481	     -0.36109457	     -8.07076707	      0.00000000
      1.02835358	     -0.39042015	     -8.05669936	      0.00000000
      1.03031235	     -0.42438682	     -8.04183158	      0.00000000
      1.03227112	     -0.46272195	     -8.02610761	      0.00000000
      1.03422988	     -0.50576859	     -8.00914726	      0.00000000
      1.03618865	     -0.55318015	     -7.99069437	      0.00000000
      1.03814742	     -0.63909766	     -7.96665992	      0.00000000
      1.04010619	     -0.69348039	     -7.94733941	      0.00000000
      1.04206496	     -0.75085620	     -7.92596689	      0.00000000
      1.04402373	     -0.81003337	     -7.90278775	      0.00000000
      1.04598250	     -0.87058586	     -7.87793445	      0.00000000
      1.04794127	     -0.93272556	     -7.85142720	      0.00000000
      1.04990003	     -0.99659225	     -7.82340282	      0.00000000
      1.05185880	     -1.06253330	     -7.79387273	      0.00000000
      1.05381757	     -1.13080604	     -7.76275396	      0.00000000
      1.05577634	     -1.20127866	     -7.73006777	      0.00000000
      1.05773511	     -1.27357429	     -7.69591074	      0.00000000
      1.05969388	     -1.34710845	     -7.66061839	      0.00000000
      1.06165265	     -1.42155558	     -7.62456005	      0.00000000
      1.06361142	     -1.49695720	     -7.58808473	      0.00000000
      1.06557018	     -1.57372140	     -7.55152015	      0.00000000
      1.06752895	     -1.65258837	     -7.51497679	      0.00000000
      1.06948772	     -1.73436715	     -7.47857515	      0.00000000
      1.07144649	     -1.81992954	     -7.44223690	      0.00000000
      1.07340526	     -1.91007913	     -7.40594161	      0.00000000
      1.07536403	     -2.00568062	     -7.36948258	      0.00000000
      1.07732280	     -2.10764729	     -7.33261623	      0.00000000
      1.07928157	     -2.21720705	     -7.29500060	      0.00000000
      1.08124033	     -2.33594131	     -7.25620234	      0.00000000
      1.08319910	     -2.46645134	     -7.21579118	      0.00000000
      1.08515787	     -2.61271140	     -7.17337486	      0.00000000
      1.08711664	     -2.78155329	     -7.12772221	      0.00000000
      1.08907541	     -2.98360660	     -7.07701960	      0.00000000
      1.09103418	     -3.23474208	     -7.01709777	      0.00000000
      1.09299295	     -3.55584298	     -6.94211715	      0.00000000
      1.09495172	     -3.97215871	     -6.84418653	      0.00000000
      1.09691048	     -4.51950778	     -6.71347412	      0.00000000
      1.09886925	     -5.22770728	     -6.53336635	      0.00000000
      1.10082802	     -6.06549804	     -6.30180272	      0.00000000
      1.10278679	     -6.91381290	     -6.04525125	      0.00000000
      1.10474556	     -7.54740820	     -5.81268691	      0.00000000
      1.10670433	     -7.04388273	     -5.86604355	      0.00000000
      1.10866310	     -6.31912723	     -5.95232404	      0.00000000
      1.11062187	     -6.12132939	     -5.92506356	      0.00000000
      1.11258063	     -5.91699373	     -5.93540635	      0.00000000
      1.11453940	     -5.88307734	     -5.90385454	      0.00000000
      1.11649817	     -5.92921614	     -5.85459995	      0.00000000
      1.11845694	     -6.04969721	     -5.78439577	      0.00000000
      1.12041571	     -6.21214865	     -5.69962374	      0.00000000
      1.12237448	     -6.40785105	     -5.60183361	      0.00000000
      1.12433325	     -6.62264809	     -5.49343949	      0.00000000
      1.12629201	     -6.85281618	     -5.37531818	      0.00000000
      1.12825078	     -7.09243353	     -5.24867562	      0.00000000
      1.13020955	     -7.34159841	     -5.11330388	      0.00000000
      1.13216832	     -7.59855298	     -4.96940788	      0.00000000
      1.13412709	     -7.86251919	     -4.81696876	      0.00000000
      1.13608586	     -8.13181056	     -4.65624508	      0.00000000
      1.13804463	     -8.40445424	     -4.48773434	      0.00000000
      1.14000340	     -8.67792559	     -4.31215984	      0.00000000
      1.14196216	     -8.94996203	     -4.13045398	      0.00000000
      1.14392093	     -9.21836855	     -3.94364297	      0.00000000
      1.14587970	     -9.48199576	     -3.75254902	      0.00000000
      1.14783847	     -9.73927563	     -3.55823256	      0.00000000
      1.14979724	     -9.98889047	     -3.36173057	      0.00000000
      1.15175601	    -10.22930600	     -3.16425254	      0.00000000
      1.15371478	    -10.45891292	     -2.96698363	      0.00000000
      1.15567355	    -10.67577331	     -2.77127891	      0.00000000
      1.15763231	    -10.87797345	     -2.57848438	      0.00000000
      1.15959108	    -11.06366199	     -2.38994817	      0.00000000
      1.16154985	    -11.23137703	     -2.20684812	      0.00000000
      1.16350862	    -11.37960848	     -2.03037587	      0.00000000
      1.16546739	    -11.50742632	     -1.86147960	      0.00000000
      1.16742616	    -11.61401526	     -1.70107066	      0.00000000
      1.16938493	    -11.69888931	     -1.54981874	      0.00000000
      1.17134370	    -11.76184200	     -1.40839974	      0.00000000
      1.17330246	    -11.80275257	     -1.27713792	      0.00000000
      1.17526123	    -11.82638804	     -1.15515793	      0.00000000
