PointVelocity
version=1
nRows=601
nColumns=4
inDegrees=no
No description.
endheader
time	state_0	state_1	state_2
      0.00000000	     -0.04123731	      0.21106043	      0.00000000
      0.00195877	     -0.03939544	      0.21779452	      0.00000000
      0.00391754	     -0.03716576	      0.22484386	      0.00000000
      0.00587631	     -0.03399250	      0.23221983	      0.00000000
      0.00783507	     -0.02986941	      0.23987283	      0.00000000
      0.00979384	     -0.02410807	      0.24791501	      0.00000000
      0.01175261	     -0.01718630	      0.25588883	      0.00000000
      0.01371138	     -0.00594334	      0.26512263	      0.00000000
      0.01567015	      0.01307624	      0.27737133	      0.00000000
      0.01762892	      0.04582182	      0.29446437	      0.00000000
      0.01958769	      0.10743903	      0.31920735	      0.00000000
      0.02154646	      0.20292118	      0.35050914	      0.00000000
      0.02350522	      0.32013024	      0.38473269	      0.00000000
      0.02546399	      0.43367013	      0.41516368	      0.00000000
      0.02742276	      0.53077917	      0.43807507	      0.00000000
      0.02938153	      0.61243654	      0.45415371	      0.00000000
      0.03134030	      0.67802742	      0.46394927	      0.00000000
      0.03329907	      0.73238523	      0.46949643	      0.00000000
      0.03525784	      0.77824285	      0.47199695	      0.00000000
      0.03721661	      0.81799563	      0.47239262	      0.00000000
      0.03917537	      0.85349495	      0.47139597	      0.00000000
      0.04113414	      0.88548532	      0.46929220	      0.00000000
      0.04309291	      0.91497541	      0.46644138	      0.00000000
      0.04505168	      0.94241778	      0.46299589	      0.00000000
      0.04701045	      0.96843484	      0.45915960	      0.00000000
      0.04896922	      0.99335119	      0.45503125	      0.00000000
      0.05092799	      1.01758153	      0.45073689	      0.00000000
      0.05288676	      1.04131579	      0.44632950	      0.00000000
      0.05484552	      1.06480452	      0.44188031	      0.00000000
      0.05680429	      1.08808331	      0.43739434	      0.00000000
      0.05876306	      1.11121474	      0.43288455	      0.00000000
      0.06072183	      1.13410084	      0.42831581	      0.00000000
      0.06268060	      1.15666038	      0.42365721	      0.00000000
      0.06463937	      1.17877354	      0.41886735	      0.00000000
      0.06659814	      1.20033215	      0.41390667	      0.00000000
      0.06855691	      1.22128911	      0.40875578	      0.00000000
      0.07051567	      1.24159692	      0.40339332	      0.00000000
      0.07247444	      1.26128902	      0.39782484	      0.00000000
      0.07443321	      1.28039001	      0.39205184	      0.00000000
      0.07639198	      1.29896885	      0.38609216	      0.00000000
      0.07835075	      1.31708613	      0.37996032	      0.00000000
      0.08030952	      1.33480304	      0.37367369	      0.00000000
      0.08226829	      1.35217753	      0.36724826	      0.00000000
      0.08422706	      1.36924611	      0.36069535	      0.00000000
      0.08618582	      1.38604665	      0.35402643	      0.00000000
      0.08814459	      1.40259642	      0.34724763	      0.00000000
      0.09010336	      1.41891584	      0.34036584	      0.00000000
      0.09206213	      1.43501524	      0.33338521	      0.00000000
      0.09402090	      1.45090754	      0.32631053	      0.00000000
      0.09597967	      1.46660377	      0.31914626	      0.00000000
      0.09793844	      1.48211621	      0.31189708	      0.00000000
      0.09989720	      1.49745763	      0.30456825	      0.00000000
      0.10185597	      1.51264107	      0.29716501	      0.00000000
      0.10381474	      1.52767917	      0.28969300	      0.00000000
      0.10577351	      1.54258453	      0.28215777	      0.00000000
      0.10773228	      1.55736822	      0.27456490	      0.00000000
      0.10969105	      1.57204147	      0.26691995	      0.00000000
      0.11164982	      1.58661358	      0.25922817	      0.00000000
      0.11360859	      1.60109422	      0.25149492	      0.00000000
      0.11556735	      1.61549104	      0.24372495	      0.00000000
      0.11752612	      1.62981183	      0.23592306	      0.00000000
      0.11948489	      1.64406287	      0.22809347	      0.00000000
      0.12144366	      1.65825078	      0.22024049	      0.00000000
      0.12340243	      1.67238117	      0.21236792	      0.00000000
      0.12536120	      1.68645996	      0.20447969	      0.00000000
      0.12731997	      1.70049208	      0.19657921	      0.00000000
      0.12927874	      1.71448265	      0.18866995	      0.00000000
      0.13123750	      1.72843586	      0.18075495	      0.00000000
      0.13319627	      1.74235600	      0.17283729	      0.00000000
      0.13515504	      1.75624676	      0.16491964	      0.00000000
      0.13711381	      1.77011198	      0.15700458	      0.00000000
      0.13907258	      1.78395518	      0.14909455	      0.00000000
      0.14103135	      1.79777982	      0.14119195	      0.00000000
      0.14299012	      1.81158949	      0.13329941	      0.00000000
      0.14494889	      1.82538760	      0.12541940	      0.00000000
      0.14690765	      1.83917848	      0.11755496	      0.00000000
      0.14886642	      1.85296634	      0.10970901	      0.00000000
      0.15082519	      1.86675680	      0.10188519	      0.00000000
      0.15278396	      1.88055563	      0.09408721	      0.00000000
      0.15474273	      1.89436919	      0.08631908	      0.00000000
      0.15670150	      1.90820424	      0.07858503	      0.00000000
      0.15866027	      1.92206557	      0.07088858	      0.00000000
      0.16061904	      1.93595815	      0.06323334	      0.00000000
      0.16257780	      1.94988320	      0.05562143	      0.00000000
      0.16453657	      1.96384169	      0.04805483	      0.00000000
      0.16649534	      1.97783288	      0.04053476	      0.00000000
      0.16845411	      1.99185601	      0.03306238	      0.00000000
      0.17041288	      2.00591292	      0.02563984	      0.00000000
      0.17237165	      2.02000604	      0.01826952	      0.00000000
      0.17433042	      2.03414109	      0.01095525	      0.00000000
      0.17628918	      2.04832425	      0.00370110	      0.00000000
      0.17824795	      2.06256080	     -0.00348898	      0.00000000
      0.18020672	      2.07685576	     -0.01061110	      0.00000000
      0.18216549	      2.09121015	     -0.01766275	      0.00000000
      0.18412426	      2.10562488	     -0.02464152	      0.00000000
      0.18608303	      2.12009851	     -0.03154560	      0.00000000
      0.18804180	      2.13463027	     -0.03837303	      0.00000000
      0.19000057	      2.14921973	     -0.04512126	      0.00000000
      0.19195933	      2.16386715	     -0.05178749	      0.00000000
      0.19391810	      2.17857296	     -0.05836841	      0.00000000
      0.19587687	      2.19333770	     -0.06486068	      0.00000000
      0.19783564	      2.20816042	     -0.07126125	      0.00000000
      0.19979441	      2.22304017	     -0.07756708	      0.00000000
      0.20175318	      2.23797422	     -0.08377564	      0.00000000
      0.20371195	      2.25295991	     -0.08988443	      0.00000000
      0.20567072	      2.26799415	     -0.09589088	      0.00000000
      0.20762948	      2.28307386	     -0.10179247	      0.00000000
      0.20958825	      2.29819711	     -0.10758587	      0.00000000
      0.21154702	      2.31336223	     -0.11326765	      0.00000000
      0.21350579	      2.32856850	     -0.11883364	      0.00000000
      0.21546456	      2.34381539	     -0.12427954	      0.00000000
      0.21742333	      2.35910128	     -0.12960134	      0.00000000
      0.21938210	      2.37442416	     -0.13479520	      0.00000000
      0.22134087	      2.38978043	     -0.13985787	      0.00000000
      0.22329963	      2.40516610	     -0.14478632	      0.00000000
      0.22525840	      2.42057806	     -0.14957681	      0.00000000
      0.22721717	      2.43601352	     -0.15422538	      0.00000000
      0.22917594	      2.45147201	     -0.15872655	      0.00000000
      0.23113471	      2.46695366	     -0.16307437	      0.00000000
      0.23309348	      2.48245807	     -0.16726292	      0.00000000
      0.23505225	      2.49798480	     -0.17128615	      0.00000000
      0.23701102	      2.51352941	     -0.17514021	      0.00000000
      0.23896978	      2.52908711	     -0.17882146	      0.00000000
      0.24092855	      2.54465002	     -0.18232810	      0.00000000
      0.24288732	      2.56021058	     -0.18565835	      0.00000000
      0.24484609	      2.57576164	     -0.18881007	      0.00000000
      0.24680486	      2.59129662	     -0.19178092	      0.00000000
      0.24876363	      2.60681040	     -0.19456719	      0.00000000
      0.25072240	      2.62229732	     -0.19716544	      0.00000000
      0.25268117	      2.63775287	     -0.19957112	      0.00000000
      0.25463993	      2.65317191	     -0.20177986	      0.00000000
      0.25659870	      2.66855087	     -0.20378663	      0.00000000
      0.25855747	      2.68388704	     -0.20558582	      0.00000000
      0.26051624	      2.69917648	     -0.20717328	      0.00000000
      0.26247501	      2.71441484	     -0.20854539	      0.00000000
      0.26443378	      2.72959384	     -0.20970082	      0.00000000
      0.26639255	      2.74470410	     -0.21063903	      0.00000000
      0.26835131	      2.75973619	     -0.21135833	      0.00000000
      0.27031008	      2.77468170	     -0.21185676	      0.00000000
      0.27226885	      2.78953546	     -0.21212947	      0.00000000
      0.27422762	      2.80429174	     -0.21216976	      0.00000000
      0.27618639	      2.81894761	     -0.21197402	      0.00000000
      0.27814516	      2.83350012	     -0.21154037	      0.00000000
      0.28010393	      2.84794115	     -0.21086780	      0.00000000
      0.28206270	      2.86226155	     -0.20995678	      0.00000000
      0.28402146	      2.87645229	     -0.20880654	      0.00000000
      0.28598023	      2.89050637	     -0.20741352	      0.00000000
      0.28793900	      2.90441613	     -0.20577484	      0.00000000
      0.28989777	      2.91817161	     -0.20389065	      0.00000000
      0.29185654	      2.93176317	     -0.20176202	      0.00000000
      0.29381531	      2.94518183	     -0.19939002	      0.00000000
      0.29577408	      2.95842139	     -0.19677210	      0.00000000
      0.29773285	      2.97147696	     -0.19390402	      0.00000000
      0.29969161	      2.98434100	     -0.19078212	      0.00000000
      0.30165038	      2.99700386	     -0.18740505	      0.00000000
      0.30360915	      3.00945260	     -0.18377443	      0.00000000
      0.30556792	      3.02167503	     -0.17989218	      0.00000000
      0.30752669	      3.03365932	     -0.17575996	      0.00000000
      0.30948546	      3.04539450	     -0.17137926	      0.00000000
      0.31144423	      3.05686944	     -0.16675067	      0.00000000
      0.31340300	      3.06807251	     -0.16187580	      0.00000000
      0.31536176	      3.07899097	     -0.15675596	      0.00000000
      0.31732053	      3.08961234	     -0.15139300	      0.00000000
      0.31927930	      3.09992310	     -0.14578900	      0.00000000
      0.32123807	      3.10990981	     -0.13994644	      0.00000000
      0.32319684	      3.11955790	     -0.13386941	      0.00000000
      0.32515561	      3.12885247	     -0.12756301	      0.00000000
      0.32711438	      3.13777924	     -0.12103442	      0.00000000
      0.32907315	      3.14632386	     -0.11429143	      0.00000000
      0.33103191	      3.15447456	     -0.10734293	      0.00000000
      0.33299068	      3.16221942	     -0.10019836	      0.00000000
      0.33494945	      3.16954962	     -0.09286768	      0.00000000
      0.33690822	      3.17645584	     -0.08536172	      0.00000000
      0.33886699	      3.18293184	     -0.07769132	      0.00000000
      0.34082576	      3.18897082	     -0.06986822	      0.00000000
      0.34278453	      3.19456964	     -0.06190304	      0.00000000
      0.34474329	      3.19972477	     -0.05380746	      0.00000000
      0.34670206	      3.20443699	     -0.04559043	      0.00000000
      0.34866083	      3.20870723	     -0.03726151	      0.00000000
      0.35061960	      3.21253968	     -0.02882711	      0.00000000
      0.35257837	      3.21593906	     -0.02029393	      0.00000000
      0.35453714	      3.21891018	     -0.01166726	      0.00000000
      0.35649591	      3.22145845	     -0.00295288	      0.00000000
      0.35845468	      3.22358662	      0.00584309	      0.00000000
      0.36041344	      3.22529840	      0.01471410	      0.00000000
      0.36237221	      3.22659438	      0.02365322	      0.00000000
      0.36433098	      3.22747677	      0.03265375	      0.00000000
      0.36628975	      3.22794485	      0.04170817	      0.00000000
      0.36824852	      3.22799974	      0.05080946	      0.00000000
      0.37020729	      3.22763875	      0.05994722	      0.00000000
      0.37216606	      3.22686070	      0.06911098	      0.00000000
      0.37412483	      3.22566009	      0.07828510	      0.00000000
      0.37608359	      3.22403294	      0.08745384	      0.00000000
      0.37804236	      3.22197203	      0.09659745	      0.00000000
      0.38000113	      3.21947200	      0.10569658	      0.00000000
      0.38195990	      3.21652545	      0.11472916	      0.00000000
      0.38391867	      3.21312687	      0.12367295	      0.00000000
      0.38587744	      3.20926875	      0.13250319	      0.00000000
      0.38783621	      3.20494445	      0.14119443	      0.00000000
      0.38979498	      3.20014634	      0.14971959	      0.00000000
      0.39175374	      3.19486806	      0.15805056	      0.00000000
      0.39371251	      3.18910470	      0.16615969	      0.00000000
      0.39567128	      3.18285216	      0.17401878	      0.00000000
      0.39763005	      3.17610879	      0.18160139	      0.00000000
      0.39958882	      3.16887345	      0.18888053	      0.00000000
      0.40154759	      3.16114722	      0.19582983	      0.00000000
      0.40350636	      3.15293111	      0.20242129	      0.00000000
      0.40546513	      3.14422843	      0.20862790	      0.00000000
      0.40742389	      3.13504238	      0.21442155	      0.00000000
      0.40938266	      3.12537910	      0.21977781	      0.00000000
      0.41134143	      3.11524452	      0.22467186	      0.00000000
      0.41330020	      3.10464742	      0.22908322	      0.00000000
      0.41525897	      3.09359579	      0.23299004	      0.00000000
      0.41721774	      3.08210015	      0.23637472	      0.00000000
      0.41917651	      3.07017012	      0.23921877	      0.00000000
      0.42113528	      3.05781760	      0.24150842	      0.00000000
      0.42309404	      3.04505334	      0.24322929	      0.00000000
      0.42505281	      3.03188989	      0.24437159	      0.00000000
      0.42701158	      3.01833843	      0.24492506	      0.00000000
      0.42897035	      3.00441139	      0.24488318	      0.00000000
      0.43092912	      2.99011978	      0.24423942	      0.00000000
      0.43288789	      2.97547526	      0.24298917	      0.00000000
      0.43484666	      2.96048769	      0.24112740	      0.00000000
      0.43680542	      2.94516773	      0.23865040	      0.00000000
      0.43876419	      2.92952480	      0.23555460	      0.00000000
      0.44072296	      2.91356945	      0.23183864	      0.00000000
      0.44268173	      2.89731046	      0.22750199	      0.00000000
      0.44464050	      2.88075704	      0.22254561	      0.00000000
      0.44659927	      2.86391664	      0.21697081	      0.00000000
      0.44855804	      2.84679749	      0.21077900	      0.00000000
      0.45051681	      2.82940612	      0.20397245	      0.00000000
      0.45247557	      2.81175038	      0.19655262	      0.00000000
      0.45443434	      2.79383640	      0.18852203	      0.00000000
      0.45639311	      2.77567209	      0.17988192	      0.00000000
      0.45835188	      2.75726348	      0.17063397	      0.00000000
      0.46031065	      2.73861895	      0.16078076	      0.00000000
      0.46226942	      2.71974518	      0.15032626	      0.00000000
      0.46422819	      2.70065132	      0.13927738	      0.00000000
      0.46618696	      2.68134492	      0.12764265	      0.00000000
      0.46814572	      2.66183560	      0.11543173	      0.00000000
      0.47010449	      2.64213130	      0.10265508	      0.00000000
      0.47206326	      2.62224195	      0.08932214	      0.00000000
      0.47402203	      2.60217589	      0.07544317	      0.00000000
      0.47598080	      2.58194395	      0.06102866	      0.00000000
      0.47793957	      2.56155565	      0.04609104	      0.00000000
      0.47989834	      2.54102310	      0.03064401	      0.00000000
      0.48185711	      2.52035724	      0.01470198	      0.00000000
      0.48381587	      2.49957086	     -0.00171802	      0.00000000
      0.48577464	      2.47867600	     -0.01859677	      0.00000000
      0.48773341	      2.45768477	     -0.03591318	      0.00000000
      0.48969218	      2.43660915	     -0.05364250	      0.00000000
      0.49165095	      2.41545851	     -0.07176518	      0.00000000
      0.49360972	      2.39424315	     -0.09025013	      0.00000000
      0.49556849	      2.37295967	     -0.10910046	      0.00000000
      0.49752726	      2.35160535	     -0.12833545	      0.00000000
      0.49948602	      2.33018193	     -0.14798423	      0.00000000
      0.50144479	      2.30868918	     -0.16807744	      0.00000000
      0.50340356	      2.28712619	     -0.18859400	      0.00000000
      0.50536233	      2.26548980	     -0.20956257	      0.00000000
      0.50732110	      2.24378573	     -0.23081961	      0.00000000
      0.50927987	      2.22203525	     -0.25206220	      0.00000000
      0.51123864	      2.20024469	     -0.27306968	      0.00000000
      0.51319741	      2.17842502	     -0.29362218	      0.00000000
      0.51515617	      2.15653477	     -0.31400947	      0.00000000
      0.51711494	      2.13451419	     -0.33471164	      0.00000000
      0.51907371	      2.11228777	     -0.35623435	      0.00000000
      0.52103248	      2.08976761	     -0.37916747	      0.00000000
      0.52299125	      2.06693882	     -0.40313650	      0.00000000
      0.52495002	      2.04380859	     -0.42770117	      0.00000000
      0.52690879	      2.02047043	     -0.45138878	      0.00000000
      0.52886755	      1.99710552	     -0.47234201	      0.00000000
      0.53082632	      1.97379423	     -0.48955087	      0.00000000
      0.53278509	      1.95064887	     -0.50207053	      0.00000000
      0.53474386	      1.92746892	     -0.51140949	      0.00000000
      0.53670263	      1.90395320	     -0.51974535	      0.00000000
      0.53866140	      1.87970724	     -0.52927512	      0.00000000
      0.54062017	      1.85443410	     -0.54126642	      0.00000000
      0.54257894	      1.82789176	     -0.55560859	      0.00000000
      0.54453770	      1.79988918	     -0.57232501	      0.00000000
      0.54649647	      1.77000351	     -0.59133530	      0.00000000
      0.54845524	      1.73775593	     -0.61393305	      0.00000000
      0.55041401	      1.70241667	     -0.63931231	      0.00000000
      0.55237278	      1.66359314	     -0.66613474	      0.00000000
      0.55433155	      1.62040880	     -0.68972168	      0.00000000
      0.55629032	      1.57263464	     -0.70388577	      0.00000000
      0.55824909	      1.51851063	     -0.70544533	      0.00000000
      0.56020785	      1.45777069	     -0.69236166	      0.00000000
      0.56216662	      1.38544775	     -0.66965618	      0.00000000
      0.56412539	      1.29440294	     -0.64084505	      0.00000000
      0.56608416	      1.17200562	     -0.61563760	      0.00000000
      0.56804293	      0.99488923	     -0.61623938	      0.00000000
      0.57000170	      0.76296140	     -0.63964647	      0.00000000
      0.57196047	      0.44807072	     -0.68583198	      0.00000000
      0.57391924	      0.14864989	     -0.65776215	      0.00000000
      0.57587800	      0.04056299	     -0.46038370	      0.00000000
      0.57783677	      0.03263497	     -0.28805037	      0.00000000
      0.57979554	      0.01946506	     -0.24623089	      0.00000000
      0.58175431	      0.01959568	     -0.22792603	      0.00000000
      0.58371308	      0.02155302	     -0.21447266	      0.00000000
      0.58567185	      0.02352893	     -0.20074550	      0.00000000
      0.58763062	      0.02549181	     -0.17820430	      0.00000000
      0.58958939	      0.02647119	     -0.15355502	      0.00000000
      0.59154815	      0.02740772	     -0.12583264	      0.00000000
      0.59350692	      0.02777067	     -0.09831826	      0.00000000
      0.59546569	      0.02814265	     -0.07130675	      0.00000000
      0.59742446	      0.02821214	     -0.04587089	      0.00000000
      0.59938323	      0.02827071	     -0.02226013	      0.00000000
      0.60134200	      0.02814890	     -0.00081766	      0.00000000
      0.60330077	      0.02800369	      0.01846871	      0.00000000
      0.60525953	      0.02776051	      0.03570073	      0.00000000
      0.60721830	      0.02751850	      0.05105669	      0.00000000
      0.60917707	      0.02722888	      0.06459904	      0.00000000
      0.61113584	      0.02694729	      0.07648142	      0.00000000
      0.61309461	      0.02664961	      0.08678391	      0.00000000
      0.61505338	      0.02637886	      0.09563230	      0.00000000
      0.61701215	      0.02613033	      0.10310941	      0.00000000
      0.61897092	      0.02590998	      0.10936071	      0.00000000
      0.62092968	      0.02570195	      0.11448316	      0.00000000
      0.62288845	      0.02553096	      0.11854854	      0.00000000
      0.62484722	      0.02539419	      0.12161335	      0.00000000
      0.62680599	      0.02529833	      0.12375900	      0.00000000
      0.62876476	      0.02523930	      0.12506229	      0.00000000
      0.63072353	      0.02521847	      0.12559953	      0.00000000
      0.63268230	      0.02523014	      0.12545354	      0.00000000
      0.63464107	      0.02527080	      0.12470534	      0.00000000
      0.63659983	      0.02533205	      0.12344214	      0.00000000
      0.63855860	      0.02540609	      0.12175173	      0.00000000
      0.64051737	      0.02548294	      0.11971819	      0.00000000
      0.64247614	      0.02555214	      0.11743122	      0.00000000
      0.64443491	      0.02560500	      0.11495461	      0.00000000
      0.64639368	      0.02563163	      0.11236178	      0.00000000
      0.64835245	      0.02562861	      0.10967262	      0.00000000
      0.65031122	      0.02559142	      0.10691542	      0.00000000
      0.65226998	      0.02552513	      0.10405696	      0.00000000
      0.65422875	      0.02543422	      0.10106697	      0.00000000
      0.65618752	      0.02533075	      0.09788521	      0.00000000
      0.65814629	      0.02522641	      0.09444970	      0.00000000
      0.66010506	      0.02513305	      0.09072111	      0.00000000
      0.66206383	      0.02506243	      0.08665612	      0.00000000
      0.66402260	      0.02501888	      0.08226772	      0.00000000
      0.66598137	      0.02500737	      0.07756363	      0.00000000
      0.66794013	      0.02502315	      0.07260375	      0.00000000
      0.66989890	      0.02506273	      0.06744242	      0.00000000
      0.67185767	      0.02511615	      0.06215747	      0.00000000
      0.67381644	      0.02517481	      0.05682238	      0.00000000
      0.67577521	      0.02522849	      0.05150737	      0.00000000
      0.67773398	      0.02526781	      0.04628129	      0.00000000
      0.67969275	      0.02528473	      0.04119916	      0.00000000
      0.68165152	      0.02527134	      0.03631850	      0.00000000
      0.68361028	      0.02522165	      0.03168223	      0.00000000
      0.68556905	      0.02512926	      0.02733890	      0.00000000
      0.68752782	      0.02498986	      0.02331831	      0.00000000
      0.68948659	      0.02479854	      0.01965673	      0.00000000
      0.69144536	      0.02455361	      0.01636250	      0.00000000
      0.69340413	      0.02425276	      0.01344924	      0.00000000
      0.69536290	      0.02389814	      0.01089913	      0.00000000
      0.69732166	      0.02349113	      0.00869892	      0.00000000
      0.69928043	      0.02303737	      0.00681147	      0.00000000
      0.70123920	      0.02254135	      0.00520524	      0.00000000
      0.70319797	      0.02201056	      0.00383262	      0.00000000
      0.70515674	      0.02145141	      0.00265001	      0.00000000
      0.70711551	      0.02087259	      0.00159984	      0.00000000
      0.70907428	      0.02028320	      0.00061827	      0.00000000
      0.71103305	      0.01969296	     -0.00034766	      0.00000000
      0.71299181	      0.01911338	     -0.00136616	      0.00000000
      0.71495058	      0.01854979	     -0.00243528	      0.00000000
      0.71690935	      0.01800816	     -0.00355898	      0.00000000
      0.71886812	      0.01748031	     -0.00465180	      0.00000000
      0.72082689	      0.01695726	     -0.00561855	      0.00000000
      0.72278566	      0.01642077	     -0.00635767	      0.00000000
      0.72474443	      0.01585155	     -0.00675436	      0.00000000
      0.72670320	      0.01523990	     -0.00680898	      0.00000000
      0.72866196	      0.01457641	     -0.00651799	      0.00000000
      0.73062073	      0.01387362	     -0.00601874	      0.00000000
      0.73257950	      0.01314590	     -0.00546125	      0.00000000
      0.73453827	      0.01242219	     -0.00500410	      0.00000000
      0.73649704	      0.01173228	     -0.00483036	      0.00000000
      0.73845581	      0.01108928	     -0.00492337	      0.00000000
      0.74041458	      0.01050332	     -0.00525254	      0.00000000
      0.74237335	      0.00994969	     -0.00560514	      0.00000000
      0.74433211	      0.00939933	     -0.00572823	      0.00000000
      0.74629088	      0.00881701	     -0.00549534	      0.00000000
      0.74824965	      0.00817192	     -0.00479262	      0.00000000
      0.75020842	      0.00747245	     -0.00378664	      0.00000000
      0.75216719	      0.00673012	     -0.00266404	      0.00000000
      0.75412596	      0.00598887	     -0.00170190	      0.00000000
      0.75608473	      0.00529334	     -0.00119904	      0.00000000
      0.75804350	      0.00467367	     -0.00122452	      0.00000000
      0.76000226	      0.00416042	     -0.00186834	      0.00000000
      0.76196103	      0.00373220	     -0.00283329	      0.00000000
      0.76391980	      0.00335589	     -0.00373799	      0.00000000
      0.76587857	      0.00296482	     -0.00425162	      0.00000000
      0.76783734	      0.00249933	     -0.00405904	      0.00000000
      0.76979611	      0.00194582	     -0.00325245	      0.00000000
      0.77175488	      0.00129022	     -0.00190792	      0.00000000
      0.77371364	      0.00058531	     -0.00046902	      0.00000000
      0.77567241	     -0.00012067	      0.00064218	      0.00000000
      0.77763118	     -0.00074688	      0.00091063	      0.00000000
      0.77958995	     -0.00120116	     -0.00027975	      0.00000000
      0.78154872	     -0.00142653	     -0.00308148	      0.00000000
      0.78350749	     -0.00136707	     -0.00769127	      0.00000000
      0.78546626	     -0.00106122	     -0.01353814	      0.00000000
      0.78742503	     -0.00056246	     -0.01993049	      0.00000000
      0.78938379	      0.00000242	     -0.02614323	      0.00000000
      0.79134256	      0.00051884	     -0.03147518	      0.00000000
      0.79330133	      0.00093446	     -0.03590969	      0.00000000
      0.79526010	      0.00120614	     -0.03946422	      0.00000000
      0.79721887	      0.00139560	     -0.04269814	      0.00000000
      0.79917764	      0.00155492	     -0.04614126	      0.00000000
      0.80113641	      0.00177098	     -0.05031453	      0.00000000
      0.80309518	      0.00213322	     -0.05581075	      0.00000000
      0.80505394	      0.00268216	     -0.06250490	      0.00000000
      0.80701271	      0.00342341	     -0.07006874	      0.00000000
      0.80897148	      0.00427949	     -0.07812305	      0.00000000
      0.81093025	      0.00520792	     -0.08648413	      0.00000000
      0.81288902	      0.00619607	     -0.09513598	      0.00000000
      0.81484779	      0.00723524	     -0.10408226	      0.00000000
      0.81680656	      0.00832559	     -0.11326811	      0.00000000
      0.81876533	      0.00945963	     -0.12259870	      0.00000000
      0.82072409	      0.01061286	     -0.13188958	      0.00000000
      0.82268286	      0.01176606	     -0.14097798	      0.00000000
      0.82464163	      0.01288942	     -0.14962946	      0.00000000
      0.82660040	      0.01395486	     -0.15760160	      0.00000000
      0.82855917	      0.01493184	     -0.16468303	      0.00000000
      0.83051794	      0.01579138	     -0.17064297	      0.00000000
      0.83247671	      0.01651790	     -0.17541992	      0.00000000
      0.83443548	      0.01709734	     -0.17892871	      0.00000000
      0.83639424	      0.01753788	     -0.18128759	      0.00000000
      0.83835301	      0.01784696	     -0.18259371	      0.00000000
      0.84031178	      0.01804826	     -0.18304116	      0.00000000
      0.84227055	      0.01816134	     -0.18281130	      0.00000000
      0.84422932	      0.01820897	     -0.18205604	      0.00000000
      0.84618809	      0.01820947	     -0.18092683	      0.00000000
      0.84814686	      0.01817585	     -0.17949856	      0.00000000
      0.85010563	      0.01811912	     -0.17785405	      0.00000000
      0.85206439	      0.01804401	     -0.17602209	      0.00000000
      0.85402316	      0.01795562	     -0.17404069	      0.00000000
      0.85598193	      0.01785547	     -0.17192791	      0.00000000
      0.85794070	      0.01774608	     -0.16970807	      0.00000000
      0.85989947	      0.01762880	     -0.16739989	      0.00000000
      0.86185824	      0.01750538	     -0.16502514	      0.00000000
      0.86381701	      0.01737729	     -0.16259997	      0.00000000
      0.86577577	      0.01724587	     -0.16014209	      0.00000000
      0.86773454	      0.01711216	     -0.15766210	      0.00000000
      0.86969331	      0.01697708	     -0.15517177	      0.00000000
      0.87165208	      0.01684110	     -0.15267687	      0.00000000
      0.87361085	      0.01670474	     -0.15018414	      0.00000000
      0.87556962	      0.01656813	     -0.14769634	      0.00000000
      0.87752839	      0.01643149	     -0.14521689	      0.00000000
      0.87948716	      0.01629473	     -0.14274676	      0.00000000
      0.88144592	      0.01615791	     -0.14028733	      0.00000000
      0.88340469	      0.01602081	     -0.13783828	      0.00000000
      0.88536346	      0.01588334	     -0.13539956	      0.00000000
      0.88732223	      0.01574516	     -0.13296970	      0.00000000
      0.88928100	      0.01560604	     -0.13054740	      0.00000000
      0.89123977	      0.01546550	     -0.12813025	      0.00000000
      0.89319854	      0.01532319	     -0.12571585	      0.00000000
      0.89515731	      0.01517848	     -0.12330144	      0.00000000
      0.89711607	      0.01503091	     -0.12088414	      0.00000000
      0.89907484	      0.01487975	     -0.11846138	      0.00000000
      0.90103361	      0.01472461	     -0.11603025	      0.00000000
      0.90299238	      0.01456458	     -0.11358887	      0.00000000
      0.90495115	      0.01440039	     -0.11113466	      0.00000000
      0.90690992	      0.01423003	     -0.10866613	      0.00000000
      0.90886869	      0.01404840	     -0.10618488	      0.00000000
      0.91082746	      0.01386042	     -0.10369431	      0.00000000
      0.91278622	      0.01366956	     -0.10119033	      0.00000000
      0.91474499	      0.01347037	     -0.09866919	      0.00000000
      0.91670376	      0.01326197	     -0.09613181	      0.00000000
      0.91866253	      0.01304444	     -0.09358157	      0.00000000
      0.92062130	      0.01281682	     -0.09102074	      0.00000000
      0.92258007	      0.01257839	     -0.08845161	      0.00000000
      0.92453884	      0.01232792	     -0.08587590	      0.00000000
      0.92649761	      0.01206391	     -0.08329570	      0.00000000
      0.92845637	      0.01178473	     -0.08071292	      0.00000000
      0.93041514	      0.01148839	     -0.07812955	      0.00000000
      0.93237391	      0.01117266	     -0.07554740	      0.00000000
      0.93433268	      0.01083516	     -0.07296812	      0.00000000
      0.93629145	      0.01047298	     -0.07039314	      0.00000000
      0.93825022	      0.01008437	     -0.06782386	      0.00000000
      0.94020899	      0.00966674	     -0.06526139	      0.00000000
      0.94216776	      0.00922116	     -0.06270705	      0.00000000
      0.94412652	      0.00874815	     -0.06016196	      0.00000000
      0.94608529	      0.00825292	     -0.05762828	      0.00000000
      0.94804406	      0.00774065	     -0.05510816	      0.00000000
      0.95000283	      0.00721784	     -0.05260517	      0.00000000
      0.95196160	      0.00669083	     -0.05012289	      0.00000000
      0.95392037	      0.00616297	     -0.04766548	      0.00000000
      0.95587914	      0.00563761	     -0.04523692	      0.00000000
      0.95783790	      0.00511499	     -0.04284094	      0.00000000
      0.95979667	      0.00459576	     -0.04048122	      0.00000000
      0.96175544	      0.00407945	     -0.03816131	      0.00000000
      0.96371421	      0.00356604	     -0.03588507	      0.00000000
      0.96567298	      0.00305555	     -0.03365530	      0.00000000
      0.96763175	      0.00254816	     -0.03147529	      0.00000000
      0.96959052	      0.00204420	     -0.02934588	      0.00000000
      0.97154929	      0.00154390	     -0.02726836	      0.00000000
      0.97350805	      0.00104747	     -0.02524187	      0.00000000
      0.97546682	      0.00055513	     -0.02326591	      0.00000000
      0.97742559	      0.00006694	     -0.02133915	      0.00000000
      0.97938436	     -0.00041687	     -0.01946059	      0.00000000
      0.98134313	     -0.00089618	     -0.01762826	      0.00000000
      0.98330190	     -0.00137079	     -0.01584027	      0.00000000
      0.98526067	     -0.00184085	     -0.01409462	      0.00000000
      0.98721944	     -0.00230636	     -0.01238941	      0.00000000
      0.98917820	     -0.00276782	     -0.01072283	      0.00000000
      0.99113697	     -0.00322567	     -0.00909309	      0.00000000
      0.99309574	     -0.00368055	     -0.00749846	      0.00000000
      0.99505451	     -0.00413314	     -0.00593699	      0.00000000
      0.99701328	     -0.00458380	     -0.00440761	      0.00000000
      0.99897205	     -0.00503285	     -0.00290895	      0.00000000
      1.00093082	     -0.00548021	     -0.00144158	      0.00000000
      1.00288959	     -0.00592560	     -0.00000598	      0.00000000
      1.00484835	     -0.00636863	      0.00139659	      0.00000000
      1.00680712	     -0.00680887	      0.00276502	      0.00000000
      1.00876589	     -0.00724606	      0.00409829	      0.00000000
      1.01072466	     -0.00767988	      0.00539548	      0.00000000
      1.01268343	     -0.00811038	      0.00665538	      0.00000000
      1.01464220	     -0.00853742	      0.00787675	      0.00000000
      1.01660097	     -0.00896135	      0.00905792	      0.00000000
      1.01855974	     -0.00938229	      0.01019716	      0.00000000
      1.02051850	     -0.00980058	      0.01129302	      0.00000000
      1.02247727	     -0.01021641	      0.01234388	      0.00000000
      1.02443604	     -0.01063021	      0.01334891	      0.00000000
      1.02639481	     -0.01104220	      0.01430677	      0.00000000
      1.02835358	     -0.01145351	      0.01521811	      0.00000000
      1.03031235	     -0.01186548	      0.01608394	      0.00000000
      1.03227112	     -0.01227811	      0.01690611	      0.00000000
      1.03422988	     -0.01269050	      0.01768433	      0.00000000
      1.03618865	     -0.01310366	      0.01842122	      0.00000000
      1.03814742	     -0.01351953	      0.01912082	      0.00000000
      1.04010619	     -0.01393745	      0.01978578	      0.00000000
      1.04206496	     -0.01435897	      0.02041907	      0.00000000
      1.04402373	     -0.01478706	      0.02103212	      0.00000000
      1.04598250	     -0.01522253	      0.02163341	      0.00000000
      1.04794127	     -0.01566467	      0.02223074	      0.00000000
      1.04990003	     -0.01611432	      0.02283343	      0.00000000
      1.05185880	     -0.01656935	      0.02344803	      0.00000000
      1.05381757	     -0.01702805	      0.02408067	      0.00000000
      1.05577634	     -0.01748887	      0.02473599	      0.00000000
      1.05773511	     -0.01795111	      0.02542006	      0.00000000
      1.05969388	     -0.01841425	      0.02613729	      0.00000000
      1.06165265	     -0.01887824	      0.02689319	      0.00000000
      1.06361142	     -0.01934289	      0.02768958	      0.00000000
      1.06557018	     -0.01980809	      0.02852893	      0.00000000
      1.06752895	     -0.02027431	      0.02940980	      0.00000000
      1.06948772	     -0.02074179	      0.03033143	      0.00000000
      1.07144649	     -0.02121213	      0.03129122	      0.00000000
      1.07340526	     -0.02168654	      0.03228757	      0.00000000
      1.07536403	     -0.02216661	      0.03331814	      0.00000000
      1.07732280	     -0.02265281	      0.03438039	      0.00000000
      1.07928157	     -0.02314679	      0.03547310	      0.00000000
      1.08124033	     -0.02364884	      0.03659387	      0.00000000
      1.08319910	     -0.02416181	      0.03774669	      0.00000000
      1.08515787	     -0.02468836	      0.03893493	      0.00000000
      1.08711664	     -0.02522911	      0.04016896	      0.00000000
      1.08907541	     -0.02578408	      0.04145324	      0.00000000
      1.09103418	     -0.02635339	      0.04280486	      0.00000000
      1.09299295	     -0.02693733	      0.04422749	      0.00000000
      1.09495172	     -0.02754628	      0.04576357	      0.00000000
      1.09691048	     -0.02820215	      0.04746565	      0.00000000
      1.09886925	     -0.02890309	      0.04940516	      0.00000000
      1.10082802	     -0.02965295	      0.05165619	      0.00000000
      1.10278679	     -0.03042563	      0.05424151	      0.00000000
      1.10474556	     -0.03117783	      0.05718941	      0.00000000
      1.10670433	     -0.03183040	      0.06031950	      0.00000000
      1.10866310	     -0.03235307	      0.06349775	      0.00000000
      1.11062187	     -0.03284993	      0.06675074	      0.00000000
      1.11258063	     -0.03336008	      0.07005127	      0.00000000
      1.11453940	     -0.03387201	      0.07335562	      0.00000000
      1.11649817	     -0.03439300	      0.07664765	      0.00000000
      1.11845694	     -0.03491876	      0.07993048	      0.00000000
      1.12041571	     -0.03544665	      0.08319824	      0.00000000
      1.12237448	     -0.03597511	      0.08645642	      0.00000000
      1.12433325	     -0.03650215	      0.08970383	      0.00000000
      1.12629201	     -0.03702620	      0.09295074	      0.00000000
      1.12825078	     -0.03754642	      0.09620601	      0.00000000
      1.13020955	     -0.03805992	      0.09948864	      0.00000000
      1.13216832	     -0.03856359	      0.10281627	      0.00000000
      1.13412709	     -0.03905387	      0.10621065	      0.00000000
      1.13608586	     -0.03952693	      0.10969424	      0.00000000
      1.13804463	     -0.03998123	      0.11328588	      0.00000000
      1.14000340	     -0.04041442	      0.11700592	      0.00000000
      1.14196216	     -0.04082707	      0.12086662	      0.00000000
      1.14392093	     -0.04121936	      0.12488370	      0.00000000
      1.14587970	     -0.04159236	      0.12906334	      0.00000000
      1.14783847	     -0.04194728	      0.13341538	      0.00000000
      1.14979724	     -0.04228395	      0.13793944	      0.00000000
      1.15175601	     -0.04260344	      0.14263881	      0.00000000
      1.15371478	     -0.04290246	      0.14750717	      0.00000000
      1.15567355	     -0.04317963	      0.15253966	      0.00000000
      1.15763231	     -0.04342578	      0.15772718	      0.00000000
      1.15959108	     -0.04363490	      0.16306003	      0.00000000
      1.16154985	     -0.04378950	      0.16853392	      0.00000000
      1.16350862	     -0.04387664	      0.17414160	      0.00000000
      1.16546739	     -0.04386837	      0.17988861	      0.00000000
      1.16742616	     -0.04375016	      0.18577975	      0.00000000
      1.16938493	     -0.04346761	      0.19182498	      0.00000000
      1.17134370	     -0.04300477	      0.19805127	      0.00000000
      1.17330246	     -0.04222430	      0.20442851	      0.00000000
      1.17526123	     -0.04117330	      0.21108991	      0.00000000
