moco_WoC_Solution_iter01_metabolic
nRows=601
nColumns=6
inDegrees=no
Body mass(kg)=80.0000
Distance(m)=1.2380
Total metabolic energy(J)=415.9421
Avg metabolic rate(W)=455.7912
endheader
time	met_rate_W	act_rate_W	maint_rate_W	short_rate_W	mech_rate_W
0.000000	697.876546	140.683296	153.104232	89.318076	218.770943
0.001521	703.313289	139.932281	152.764195	92.891354	221.725459
0.003042	710.961119	140.052798	152.922428	97.968206	224.018333
0.004563	759.520337	160.264862	174.447037	103.404540	225.342758
0.006084	819.945928	186.902074	199.331377	111.641756	226.071235
0.007605	824.736508	185.557870	198.439402	119.468490	225.270746
0.009126	822.638076	184.323086	197.642887	121.458536	223.213567
0.010647	813.412790	184.458081	197.757301	114.923613	220.273795
0.012168	794.565774	184.695914	197.950007	101.843845	214.088141
0.013689	773.802693	188.744628	201.353676	86.881035	200.831923
0.015210	748.104773	193.150239	204.928265	72.534692	181.494760
0.016730	704.308272	185.471016	198.513650	64.920489	159.405073
0.018251	684.110116	177.932805	192.154272	71.255843	146.781973
0.019772	660.550928	162.767897	179.321167	79.277326	143.183790
0.021293	639.693314	148.755814	166.998727	91.765231	136.176847
0.022814	659.588593	157.483335	175.031437	101.512404	129.565394
0.024335	679.630191	166.858951	183.365676	111.881095	121.529222
0.025856	679.429401	166.123107	182.882451	118.571148	115.858108
0.027377	679.423101	165.505538	182.452803	125.646234	109.824638
0.028898	674.172709	162.416052	179.758174	131.843502	104.161558
0.030419	668.056289	159.513462	177.150152	137.534087	97.865595
0.031940	659.373806	155.922321	173.838384	142.190400	91.430017
0.033461	649.777121	152.535713	170.627555	146.122434	84.498993
0.034982	638.813277	149.033777	167.415940	149.118535	77.252911
0.036503	628.877904	145.733971	164.313839	153.384034	69.454215
0.038024	618.771601	142.600684	161.255737	157.680958	61.242670
0.039545	609.326579	139.695038	158.328726	162.687107	52.624418
0.041066	604.136546	137.012129	155.324602	171.795632	44.012995
0.042587	598.524588	134.501771	152.419698	179.911083	35.700929
0.044108	600.894795	136.922543	155.322914	189.625119	23.032960
0.045629	606.602368	141.601891	159.427479	207.187159	2.394392
0.047150	601.173098	141.829177	159.530203	222.823759	-19.001775
0.048670	595.633455	142.129895	159.652145	232.268119	-34.408765
0.050191	577.272695	136.304568	154.343194	229.608513	-38.975939
0.051712	559.208497	131.129338	149.421083	216.920151	-34.254734
0.053233	545.616600	128.386617	146.916536	201.563785	-27.231725
0.054754	533.072319	125.837027	144.537524	187.289498	-20.886355
0.056275	523.450785	124.209128	143.089792	175.465339	-15.921073
0.057796	514.940717	122.622578	141.670236	165.743862	-11.920286
0.059317	508.494346	121.339015	140.518858	158.057122	-8.387309
0.060838	504.324370	120.064903	139.371881	151.718801	-4.974505
0.062359	501.410008	118.926665	138.352721	148.316157	-1.516805
0.063880	498.395421	117.795892	137.335920	144.524149	2.038388
0.065401	495.745041	116.759471	136.418665	140.468844	5.691031
0.066922	493.096041	115.729971	135.503451	136.206739	9.411675
0.068443	490.484499	114.753358	134.644011	131.824464	13.166467
0.069964	487.828049	113.783083	133.786369	127.340947	16.925098
0.071485	485.284320	112.844139	132.959206	122.834047	20.663120
0.073006	482.688148	111.910804	132.133515	118.295007	24.357470
0.074527	480.110593	110.997599	131.322698	113.804730	27.991153
0.076048	477.479747	110.089368	130.510699	109.334924	31.549202
0.077569	474.884817	109.196554	129.704577	104.967242	35.020379
0.079090	472.261110	108.308264	128.899448	100.661734	38.395286
0.080610	469.688159	107.436921	128.103038	96.485289	41.666320
0.082131	467.104846	106.569772	127.307464	92.403177	44.827662
0.083652	464.581130	105.724283	126.526639	88.458921	47.874368
0.085173	462.060510	104.882686	125.746558	84.630916	50.803295
0.086694	459.607033	104.068159	124.987801	80.941950	53.611947
0.088215	457.164376	103.257213	124.229719	77.380676	56.299477
0.089736	454.796625	102.477832	123.497827	73.957798	58.865770
0.091257	452.442561	101.701724	122.762237	70.669137	61.311962
0.092778	450.169471	100.959805	122.054675	67.517455	63.639937
0.094299	447.909843	100.220872	121.347827	64.491107	65.852343
0.095820	445.734339	99.516478	120.670040	61.597561	67.952472
0.097341	443.570963	98.814812	119.992899	58.821437	69.943936
0.098862	441.493089	98.145938	119.342927	56.175461	71.830797
0.100383	439.426639	97.479575	118.693542	53.638371	73.617102
0.101904	437.446220	96.843412	118.068867	51.228815	75.306995
0.103425	435.477985	96.209583	117.444739	48.920990	76.904470
0.104946	433.591279	95.605312	116.846148	46.728476	78.413073
0.106467	431.710939	95.003200	116.241230	44.631789	79.836388
0.107988	429.853540	94.431554	115.617003	42.628749	81.177852
0.109509	428.621694	93.861855	114.994258	41.339909	82.441090
0.111030	428.364147	93.321724	114.400096	41.015057	83.630241
0.112550	428.041090	92.783335	113.807299	40.702621	84.749421
0.114071	427.715285	92.272958	113.241795	40.399616	85.802438
0.115592	427.339097	91.764144	112.677559	40.105888	86.793036
0.117113	426.963091	91.281846	112.139794	39.818716	87.724292
0.118634	426.540354	90.800954	111.603212	39.538546	88.599247
0.120155	426.120294	90.344467	111.090880	39.265833	89.420788
0.121676	425.657333	89.889260	110.579661	38.998511	90.191669
0.123197	425.199827	89.455966	110.089726	38.741350	90.914671
0.124718	424.703901	89.023861	109.600855	38.489294	91.591929
0.126239	424.214972	88.612169	109.131825	38.248586	92.224613
0.127760	423.692373	88.201591	108.663820	38.014429	92.814972
0.129281	423.175404	87.810479	108.215405	37.787277	93.364937
0.130802	422.628508	87.420405	107.767977	37.566722	93.876395
0.132323	422.071920	87.048077	107.338768	37.337487	94.350916
0.133844	421.683776	86.676713	106.910511	37.310170	94.790091
0.135365	421.373038	86.321154	106.498938	37.361843	95.195235
0.136886	421.030804	85.966485	106.088286	37.412919	95.567714
0.138407	420.683045	85.626169	105.693248	37.460007	95.908735
0.139928	420.310090	85.286674	105.299099	37.510477	96.219557
0.141449	419.929575	84.959658	104.918428	37.556562	96.501563
0.142970	419.523587	84.633402	104.538618	37.604485	96.756080
0.144490	419.104992	84.317508	104.169346	37.649333	96.984800
0.146011	418.664774	84.002336	103.800916	37.692262	97.189199
0.147532	418.277005	83.696195	103.441369	37.725885	97.370768
0.149053	417.909148	83.390750	103.082651	37.795793	97.530787
0.150574	417.522324	83.093853	102.732907	37.940871	97.669996
0.152095	417.113595	82.797620	102.383979	38.088951	97.789116
0.153616	416.692603	82.509338	102.043974	38.220142	97.888407
0.155137	416.252330	82.221686	101.704772	38.345808	97.968209
0.156658	415.798870	81.940821	101.373238	38.459282	98.028753
0.158179	415.326799	81.660560	101.042496	38.567752	98.070311
0.159700	414.840404	81.386008	100.718135	38.664531	98.093348
0.161221	414.334733	81.112040	100.394558	38.755542	98.098283
0.162742	413.811741	80.843098	100.076874	38.833806	98.085320
0.164263	413.267510	80.574720	99.759965	38.905585	98.054666
0.165784	412.702904	80.310800	99.448493	38.963797	98.006381
0.167305	412.115036	80.047424	99.137785	39.014525	97.940562
0.168826	411.506372	79.788150	98.831638	39.052580	97.857805
0.170347	410.872919	79.529406	98.526243	39.081016	97.758580
0.171868	410.218351	79.274885	98.225065	39.095410	97.643729
0.173389	409.542424	79.020888	97.924635	39.102065	97.513886
0.174910	408.866710	78.768393	97.625922	39.122241	97.369082
0.176430	408.218043	78.516426	97.327959	39.177902	97.209281
0.177951	407.555597	78.263250	97.029640	39.235763	97.033845
0.179472	406.865091	78.010607	96.732076	39.284173	96.842219
0.180993	406.149926	77.761505	96.439215	39.317743	96.634254
0.182514	405.410793	77.512920	96.147095	39.343035	96.409940
0.184035	404.655302	77.269361	95.860876	39.357129	96.169758
0.185556	403.878023	77.026302	95.575384	39.363731	95.914153
0.187077	403.084310	76.787167	95.294461	39.360330	95.643679
0.188598	402.269967	76.548519	95.014254	39.349562	95.358778
0.190119	401.438089	76.312973	94.737861	39.328633	95.059618
0.191640	400.586173	76.077906	94.462173	39.300618	94.746348
0.193161	399.713716	75.844379	94.188621	39.262608	94.418875
0.194682	398.821189	75.611327	93.915765	39.217650	94.077125
0.196203	397.905918	75.378275	93.643094	39.163865	93.721287
0.197724	396.970911	75.145704	93.371116	39.103183	93.351446
0.199245	396.013162	74.912722	93.099001	39.034082	92.967843
0.200766	395.036154	74.680228	92.827580	38.958165	92.570620
0.202287	394.038084	74.449522	92.558543	38.870894	92.159524
0.203808	393.014294	74.219300	92.290189	38.770718	91.734452
0.205329	392.012598	73.991819	92.025092	38.700846	91.295176
0.206850	391.086181	73.764813	91.760662	38.719394	90.841622
0.208370	390.147442	73.540804	91.498306	38.734429	90.374191
0.209891	389.182989	73.317269	91.234725	38.738042	89.893221
0.211412	388.200327	73.094994	90.972311	38.734063	89.399210
0.212933	387.199481	72.873204	90.710520	38.723498	88.892495
0.214454	386.181946	72.652600	90.450004	38.706423	88.373140
0.215975	385.146697	72.432489	90.190111	38.683107	87.841199
0.217496	384.100208	72.215931	89.934027	38.653549	87.296900
0.219017	383.036771	71.999866	89.678558	38.618045	86.740491
0.220538	381.969033	71.790115	89.429768	38.576596	86.172734
0.222059	380.886249	71.580847	89.181584	38.529661	85.594328
0.223580	379.805953	71.380100	88.942527	38.477360	85.006129
0.225101	378.712959	71.179816	88.704058	38.420280	84.408961
0.226622	377.629498	70.990194	88.477174	38.358589	83.803689
0.228143	376.535819	70.801008	88.250853	38.292919	83.191181
0.229664	375.458874	70.624670	88.038500	38.223402	82.572437
0.231185	374.374405	70.448737	87.826684	38.150677	81.948436
0.232706	373.311994	70.286899	87.630249	38.074861	81.320107
0.234227	372.244541	70.125436	87.434322	37.996532	80.688366
0.235748	371.203062	69.978772	87.254638	37.915770	80.053992
0.237269	370.158593	69.832455	87.075435	37.833045	79.417762
0.238790	369.142714	69.701195	86.912833	37.748369	78.780415
0.240310	368.125651	69.570259	86.750689	37.662134	78.142662
0.241831	367.139089	69.454411	86.605229	37.574314	77.505222
0.243352	366.153039	69.338868	86.460206	37.485282	76.868766
0.244873	365.199240	69.238432	86.331919	37.395004	76.233962
0.246394	364.247573	69.138284	86.204049	37.303877	75.601435
0.247915	363.330086	69.053402	86.093083	37.211852	74.971816
0.249436	362.416316	68.968794	85.982516	37.119368	74.345700
0.250957	361.538752	68.899697	85.889079	37.026347	73.723686
0.252478	360.666445	68.830863	85.796023	36.933263	73.106349
0.253999	359.832216	68.777757	85.720277	36.839990	72.494242
0.255520	359.004680	68.724905	85.644895	36.747019	71.887906
0.257041	358.216776	68.687911	85.586895	36.654161	71.287850
0.258562	357.436857	68.651166	85.529243	36.561906	70.694579
0.260083	356.697688	68.630267	85.488878	36.469997	70.108580
0.261604	355.967681	68.609616	85.448849	36.378916	69.530330
0.263125	355.279236	68.604708	85.425891	36.288363	68.960300
0.264646	354.601061	68.600053	85.403260	36.198826	68.398948
0.266167	353.964901	68.610914	85.397341	36.109984	67.846684
0.267688	353.339997	68.622034	85.391741	36.022332	67.303909
0.269209	352.756972	68.648258	85.402287	35.935536	66.770908
0.270730	352.185923	68.674751	85.413147	35.850067	66.247972
0.272251	351.656375	68.715990	85.439640	35.765562	65.735196
0.273771	351.139081	68.757511	85.466442	35.682426	65.232713
0.275292	350.662656	68.813548	85.508519	35.600229	64.740370
0.276813	350.198116	68.869880	85.550897	35.519258	64.258088
0.278334	349.773349	68.940583	85.608263	35.438946	63.785564
0.279855	349.359534	69.011597	85.665920	35.359446	63.322577
0.281376	348.984826	69.097168	85.738612	35.280054	62.868997
0.282897	348.620278	69.183070	85.811588	35.200916	62.424709
0.284418	348.294493	69.283726	85.899693	35.121340	61.989738
0.285939	347.978446	69.384733	85.988080	35.041560	61.564076
0.287460	347.698595	69.499690	86.090611	34.960863	61.147433
0.288981	347.426883	69.615016	86.193419	34.878914	60.739536
0.290502	347.185103	69.743059	86.308939	34.793389	60.339717
0.292023	346.946267	69.871492	86.424721	34.702679	59.947377
0.293544	346.753497	70.012424	86.553065	34.626052	59.561956
0.295065	346.623511	70.153767	86.681658	34.605164	59.182923
0.296586	346.546383	70.307998	86.823400	34.605059	58.809926
0.298107	346.471430	70.462661	86.965383	34.600782	58.442605
0.299628	346.419519	70.630483	87.121039	34.587468	58.080529
0.301149	346.370112	70.798760	87.276930	34.571145	57.723278
0.302670	346.342884	70.979035	87.445505	34.548280	57.370065
0.304191	346.317260	71.159790	87.614304	34.522998	57.020168
0.305711	346.310211	71.351556	87.794875	34.491004	56.672776
0.307232	346.302768	71.543827	87.975656	34.456140	56.327145
0.308753	346.310830	71.746496	88.167559	34.414093	55.982682
0.310274	346.316898	71.949695	88.359659	34.368707	55.638837
0.311795	346.334262	72.161939	88.561248	34.316211	55.294864
0.313316	346.347915	72.374742	88.763021	34.260066	54.950086
0.314837	346.371156	72.596326	88.973601	34.197695	54.603534
0.316358	346.388669	72.818507	89.184352	34.131453	54.254357
0.317879	346.414420	73.051387	89.400689	34.060677	53.901667
0.319400	346.424716	73.284915	89.609049	33.986042	53.544709
0.320921	346.452996	73.531260	89.830142	33.908863	53.182731
0.322442	346.473376	73.778313	90.051686	33.828258	52.815120
0.323963	346.513059	74.039119	90.286589	33.745929	52.441422
0.325484	346.544919	74.300704	90.521945	33.660968	52.061302
0.327005	346.591439	74.574886	90.768619	33.573130	51.674804
0.328526	346.631477	74.849920	91.015751	33.483764	51.282041
0.330047	346.684354	75.137589	91.273026	33.390236	50.883503
0.331568	346.733572	75.426202	91.530772	33.296871	50.479728
0.333089	346.805556	75.731219	91.801733	33.201167	50.071437
0.334610	346.877877	76.037299	92.073189	33.107984	49.659405
0.336131	346.988417	76.363250	92.362755	33.017656	49.244756
0.337651	347.101182	76.690372	92.649823	32.932410	48.828578
0.339172	347.252025	77.032652	92.952461	32.854571	48.412340
0.340693	347.413018	77.376157	93.255513	32.784013	47.997336
0.342214	347.598382	77.726406	93.565829	32.721237	47.584923
0.343735	347.798198	78.077900	93.876559	32.667589	47.176285
0.345256	348.015245	78.433054	94.191050	32.619918	46.772371
0.346777	348.245523	78.789469	94.505956	32.583224	46.374035
0.348298	348.498783	79.148509	94.826474	32.552278	45.981738
0.349819	348.863552	79.508796	95.147407	32.534079	45.595842
0.351340	349.292061	79.873270	95.478739	32.521679	45.216391
0.352861	349.732755	80.238957	95.810489	32.523443	44.843413
0.354382	350.217762	80.621584	96.165292	32.528792	44.477159
0.355903	350.720267	81.005445	96.520539	32.549103	44.117532
0.357424	351.290628	81.423233	96.914686	32.570809	43.766143
0.358945	352.009462	81.842351	97.309332	32.607866	43.424826
0.360466	352.901193	82.305173	97.751902	32.646470	43.096619
0.361987	353.807777	82.769478	98.195048	32.699211	42.784451
0.363508	354.818867	83.278843	98.685224	32.753736	42.492249
0.365029	355.859151	83.789881	99.176063	32.819779	42.223664
0.366550	356.999719	84.340392	99.695843	32.892103	41.982637
0.368071	358.179552	84.892775	100.211376	33.152959	41.772743
0.369591	359.462165	85.475814	100.752535	34.070601	41.597064
0.371112	360.789390	86.060913	101.294500	34.977307	41.458322
0.372633	362.718026	86.668573	101.850725	35.901264	41.358236
0.374154	364.706065	87.278472	102.407786	36.818012	41.298295
0.375675	366.775987	87.902723	102.967377	37.759248	41.278482
0.377196	368.875450	88.529422	103.527832	38.686151	41.298705
0.378717	371.041148	89.156085	104.073225	39.655807	41.356884
0.380238	373.235496	89.785452	104.619525	40.613918	41.450949
0.381759	375.465674	90.393345	105.127644	41.635078	41.576699
0.383280	377.721515	91.004255	105.636758	42.649484	41.730073
0.384801	379.973961	91.571102	106.085475	43.742488	41.905116
0.386322	382.246200	92.141368	106.535374	44.833827	42.096219
0.387843	384.475779	92.649165	106.909325	46.011149	42.296314
0.389364	386.717095	93.160910	107.284800	47.191423	42.498955
0.390885	388.875384	93.595827	107.575992	48.453938	42.696694
0.392406	391.036044	94.035314	107.869193	49.722920	42.883029
0.393927	393.067233	94.385623	108.075543	51.056165	43.050950
0.395448	395.091129	94.741062	108.284425	52.397977	43.194651
0.396969	396.938240	94.999449	108.412010	53.770413	43.308605
0.398490	398.769569	95.263238	108.542510	55.152012	43.388623
0.400011	400.397251	95.435538	108.612452	56.517914	43.432073
0.401531	402.003780	95.613082	108.685414	57.891660	43.437606
0.403052	403.430130	95.729447	108.740075	59.200251	43.406945
0.404573	404.833002	95.850527	108.797597	60.511847	43.341575
0.406094	406.148321	95.970553	108.897909	61.720371	43.249336
0.407615	407.446214	96.094639	109.000829	62.922849	43.138391
0.409136	408.808425	96.296076	109.211087	64.008814	43.022919
0.410657	410.166384	96.501031	109.423769	65.075320	42.916036
0.412178	411.740236	96.848196	109.785887	66.040259	42.834289
0.413699	413.328810	97.198652	110.150387	66.973704	42.792412
0.415220	415.222666	97.710252	110.658164	67.852697	42.805219
0.416741	417.155431	98.225421	111.168453	68.696435	42.885555
0.418262	419.381621	98.865339	111.770325	69.531757	43.050957
0.419783	421.678264	99.509690	112.375125	70.329708	43.316469
0.421304	424.155256	100.210848	113.027361	71.073552	43.711976
0.422825	426.749874	100.917720	113.683323	71.771037	44.261905
0.424346	429.442164	101.620828	114.375999	72.330824	45.014288
0.425867	432.330306	102.332683	115.072366	72.834639	46.006255
0.427388	435.411219	103.028033	115.826560	73.180566	47.307674
0.428909	438.811665	103.742003	116.593776	73.449948	48.973254
0.430430	442.613227	104.490919	117.466448	73.553365	51.064209
0.431951	446.844694	105.277214	118.364725	73.544180	53.632128
0.433471	451.746468	106.247870	119.475514	73.320841	56.683879
0.434992	457.100905	107.272772	120.622926	72.959950	60.230818
0.436513	463.948644	108.865880	122.392587	72.380577	64.294895
0.438034	471.430561	110.547857	124.218478	71.749095	68.896018
0.439555	479.695805	112.450145	126.302385	70.924036	73.992471
0.441076	488.631840	114.453159	128.446131	70.152223	79.544884
0.442597	496.521582	115.867797	130.004495	69.187957	85.417782
0.444118	506.029515	117.346820	131.594247	69.535891	91.501949
0.445639	515.892127	118.511615	132.954365	70.670743	97.696941
0.447160	525.825829	119.727521	134.341978	71.746145	103.936415
0.448681	534.709086	120.528886	135.259736	72.607083	110.215143
0.450202	543.557864	121.364618	136.194377	73.401133	116.472924
0.451723	551.447861	121.805575	136.748040	74.131669	122.616952
0.453244	559.241270	122.270025	137.312951	74.957416	128.547395
0.454765	566.106231	122.356055	137.570362	75.880117	134.150794
0.456286	572.737040	122.463325	137.838805	76.917890	139.376907
0.457807	580.487407	123.146703	139.088279	77.975007	144.139341
0.459328	587.832491	123.928902	140.398672	78.871467	148.470334
0.460849	593.558312	124.303288	141.174211	79.288484	152.568788
0.462370	598.717464	124.743583	141.983671	79.241647	156.443351
0.463891	602.617615	124.941712	142.506077	78.845857	159.931023
0.465411	605.934366	125.217832	143.063680	78.446848	162.738871
0.466932	609.220561	125.811571	144.042817	78.398733	164.456660
0.468453	611.927621	126.555711	145.100187	79.044822	164.712299
0.469974	612.115838	126.535088	145.314203	80.691475	163.104082
0.471495	611.468727	126.650259	145.603432	83.755356	159.084940
0.473016	607.925642	125.997331	145.147648	88.659394	151.899122
0.474537	602.621255	125.456197	144.765800	95.678594	140.713369
0.476058	587.042636	121.133329	140.257102	104.870815	124.701505
0.477579	569.646839	117.023898	135.896393	117.790566	102.949956
0.479100	552.476899	114.499121	133.163671	133.838973	74.985069
0.480621	547.359088	112.159545	130.558301	166.184068	42.460646
0.482142	559.920536	114.799567	133.889805	185.346527	29.885680
0.483663	569.838816	117.884176	137.527473	165.575017	52.853334
0.485184	559.397589	112.949577	132.558103	136.907835	80.653835
0.486705	547.305442	108.458099	127.817040	117.314561	96.934002
0.488226	534.033316	102.476650	121.480525	106.092309	105.911218
0.489747	530.610536	97.115852	115.525466	111.985651	109.987445
0.491268	533.238761	94.252831	112.417222	119.746434	110.822742
0.492789	536.081851	91.730296	109.489929	132.193616	106.668393
0.494310	531.309947	88.348197	105.035652	144.891561	97.034827
0.495831	521.564013	85.582938	100.956720	156.428898	82.595687
0.497351	511.335969	87.617905	103.233660	161.945115	62.539470
0.498872	499.715122	90.965263	106.278081	169.897645	36.574293
0.500393	489.839020	84.978997	101.250314	196.756725	10.853124
0.501914	482.311445	80.241244	96.855550	218.993049	-9.778275
0.503435	468.751985	77.750936	94.205237	222.435209	-21.639296
0.504956	456.074329	75.520398	91.786525	217.520224	-24.752736
0.506477	445.226545	73.837048	90.129796	208.741033	-23.481263
0.507998	434.366205	72.255290	88.576621	197.880050	-20.345698
0.509519	424.603479	70.736080	87.188483	187.422625	-16.743658
0.511040	415.564414	69.266913	85.848386	177.561936	-13.112776
0.512561	407.832991	68.100639	84.915937	168.479835	-9.663380
0.514082	400.945387	66.963115	84.000868	160.324894	-6.343454
0.515603	394.873706	65.800727	83.070243	152.991663	-2.988896
0.517124	389.405911	64.667993	82.156671	146.136493	0.444783
0.518645	384.399762	63.571107	81.267015	139.604888	3.956777
0.520166	379.722845	62.504645	80.393002	133.322687	7.502534
0.521687	375.314210	61.650889	79.710378	126.956033	10.996929
0.523208	371.022398	60.825619	79.042099	120.776935	14.377761
0.524729	366.911538	60.183982	78.522397	114.588309	17.616864
0.526250	363.782807	59.566125	78.014444	109.507902	20.694348
0.527771	360.752100	58.997903	77.506568	104.608230	23.639409
0.529291	357.655662	58.445207	76.999763	99.742015	26.468686
0.530812	354.798407	57.802967	76.356472	95.414709	29.224267
0.532333	351.934343	57.168908	75.716203	91.124902	31.924338
0.533854	349.305931	56.698933	75.228541	86.849323	34.529144
0.535375	346.702072	56.233842	74.742875	82.689128	37.036236
0.536896	344.240305	56.001495	74.496636	78.318593	39.423593
0.538417	341.809532	55.774173	74.251607	74.091219	41.692554
0.539938	339.434784	55.664054	74.129106	69.785984	43.855740
0.541459	337.092986	55.560469	74.010406	65.603150	45.919617
0.542980	334.747457	55.526925	73.961813	61.368666	47.893839
0.544501	333.664528	55.502087	73.918212	58.472839	49.784313
0.546022	334.096793	55.512952	73.901039	57.073173	51.599520
0.547543	334.574681	55.535050	73.890062	55.694699	53.345201
0.549064	334.935151	55.515624	73.819724	54.351793	55.032022
0.550585	335.230327	55.508389	73.755780	52.991666	56.661284
0.552106	335.362896	55.452921	73.625653	51.648338	58.231629
0.553627	335.427565	55.410134	73.501914	50.287856	59.737345
0.555148	335.486052	55.413747	73.414105	48.912529	61.174450
0.556669	335.475490	55.431884	73.333577	47.516226	62.546549
0.558190	335.524925	55.547435	73.347139	46.053054	63.858818
0.559711	335.499354	55.679618	73.369117	44.545942	65.119654
0.561231	335.771515	55.900827	73.480044	43.205056	66.338628
0.562752	336.100990	56.139764	73.600045	41.933076	67.523792
0.564273	336.538294	56.473167	73.817085	40.607746	68.683150
0.565794	336.941653	56.824929	74.043642	39.243123	69.824416
0.567315	337.592798	57.281549	74.379637	37.927523	70.954452
0.568836	338.277676	57.757100	74.725564	36.624696	72.080716
0.570357	339.155832	58.336398	75.181170	35.303706	73.208925
0.571878	340.053120	58.935093	75.647048	33.967658	74.344891
0.573399	341.645896	59.630999	76.216454	32.616379	75.492432
0.574920	343.956655	60.346709	76.796429	32.068908	76.655249
0.576441	346.722165	61.151949	77.471325	32.528455	77.835430
0.577962	349.536978	61.977421	78.157088	32.969002	79.034940
0.579483	352.500469	62.883984	78.927374	33.363638	80.254665
0.581004	355.522876	63.811209	79.708818	33.758997	81.495299
0.582525	358.686320	64.810192	80.563100	34.122621	82.756893
0.584046	362.105857	65.830191	81.428782	34.488827	84.039229
0.585567	365.672597	66.911643	82.354866	34.833620	85.341749
0.587088	369.297444	68.014301	83.292493	35.181852	86.663601
0.588609	373.030752	69.167366	84.278175	35.514749	88.003745
0.590130	376.838424	70.341598	85.275412	35.851072	89.360888
0.591651	380.757330	71.554664	86.308990	36.172690	90.733583
0.593171	384.746568	72.788581	87.353982	36.496952	92.120214
0.594692	388.786045	74.048944	88.423776	36.803466	93.519022
0.596213	392.867635	75.329540	89.504685	37.111109	94.928264
0.597734	396.960107	76.622765	90.598206	37.396715	96.346426
0.599255	401.087444	77.935302	91.702388	37.681165	97.771477
0.600776	405.190635	79.245106	92.806041	37.940615	99.201142
0.602297	409.313377	80.573014	93.919757	38.189474	100.633077
0.603818	413.467136	81.881684	95.019168	38.503504	102.064581
0.605339	417.794655	83.207004	96.127923	38.968590	103.492916
0.606860	421.990178	84.496566	97.185463	39.395281	104.914706
0.608381	426.193068	85.801119	98.251553	39.815726	106.326635
0.609902	430.259048	87.050329	99.274708	40.211497	107.724661
0.611423	434.321532	88.312741	100.306290	40.599957	109.104924
0.612944	438.221242	89.506363	101.285595	40.967063	110.464880
0.614465	442.108669	90.711377	102.272399	41.326271	111.801610
0.615986	445.759953	91.822975	103.185505	41.649650	113.105184
0.617507	449.373808	92.944098	104.105091	41.960713	114.367690
0.619028	452.804692	94.003303	104.998426	42.218957	115.588266
0.620549	456.191505	95.070403	105.897454	42.463430	116.765004
0.622070	459.176279	95.983199	106.620674	42.696215	117.881564
0.623591	462.111419	96.902461	107.382265	42.905984	118.926713
0.625111	464.844513	97.705807	108.031053	43.175692	119.938649
0.626632	467.553245	98.514658	108.683970	43.426777	120.935245
0.628153	470.122921	99.268778	109.322088	43.630742	121.909468
0.629674	472.658802	100.027601	109.964096	43.819340	122.856673
0.631195	474.906827	100.644541	110.484224	44.056035	123.731718
0.632716	477.140497	101.264936	111.007176	44.375205	124.503635
0.634237	479.183897	101.821944	111.491983	44.674418	125.206776
0.635758	481.151989	102.381581	111.979196	44.938785	125.864368
0.637279	482.840951	102.829451	112.367489	45.178756	126.477894
0.638800	484.460479	103.279269	112.757553	45.388292	127.048620
0.640321	485.844166	103.636501	113.075216	45.570483	127.575793
0.641842	487.181720	103.995127	113.394154	45.747696	128.059043
0.643363	488.294580	104.262012	113.642215	45.906177	128.498893
0.644884	489.342592	104.529868	113.891146	46.040921	128.895656
0.646405	490.150570	104.712974	114.075079	46.124200	129.252886
0.647926	490.963071	104.896803	114.259619	46.246963	129.573007
0.649447	491.650528	105.000920	114.383206	46.415141	129.855432
0.650968	492.275470	105.105618	114.507166	46.564780	130.099800
0.652489	492.722903	105.139782	114.579613	46.701624	130.303533
0.654010	493.117813	105.174468	114.652243	46.828006	130.464820
0.655531	493.358664	105.149800	114.681192	46.947458	130.582067
0.657051	493.546397	105.125651	114.710185	47.058344	130.654213
0.658572	493.593991	105.054797	114.704819	47.153457	130.683065
0.660093	493.570596	104.984517	114.677482	47.240780	130.670123
0.661614	493.416779	104.873812	114.614923	47.313579	130.616937
0.663135	493.219971	104.763747	114.552293	47.381631	130.524945
0.664656	492.916276	104.623176	114.462906	47.439432	130.393587
0.666177	492.572762	104.483249	114.373399	47.496161	130.222962
0.667698	492.156344	104.329262	114.268785	47.549155	130.012337
0.669219	491.701318	104.175910	114.164004	47.602932	129.761856
0.670740	491.210260	104.024179	114.058793	47.658144	129.472716
0.672261	490.685272	103.873109	113.953369	47.716093	129.146457
0.673782	490.158254	103.732100	113.857305	47.787554	128.785242
0.675303	489.610170	103.591788	113.760961	47.870516	128.391233
0.676824	489.073486	103.462815	113.677198	47.973099	127.967060
0.678345	488.520353	103.334559	113.593099	48.094506	127.515135
0.679866	488.071463	103.213614	113.518945	48.318098	127.039055
0.681387	487.644528	103.093367	113.444436	48.583281	126.541864
0.682908	487.187272	102.973367	113.373535	48.831404	126.027412
0.684429	486.715146	102.853996	113.302287	49.078403	125.498841
0.685950	486.209227	102.728478	113.229200	49.310644	124.959200
0.687471	485.696192	102.603502	113.155780	49.544130	124.410948
0.688991	485.151803	102.468846	113.078150	49.766698	123.856203
0.690512	484.603764	102.334671	113.000193	49.990204	123.296702
0.692033	484.033003	102.190068	112.917512	50.209478	122.733917
0.693554	483.460490	102.045920	112.834502	50.428847	122.169139
0.695075	482.873853	101.893134	112.747229	50.647935	121.603423
0.696596	482.286196	101.740805	112.659626	50.865751	121.037780
0.698117	481.691335	101.583902	112.569521	51.082509	120.473000
0.699638	481.095603	101.427468	112.479091	51.296474	119.909909
0.701159	480.499441	101.271863	112.389295	51.506111	119.349126
0.702680	479.902567	101.116729	112.299184	51.711766	118.791337
0.704201	479.312989	100.967905	112.213606	51.910191	118.237062
0.705722	478.723198	100.819544	112.127728	52.104021	117.686888
0.707243	478.149533	100.682367	112.050530	52.289271	117.141386
0.708764	477.576823	100.545641	111.973054	52.469956	116.601151
0.710285	477.030010	100.424247	111.908452	52.642132	116.067003
0.711806	476.486425	100.303296	111.843606	52.810469	115.539704
0.713327	475.978563	100.200856	111.795415	52.971457	115.020270
0.714848	475.475440	100.098861	111.745332	53.129898	114.509614
0.716369	475.013832	100.016958	111.712560	53.282766	114.008648
0.717890	474.561606	99.935505	111.679666	53.434268	113.518201
0.719411	474.157160	99.874492	111.666784	53.581450	113.039471
0.720931	473.764839	99.813934	111.653834	53.727701	112.573535
0.722452	473.428017	99.775072	111.663131	53.869536	112.123742
0.723973	473.110587	99.736700	111.656076	54.027608	111.693059
0.725494	472.865137	99.722607	111.652215	54.204994	111.287774
0.727015	472.654837	99.709109	111.650077	54.384167	110.913575
0.728536	472.523409	99.716295	111.672693	54.561568	110.574681
0.730057	472.389060	99.724170	111.646759	54.744624	110.275094
0.731578	472.279144	99.734391	111.606629	54.928614	110.010823
0.733099	472.202381	99.745164	111.566574	55.113511	109.778208
0.734620	472.111568	99.743855	111.507905	55.291455	109.569170
0.736141	472.022664	99.742901	111.449533	55.454870	109.375976
0.737662	471.919340	99.745158	111.382857	55.595055	109.196729
0.739183	471.789920	99.747752	111.304872	55.707847	109.029791
0.740704	471.702612	99.778313	111.257018	55.787643	108.879903
0.742225	471.611637	99.809313	111.209701	55.840745	108.752083
0.743746	471.588281	99.876207	111.198858	55.864030	108.649346
0.745267	471.577063	99.943672	111.188451	55.870145	108.574918
0.746788	471.632171	100.044313	111.206563	55.854550	108.526840
0.748309	471.703300	100.145553	111.225115	55.829549	108.503154
0.749830	471.835959	100.278595	111.269257	55.788044	108.500116
0.751351	471.979839	100.412205	111.313914	55.739907	108.513853
0.752872	472.182354	100.576215	111.385941	55.678434	108.541792
0.754392	472.391979	100.740772	111.458543	55.611349	108.581336
0.755913	472.654447	100.931887	111.556374	55.535503	108.630698
0.757434	472.921853	101.123530	111.654859	55.455300	108.688176
0.758955	473.235256	101.337484	111.774664	55.371056	108.752061
0.760476	473.551668	101.551944	111.895249	55.283769	108.820713
0.761997	473.896926	101.779983	112.029858	55.195004	108.892085
0.763518	474.242257	102.008504	112.165398	55.104238	108.964122
0.765039	474.596109	102.242367	112.307389	55.012246	109.034109
0.766560	474.945561	102.476685	112.450475	54.919065	109.099337
0.768081	475.295021	102.715566	112.598793	54.823835	109.156828
0.769602	475.635579	102.954887	112.748362	54.728566	109.203764
0.771123	475.968537	103.198215	112.902273	54.631139	109.236911
0.772644	476.288015	103.441973	113.057597	54.535230	109.253215
0.774165	476.594990	103.690148	113.217387	54.438095	109.249360
0.775686	476.884302	103.938758	113.378744	54.344492	109.222309
0.777207	477.165834	104.196643	113.548417	54.251533	109.169241
0.778728	477.427642	104.454988	113.719783	54.165037	109.087835
0.780249	477.689884	104.727841	113.903541	54.082687	108.975814
0.781770	477.931702	105.001200	114.089107	54.010113	108.831282
0.783291	478.167968	105.286581	114.283955	53.945958	108.651474
0.784812	478.379518	105.572539	114.480805	53.892847	108.433327
0.786332	478.578194	105.869186	114.685025	53.849390	108.174592
0.787853	478.748524	106.166508	114.891449	53.817174	107.873392
0.789374	478.970842	106.503923	115.135600	53.797150	107.534168
0.790895	479.183374	106.842055	115.381746	53.794554	107.165018
0.792416	479.492663	107.224126	115.674727	53.818926	106.774884
0.793937	479.808416	107.607015	115.969534	53.860605	106.371262
0.795458	479.765232	107.824730	116.096955	53.908984	105.934564
0.796979	479.678625	108.045018	116.228986	53.980655	105.423966
0.798500	480.105075	108.497222	116.595214	54.158433	104.854207
0.800021	480.568452	108.950888	116.962880	54.360791	104.293893
0.801542	481.323480	109.483894	117.423180	54.616812	103.799595
0.803063	482.234923	110.019280	117.884574	54.923877	103.407192
0.804584	481.700973	109.800600	117.603784	55.253038	103.043551
0.806105	480.958492	109.604935	117.342100	55.504911	102.506546
0.807626	482.080961	110.470171	118.160637	55.664281	101.785875
0.809147	483.308822	111.352668	118.985924	55.843172	101.127115
0.810668	482.214981	110.978688	118.589059	56.059413	100.588855
0.812189	481.185643	110.642861	118.220471	56.404367	99.918759
0.813710	482.901395	111.767498	119.251708	56.801895	99.080464
0.815231	484.954858	112.942596	120.306338	57.246505	98.459459
0.816752	485.109889	112.893727	120.228520	57.704658	98.283005
0.818272	485.497177	112.856576	120.160523	58.158987	98.321106
0.819793	486.051194	113.107570	120.253642	58.575830	98.114158
0.821314	486.551065	113.360866	120.479906	58.976258	97.734036
0.822835	487.445221	113.774956	120.851783	59.367233	97.451249
0.824356	488.380507	114.189964	121.224943	59.764454	97.201145
0.825877	489.261254	114.549317	121.535944	60.176768	96.999225
0.827398	490.195659	114.910067	121.848892	60.598464	96.838236
0.828919	491.265325	115.318388	122.201755	61.034028	96.711155
0.830440	493.382393	115.727952	122.556219	62.476124	96.622098
0.831961	495.654394	116.147460	122.918858	64.014582	96.573494
0.833482	497.937169	116.568301	123.283101	65.520424	96.565343
0.835003	500.227488	116.985143	123.644302	67.001617	96.596426
0.836524	502.526805	117.403390	124.007130	68.451417	96.664869
0.838045	504.811437	117.806967	124.358390	69.877883	96.768197
0.839566	507.101621	118.211970	124.711284	71.273823	96.904544
0.841087	509.343877	118.587686	125.040351	72.644180	97.071660
0.842608	511.586900	118.964827	125.371082	73.983816	97.267175
0.844129	513.746825	119.296876	125.666627	75.295099	97.488223
0.845650	515.901890	119.630314	125.963874	76.576298	97.731405
0.847171	517.924278	119.895415	126.208413	77.827276	97.993175
0.848692	519.934312	120.161794	126.454662	79.048078	98.269778
0.850212	521.754733	120.334158	126.627830	80.234338	98.558407
0.851733	523.552365	120.507617	126.800055	81.388053	98.856641
0.853254	525.137580	120.580278	126.873400	82.518792	99.165111
0.854775	526.689556	120.653872	126.947940	83.603114	99.484630
0.856296	528.090257	120.664080	126.977387	84.627707	99.821084
0.857817	529.453755	120.675173	127.008063	85.590594	100.179924
0.859338	530.835890	120.716392	127.072326	86.474457	100.572715
0.860859	532.192217	120.758589	127.137875	87.285812	101.009940
0.862380	533.822131	120.964565	127.346229	88.002265	101.509073
0.863901	535.461024	121.171904	127.555975	88.647291	102.085855
0.865422	537.633807	121.664174	128.004096	89.200581	102.764956
0.866943	539.875083	122.159116	128.454070	89.693397	103.568500
0.868464	542.756123	122.952409	129.153142	90.122304	104.528268
0.869985	545.776623	123.751225	129.855363	90.498034	105.672002
0.871506	549.353089	124.744185	130.731284	90.841222	107.036398
0.873027	553.133091	125.746737	131.612625	91.121600	108.652130
0.874548	557.077052	126.690376	132.527476	91.312106	110.547093
0.876069	561.265199	127.647966	133.450712	91.424290	112.742230
0.877590	564.709659	128.010064	134.015880	91.453420	115.230294
0.879111	568.393042	128.395077	134.594883	91.404403	117.998678
0.880632	571.910490	128.578052	135.081015	91.211726	121.039697
0.882152	575.690566	128.794411	135.586411	90.952156	124.357588
0.883673	579.921361	129.199414	136.256712	90.514444	127.950790
0.885194	584.431496	129.640992	136.947731	90.014372	131.828401
0.886715	589.199490	130.195943	137.731482	89.295641	135.976424
0.888236	594.228486	130.784860	138.532747	88.538140	140.372739
0.889757	599.247570	131.357108	139.312608	87.596251	144.981604
0.891278	604.498821	131.959282	140.108957	86.663726	149.766856
0.892799	609.639928	132.500075	140.834130	85.609070	154.696653
0.894320	614.986763	133.068407	141.573981	84.589909	159.754467
0.895841	620.189360	133.598953	142.279819	83.378931	164.931658
0.897362	626.783015	134.158018	143.000361	83.405924	170.218713
0.898883	633.381554	134.589176	143.626980	83.577329	175.588070
0.900404	640.069821	135.049863	144.268401	83.741962	181.009594
0.901925	646.187038	135.192038	144.639036	83.900187	186.455777
0.903446	652.366541	135.364250	145.025006	84.115347	191.861937
0.904967	658.268958	135.381305	145.319372	84.410759	197.157522
0.906488	664.237199	135.437379	145.634785	84.918377	202.246657
0.908009	669.129539	134.920436	145.222053	85.939908	207.047143
0.909530	674.076466	134.466298	144.844723	87.257177	211.508268
0.911051	686.424193	137.771171	149.325404	87.872206	215.455412
0.912572	698.857927	141.197053	153.881767	89.008164	218.770943
