PointPosition
version=1
nRows=601
nColumns=4
inDegrees=no
No description.
endheader
time	state_0	state_1	state_2
      0.00000000	     -0.06550036	      0.85710684	      0.00000000
      0.00332320	     -0.06252006	      0.85696877	      0.00000000
      0.00664639	     -0.05948648	      0.85682457	      0.00000000
      0.00996959	     -0.05639788	      0.85667302	      0.00000000
      0.01329279	     -0.05325245	      0.85651275	      0.00000000
      0.01661599	     -0.05004841	      0.85634251	      0.00000000
      0.01993918	     -0.04678374	      0.85616102	      0.00000000
      0.02326238	     -0.04345633	      0.85596692	      0.00000000
      0.02658558	     -0.04006372	      0.85575873	      0.00000000
      0.02990877	     -0.03660347	      0.85553498	      0.00000000
      0.03323197	     -0.03307340	      0.85529419	      0.00000000
      0.03655517	     -0.02947144	      0.85503479	      0.00000000
      0.03987837	     -0.02579668	      0.85475525	      0.00000000
      0.04320156	     -0.02204910	      0.85445404	      0.00000000
      0.04652476	     -0.01823147	      0.85413000	      0.00000000
      0.04984796	     -0.01434878	      0.85378251	      0.00000000
      0.05317115	     -0.01041274	      0.85341388	      0.00000000
      0.05649435	     -0.00643883	      0.85302913	      0.00000000
      0.05981755	     -0.00244237	      0.85263862	      0.00000000
      0.06314075	      0.00156998	      0.85225384	      0.00000000
      0.06646394	      0.00560270	      0.85188198	      0.00000000
      0.06978714	      0.00965588	      0.85152705	      0.00000000
      0.07311034	      0.01372498	      0.85119050	      0.00000000
      0.07643353	      0.01780507	      0.85087392	      0.00000000
      0.07975673	      0.02188963	      0.85057937	      0.00000000
      0.08307993	      0.02597209	      0.85030914	      0.00000000
      0.08640313	      0.03004511	      0.85006622	      0.00000000
      0.08972632	      0.03410112	      0.84985386	      0.00000000
      0.09304952	      0.03813213	      0.84967560	      0.00000000
      0.09637272	      0.04213014	      0.84953491	      0.00000000
      0.09969591	      0.04608739	      0.84943497	      0.00000000
      0.10301911	      0.04999639	      0.84937870	      0.00000000
      0.10634231	      0.05385030	      0.84936830	      0.00000000
      0.10966551	      0.05764273	      0.84940554	      0.00000000
      0.11298870	      0.06136833	      0.84949136	      0.00000000
      0.11631190	      0.06502218	      0.84962611	      0.00000000
      0.11963510	      0.06859719	      0.84980635	      0.00000000
      0.12295829	      0.07208443	      0.85002574	      0.00000000
      0.12628149	      0.07548076	      0.85028127	      0.00000000
      0.12960469	      0.07878917	      0.85057498	      0.00000000
      0.13292789	      0.08201576	      0.85091051	      0.00000000
      0.13625108	      0.08516523	      0.85128974	      0.00000000
      0.13957428	      0.08824098	      0.85171296	      0.00000000
      0.14289748	      0.09124588	      0.85217981	      0.00000000
      0.14622068	      0.09418245	      0.85268914	      0.00000000
      0.14954387	      0.09705326	      0.85323962	      0.00000000
      0.15286707	      0.09986102	      0.85382943	      0.00000000
      0.15619027	      0.10260846	      0.85445652	      0.00000000
      0.15951346	      0.10529845	      0.85511850	      0.00000000
      0.16283666	      0.10793388	      0.85581285	      0.00000000
      0.16615986	      0.11051767	      0.85653683	      0.00000000
      0.16948306	      0.11305273	      0.85728765	      0.00000000
      0.17280625	      0.11554188	      0.85806240	      0.00000000
      0.17612945	      0.11798791	      0.85885821	      0.00000000
      0.17945265	      0.12039350	      0.85967219	      0.00000000
      0.18277584	      0.12276120	      0.86050144	      0.00000000
      0.18609904	      0.12509340	      0.86134316	      0.00000000
      0.18942224	      0.12739236	      0.86219457	      0.00000000
      0.19274544	      0.12966005	      0.86305300	      0.00000000
      0.19606863	      0.13189831	      0.86391585	      0.00000000
      0.19939183	      0.13410867	      0.86478069	      0.00000000
      0.20271503	      0.13629255	      0.86564514	      0.00000000
      0.20603822	      0.13845105	      0.86650700	      0.00000000
      0.20936142	      0.14058518	      0.86736414	      0.00000000
      0.21268462	      0.14269574	      0.86821459	      0.00000000
      0.21600782	      0.14478342	      0.86905646	      0.00000000
      0.21933101	      0.14684882	      0.86988800	      0.00000000
      0.22265421	      0.14889249	      0.87070752	      0.00000000
      0.22597741	      0.15091493	      0.87151345	      0.00000000
      0.22930060	      0.15291663	      0.87230428	      0.00000000
      0.23262380	      0.15489808	      0.87307862	      0.00000000
      0.23594700	      0.15685973	      0.87383514	      0.00000000
      0.23927020	      0.15880208	      0.87457266	      0.00000000
      0.24259339	      0.16072561	      0.87529006	      0.00000000
      0.24591659	      0.16263079	      0.87598636	      0.00000000
      0.24923979	      0.16451812	      0.87666064	      0.00000000
      0.25256298	      0.16638809	      0.87731211	      0.00000000
      0.25588618	      0.16824115	      0.87794000	      0.00000000
      0.25920938	      0.17007776	      0.87854367	      0.00000000
      0.26253258	      0.17189835	      0.87912249	      0.00000000
      0.26585577	      0.17370338	      0.87967596	      0.00000000
      0.26917897	      0.17549330	      0.88020363	      0.00000000
      0.27250217	      0.17726865	      0.88070520	      0.00000000
      0.27582536	      0.17903001	      0.88118046	      0.00000000
      0.27914856	      0.18077799	      0.88162938	      0.00000000
      0.28247176	      0.18251327	      0.88205196	      0.00000000
      0.28579496	      0.18423645	      0.88244834	      0.00000000
      0.28911815	      0.18594814	      0.88281870	      0.00000000
      0.29244135	      0.18764892	      0.88316344	      0.00000000
      0.29576455	      0.18933944	      0.88348319	      0.00000000
      0.29908774	      0.19102041	      0.88377887	      0.00000000
      0.30241094	      0.19269267	      0.88405152	      0.00000000
      0.30573414	      0.19435714	      0.88430218	      0.00000000
      0.30905734	      0.19601483	      0.88453175	      0.00000000
      0.31238053	      0.19766668	      0.88474086	      0.00000000
      0.31570373	      0.19931359	      0.88492993	      0.00000000
      0.31902693	      0.20095636	      0.88509916	      0.00000000
      0.32235012	      0.20259575	      0.88524872	      0.00000000
      0.32567332	      0.20423241	      0.88537874	      0.00000000
      0.32899652	      0.20586686	      0.88548939	      0.00000000
      0.33231972	      0.20749931	      0.88558089	      0.00000000
      0.33564291	      0.20912972	      0.88565343	      0.00000000
      0.33896611	      0.21075775	      0.88570732	      0.00000000
      0.34228931	      0.21238297	      0.88574290	      0.00000000
      0.34561250	      0.21400504	      0.88576081	      0.00000000
      0.34893570	      0.21562386	      0.88576191	      0.00000000
      0.35225890	      0.21723934	      0.88574696	      0.00000000
      0.35558210	      0.21885137	      0.88571652	      0.00000000
      0.35890529	      0.22045982	      0.88567119	      0.00000000
      0.36222849	      0.22206452	      0.88561177	      0.00000000
      0.36555169	      0.22366502	      0.88553910	      0.00000000
      0.36887488	      0.22526063	      0.88545396	      0.00000000
      0.37219808	      0.22685063	      0.88535718	      0.00000000
      0.37552128	      0.22843442	      0.88524967	      0.00000000
      0.37884448	      0.23001148	      0.88513242	      0.00000000
      0.38216767	      0.23158132	      0.88500640	      0.00000000
      0.38549087	      0.23314359	      0.88487265	      0.00000000
      0.38881407	      0.23469796	      0.88473222	      0.00000000
      0.39213727	      0.23624421	      0.88458616	      0.00000000
      0.39546046	      0.23778215	      0.88443554	      0.00000000
      0.39878366	      0.23931161	      0.88428137	      0.00000000
      0.40210686	      0.24083242	      0.88412462	      0.00000000
      0.40543005	      0.24234438	      0.88396620	      0.00000000
      0.40875325	      0.24384727	      0.88380699	      0.00000000
      0.41207645	      0.24534085	      0.88364775	      0.00000000
      0.41539965	      0.24682487	      0.88348921	      0.00000000
      0.41872284	      0.24829909	      0.88333202	      0.00000000
      0.42204604	      0.24976330	      0.88317677	      0.00000000
      0.42536924	      0.25121733	      0.88302398	      0.00000000
      0.42869243	      0.25266106	      0.88287411	      0.00000000
      0.43201563	      0.25409439	      0.88272758	      0.00000000
      0.43533883	      0.25551723	      0.88258473	      0.00000000
      0.43866203	      0.25692953	      0.88244582	      0.00000000
      0.44198522	      0.25833125	      0.88231110	      0.00000000
      0.44530842	      0.25972239	      0.88218072	      0.00000000
      0.44863162	      0.26110297	      0.88205480	      0.00000000
      0.45195481	      0.26247306	      0.88193341	      0.00000000
      0.45527801	      0.26383273	      0.88181659	      0.00000000
      0.45860121	      0.26518207	      0.88170432	      0.00000000
      0.46192441	      0.26652121	      0.88159657	      0.00000000
      0.46524760	      0.26785025	      0.88149320	      0.00000000
      0.46857080	      0.26916929	      0.88139408	      0.00000000
      0.47189400	      0.27047839	      0.88129898	      0.00000000
      0.47521719	      0.27177763	      0.88120767	      0.00000000
      0.47854039	      0.27306708	      0.88111994	      0.00000000
      0.48186359	      0.27434688	      0.88103567	      0.00000000
      0.48518679	      0.27561725	      0.88095490	      0.00000000
      0.48850998	      0.27687849	      0.88087776	      0.00000000
      0.49183318	      0.27813095	      0.88080444	      0.00000000
      0.49515638	      0.27937493	      0.88073512	      0.00000000
      0.49847957	      0.28061074	      0.88066994	      0.00000000
      0.50180277	      0.28183866	      0.88060909	      0.00000000
      0.50512597	      0.28305889	      0.88055265	      0.00000000
      0.50844917	      0.28427159	      0.88050066	      0.00000000
      0.51177236	      0.28547684	      0.88045308	      0.00000000
      0.51509556	      0.28667472	      0.88040981	      0.00000000
      0.51841876	      0.28786531	      0.88037071	      0.00000000
      0.52174195	      0.28904870	      0.88033559	      0.00000000
      0.52506515	      0.29022505	      0.88030428	      0.00000000
      0.52838835	      0.29139454	      0.88027657	      0.00000000
      0.53171155	      0.29255739	      0.88025226	      0.00000000
      0.53503474	      0.29371388	      0.88023113	      0.00000000
      0.53835794	      0.29486430	      0.88021296	      0.00000000
      0.54168114	      0.29600898	      0.88019752	      0.00000000
      0.54500433	      0.29714829	      0.88018459	      0.00000000
      0.54832753	      0.29828259	      0.88017391	      0.00000000
      0.55165073	      0.29941228	      0.88016524	      0.00000000
      0.55497393	      0.30053776	      0.88015834	      0.00000000
      0.55829712	      0.30165945	      0.88015295	      0.00000000
      0.56162032	      0.30277776	      0.88014882	      0.00000000
      0.56494352	      0.30389313	      0.88014569	      0.00000000
      0.56826671	      0.30500598	      0.88014332	      0.00000000
      0.57158991	      0.30611677	      0.88014145	      0.00000000
      0.57491311	      0.30722595	      0.88013984	      0.00000000
      0.57823631	      0.30833398	      0.88013824	      0.00000000
      0.58155950	      0.30944134	      0.88013646	      0.00000000
      0.58488270	      0.31054850	      0.88013426	      0.00000000
      0.58820590	      0.31165594	      0.88013140	      0.00000000
      0.59152909	      0.31276415	      0.88012764	      0.00000000
      0.59485229	      0.31387358	      0.88012274	      0.00000000
      0.59817549	      0.31498470	      0.88011652	      0.00000000
      0.60149869	      0.31609796	      0.88010879	      0.00000000
      0.60482188	      0.31721382	      0.88009934	      0.00000000
      0.60814508	      0.31833275	      0.88008796	      0.00000000
      0.61146828	      0.31945519	      0.88007444	      0.00000000
      0.61479147	      0.32058162	      0.88005858	      0.00000000
      0.61811467	      0.32171249	      0.88004019	      0.00000000
      0.62143787	      0.32284826	      0.88001908	      0.00000000
      0.62476107	      0.32398938	      0.87999509	      0.00000000
      0.62808426	      0.32513631	      0.87996805	      0.00000000
      0.63140746	      0.32628951	      0.87993782	      0.00000000
      0.63473066	      0.32744946	      0.87990427	      0.00000000
      0.63805386	      0.32861664	      0.87986727	      0.00000000
      0.64137705	      0.32979152	      0.87982670	      0.00000000
      0.64470025	      0.33097461	      0.87978244	      0.00000000
      0.64802345	      0.33216642	      0.87973440	      0.00000000
      0.65134664	      0.33336744	      0.87968244	      0.00000000
      0.65466984	      0.33457820	      0.87962646	      0.00000000
      0.65799304	      0.33579921	      0.87956632	      0.00000000
      0.66131624	      0.33703098	      0.87950190	      0.00000000
      0.66463943	      0.33827401	      0.87943306	      0.00000000
      0.66796263	      0.33952880	      0.87935964	      0.00000000
      0.67128583	      0.34079584	      0.87928150	      0.00000000
      0.67460902	      0.34207559	      0.87919847	      0.00000000
      0.67793222	      0.34336852	      0.87911038	      0.00000000
      0.68125542	      0.34467509	      0.87901706	      0.00000000
      0.68457862	      0.34599575	      0.87891833	      0.00000000
      0.68790181	      0.34733096	      0.87881399	      0.00000000
      0.69122501	      0.34868118	      0.87870385	      0.00000000
      0.69454821	      0.35004685	      0.87858772	      0.00000000
      0.69787140	      0.35142844	      0.87846540	      0.00000000
      0.70119460	      0.35282642	      0.87833668	      0.00000000
      0.70451780	      0.35424123	      0.87820136	      0.00000000
      0.70784100	      0.35567335	      0.87805925	      0.00000000
      0.71116419	      0.35712322	      0.87791013	      0.00000000
      0.71448739	      0.35859132	      0.87775381	      0.00000000
      0.71781059	      0.36007809	      0.87759008	      0.00000000
      0.72113378	      0.36158399	      0.87741873	      0.00000000
      0.72445698	      0.36310944	      0.87723954	      0.00000000
      0.72778018	      0.36465489	      0.87705229	      0.00000000
      0.73110338	      0.36622076	      0.87685675	      0.00000000
      0.73442657	      0.36780747	      0.87665269	      0.00000000
      0.73774977	      0.36941543	      0.87643986	      0.00000000
      0.74107297	      0.37104505	      0.87621803	      0.00000000
      0.74439616	      0.37269673	      0.87598693	      0.00000000
      0.74771936	      0.37437088	      0.87574634	      0.00000000
      0.75104256	      0.37606789	      0.87549599	      0.00000000
      0.75436576	      0.37778818	      0.87523565	      0.00000000
      0.75768895	      0.37953214	      0.87496509	      0.00000000
      0.76101215	      0.38130020	      0.87468408	      0.00000000
      0.76433535	      0.38309278	      0.87439242	      0.00000000
      0.76765854	      0.38491031	      0.87408990	      0.00000000
      0.77098174	      0.38675325	      0.87377635	      0.00000000
      0.77430494	      0.38862205	      0.87345158	      0.00000000
      0.77762814	      0.39051721	      0.87311546	      0.00000000
      0.78095133	      0.39243920	      0.87276781	      0.00000000
      0.78427453	      0.39438856	      0.87240852	      0.00000000
      0.78759773	      0.39636583	      0.87203747	      0.00000000
      0.79092092	      0.39837157	      0.87165453	      0.00000000
      0.79424412	      0.40040639	      0.87125963	      0.00000000
      0.79756732	      0.40247092	      0.87085267	      0.00000000
      0.80089052	      0.40456582	      0.87043360	      0.00000000
      0.80421371	      0.40669178	      0.87000235	      0.00000000
      0.80753691	      0.40884953	      0.86955890	      0.00000000
      0.81086011	      0.41103980	      0.86910321	      0.00000000
      0.81418330	      0.41326334	      0.86863528	      0.00000000
      0.81750650	      0.41552095	      0.86815509	      0.00000000
      0.82082970	      0.41781342	      0.86766265	      0.00000000
      0.82415290	      0.42014158	      0.86715797	      0.00000000
      0.82747609	      0.42250626	      0.86664104	      0.00000000
      0.83079929	      0.42490837	      0.86611184	      0.00000000
      0.83412249	      0.42734879	      0.86557037	      0.00000000
      0.83744568	      0.42982846	      0.86501659	      0.00000000
      0.84076888	      0.43234834	      0.86445047	      0.00000000
      0.84409208	      0.43490943	      0.86387192	      0.00000000
      0.84741528	      0.43751276	      0.86328085	      0.00000000
      0.85073847	      0.44015934	      0.86267711	      0.00000000
      0.85406167	      0.44285020	      0.86206056	      0.00000000
      0.85738487	      0.44558632	      0.86143098	      0.00000000
      0.86070806	      0.44836867	      0.86078813	      0.00000000
      0.86403126	      0.45119818	      0.86013171	      0.00000000
      0.86735446	      0.45407574	      0.85946134	      0.00000000
      0.87067766	      0.45700213	      0.85877655	      0.00000000
      0.87400085	      0.45997803	      0.85807677	      0.00000000
      0.87732405	      0.46300389	      0.85736132	      0.00000000
      0.88064725	      0.46608010	      0.85662942	      0.00000000
      0.88397045	      0.46920685	      0.85588016	      0.00000000
      0.88729364	      0.47238430	      0.85511255	      0.00000000
      0.89061684	      0.47561237	      0.85432556	      0.00000000
      0.89394004	      0.47889088	      0.85351819	      0.00000000
      0.89726323	      0.48221938	      0.85268947	      0.00000000
      0.90058643	      0.48559727	      0.85183853	      0.00000000
      0.90390963	      0.48902365	      0.85096466	      0.00000000
      0.90723283	      0.49249752	      0.85006723	      0.00000000
      0.91055602	      0.49601760	      0.84914587	      0.00000000
      0.91387922	      0.49958249	      0.84820030	      0.00000000
      0.91720242	      0.50319052	      0.84723054	      0.00000000
      0.92052561	      0.50683982	      0.84623688	      0.00000000
      0.92384881	      0.51052809	      0.84522027	      0.00000000
      0.92717201	      0.51425289	      0.84418208	      0.00000000
      0.93049521	      0.51801201	      0.84312419	      0.00000000
      0.93381840	      0.52180360	      0.84204859	      0.00000000
      0.93714160	      0.52562697	      0.84095668	      0.00000000
      0.94046480	      0.52948225	      0.83984928	      0.00000000
      0.94378799	      0.53337120	      0.83872586	      0.00000000
      0.94711119	      0.53729633	      0.83758521	      0.00000000
      0.95043439	      0.54126091	      0.83642532	      0.00000000
      0.95375759	      0.54526826	      0.83524410	      0.00000000
      0.95708078	      0.54932154	      0.83403975	      0.00000000
      0.96040398	      0.55342365	      0.83281088	      0.00000000
      0.96372718	      0.55757684	      0.83155687	      0.00000000
      0.96705037	      0.56178294	      0.83027747	      0.00000000
      0.97037357	      0.56604320	      0.82897300	      0.00000000
      0.97369677	      0.57035863	      0.82764397	      0.00000000
      0.97701997	      0.57473021	      0.82629091	      0.00000000
      0.98034316	      0.57915903	      0.82491415	      0.00000000
      0.98366636	      0.58364594	      0.82351452	      0.00000000
      0.98698956	      0.58819129	      0.82209362	      0.00000000
      0.99031275	      0.59279256	      0.82065695	      0.00000000
      0.99363595	      0.59744227	      0.81921476	      0.00000000
      0.99695915	      0.60211839	      0.81779230	      0.00000000
      1.00028235	      0.60679116	      0.81642451	      0.00000000
      1.00360554	      0.61141719	      0.81516104	      0.00000000
      1.00692874	      0.61595179	      0.81405245	      0.00000000
      1.01025194	      0.62036257	      0.81313632	      0.00000000
      1.01357513	      0.62462725	      0.81243931	      0.00000000
      1.01689833	      0.62874070	      0.81196723	      0.00000000
      1.02022153	      0.63270484	      0.81171613	      0.00000000
      1.02354473	      0.63653067	      0.81166853	      0.00000000
      1.02686792	      0.64023125	      0.81180310	      0.00000000
      1.03019112	      0.64382102	      0.81209512	      0.00000000
      1.03351432	      0.64731349	      0.81252026	      0.00000000
      1.03683751	      0.65071976	      0.81305609	      0.00000000
      1.04016071	      0.65404921	      0.81368185	      0.00000000
      1.04348391	      0.65730767	      0.81437954	      0.00000000
      1.04680711	      0.66049917	      0.81513245	      0.00000000
      1.05013030	      0.66362591	      0.81592692	      0.00000000
      1.05345350	      0.66669026	      0.81675136	      0.00000000
      1.05677670	      0.66969565	      0.81759791	      0.00000000
      1.06009989	      0.67264603	      0.81846021	      0.00000000
      1.06342309	      0.67554522	      0.81933358	      0.00000000
      1.06674629	      0.67839647	      0.82021371	      0.00000000
      1.07006949	      0.68120210	      0.82109683	      0.00000000
      1.07339268	      0.68396397	      0.82197936	      0.00000000
      1.07671588	      0.68668330	      0.82285801	      0.00000000
      1.08003908	      0.68936109	      0.82372968	      0.00000000
      1.08336227	      0.69199809	      0.82459162	      0.00000000
      1.08668547	      0.69459497	      0.82544125	      0.00000000
      1.09000867	      0.69715235	      0.82627637	      0.00000000
      1.09333187	      0.69967080	      0.82709493	      0.00000000
      1.09665506	      0.70215088	      0.82789520	      0.00000000
      1.09997826	      0.70459314	      0.82867562	      0.00000000
      1.10330146	      0.70699811	      0.82943490	      0.00000000
      1.10662465	      0.70936634	      0.83017190	      0.00000000
      1.10994785	      0.71169837	      0.83088577	      0.00000000
      1.11327105	      0.71399477	      0.83157573	      0.00000000
      1.11659425	      0.71625610	      0.83224129	      0.00000000
      1.11991744	      0.71848295	      0.83288203	      0.00000000
      1.12324064	      0.72067588	      0.83349773	      0.00000000
      1.12656384	      0.72283545	      0.83408825	      0.00000000
      1.12988704	      0.72496220	      0.83465361	      0.00000000
      1.13321023	      0.72705664	      0.83519389	      0.00000000
      1.13653343	      0.72911928	      0.83570927	      0.00000000
      1.13985663	      0.73115058	      0.83620000	      0.00000000
      1.14317982	      0.73315098	      0.83666641	      0.00000000
      1.14650302	      0.73512088	      0.83710886	      0.00000000
      1.14982622	      0.73706066	      0.83752776	      0.00000000
      1.15314942	      0.73897070	      0.83792359	      0.00000000
      1.15647261	      0.74085137	      0.83829686	      0.00000000
      1.15979581	      0.74270302	      0.83864810	      0.00000000
      1.16311901	      0.74452603	      0.83897792	      0.00000000
      1.16644220	      0.74632078	      0.83928692	      0.00000000
      1.16976540	      0.74808767	      0.83957577	      0.00000000
      1.17308860	      0.74982714	      0.83984515	      0.00000000
      1.17641180	      0.75153962	      0.84009574	      0.00000000
      1.17973499	      0.75322558	      0.84032830	      0.00000000
      1.18305819	      0.75488551	      0.84054355	      0.00000000
      1.18638139	      0.75651991	      0.84074226	      0.00000000
      1.18970458	      0.75812931	      0.84092520	      0.00000000
      1.19302778	      0.75971426	      0.84109318	      0.00000000
      1.19635098	      0.76127530	      0.84124700	      0.00000000
      1.19967418	      0.76281301	      0.84138744	      0.00000000
      1.20299737	      0.76432800	      0.84151534	      0.00000000
      1.20632057	      0.76582088	      0.84163156	      0.00000000
      1.20964377	      0.76729232	      0.84173691	      0.00000000
      1.21296696	      0.76874295	      0.84183223	      0.00000000
      1.21629016	      0.77017347	      0.84191837	      0.00000000
      1.21961336	      0.77158457	      0.84199612	      0.00000000
      1.22293656	      0.77297697	      0.84206629	      0.00000000
      1.22625975	      0.77435144	      0.84212974	      0.00000000
      1.22958295	      0.77570876	      0.84218729	      0.00000000
      1.23290615	      0.77704972	      0.84223975	      0.00000000
      1.23622934	      0.77837510	      0.84228790	      0.00000000
      1.23955254	      0.77968570	      0.84233249	      0.00000000
      1.24287574	      0.78098228	      0.84237420	      0.00000000
      1.24619894	      0.78226560	      0.84241369	      0.00000000
      1.24952213	      0.78353641	      0.84245155	      0.00000000
      1.25284533	      0.78479542	      0.84248831	      0.00000000
      1.25616853	      0.78604338	      0.84252443	      0.00000000
      1.25949172	      0.78728100	      0.84256035	      0.00000000
      1.26281492	      0.78850906	      0.84259633	      0.00000000
      1.26613812	      0.78972835	      0.84263259	      0.00000000
      1.26946132	      0.79093966	      0.84266922	      0.00000000
      1.27278451	      0.79214380	      0.84270618	      0.00000000
      1.27610771	      0.79334169	      0.84274308	      0.00000000
      1.27943091	      0.79453435	      0.84277940	      0.00000000
      1.28275410	      0.79572274	      0.84281450	      0.00000000
      1.28607730	      0.79690773	      0.84284754	      0.00000000
      1.28940050	      0.79809027	      0.84287778	      0.00000000
      1.29272370	      0.79927146	      0.84290501	      0.00000000
      1.29604689	      0.80045254	      0.84293024	      0.00000000
      1.29937009	      0.80163473	      0.84295505	      0.00000000
      1.30269329	      0.80281891	      0.84298146	      0.00000000
      1.30601648	      0.80400581	      0.84301134	      0.00000000
      1.30933968	      0.80519607	      0.84304605	      0.00000000
      1.31266288	      0.80639036	      0.84308658	      0.00000000
      1.31598608	      0.80758930	      0.84313350	      0.00000000
      1.31930927	      0.80879343	      0.84318719	      0.00000000
      1.32263247	      0.81000316	      0.84324771	      0.00000000
      1.32595567	      0.81121883	      0.84331499	      0.00000000
      1.32927886	      0.81244060	      0.84338867	      0.00000000
      1.33260206	      0.81366861	      0.84346829	      0.00000000
      1.33592526	      0.81490285	      0.84355321	      0.00000000
      1.33924846	      0.81614331	      0.84364276	      0.00000000
      1.34257165	      0.81738992	      0.84373621	      0.00000000
      1.34589485	      0.81864259	      0.84383287	      0.00000000
      1.34921805	      0.81990124	      0.84393210	      0.00000000
      1.35254124	      0.82116581	      0.84403333	      0.00000000
      1.35586444	      0.82243627	      0.84413605	      0.00000000
      1.35918764	      0.82371267	      0.84423980	      0.00000000
      1.36251084	      0.82499508	      0.84434421	      0.00000000
      1.36583403	      0.82628361	      0.84444897	      0.00000000
      1.36915723	      0.82757838	      0.84455386	      0.00000000
      1.37248043	      0.82887952	      0.84465873	      0.00000000
      1.37580363	      0.83018717	      0.84476349	      0.00000000
      1.37912682	      0.83150146	      0.84486808	      0.00000000
      1.38245002	      0.83282251	      0.84497246	      0.00000000
      1.38577322	      0.83415047	      0.84507661	      0.00000000
      1.38909641	      0.83548549	      0.84518055	      0.00000000
      1.39241961	      0.83682774	      0.84528430	      0.00000000
      1.39574281	      0.83817737	      0.84538783	      0.00000000
      1.39906601	      0.83953455	      0.84549108	      0.00000000
      1.40238920	      0.84089945	      0.84559390	      0.00000000
      1.40571240	      0.84227220	      0.84569613	      0.00000000
      1.40903560	      0.84365294	      0.84579758	      0.00000000
      1.41235879	      0.84504182	      0.84589799	      0.00000000
      1.41568199	      0.84643902	      0.84599721	      0.00000000
      1.41900519	      0.84784463	      0.84609523	      0.00000000
      1.42232839	      0.84925865	      0.84619222	      0.00000000
      1.42565158	      0.85068109	      0.84628833	      0.00000000
      1.42897478	      0.85211196	      0.84638368	      0.00000000
      1.43229798	      0.85355126	      0.84647842	      0.00000000
      1.43562117	      0.85499890	      0.84657265	      0.00000000
      1.43894437	      0.85645480	      0.84666643	      0.00000000
      1.44226757	      0.85791886	      0.84675981	      0.00000000
      1.44559077	      0.85939100	      0.84685280	      0.00000000
      1.44891396	      0.86087119	      0.84694547	      0.00000000
      1.45223716	      0.86235941	      0.84703794	      0.00000000
      1.45556036	      0.86385564	      0.84713039	      0.00000000
      1.45888355	      0.86535987	      0.84722308	      0.00000000
      1.46220675	      0.86687205	      0.84731629	      0.00000000
      1.46552995	      0.86839214	      0.84741036	      0.00000000
      1.46885315	      0.86992004	      0.84750563	      0.00000000
      1.47217634	      0.87145563	      0.84760250	      0.00000000
      1.47549954	      0.87299879	      0.84770135	      0.00000000
      1.47882274	      0.87454941	      0.84780257	      0.00000000
      1.48214593	      0.87610746	      0.84790654	      0.00000000
      1.48546913	      0.87767290	      0.84801372	      0.00000000
      1.48879233	      0.87924575	      0.84812460	      0.00000000
      1.49211553	      0.88082603	      0.84823968	      0.00000000
      1.49543872	      0.88241382	      0.84835946	      0.00000000
      1.49876192	      0.88400913	      0.84848444	      0.00000000
      1.50208512	      0.88561215	      0.84861482	      0.00000000
      1.50540831	      0.88722315	      0.84875076	      0.00000000
      1.50873151	      0.88884251	      0.84889246	      0.00000000
      1.51205471	      0.89047059	      0.84904006	      0.00000000
      1.51537791	      0.89210782	      0.84919368	      0.00000000
      1.51870110	      0.89375467	      0.84935335	      0.00000000
      1.52202430	      0.89541168	      0.84951905	      0.00000000
      1.52534750	      0.89707944	      0.84969073	      0.00000000
      1.52867069	      0.89875860	      0.84986822	      0.00000000
      1.53199389	      0.90044981	      0.85005136	      0.00000000
      1.53531709	      0.90215371	      0.85023991	      0.00000000
      1.53864029	      0.90387091	      0.85043362	      0.00000000
      1.54196348	      0.90560188	      0.85063225	      0.00000000
      1.54528668	      0.90734703	      0.85083559	      0.00000000
      1.54860988	      0.90910662	      0.85104355	      0.00000000
      1.55193307	      0.91088085	      0.85125607	      0.00000000
      1.55525627	      0.91266975	      0.85147317	      0.00000000
      1.55857947	      0.91447331	      0.85169492	      0.00000000
      1.56190267	      0.91629130	      0.85192129	      0.00000000
      1.56522586	      0.91812341	      0.85215218	      0.00000000
      1.56854906	      0.91996912	      0.85238729	      0.00000000
      1.57187226	      0.92182787	      0.85262623	      0.00000000
      1.57519545	      0.92369895	      0.85286850	      0.00000000
      1.57851865	      0.92558167	      0.85311361	      0.00000000
      1.58184185	      0.92747520	      0.85336118	      0.00000000
      1.58516505	      0.92937866	      0.85361090	      0.00000000
      1.58848824	      0.93129106	      0.85386257	      0.00000000
      1.59181144	      0.93321137	      0.85411604	      0.00000000
      1.59513464	      0.93513854	      0.85437123	      0.00000000
      1.59845783	      0.93707151	      0.85462804	      0.00000000
      1.60178103	      0.93900929	      0.85488638	      0.00000000
      1.60510423	      0.94095092	      0.85514614	      0.00000000
      1.60842743	      0.94289549	      0.85540713	      0.00000000
      1.61175062	      0.94484212	      0.85566916	      0.00000000
      1.61507382	      0.94678996	      0.85593196	      0.00000000
      1.61839702	      0.94873820	      0.85619524	      0.00000000
      1.62172022	      0.95068602	      0.85645864	      0.00000000
      1.62504341	      0.95263265	      0.85672175	      0.00000000
      1.62836661	      0.95457729	      0.85698409	      0.00000000
      1.63168981	      0.95651919	      0.85724512	      0.00000000
      1.63501300	      0.95845761	      0.85750424	      0.00000000
      1.63833620	      0.96039184	      0.85776083	      0.00000000
      1.64165940	      0.96232123	      0.85801417	      0.00000000
      1.64498260	      0.96424513	      0.85826356	      0.00000000
      1.64830579	      0.96616291	      0.85850821	      0.00000000
      1.65162899	      0.96807393	      0.85874732	      0.00000000
      1.65495219	      0.96997754	      0.85898006	      0.00000000
      1.65827538	      0.97187306	      0.85920559	      0.00000000
      1.66159858	      0.97375981	      0.85942305	      0.00000000
      1.66492178	      0.97563715	      0.85963160	      0.00000000
      1.66824498	      0.97750449	      0.85983044	      0.00000000
      1.67156817	      0.97936131	      0.86001879	      0.00000000
      1.67489137	      0.98120711	      0.86019590	      0.00000000
      1.67821457	      0.98304137	      0.86036104	      0.00000000
      1.68153776	      0.98486350	      0.86051354	      0.00000000
      1.68486096	      0.98667282	      0.86065269	      0.00000000
      1.68818416	      0.98846849	      0.86077769	      0.00000000
      1.69150736	      0.99024952	      0.86088758	      0.00000000
      1.69483055	      0.99201484	      0.86098165	      0.00000000
      1.69815375	      0.99376345	      0.86105963	      0.00000000
      1.70147695	      0.99549493	      0.86112237	      0.00000000
      1.70480014	      0.99720924	      0.86117123	      0.00000000
      1.70812334	      0.99890677	      0.86120788	      0.00000000
      1.71144654	      1.00058787	      0.86123379	      0.00000000
      1.71476974	      1.00225307	      0.86125026	      0.00000000
      1.71809293	      1.00390298	      0.86125847	      0.00000000
      1.72141613	      1.00553833	      0.86125951	      0.00000000
      1.72473933	      1.00715987	      0.86125435	      0.00000000
      1.72806252	      1.00876842	      0.86124389	      0.00000000
      1.73138572	      1.01036479	      0.86122900	      0.00000000
      1.73470892	      1.01194981	      0.86121047	      0.00000000
      1.73803212	      1.01352431	      0.86118906	      0.00000000
      1.74135531	      1.01508913	      0.86116542	      0.00000000
      1.74467851	      1.01664513	      0.86114015	      0.00000000
      1.74800171	      1.01819311	      0.86111373	      0.00000000
      1.75132490	      1.01973389	      0.86108665	      0.00000000
      1.75464810	      1.02126824	      0.86105934	      0.00000000
      1.75797130	      1.02279696	      0.86103216	      0.00000000
      1.76129450	      1.02432083	      0.86100542	      0.00000000
      1.76461769	      1.02584065	      0.86097938	      0.00000000
      1.76794089	      1.02735722	      0.86095427	      0.00000000
      1.77126409	      1.02887129	      0.86093027	      0.00000000
      1.77458728	      1.03038366	      0.86090749	      0.00000000
      1.77791048	      1.03189508	      0.86088604	      0.00000000
      1.78123368	      1.03340629	      0.86086595	      0.00000000
      1.78455688	      1.03491801	      0.86084722	      0.00000000
      1.78788007	      1.03643097	      0.86082983	      0.00000000
      1.79120327	      1.03794585	      0.86081369	      0.00000000
      1.79452647	      1.03946333	      0.86079870	      0.00000000
      1.79784966	      1.04098408	      0.86078473	      0.00000000
      1.80117286	      1.04250873	      0.86077162	      0.00000000
      1.80449606	      1.04403790	      0.86075917	      0.00000000
      1.80781926	      1.04557216	      0.86074717	      0.00000000
      1.81114245	      1.04711211	      0.86073540	      0.00000000
      1.81446565	      1.04865826	      0.86072359	      0.00000000
      1.81778885	      1.05021115	      0.86071150	      0.00000000
      1.82111204	      1.05177129	      0.86069886	      0.00000000
      1.82443524	      1.05333921	      0.86068540	      0.00000000
      1.82775844	      1.05491541	      0.86067088	      0.00000000
      1.83108164	      1.05650041	      0.86065506	      0.00000000
      1.83440483	      1.05809472	      0.86063768	      0.00000000
      1.83772803	      1.05969884	      0.86061854	      0.00000000
      1.84105123	      1.06131331	      0.86059740	      0.00000000
      1.84437442	      1.06293864	      0.86057409	      0.00000000
      1.84769762	      1.06457539	      0.86054844	      0.00000000
      1.85102082	      1.06622411	      0.86052028	      0.00000000
      1.85434402	      1.06788540	      0.86048953	      0.00000000
      1.85766721	      1.06955986	      0.86045608	      0.00000000
      1.86099041	      1.07124811	      0.86041986	      0.00000000
      1.86431361	      1.07295078	      0.86038085	      0.00000000
      1.86763681	      1.07466854	      0.86033901	      0.00000000
      1.87096000	      1.07640209	      0.86029436	      0.00000000
      1.87428320	      1.07815212	      0.86024693	      0.00000000
      1.87760640	      1.07991940	      0.86019679	      0.00000000
      1.88092959	      1.08170470	      0.86014402	      0.00000000
      1.88425279	      1.08350880	      0.86008872	      0.00000000
      1.88757599	      1.08533254	      0.86003099	      0.00000000
      1.89089919	      1.08717674	      0.85997095	      0.00000000
      1.89422238	      1.08904227	      0.85990872	      0.00000000
      1.89754558	      1.09093000	      0.85984442	      0.00000000
      1.90086878	      1.09284082	      0.85977817	      0.00000000
      1.90419197	      1.09477562	      0.85971007	      0.00000000
      1.90751517	      1.09673530	      0.85964020	      0.00000000
      1.91083837	      1.09872075	      0.85956862	      0.00000000
      1.91416157	      1.10073284	      0.85949538	      0.00000000
      1.91748476	      1.10277242	      0.85942047	      0.00000000
      1.92080796	      1.10484034	      0.85934388	      0.00000000
      1.92413116	      1.10693743	      0.85926556	      0.00000000
      1.92745435	      1.10906455	      0.85918547	      0.00000000
      1.93077755	      1.11122256	      0.85910355	      0.00000000
      1.93410075	      1.11341235	      0.85901975	      0.00000000
      1.93742395	      1.11563480	      0.85893399	      0.00000000
      1.94074714	      1.11789082	      0.85884620	      0.00000000
      1.94407034	      1.12018130	      0.85875631	      0.00000000
      1.94739354	      1.12250716	      0.85866423	      0.00000000
      1.95071673	      1.12486932	      0.85856989	      0.00000000
      1.95403993	      1.12726872	      0.85847322	      0.00000000
      1.95736313	      1.12970630	      0.85837417	      0.00000000
      1.96068633	      1.13218311	      0.85827271	      0.00000000
      1.96400952	      1.13470024	      0.85816880	      0.00000000
      1.96733272	      1.13725886	      0.85806244	      0.00000000
      1.97065592	      1.13986007	      0.85795362	      0.00000000
      1.97397911	      1.14250489	      0.85784228	      0.00000000
      1.97730231	      1.14519430	      0.85772833	      0.00000000
      1.98062551	      1.14792934	      0.85761151	      0.00000000
      1.98394871	      1.15071113	      0.85749149	      0.00000000
      1.98727190	      1.15354078	      0.85736775	      0.00000000
      1.99059510	      1.15641937	      0.85723969	      0.00000000
      1.99391830	      1.15934812	      0.85710684	      0.00000000
