PointPosition
version=1
nRows=601
nColumns=4
inDegrees=no
No description.
endheader
time	state_0	state_1	state_2
      0.00000000	     -0.06537316	      0.82679135	      0.00000000
      0.00156243	     -0.06300346	      0.82642110	      0.00000000
      0.00312486	     -0.06062378	      0.82604577	      0.00000000
      0.00468729	     -0.05823414	      0.82566537	      0.00000000
      0.00624972	     -0.05583456	      0.82527996	      0.00000000
      0.00781215	     -0.05342511	      0.82488961	      0.00000000
      0.00937458	     -0.05100592	      0.82449445	      0.00000000
      0.01093701	     -0.04857721	      0.82409462	      0.00000000
      0.01249944	     -0.04613938	      0.82369038	      0.00000000
      0.01406187	     -0.04369294	      0.82328203	      0.00000000
      0.01562430	     -0.04123871	      0.82287004	      0.00000000
      0.01718673	     -0.03877768	      0.82245503	      0.00000000
      0.01874916	     -0.03631129	      0.82203789	      0.00000000
      0.02031159	     -0.03384123	      0.82161972	      0.00000000
      0.02187402	     -0.03136972	      0.82120206	      0.00000000
      0.02343645	     -0.02889930	      0.82078675	      0.00000000
      0.02499888	     -0.02643296	      0.82037618	      0.00000000
      0.02656131	     -0.02397294	      0.81997231	      0.00000000
      0.02812374	     -0.02151888	      0.81957548	      0.00000000
      0.02968617	     -0.01907086	      0.81918642	      0.00000000
      0.03124860	     -0.01663134	      0.81880769	      0.00000000
      0.03281103	     -0.01420298	      0.81844198	      0.00000000
      0.03437346	     -0.01178819	      0.81809185	      0.00000000
      0.03593589	     -0.00938926	      0.81775972	      0.00000000
      0.03749831	     -0.00700812	      0.81744767	      0.00000000
      0.03906074	     -0.00464654	      0.81715760	      0.00000000
      0.04062317	     -0.00230585	      0.81689100	      0.00000000
      0.04218560	      0.00001278	      0.81664915	      0.00000000
      0.04374803	      0.00230865	      0.81643295	      0.00000000
      0.04531046	      0.00458122	      0.81624309	      0.00000000
      0.04687289	      0.00683034	      0.81607992	      0.00000000
      0.04843532	      0.00905604	      0.81594361	      0.00000000
      0.04999775	      0.01125865	      0.81583408	      0.00000000
      0.05156018	      0.01343864	      0.81575114	      0.00000000
      0.05312261	      0.01559670	      0.81569443	      0.00000000
      0.05468504	      0.01773352	      0.81566350	      0.00000000
      0.05624747	      0.01984943	      0.81565741	      0.00000000
      0.05780990	      0.02194432	      0.81567481	      0.00000000
      0.05937233	      0.02401781	      0.81571399	      0.00000000
      0.06093476	      0.02606959	      0.81577328	      0.00000000
      0.06249719	      0.02809999	      0.81585180	      0.00000000
      0.06405962	      0.03010980	      0.81594917	      0.00000000
      0.06562205	      0.03210012	      0.81606520	      0.00000000
      0.06718448	      0.03407189	      0.81619958	      0.00000000
      0.06874691	      0.03602595	      0.81635184	      0.00000000
      0.07030934	      0.03796310	      0.81652148	      0.00000000
      0.07187177	      0.03988410	      0.81670791	      0.00000000
      0.07343420	      0.04178960	      0.81691049	      0.00000000
      0.07499663	      0.04368022	      0.81712853	      0.00000000
      0.07655906	      0.04555649	      0.81736132	      0.00000000
      0.07812149	      0.04741890	      0.81760811	      0.00000000
      0.07968392	      0.04926791	      0.81786815	      0.00000000
      0.08124635	      0.05110388	      0.81814070	      0.00000000
      0.08280878	      0.05292720	      0.81842502	      0.00000000
      0.08437121	      0.05473817	      0.81872037	      0.00000000
      0.08593364	      0.05653710	      0.81902602	      0.00000000
      0.08749607	      0.05832426	      0.81934126	      0.00000000
      0.08905850	      0.06009990	      0.81966538	      0.00000000
      0.09062093	      0.06186424	      0.81999770	      0.00000000
      0.09218336	      0.06361749	      0.82033753	      0.00000000
      0.09374579	      0.06535986	      0.82068422	      0.00000000
      0.09530822	      0.06709154	      0.82103713	      0.00000000
      0.09687065	      0.06881271	      0.82139565	      0.00000000
      0.09843308	      0.07052354	      0.82175916	      0.00000000
      0.09999551	      0.07222421	      0.82212711	      0.00000000
      0.10155794	      0.07391487	      0.82249892	      0.00000000
      0.10312037	      0.07559571	      0.82287408	      0.00000000
      0.10468280	      0.07726688	      0.82325207	      0.00000000
      0.10624523	      0.07892854	      0.82363241	      0.00000000
      0.10780766	      0.08058087	      0.82401462	      0.00000000
      0.10937009	      0.08222403	      0.82439828	      0.00000000
      0.11093251	      0.08385819	      0.82478295	      0.00000000
      0.11249494	      0.08548351	      0.82516824	      0.00000000
      0.11405737	      0.08710017	      0.82555377	      0.00000000
      0.11561980	      0.08870833	      0.82593916	      0.00000000
      0.11718223	      0.09030815	      0.82632409	      0.00000000
      0.11874466	      0.09189981	      0.82670822	      0.00000000
      0.12030709	      0.09348347	      0.82709124	      0.00000000
      0.12186952	      0.09505930	      0.82747285	      0.00000000
      0.12343195	      0.09662744	      0.82785279	      0.00000000
      0.12499438	      0.09818807	      0.82823078	      0.00000000
      0.12655681	      0.09974134	      0.82860657	      0.00000000
      0.12811924	      0.10128740	      0.82897993	      0.00000000
      0.12968167	      0.10282641	      0.82935062	      0.00000000
      0.13124410	      0.10435851	      0.82971845	      0.00000000
      0.13280653	      0.10588385	      0.83008320	      0.00000000
      0.13436896	      0.10740258	      0.83044469	      0.00000000
      0.13593139	      0.10891485	      0.83080275	      0.00000000
      0.13749382	      0.11042079	      0.83115722	      0.00000000
      0.13905625	      0.11192054	      0.83150793	      0.00000000
      0.14061868	      0.11341424	      0.83185473	      0.00000000
      0.14218111	      0.11490202	      0.83219749	      0.00000000
      0.14374354	      0.11638402	      0.83253608	      0.00000000
      0.14530597	      0.11786035	      0.83287037	      0.00000000
      0.14686840	      0.11933115	      0.83320025	      0.00000000
      0.14843083	      0.12079655	      0.83352561	      0.00000000
      0.14999326	      0.12225666	      0.83384636	      0.00000000
      0.15155569	      0.12371162	      0.83416241	      0.00000000
      0.15311812	      0.12516154	      0.83447369	      0.00000000
      0.15468055	      0.12660655	      0.83478011	      0.00000000
      0.15624298	      0.12804677	      0.83508160	      0.00000000
      0.15780541	      0.12948232	      0.83537810	      0.00000000
      0.15936784	      0.13091331	      0.83566954	      0.00000000
      0.16093027	      0.13233986	      0.83595587	      0.00000000
      0.16249270	      0.13376209	      0.83623705	      0.00000000
      0.16405513	      0.13518011	      0.83651303	      0.00000000
      0.16561756	      0.13659404	      0.83678377	      0.00000000
      0.16717999	      0.13800398	      0.83704924	      0.00000000
      0.16874242	      0.13941006	      0.83730942	      0.00000000
      0.17030485	      0.14081238	      0.83756428	      0.00000000
      0.17186728	      0.14221105	      0.83781381	      0.00000000
      0.17342971	      0.14360618	      0.83805800	      0.00000000
      0.17499214	      0.14499789	      0.83829683	      0.00000000
      0.17655457	      0.14638629	      0.83853030	      0.00000000
      0.17811700	      0.14777148	      0.83875842	      0.00000000
      0.17967943	      0.14915357	      0.83898117	      0.00000000
      0.18124186	      0.15053268	      0.83919856	      0.00000000
      0.18280429	      0.15190892	      0.83941061	      0.00000000
      0.18436672	      0.15328239	      0.83961731	      0.00000000
      0.18592914	      0.15465322	      0.83981869	      0.00000000
      0.18749157	      0.15602150	      0.84001475	      0.00000000
      0.18905400	      0.15738735	      0.84020553	      0.00000000
      0.19061643	      0.15875087	      0.84039105	      0.00000000
      0.19217886	      0.16011218	      0.84057133	      0.00000000
      0.19374129	      0.16147138	      0.84074640	      0.00000000
      0.19530372	      0.16282858	      0.84091631	      0.00000000
      0.19686615	      0.16418389	      0.84108107	      0.00000000
      0.19842858	      0.16553741	      0.84124074	      0.00000000
      0.19999101	      0.16688926	      0.84139536	      0.00000000
      0.20155344	      0.16823954	      0.84154495	      0.00000000
      0.20311587	      0.16958835	      0.84168958	      0.00000000
      0.20467830	      0.17093581	      0.84182927	      0.00000000
      0.20624073	      0.17228201	      0.84196409	      0.00000000
      0.20780316	      0.17362707	      0.84209409	      0.00000000
      0.20936559	      0.17497108	      0.84221930	      0.00000000
      0.21092802	      0.17631417	      0.84233979	      0.00000000
      0.21249045	      0.17765642	      0.84245560	      0.00000000
      0.21405288	      0.17899795	      0.84256679	      0.00000000
      0.21561531	      0.18033885	      0.84267343	      0.00000000
      0.21717774	      0.18167924	      0.84277555	      0.00000000
      0.21874017	      0.18301921	      0.84287323	      0.00000000
      0.22030260	      0.18435887	      0.84296652	      0.00000000
      0.22186503	      0.18569833	      0.84305548	      0.00000000
      0.22342746	      0.18703767	      0.84314016	      0.00000000
      0.22498989	      0.18837701	      0.84322063	      0.00000000
      0.22655232	      0.18971645	      0.84329694	      0.00000000
      0.22811475	      0.19105609	      0.84336917	      0.00000000
      0.22967718	      0.19239603	      0.84343736	      0.00000000
      0.23123961	      0.19373636	      0.84350157	      0.00000000
      0.23280204	      0.19507720	      0.84356187	      0.00000000
      0.23436447	      0.19641864	      0.84361832	      0.00000000
      0.23592690	      0.19776078	      0.84367098	      0.00000000
      0.23748933	      0.19910372	      0.84371990	      0.00000000
      0.23905176	      0.20044756	      0.84376514	      0.00000000
      0.24061419	      0.20179240	      0.84380677	      0.00000000
      0.24217662	      0.20313833	      0.84384484	      0.00000000
      0.24373905	      0.20448545	      0.84387940	      0.00000000
      0.24530148	      0.20583387	      0.84391052	      0.00000000
      0.24686391	      0.20718368	      0.84393824	      0.00000000
      0.24842634	      0.20853497	      0.84396263	      0.00000000
      0.24998877	      0.20988784	      0.84398373	      0.00000000
      0.25155120	      0.21124238	      0.84400160	      0.00000000
      0.25311363	      0.21259870	      0.84401628	      0.00000000
      0.25467606	      0.21395689	      0.84402783	      0.00000000
      0.25623849	      0.21531703	      0.84403630	      0.00000000
      0.25780092	      0.21667922	      0.84404172	      0.00000000
      0.25936334	      0.21804356	      0.84404415	      0.00000000
      0.26092577	      0.21941013	      0.84404362	      0.00000000
      0.26248820	      0.22077903	      0.84404018	      0.00000000
      0.26405063	      0.22215034	      0.84403386	      0.00000000
      0.26561306	      0.22352415	      0.84402470	      0.00000000
      0.26717549	      0.22490056	      0.84401274	      0.00000000
      0.26873792	      0.22627964	      0.84399800	      0.00000000
      0.27030035	      0.22766148	      0.84398052	      0.00000000
      0.27186278	      0.22904617	      0.84396032	      0.00000000
      0.27342521	      0.23043379	      0.84393742	      0.00000000
      0.27498764	      0.23182443	      0.84391186	      0.00000000
      0.27655007	      0.23321815	      0.84388364	      0.00000000
      0.27811250	      0.23461506	      0.84385279	      0.00000000
      0.27967493	      0.23601522	      0.84381932	      0.00000000
      0.28123736	      0.23741871	      0.84378324	      0.00000000
      0.28279979	      0.23882563	      0.84374456	      0.00000000
      0.28436222	      0.24023603	      0.84370329	      0.00000000
      0.28592465	      0.24165001	      0.84365943	      0.00000000
      0.28748708	      0.24306763	      0.84361298	      0.00000000
      0.28904951	      0.24448899	      0.84356394	      0.00000000
      0.29061194	      0.24591415	      0.84351231	      0.00000000
      0.29217437	      0.24734321	      0.84345809	      0.00000000
      0.29373680	      0.24877623	      0.84340127	      0.00000000
      0.29529923	      0.25021330	      0.84334184	      0.00000000
      0.29686166	      0.25165451	      0.84327980	      0.00000000
      0.29842409	      0.25309993	      0.84321512	      0.00000000
      0.29998652	      0.25454964	      0.84314781	      0.00000000
      0.30154895	      0.25600374	      0.84307784	      0.00000000
      0.30311138	      0.25746231	      0.84300520	      0.00000000
      0.30467381	      0.25892544	      0.84292987	      0.00000000
      0.30623624	      0.26039323	      0.84285185	      0.00000000
      0.30779867	      0.26186576	      0.84277111	      0.00000000
      0.30936110	      0.26334314	      0.84268763	      0.00000000
      0.31092353	      0.26482546	      0.84260139	      0.00000000
      0.31248596	      0.26631281	      0.84251236	      0.00000000
      0.31404839	      0.26780527	      0.84242049	      0.00000000
      0.31561082	      0.26930294	      0.84232575	      0.00000000
      0.31717325	      0.27080590	      0.84222810	      0.00000000
      0.31873568	      0.27231429	      0.84212752	      0.00000000
      0.32029811	      0.27382826	      0.84202403	      0.00000000
      0.32186054	      0.27534796	      0.84191761	      0.00000000
      0.32342297	      0.27687346	      0.84180820	      0.00000000
      0.32498540	      0.27840484	      0.84169574	      0.00000000
      0.32654783	      0.27994215	      0.84158014	      0.00000000
      0.32811026	      0.28148547	      0.84146136	      0.00000000
      0.32967269	      0.28303491	      0.84133934	      0.00000000
      0.33123512	      0.28459060	      0.84121406	      0.00000000
      0.33279754	      0.28615264	      0.84108548	      0.00000000
      0.33435997	      0.28772116	      0.84095353	      0.00000000
      0.33592240	      0.28929623	      0.84081815	      0.00000000
      0.33748483	      0.29087796	      0.84067928	      0.00000000
      0.33904726	      0.29246642	      0.84053683	      0.00000000
      0.34060969	      0.29406171	      0.84039075	      0.00000000
      0.34217212	      0.29566391	      0.84024096	      0.00000000
      0.34373455	      0.29727313	      0.84008740	      0.00000000
      0.34529698	      0.29888944	      0.83993000	      0.00000000
      0.34685941	      0.30051292	      0.83976870	      0.00000000
      0.34842184	      0.30214367	      0.83960345	      0.00000000
      0.34998427	      0.30378178	      0.83943418	      0.00000000
      0.35154670	      0.30542734	      0.83926084	      0.00000000
      0.35310913	      0.30708046	      0.83908339	      0.00000000
      0.35467156	      0.30874124	      0.83890176	      0.00000000
      0.35623399	      0.31040976	      0.83871590	      0.00000000
      0.35779642	      0.31208615	      0.83852577	      0.00000000
      0.35935885	      0.31377051	      0.83833130	      0.00000000
      0.36092128	      0.31546297	      0.83813245	      0.00000000
      0.36248371	      0.31716366	      0.83792915	      0.00000000
      0.36404614	      0.31887271	      0.83772131	      0.00000000
      0.36560857	      0.32059022	      0.83750884	      0.00000000
      0.36717100	      0.32231629	      0.83729163	      0.00000000
      0.36873343	      0.32405100	      0.83706953	      0.00000000
      0.37029586	      0.32579439	      0.83684242	      0.00000000
      0.37185829	      0.32754649	      0.83661013	      0.00000000
      0.37342072	      0.32930726	      0.83637252	      0.00000000
      0.37498315	      0.33107664	      0.83612946	      0.00000000
      0.37654558	      0.33285450	      0.83588082	      0.00000000
      0.37810801	      0.33464068	      0.83562649	      0.00000000
      0.37967044	      0.33643496	      0.83536640	      0.00000000
      0.38123287	      0.33823708	      0.83510052	      0.00000000
      0.38279530	      0.34004679	      0.83482881	      0.00000000
      0.38435773	      0.34186390	      0.83455130	      0.00000000
      0.38592016	      0.34368822	      0.83426803	      0.00000000
      0.38748259	      0.34551966	      0.83397908	      0.00000000
      0.38904502	      0.34735814	      0.83368455	      0.00000000
      0.39060745	      0.34920356	      0.83338464	      0.00000000
      0.39216988	      0.35105579	      0.83307960	      0.00000000
      0.39373231	      0.35291463	      0.83276979	      0.00000000
      0.39529474	      0.35477987	      0.83245565	      0.00000000
      0.39685717	      0.35665126	      0.83213775	      0.00000000
      0.39841960	      0.35852856	      0.83181676	      0.00000000
      0.39998203	      0.36041153	      0.83149344	      0.00000000
      0.40154446	      0.36229995	      0.83116859	      0.00000000
      0.40310689	      0.36419366	      0.83084307	      0.00000000
      0.40466932	      0.36609250	      0.83051773	      0.00000000
      0.40623174	      0.36799636	      0.83019345	      0.00000000
      0.40779417	      0.36990516	      0.82987109	      0.00000000
      0.40935660	      0.37181882	      0.82955153	      0.00000000
      0.41091903	      0.37373728	      0.82923568	      0.00000000
      0.41248146	      0.37566039	      0.82892447	      0.00000000
      0.41404389	      0.37758779	      0.82861888	      0.00000000
      0.41560632	      0.37951955	      0.82831975	      0.00000000
      0.41716875	      0.38145640	      0.82802775	      0.00000000
      0.41873118	      0.38339845	      0.82774366	      0.00000000
      0.42029361	      0.38534496	      0.82746838	      0.00000000
      0.42185604	      0.38729492	      0.82720263	      0.00000000
      0.42341847	      0.38924735	      0.82694707	      0.00000000
      0.42498090	      0.39120124	      0.82670219	      0.00000000
      0.42654333	      0.39315557	      0.82646846	      0.00000000
      0.42810576	      0.39510929	      0.82624623	      0.00000000
      0.42966819	      0.39706137	      0.82603583	      0.00000000
      0.43123062	      0.39901079	      0.82583748	      0.00000000
      0.43279305	      0.40095658	      0.82565141	      0.00000000
      0.43435548	      0.40289785	      0.82547777	      0.00000000
      0.43591791	      0.40483376	      0.82531670	      0.00000000
      0.43748034	      0.40676357	      0.82516828	      0.00000000
      0.43904277	      0.40868658	      0.82503256	      0.00000000
      0.44060520	      0.41060223	      0.82490957	      0.00000000
      0.44216763	      0.41251000	      0.82479927	      0.00000000
      0.44373006	      0.41440946	      0.82470161	      0.00000000
      0.44529249	      0.41630027	      0.82461649	      0.00000000
      0.44685492	      0.41818216	      0.82454381	      0.00000000
      0.44841735	      0.42005493	      0.82448342	      0.00000000
      0.44997978	      0.42191844	      0.82443516	      0.00000000
      0.45154221	      0.42377259	      0.82439886	      0.00000000
      0.45310464	      0.42561736	      0.82437430	      0.00000000
      0.45466707	      0.42745272	      0.82436130	      0.00000000
      0.45622950	      0.42927873	      0.82435971	      0.00000000
      0.45779193	      0.43109551	      0.82436946	      0.00000000
      0.45935436	      0.43290323	      0.82439051	      0.00000000
      0.46091679	      0.43470206	      0.82442281	      0.00000000
      0.46247922	      0.43649217	      0.82446625	      0.00000000
      0.46404165	      0.43827371	      0.82452069	      0.00000000
      0.46560408	      0.44004679	      0.82458589	      0.00000000
      0.46716651	      0.44181152	      0.82466162	      0.00000000
      0.46872894	      0.44356801	      0.82474758	      0.00000000
      0.47029137	      0.44531636	      0.82484346	      0.00000000
      0.47185380	      0.44705674	      0.82494895	      0.00000000
      0.47341623	      0.44878938	      0.82506374	      0.00000000
      0.47497866	      0.45051452	      0.82518752	      0.00000000
      0.47654109	      0.45223240	      0.82531999	      0.00000000
      0.47810352	      0.45394321	      0.82546082	      0.00000000
      0.47966595	      0.45564710	      0.82560966	      0.00000000
      0.48122837	      0.45734416	      0.82576615	      0.00000000
      0.48279080	      0.45903448	      0.82592991	      0.00000000
      0.48435323	      0.46071815	      0.82610054	      0.00000000
      0.48591566	      0.46239522	      0.82627765	      0.00000000
      0.48747809	      0.46406580	      0.82646085	      0.00000000
      0.48904052	      0.46572996	      0.82664975	      0.00000000
      0.49060295	      0.46738781	      0.82684396	      0.00000000
      0.49216538	      0.46903945	      0.82704308	      0.00000000
      0.49372781	      0.47068499	      0.82724676	      0.00000000
      0.49529024	      0.47232455	      0.82745461	      0.00000000
      0.49685267	      0.47395823	      0.82766629	      0.00000000
      0.49841510	      0.47558616	      0.82788144	      0.00000000
      0.49997753	      0.47720847	      0.82809972	      0.00000000
      0.50153996	      0.47882528	      0.82832082	      0.00000000
      0.50310239	      0.48043671	      0.82854440	      0.00000000
      0.50466482	      0.48204290	      0.82877018	      0.00000000
      0.50622725	      0.48364396	      0.82899785	      0.00000000
      0.50778968	      0.48524004	      0.82922713	      0.00000000
      0.50935211	      0.48683126	      0.82945775	      0.00000000
      0.51091454	      0.48841775	      0.82968945	      0.00000000
      0.51247697	      0.48999964	      0.82992198	      0.00000000
      0.51403940	      0.49157707	      0.83015509	      0.00000000
      0.51560183	      0.49315015	      0.83038856	      0.00000000
      0.51716426	      0.49471901	      0.83062215	      0.00000000
      0.51872669	      0.49628378	      0.83085565	      0.00000000
      0.52028912	      0.49784459	      0.83108884	      0.00000000
      0.52185155	      0.49940155	      0.83132154	      0.00000000
      0.52341398	      0.50095478	      0.83155354	      0.00000000
      0.52497641	      0.50250442	      0.83178466	      0.00000000
      0.52653884	      0.50405058	      0.83201472	      0.00000000
      0.52810127	      0.50559339	      0.83224355	      0.00000000
      0.52966370	      0.50713297	      0.83247099	      0.00000000
      0.53122613	      0.50866945	      0.83269688	      0.00000000
      0.53278856	      0.51020295	      0.83292107	      0.00000000
      0.53435099	      0.51173361	      0.83314342	      0.00000000
      0.53591342	      0.51326152	      0.83336379	      0.00000000
      0.53747585	      0.51478682	      0.83358207	      0.00000000
      0.53903828	      0.51630961	      0.83379811	      0.00000000
      0.54060071	      0.51783001	      0.83401181	      0.00000000
      0.54216314	      0.51934812	      0.83422304	      0.00000000
      0.54372557	      0.52086404	      0.83443170	      0.00000000
      0.54528800	      0.52237786	      0.83463767	      0.00000000
      0.54685043	      0.52388967	      0.83484084	      0.00000000
      0.54841286	      0.52539956	      0.83504109	      0.00000000
      0.54997529	      0.52690756	      0.83523820	      0.00000000
      0.55153772	      0.52841370	      0.83543189	      0.00000000
      0.55310015	      0.52991797	      0.83562179	      0.00000000
      0.55466257	      0.53142035	      0.83580756	      0.00000000
      0.55622500	      0.53292086	      0.83598891	      0.00000000
      0.55778743	      0.53441955	      0.83616564	      0.00000000
      0.55934986	      0.53591648	      0.83633771	      0.00000000
      0.56091229	      0.53741176	      0.83650512	      0.00000000
      0.56247472	      0.53890547	      0.83666797	      0.00000000
      0.56403715	      0.54039769	      0.83682636	      0.00000000
      0.56559958	      0.54188850	      0.83698043	      0.00000000
      0.56716201	      0.54337795	      0.83713029	      0.00000000
      0.56872444	      0.54486612	      0.83727606	      0.00000000
      0.57028687	      0.54635304	      0.83741787	      0.00000000
      0.57184930	      0.54783877	      0.83755583	      0.00000000
      0.57341173	      0.54932334	      0.83769003	      0.00000000
      0.57497416	      0.55080676	      0.83782055	      0.00000000
      0.57653659	      0.55228906	      0.83794749	      0.00000000
      0.57809902	      0.55377022	      0.83807090	      0.00000000
      0.57966145	      0.55525024	      0.83819084	      0.00000000
      0.58122388	      0.55672909	      0.83830737	      0.00000000
      0.58278631	      0.55820674	      0.83842053	      0.00000000
      0.58434874	      0.55968316	      0.83853036	      0.00000000
      0.58591117	      0.56115829	      0.83863689	      0.00000000
      0.58747360	      0.56263210	      0.83874015	      0.00000000
      0.58903603	      0.56410453	      0.83884018	      0.00000000
      0.59059846	      0.56557553	      0.83893700	      0.00000000
      0.59216089	      0.56704506	      0.83903065	      0.00000000
      0.59372332	      0.56851307	      0.83912118	      0.00000000
      0.59528575	      0.56997950	      0.83920863	      0.00000000
      0.59684818	      0.57144433	      0.83929305	      0.00000000
      0.59841061	      0.57290751	      0.83937450	      0.00000000
      0.59997304	      0.57436901	      0.83945305	      0.00000000
      0.60153547	      0.57582879	      0.83952877	      0.00000000
      0.60309790	      0.57728684	      0.83960171	      0.00000000
      0.60466033	      0.57874313	      0.83967197	      0.00000000
      0.60622276	      0.58019766	      0.83973961	      0.00000000
      0.60778519	      0.58165041	      0.83980472	      0.00000000
      0.60934762	      0.58310139	      0.83986739	      0.00000000
      0.61091005	      0.58455060	      0.83992769	      0.00000000
      0.61247248	      0.58599805	      0.83998571	      0.00000000
      0.61403491	      0.58744376	      0.84004155	      0.00000000
      0.61559734	      0.58888773	      0.84009530	      0.00000000
      0.61715977	      0.59032999	      0.84014706	      0.00000000
      0.61872220	      0.59177055	      0.84019690	      0.00000000
      0.62028463	      0.59320945	      0.84024493	      0.00000000
      0.62184706	      0.59464668	      0.84029124	      0.00000000
      0.62340949	      0.59608229	      0.84033592	      0.00000000
      0.62497192	      0.59751628	      0.84037906	      0.00000000
      0.62653435	      0.59894868	      0.84042075	      0.00000000
      0.62809677	      0.60037951	      0.84046107	      0.00000000
      0.62965920	      0.60180878	      0.84050011	      0.00000000
      0.63122163	      0.60323652	      0.84053796	      0.00000000
      0.63278406	      0.60466274	      0.84057470	      0.00000000
      0.63434649	      0.60608747	      0.84061039	      0.00000000
      0.63590892	      0.60751072	      0.84064512	      0.00000000
      0.63747135	      0.60893252	      0.84067897	      0.00000000
      0.63903378	      0.61035287	      0.84071200	      0.00000000
      0.64059621	      0.61177181	      0.84074428	      0.00000000
      0.64215864	      0.61318936	      0.84077589	      0.00000000
      0.64372107	      0.61460552	      0.84080687	      0.00000000
      0.64528350	      0.61602033	      0.84083730	      0.00000000
      0.64684593	      0.61743381	      0.84086724	      0.00000000
      0.64840836	      0.61884597	      0.84089674	      0.00000000
      0.64997079	      0.62025684	      0.84092585	      0.00000000
      0.65153322	      0.62166645	      0.84095462	      0.00000000
      0.65309565	      0.62307482	      0.84098311	      0.00000000
      0.65465808	      0.62448196	      0.84101136	      0.00000000
      0.65622051	      0.62588791	      0.84103941	      0.00000000
      0.65778294	      0.62729269	      0.84106730	      0.00000000
      0.65934537	      0.62869633	      0.84109507	      0.00000000
      0.66090780	      0.63009885	      0.84112275	      0.00000000
      0.66247023	      0.63150028	      0.84115038	      0.00000000
      0.66403266	      0.63290065	      0.84117797	      0.00000000
      0.66559509	      0.63429999	      0.84120556	      0.00000000
      0.66715752	      0.63569833	      0.84123318	      0.00000000
      0.66871995	      0.63709569	      0.84126083	      0.00000000
      0.67028238	      0.63849212	      0.84128854	      0.00000000
      0.67184481	      0.63988764	      0.84131632	      0.00000000
      0.67340724	      0.64128230	      0.84134419	      0.00000000
      0.67496967	      0.64267612	      0.84137215	      0.00000000
      0.67653210	      0.64406915	      0.84140022	      0.00000000
      0.67809453	      0.64546143	      0.84142840	      0.00000000
      0.67965696	      0.64685300	      0.84145669	      0.00000000
      0.68121939	      0.64824392	      0.84148510	      0.00000000
      0.68278182	      0.64963421	      0.84151363	      0.00000000
      0.68434425	      0.65102394	      0.84154228	      0.00000000
      0.68590668	      0.65241315	      0.84157104	      0.00000000
      0.68746911	      0.65380190	      0.84159992	      0.00000000
      0.68903154	      0.65519024	      0.84162890	      0.00000000
      0.69059397	      0.65657823	      0.84165799	      0.00000000
      0.69215640	      0.65796592	      0.84168716	      0.00000000
      0.69371883	      0.65935337	      0.84171641	      0.00000000
      0.69528126	      0.66074064	      0.84174574	      0.00000000
      0.69684369	      0.66212780	      0.84177512	      0.00000000
      0.69840612	      0.66351489	      0.84180455	      0.00000000
      0.69996855	      0.66490200	      0.84183402	      0.00000000
      0.70153098	      0.66628918	      0.84186351	      0.00000000
      0.70309340	      0.66767649	      0.84189302	      0.00000000
      0.70465583	      0.66906402	      0.84192253	      0.00000000
      0.70621826	      0.67045182	      0.84195205	      0.00000000
      0.70778069	      0.67183996	      0.84198156	      0.00000000
      0.70934312	      0.67322853	      0.84201106	      0.00000000
      0.71090555	      0.67461760	      0.84204055	      0.00000000
      0.71246798	      0.67600723	      0.84207003	      0.00000000
      0.71403041	      0.67739751	      0.84209949	      0.00000000
      0.71559284	      0.67878853	      0.84212892	      0.00000000
      0.71715527	      0.68018034	      0.84215833	      0.00000000
      0.71871770	      0.68157305	      0.84218770	      0.00000000
      0.72028013	      0.68296673	      0.84221703	      0.00000000
      0.72184256	      0.68436145	      0.84224629	      0.00000000
      0.72340499	      0.68575732	      0.84227547	      0.00000000
      0.72496742	      0.68715440	      0.84230455	      0.00000000
      0.72652985	      0.68855278	      0.84233352	      0.00000000
      0.72809228	      0.68995255	      0.84236233	      0.00000000
      0.72965471	      0.69135380	      0.84239097	      0.00000000
      0.73121714	      0.69275661	      0.84241942	      0.00000000
      0.73277957	      0.69416106	      0.84244762	      0.00000000
      0.73434200	      0.69556725	      0.84247557	      0.00000000
      0.73590443	      0.69697525	      0.84250321	      0.00000000
      0.73746686	      0.69838517	      0.84253052	      0.00000000
      0.73902929	      0.69979708	      0.84255746	      0.00000000
      0.74059172	      0.70121108	      0.84258398	      0.00000000
      0.74215415	      0.70262724	      0.84261006	      0.00000000
      0.74371658	      0.70404567	      0.84263564	      0.00000000
      0.74527901	      0.70546645	      0.84266069	      0.00000000
      0.74684144	      0.70688966	      0.84268516	      0.00000000
      0.74840387	      0.70831539	      0.84270902	      0.00000000
      0.74996630	      0.70974373	      0.84273220	      0.00000000
      0.75152873	      0.71117477	      0.84275468	      0.00000000
      0.75309116	      0.71260860	      0.84277639	      0.00000000
      0.75465359	      0.71404530	      0.84279730	      0.00000000
      0.75621602	      0.71548496	      0.84281735	      0.00000000
      0.75777845	      0.71692767	      0.84283650	      0.00000000
      0.75934088	      0.71837351	      0.84285470	      0.00000000
      0.76090331	      0.71982258	      0.84287189	      0.00000000
      0.76246574	      0.72127496	      0.84288802	      0.00000000
      0.76402817	      0.72273073	      0.84290305	      0.00000000
      0.76559060	      0.72418999	      0.84291693	      0.00000000
      0.76715303	      0.72565282	      0.84292959	      0.00000000
      0.76871546	      0.72711931	      0.84294099	      0.00000000
      0.77027789	      0.72858955	      0.84295108	      0.00000000
      0.77184032	      0.73006362	      0.84295980	      0.00000000
      0.77340275	      0.73154163	      0.84296710	      0.00000000
      0.77496518	      0.73302365	      0.84297293	      0.00000000
      0.77652760	      0.73450977	      0.84297723	      0.00000000
      0.77809003	      0.73600009	      0.84297995	      0.00000000
      0.77965246	      0.73749469	      0.84298103	      0.00000000
      0.78121489	      0.73899367	      0.84298043	      0.00000000
      0.78277732	      0.74049712	      0.84297809	      0.00000000
      0.78433975	      0.74200513	      0.84297395	      0.00000000
      0.78590218	      0.74351779	      0.84296795	      0.00000000
      0.78746461	      0.74503519	      0.84296006	      0.00000000
      0.78902704	      0.74655743	      0.84295020	      0.00000000
      0.79058947	      0.74808460	      0.84293833	      0.00000000
      0.79215190	      0.74961679	      0.84292439	      0.00000000
      0.79371433	      0.75115410	      0.84290833	      0.00000000
      0.79527676	      0.75269662	      0.84289009	      0.00000000
      0.79683919	      0.75424444	      0.84286961	      0.00000000
      0.79840162	      0.75579767	      0.84284685	      0.00000000
      0.79996405	      0.75735639	      0.84282174	      0.00000000
      0.80152648	      0.75892070	      0.84279424	      0.00000000
      0.80308891	      0.76049069	      0.84276429	      0.00000000
      0.80465134	      0.76206647	      0.84273182	      0.00000000
      0.80621377	      0.76364812	      0.84269680	      0.00000000
      0.80777620	      0.76523574	      0.84265916	      0.00000000
      0.80933863	      0.76682942	      0.84261884	      0.00000000
      0.81090106	      0.76842927	      0.84257581	      0.00000000
      0.81246349	      0.77003538	      0.84252999	      0.00000000
      0.81402592	      0.77164784	      0.84248133	      0.00000000
      0.81558835	      0.77326675	      0.84242979	      0.00000000
      0.81715078	      0.77489221	      0.84237530	      0.00000000
      0.81871321	      0.77652432	      0.84231782	      0.00000000
      0.82027564	      0.77816316	      0.84225729	      0.00000000
      0.82183807	      0.77980884	      0.84219365	      0.00000000
      0.82340050	      0.78146145	      0.84212687	      0.00000000
      0.82496293	      0.78312108	      0.84205688	      0.00000000
      0.82652536	      0.78478785	      0.84198364	      0.00000000
      0.82808779	      0.78646183	      0.84190709	      0.00000000
      0.82965022	      0.78814314	      0.84182718	      0.00000000
      0.83121265	      0.78983187	      0.84174388	      0.00000000
      0.83277508	      0.79152811	      0.84165712	      0.00000000
      0.83433751	      0.79323197	      0.84156688	      0.00000000
      0.83589994	      0.79494355	      0.84147309	      0.00000000
      0.83746237	      0.79666294	      0.84137572	      0.00000000
      0.83902480	      0.79839025	      0.84127473	      0.00000000
      0.84058723	      0.80012558	      0.84117007	      0.00000000
      0.84214966	      0.80186903	      0.84106171	      0.00000000
      0.84371209	      0.80362070	      0.84094961	      0.00000000
      0.84527452	      0.80538069	      0.84083374	      0.00000000
      0.84683695	      0.80714910	      0.84071406	      0.00000000
      0.84839938	      0.80892604	      0.84059054	      0.00000000
      0.84996180	      0.81071161	      0.84046315	      0.00000000
      0.85152423	      0.81250591	      0.84033186	      0.00000000
      0.85308666	      0.81430904	      0.84019666	      0.00000000
      0.85464909	      0.81612110	      0.84005751	      0.00000000
      0.85621152	      0.81794221	      0.83991439	      0.00000000
      0.85777395	      0.81977245	      0.83976729	      0.00000000
      0.85933638	      0.82161193	      0.83961619	      0.00000000
      0.86089881	      0.82346075	      0.83946106	      0.00000000
      0.86246124	      0.82531901	      0.83930191	      0.00000000
      0.86402367	      0.82718681	      0.83913871	      0.00000000
      0.86558610	      0.82906425	      0.83897146	      0.00000000
      0.86714853	      0.83095141	      0.83880015	      0.00000000
      0.86871096	      0.83284840	      0.83862476	      0.00000000
      0.87027339	      0.83475531	      0.83844530	      0.00000000
      0.87183582	      0.83667222	      0.83826174	      0.00000000
      0.87339825	      0.83859921	      0.83807410	      0.00000000
      0.87496068	      0.84053636	      0.83788235	      0.00000000
      0.87652311	      0.84248375	      0.83768651	      0.00000000
      0.87808554	      0.84444145	      0.83748655	      0.00000000
      0.87964797	      0.84640952	      0.83728249	      0.00000000
      0.88121040	      0.84838804	      0.83707432	      0.00000000
      0.88277283	      0.85037705	      0.83686204	      0.00000000
      0.88433526	      0.85237661	      0.83664566	      0.00000000
      0.88589769	      0.85438677	      0.83642518	      0.00000000
      0.88746012	      0.85640757	      0.83620060	      0.00000000
      0.88902255	      0.85843906	      0.83597193	      0.00000000
      0.89058498	      0.86048127	      0.83573917	      0.00000000
      0.89214741	      0.86253423	      0.83550233	      0.00000000
      0.89370984	      0.86459798	      0.83526142	      0.00000000
      0.89527227	      0.86667253	      0.83501643	      0.00000000
      0.89683470	      0.86875790	      0.83476738	      0.00000000
      0.89839713	      0.87085412	      0.83451426	      0.00000000
      0.89995956	      0.87296121	      0.83425707	      0.00000000
      0.90152199	      0.87507917	      0.83399581	      0.00000000
      0.90308442	      0.87720801	      0.83373048	      0.00000000
      0.90464685	      0.87934775	      0.83346106	      0.00000000
      0.90620928	      0.88149838	      0.83318753	      0.00000000
      0.90777171	      0.88365990	      0.83290989	      0.00000000
      0.90933414	      0.88583230	      0.83262810	      0.00000000
      0.91089657	      0.88801558	      0.83234213	      0.00000000
      0.91245900	      0.89020972	      0.83205195	      0.00000000
      0.91402143	      0.89241468	      0.83175751	      0.00000000
      0.91558386	      0.89463044	      0.83145876	      0.00000000
      0.91714629	      0.89685696	      0.83115565	      0.00000000
      0.91870872	      0.89909417	      0.83084813	      0.00000000
      0.92027115	      0.90134202	      0.83053612	      0.00000000
      0.92183358	      0.90360043	      0.83021958	      0.00000000
      0.92339600	      0.90586933	      0.82989844	      0.00000000
      0.92495843	      0.90814861	      0.82957263	      0.00000000
      0.92652086	      0.91043820	      0.82924209	      0.00000000
      0.92808329	      0.91273799	      0.82890678	      0.00000000
      0.92964572	      0.91504791	      0.82856662	      0.00000000
      0.93120815	      0.91736787	      0.82822157	      0.00000000
      0.93277058	      0.91969782	      0.82787157	      0.00000000
      0.93433301	      0.92203773	      0.82751656	      0.00000000
      0.93589544	      0.92438756	      0.82715650	      0.00000000
      0.93745787	      0.92674731	      0.82679135	      0.00000000
