PointPosition
version=1
nRows=601
nColumns=4
inDegrees=no
No description.
endheader
time	state_0	state_1	state_2
      0.00000000	     -0.34683646	     -0.01033191	     -0.09478690
      0.00156243	     -0.34694419	     -0.01024605	     -0.09478690
      0.00312486	     -0.34705305	     -0.01015675	     -0.09478690
      0.00468729	     -0.34716300	     -0.01006377	     -0.09478690
      0.00624972	     -0.34727409	     -0.00996696	     -0.09478690
      0.00781215	     -0.34738634	     -0.00986619	     -0.09478690
      0.00937458	     -0.34749971	     -0.00976125	     -0.09478690
      0.01093701	     -0.34761419	     -0.00965185	     -0.09478690
      0.01249944	     -0.34772976	     -0.00953764	     -0.09478690
      0.01406187	     -0.34784642	     -0.00941827	     -0.09478690
      0.01562430	     -0.34796420	     -0.00929338	     -0.09478690
      0.01718673	     -0.34808311	     -0.00916257	     -0.09478690
      0.01874916	     -0.34820315	     -0.00902541	     -0.09478690
      0.02031159	     -0.34832433	     -0.00888140	     -0.09478690
      0.02187402	     -0.34844666	     -0.00872998	     -0.09478690
      0.02343645	     -0.34857014	     -0.00857051	     -0.09478690
      0.02499888	     -0.34869477	     -0.00840225	     -0.09478690
      0.02656131	     -0.34882041	     -0.00822461	     -0.09478690
      0.02812374	     -0.34894672	     -0.00803748	     -0.09478690
      0.02968617	     -0.34907356	     -0.00784045	     -0.09478690
      0.03124860	     -0.34920104	     -0.00763258	     -0.09478690
      0.03281103	     -0.34932920	     -0.00741297	     -0.09478690
      0.03437346	     -0.34945795	     -0.00718093	     -0.09478690
      0.03593589	     -0.34958716	     -0.00693578	     -0.09478690
      0.03749831	     -0.34971670	     -0.00667701	     -0.09478690
      0.03906074	     -0.34984638	     -0.00640416	     -0.09478690
      0.04062317	     -0.34997604	     -0.00611696	     -0.09478690
      0.04218560	     -0.35010546	     -0.00581522	     -0.09478690
      0.04374803	     -0.35023435	     -0.00549892	     -0.09478690
      0.04531046	     -0.35036229	     -0.00516813	     -0.09478690
      0.04687289	     -0.35048836	     -0.00482296	     -0.09478690
      0.04843532	     -0.35061140	     -0.00446352	     -0.09478690
      0.04999775	     -0.35072982	     -0.00409022	     -0.09478690
      0.05156018	     -0.35084174	     -0.00370369	     -0.09478690
      0.05312261	     -0.35094517	     -0.00330475	     -0.09478690
      0.05468504	     -0.35103697	     -0.00289373	     -0.09478690
      0.05624747	     -0.35110063	     -0.00246378	     -0.09478690
      0.05780990	     -0.35111226	     -0.00200430	     -0.09478690
      0.05937233	     -0.35102557	     -0.00150362	     -0.09478690
      0.06093476	     -0.35077386	     -0.00094999	     -0.09478690
      0.06249719	     -0.35031860	     -0.00033787	     -0.09478690
      0.06405962	     -0.34966609	      0.00032684	     -0.09478690
      0.06562205	     -0.34885045	      0.00103025	     -0.09478690
      0.06718448	     -0.34789672	      0.00176239	     -0.09478690
      0.06874691	     -0.34682355	      0.00251600	     -0.09478690
      0.07030934	     -0.34564873	      0.00328468	     -0.09478690
      0.07187177	     -0.34438572	      0.00406369	     -0.09478690
      0.07343420	     -0.34304533	      0.00484937	     -0.09478690
      0.07499663	     -0.34163451	      0.00563933	     -0.09478690
      0.07655906	     -0.34015882	      0.00643170	     -0.09478690
      0.07812149	     -0.33862200	      0.00722522	     -0.09478690
      0.07968392	     -0.33702736	      0.00801886	     -0.09478690
      0.08124635	     -0.33537764	      0.00881180	     -0.09478690
      0.08280878	     -0.33367541	      0.00960334	     -0.09478690
      0.08437121	     -0.33192299	      0.01039288	     -0.09478690
      0.08593364	     -0.33012256	      0.01117994	     -0.09478690
      0.08749607	     -0.32827599	      0.01196412	     -0.09478690
      0.08905850	     -0.32638504	      0.01274510	     -0.09478690
      0.09062093	     -0.32445118	      0.01352262	     -0.09478690
      0.09218336	     -0.32247578	      0.01429650	     -0.09478690
      0.09374579	     -0.32046003	      0.01506657	     -0.09478690
      0.09530822	     -0.31840505	      0.01583270	     -0.09478690
      0.09687065	     -0.31631186	      0.01659478	     -0.09478690
      0.09843308	     -0.31418142	      0.01735269	     -0.09478690
      0.09999551	     -0.31201466	      0.01810633	     -0.09478690
      0.10155794	     -0.30981245	      0.01885560	     -0.09478690
      0.10312037	     -0.30757559	      0.01960037	     -0.09478690
      0.10468280	     -0.30530487	      0.02034053	     -0.09478690
      0.10624523	     -0.30300100	      0.02107594	     -0.09478690
      0.10780766	     -0.30066468	      0.02180646	     -0.09478690
      0.10937009	     -0.29829651	      0.02253192	     -0.09478690
      0.11093251	     -0.29589708	      0.02325216	     -0.09478690
      0.11249494	     -0.29346692	      0.02396700	     -0.09478690
      0.11405737	     -0.29100653	      0.02467622	     -0.09478690
      0.11561980	     -0.28851632	      0.02537962	     -0.09478690
      0.11718223	     -0.28599671	      0.02607696	     -0.09478690
      0.11874466	     -0.28344804	      0.02676799	     -0.09478690
      0.12030709	     -0.28087059	      0.02745248	     -0.09478690
      0.12186952	     -0.27826460	      0.02813013	     -0.09478690
      0.12343195	     -0.27563025	      0.02880069	     -0.09478690
      0.12499438	     -0.27296767	      0.02946387	     -0.09478690
      0.12655681	     -0.27027691	      0.03011938	     -0.09478690
      0.12811924	     -0.26755796	      0.03076693	     -0.09478690
      0.12968167	     -0.26481074	      0.03140624	     -0.09478690
      0.13124410	     -0.26203517	      0.03203698	     -0.09478690
      0.13280653	     -0.25923124	      0.03265885	     -0.09478690
      0.13436896	     -0.25639905	      0.03327148	     -0.09478690
      0.13593139	     -0.25353877	      0.03387452	     -0.09478690
      0.13749382	     -0.25065058	      0.03446758	     -0.09478690
      0.13905625	     -0.24773417	      0.03505037	     -0.09478690
      0.14061868	     -0.24478880	      0.03562267	     -0.09478690
      0.14218111	     -0.24181465	      0.03618410	     -0.09478690
      0.14374354	     -0.23881178	      0.03673434	     -0.09478690
      0.14530597	     -0.23577922	      0.03727319	     -0.09478690
      0.14686840	     -0.23271619	      0.03780043	     -0.09478690
      0.14843083	     -0.22962276	      0.03831573	     -0.09478690
      0.14999326	     -0.22649936	      0.03881869	     -0.09478690
      0.15155569	     -0.22334607	      0.03930899	     -0.09478690
      0.15311812	     -0.22016256	      0.03978634	     -0.09478690
      0.15468055	     -0.21694834	      0.04025050	     -0.09478690
      0.15624298	     -0.21370295	      0.04070122	     -0.09478690
      0.15780541	     -0.21042600	      0.04113827	     -0.09478690
      0.15936784	     -0.20711719	      0.04156137	     -0.09478690
      0.16093027	     -0.20377623	      0.04197029	     -0.09478690
      0.16249270	     -0.20040286	      0.04236477	     -0.09478690
      0.16405513	     -0.19699681	      0.04274459	     -0.09478690
      0.16561756	     -0.19355792	      0.04310949	     -0.09478690
      0.16717999	     -0.19008609	      0.04345925	     -0.09478690
      0.16874242	     -0.18658132	      0.04379361	     -0.09478690
      0.17030485	     -0.18304371	      0.04411233	     -0.09478690
      0.17186728	     -0.17947340	      0.04441516	     -0.09478690
      0.17342971	     -0.17587055	      0.04470187	     -0.09478690
      0.17499214	     -0.17223528	      0.04497223	     -0.09478690
      0.17655457	     -0.16856761	      0.04522604	     -0.09478690
      0.17811700	     -0.16486740	      0.04546315	     -0.09478690
      0.17967943	     -0.16113441	      0.04568340	     -0.09478690
      0.18124186	     -0.15736823	      0.04588670	     -0.09478690
      0.18280429	     -0.15356842	      0.04607296	     -0.09478690
      0.18436672	     -0.14973448	      0.04624211	     -0.09478690
      0.18592914	     -0.14586591	      0.04639410	     -0.09478690
      0.18749157	     -0.14196230	      0.04652889	     -0.09478690
      0.18905400	     -0.13802327	      0.04664642	     -0.09478690
      0.19061643	     -0.13404850	      0.04674668	     -0.09478690
      0.19217886	     -0.13003775	      0.04682964	     -0.09478690
      0.19374129	     -0.12599079	      0.04689527	     -0.09478690
      0.19530372	     -0.12190740	      0.04694357	     -0.09478690
      0.19686615	     -0.11778736	      0.04697457	     -0.09478690
      0.19842858	     -0.11363043	      0.04698828	     -0.09478690
      0.19999101	     -0.10943635	      0.04698477	     -0.09478690
      0.20155344	     -0.10520487	      0.04696411	     -0.09478690
      0.20311587	     -0.10093568	      0.04692638	     -0.09478690
      0.20467830	     -0.09662849	      0.04687170	     -0.09478690
      0.20624073	     -0.09228303	      0.04680019	     -0.09478690
      0.20780316	     -0.08789899	      0.04671201	     -0.09478690
      0.20936559	     -0.08347609	      0.04660731	     -0.09478690
      0.21092802	     -0.07901405	      0.04648629	     -0.09478690
      0.21249045	     -0.07451260	      0.04634915	     -0.09478690
      0.21405288	     -0.06997145	      0.04619610	     -0.09478690
      0.21561531	     -0.06539034	      0.04602740	     -0.09478690
      0.21717774	     -0.06076900	      0.04584330	     -0.09478690
      0.21874017	     -0.05610717	      0.04564409	     -0.09478690
      0.22030260	     -0.05140457	      0.04543006	     -0.09478690
      0.22186503	     -0.04666096	      0.04520153	     -0.09478690
      0.22342746	     -0.04187607	      0.04495886	     -0.09478690
      0.22498989	     -0.03704967	      0.04470239	     -0.09478690
      0.22655232	     -0.03218150	      0.04443252	     -0.09478690
      0.22811475	     -0.02727133	      0.04414963	     -0.09478690
      0.22967718	     -0.02231893	      0.04385415	     -0.09478690
      0.23123961	     -0.01732409	      0.04354651	     -0.09478690
      0.23280204	     -0.01228659	      0.04322717	     -0.09478690
      0.23436447	     -0.00720624	      0.04289660	     -0.09478690
      0.23592690	     -0.00208284	      0.04255529	     -0.09478690
      0.23748933	      0.00308378	      0.04220375	     -0.09478690
      0.23905176	      0.00829377	      0.04184250	     -0.09478690
      0.24061419	      0.01354728	      0.04147208	     -0.09478690
      0.24217662	      0.01884443	      0.04109305	     -0.09478690
      0.24373905	      0.02418532	      0.04070598	     -0.09478690
      0.24530148	      0.02957004	      0.04031146	     -0.09478690
      0.24686391	      0.03499863	      0.03991008	     -0.09478690
      0.24842634	      0.04047114	      0.03950247	     -0.09478690
      0.24998877	      0.04598757	      0.03908927	     -0.09478690
      0.25155120	      0.05154789	      0.03867111	     -0.09478690
      0.25311363	      0.05715203	      0.03824868	     -0.09478690
      0.25467606	      0.06279991	      0.03782265	     -0.09478690
      0.25623849	      0.06849137	      0.03739372	     -0.09478690
      0.25780092	      0.07422624	      0.03696260	     -0.09478690
      0.25936334	      0.08000427	      0.03653001	     -0.09478690
      0.26092577	      0.08582517	      0.03609667	     -0.09478690
      0.26248820	      0.09168857	      0.03566332	     -0.09478690
      0.26405063	      0.09759407	      0.03523070	     -0.09478690
      0.26561306	      0.10354115	      0.03479955	     -0.09478690
      0.26717549	      0.10952928	      0.03437060	     -0.09478690
      0.26873792	      0.11555781	      0.03394457	     -0.09478690
      0.27030035	      0.12162605	      0.03352219	     -0.09478690
      0.27186278	      0.12773322	      0.03310416	     -0.09478690
      0.27342521	      0.13387850	      0.03269117	     -0.09478690
      0.27498764	      0.14006098	      0.03228392	     -0.09478690
      0.27655007	      0.14627972	      0.03188305	     -0.09478690
      0.27811250	      0.15253370	      0.03148923	     -0.09478690
      0.27967493	      0.15882186	      0.03110306	     -0.09478690
      0.28123736	      0.16514308	      0.03072517	     -0.09478690
      0.28279979	      0.17149622	      0.03035612	     -0.09478690
      0.28436222	      0.17788005	      0.02999648	     -0.09478690
      0.28592465	      0.18429335	      0.02964677	     -0.09478690
      0.28748708	      0.19073479	      0.02930747	     -0.09478690
      0.28904951	      0.19720305	      0.02897904	     -0.09478690
      0.29061194	      0.20369674	      0.02866188	     -0.09478690
      0.29217437	      0.21021443	      0.02835634	     -0.09478690
      0.29373680	      0.21675463	      0.02806271	     -0.09478690
      0.29529923	      0.22331583	      0.02778121	     -0.09478690
      0.29686166	      0.22989646	      0.02751201	     -0.09478690
      0.29842409	      0.23649491	      0.02725518	     -0.09478690
      0.29998652	      0.24310955	      0.02701071	     -0.09478690
      0.30154895	      0.24973873	      0.02677854	     -0.09478690
      0.30311138	      0.25638074	      0.02655847	     -0.09478690
      0.30467381	      0.26303390	      0.02635026	     -0.09478690
      0.30623624	      0.26969652	      0.02615359	     -0.09478690
      0.30779867	      0.27636694	      0.02596805	     -0.09478690
      0.30936110	      0.28304350	      0.02579319	     -0.09478690
      0.31092353	      0.28972463	      0.02562853	     -0.09478690
      0.31248596	      0.29640875	      0.02547350	     -0.09478690
      0.31404839	      0.30309432	      0.02532747	     -0.09478690
      0.31561082	      0.30977979	      0.02518973	     -0.09478690
      0.31717325	      0.31646370	      0.02505950	     -0.09478690
      0.31873568	      0.32314466	      0.02493605	     -0.09478690
      0.32029811	      0.32982146	      0.02481869	     -0.09478690
      0.32186054	      0.33649295	      0.02470676	     -0.09478690
      0.32342297	      0.34315800	      0.02459956	     -0.09478690
      0.32498540	      0.34981560	      0.02449642	     -0.09478690
      0.32654783	      0.35646479	      0.02439676	     -0.09478690
      0.32811026	      0.36310479	      0.02430006	     -0.09478690
      0.32967269	      0.36973484	      0.02420587	     -0.09478690
      0.33123512	      0.37635422	      0.02411371	     -0.09478690
      0.33279754	      0.38296223	      0.02402310	     -0.09478690
      0.33435997	      0.38955817	      0.02393351	     -0.09478690
      0.33592240	      0.39614137	      0.02384446	     -0.09478690
      0.33748483	      0.40271117	      0.02375540	     -0.09478690
      0.33904726	      0.40926691	      0.02366579	     -0.09478690
      0.34060969	      0.41580785	      0.02357489	     -0.09478690
      0.34217212	      0.42233326	      0.02348191	     -0.09478690
      0.34373455	      0.42884230	      0.02338580	     -0.09478690
      0.34529698	      0.43533398	      0.02328519	     -0.09478690
      0.34685941	      0.44180697	      0.02317797	     -0.09478690
      0.34842184	      0.44826005	      0.02306216	     -0.09478690
      0.34998427	      0.45469203	      0.02293578	     -0.09478690
      0.35154670	      0.46110170	      0.02279667	     -0.09478690
      0.35310913	      0.46748781	      0.02264264	     -0.09478690
      0.35467156	      0.47384911	      0.02247147	     -0.09478690
      0.35623399	      0.48018440	      0.02228112	     -0.09478690
      0.35779642	      0.48649247	      0.02206971	     -0.09478690
      0.35935885	      0.49277227	      0.02183606	     -0.09478690
      0.36092128	      0.49902286	      0.02157957	     -0.09478690
      0.36248371	      0.50524356	      0.02130107	     -0.09478690
      0.36404614	      0.51143378	      0.02100225	     -0.09478690
      0.36560857	      0.51759303	      0.02068642	     -0.09478690
      0.36717100	      0.52372077	      0.02035767	     -0.09478690
      0.36873343	      0.52981600	      0.02002109	     -0.09478690
      0.37029586	      0.53587727	      0.01968197	     -0.09478690
      0.37185829	      0.54190171	      0.01934523	     -0.09478690
      0.37342072	      0.54788538	      0.01901507	     -0.09478690
      0.37498315	      0.55382159	      0.01869392	     -0.09478690
      0.37654558	      0.55970189	      0.01838270	     -0.09478690
      0.37810801	      0.56551438	      0.01808017	     -0.09478690
      0.37967044	      0.57124541	      0.01778381	     -0.09478690
      0.38123287	      0.57687967	      0.01749133	     -0.09478690
      0.38279530	      0.58240202	      0.01720122	     -0.09478690
      0.38435773	      0.58779950	      0.01691621	     -0.09478690
      0.38592016	      0.59306109	      0.01664151	     -0.09478690
      0.38748259	      0.59817798	      0.01638597	     -0.09478690
      0.38904502	      0.60314136	      0.01615865	     -0.09478690
      0.39060745	      0.60794014	      0.01596659	     -0.09478690
      0.39216988	      0.61256112	      0.01581417	     -0.09478690
      0.39373231	      0.61698766	      0.01570016	     -0.09478690
      0.39529474	      0.62120193	      0.01561995	     -0.09478690
      0.39685717	      0.62518506	      0.01556230	     -0.09478690
      0.39841960	      0.62891840	      0.01551252	     -0.09478690
      0.39998203	      0.63238445	      0.01545114	     -0.09478690
      0.40154446	      0.63556687	      0.01535744	     -0.09478690
      0.40310689	      0.63845200	      0.01521038	     -0.09478690
      0.40466932	      0.64102787	      0.01499027	     -0.09478690
      0.40623174	      0.64328627	      0.01468120	     -0.09478690
      0.40779417	      0.64522105	      0.01427041	     -0.09478690
      0.40935660	      0.64683021	      0.01375248	     -0.09478690
      0.41091903	      0.64811364	      0.01312731	     -0.09478690
      0.41248146	      0.64907531	      0.01240885	     -0.09478690
      0.41404389	      0.64971033	      0.01161228	     -0.09478690
      0.41560632	      0.65006716	      0.01081071	     -0.09478690
      0.41716875	      0.65026470	      0.01012799	     -0.09478690
      0.41873118	      0.65039981	      0.00961195	     -0.09478690
      0.42029361	      0.65050434	      0.00923298	     -0.09478690
      0.42185604	      0.65058282	      0.00894558	     -0.09478690
      0.42341847	      0.65064374	      0.00871834	     -0.09478690
      0.42498090	      0.65069132	      0.00853018	     -0.09478690
      0.42654333	      0.65072942	      0.00836611	     -0.09478690
      0.42810576	      0.65076014	      0.00821865	     -0.09478690
      0.42966819	      0.65078518	      0.00808279	     -0.09478690
      0.43123062	      0.65080557	      0.00795647	     -0.09478690
      0.43279305	      0.65082225	      0.00783813	     -0.09478690
      0.43435548	      0.65083594	      0.00772679	     -0.09478690
      0.43591791	      0.65084734	      0.00762147	     -0.09478690
      0.43748034	      0.65085704	      0.00752128	     -0.09478690
      0.43904277	      0.65086563	      0.00742535	     -0.09478690
      0.44060520	      0.65087357	      0.00733303	     -0.09478690
      0.44216763	      0.65088129	      0.00724382	     -0.09478690
      0.44373006	      0.65088911	      0.00715742	     -0.09478690
      0.44529249	      0.65089730	      0.00707364	     -0.09478690
      0.44685492	      0.65090602	      0.00699244	     -0.09478690
      0.44841735	      0.65091540	      0.00691384	     -0.09478690
      0.44997978	      0.65092549	      0.00683797	     -0.09478690
      0.45154221	      0.65093630	      0.00676506	     -0.09478690
      0.45310464	      0.65094777	      0.00669538	     -0.09478690
      0.45466707	      0.65095985	      0.00662922	     -0.09478690
      0.45622950	      0.65097245	      0.00656695	     -0.09478690
      0.45779193	      0.65098549	      0.00650894	     -0.09478690
      0.45935436	      0.65099890	      0.00645560	     -0.09478690
      0.46091679	      0.65101260	      0.00640732	     -0.09478690
      0.46247922	      0.65102652	      0.00636443	     -0.09478690
      0.46404165	      0.65104058	      0.00632723	     -0.09478690
      0.46560408	      0.65105471	      0.00629594	     -0.09478690
      0.46716651	      0.65106884	      0.00627079	     -0.09478690
      0.46872894	      0.65108288	      0.00625192	     -0.09478690
      0.47029137	      0.65109676	      0.00623941	     -0.09478690
      0.47185380	      0.65111042	      0.00623324	     -0.09478690
      0.47341623	      0.65112375	      0.00623332	     -0.09478690
      0.47497866	      0.65113667	      0.00623947	     -0.09478690
      0.47654109	      0.65114912	      0.00625145	     -0.09478690
      0.47810352	      0.65116107	      0.00626893	     -0.09478690
      0.47966595	      0.65117251	      0.00629155	     -0.09478690
      0.48122837	      0.65118346	      0.00631895	     -0.09478690
      0.48279080	      0.65119396	      0.00635077	     -0.09478690
      0.48435323	      0.65120402	      0.00638669	     -0.09478690
      0.48591566	      0.65121369	      0.00642640	     -0.09478690
      0.48747809	      0.65122298	      0.00646966	     -0.09478690
      0.48904052	      0.65123188	      0.00651620	     -0.09478690
      0.49060295	      0.65124042	      0.00656581	     -0.09478690
      0.49216538	      0.65124858	      0.00661822	     -0.09478690
      0.49372781	      0.65125638	      0.00667318	     -0.09478690
      0.49529024	      0.65126381	      0.00673042	     -0.09478690
      0.49685267	      0.65127088	      0.00678969	     -0.09478690
      0.49841510	      0.65127760	      0.00685071	     -0.09478690
      0.49997753	      0.65128396	      0.00691321	     -0.09478690
      0.50153996	      0.65128997	      0.00697692	     -0.09478690
      0.50310239	      0.65129563	      0.00704157	     -0.09478690
      0.50466482	      0.65130094	      0.00710690	     -0.09478690
      0.50622725	      0.65130590	      0.00717268	     -0.09478690
      0.50778968	      0.65131052	      0.00723866	     -0.09478690
      0.50935211	      0.65131479	      0.00730465	     -0.09478690
      0.51091454	      0.65131869	      0.00737045	     -0.09478690
      0.51247697	      0.65132222	      0.00743591	     -0.09478690
      0.51403940	      0.65132538	      0.00750085	     -0.09478690
      0.51560183	      0.65132813	      0.00756514	     -0.09478690
      0.51716426	      0.65133048	      0.00762862	     -0.09478690
      0.51872669	      0.65133242	      0.00769115	     -0.09478690
      0.52028912	      0.65133392	      0.00775258	     -0.09478690
      0.52185155	      0.65133500	      0.00781275	     -0.09478690
      0.52341398	      0.65133563	      0.00787146	     -0.09478690
      0.52497641	      0.65133583	      0.00792853	     -0.09478690
      0.52653884	      0.65133559	      0.00798372	     -0.09478690
      0.52810127	      0.65133491	      0.00803677	     -0.09478690
      0.52966370	      0.65133382	      0.00808738	     -0.09478690
      0.53122613	      0.65133234	      0.00813521	     -0.09478690
      0.53278856	      0.65133049	      0.00817989	     -0.09478690
      0.53435099	      0.65132832	      0.00822103	     -0.09478690
      0.53591342	      0.65132586	      0.00825822	     -0.09478690
      0.53747585	      0.65132317	      0.00829105	     -0.09478690
      0.53903828	      0.65132031	      0.00831910	     -0.09478690
      0.54060071	      0.65131732	      0.00834200	     -0.09478690
      0.54216314	      0.65131429	      0.00835938	     -0.09478690
      0.54372557	      0.65131125	      0.00837096	     -0.09478690
      0.54528800	      0.65130826	      0.00837648	     -0.09478690
      0.54685043	      0.65130536	      0.00837578	     -0.09478690
      0.54841286	      0.65130257	      0.00836868	     -0.09478690
      0.54997529	      0.65129992	      0.00835500	     -0.09478690
      0.55153772	      0.65129739	      0.00833450	     -0.09478690
      0.55310015	      0.65129499	      0.00830697	     -0.09478690
      0.55466257	      0.65129271	      0.00827216	     -0.09478690
      0.55622500	      0.65129054	      0.00822989	     -0.09478690
      0.55778743	      0.65128849	      0.00817997	     -0.09478690
      0.55934986	      0.65128657	      0.00812228	     -0.09478690
      0.56091229	      0.65128481	      0.00805675	     -0.09478690
      0.56247472	      0.65128322	      0.00798336	     -0.09478690
      0.56403715	      0.65128183	      0.00790217	     -0.09478690
      0.56559958	      0.65128064	      0.00781329	     -0.09478690
      0.56716201	      0.65127965	      0.00771684	     -0.09478690
      0.56872444	      0.65127886	      0.00761295	     -0.09478690
      0.57028687	      0.65127824	      0.00750175	     -0.09478690
      0.57184930	      0.65127778	      0.00738333	     -0.09478690
      0.57341173	      0.65127746	      0.00725777	     -0.09478690
      0.57497416	      0.65127725	      0.00712517	     -0.09478690
      0.57653659	      0.65127712	      0.00698562	     -0.09478690
      0.57809902	      0.65127705	      0.00683921	     -0.09478690
      0.57966145	      0.65127702	      0.00668606	     -0.09478690
      0.58122388	      0.65127700	      0.00652627	     -0.09478690
      0.58278631	      0.65127700	      0.00635996	     -0.09478690
      0.58434874	      0.65127701	      0.00618725	     -0.09478690
      0.58591117	      0.65127704	      0.00600828	     -0.09478690
      0.58747360	      0.65127713	      0.00582323	     -0.09478690
      0.58903603	      0.65127728	      0.00563228	     -0.09478690
      0.59059846	      0.65127754	      0.00543565	     -0.09478690
      0.59216089	      0.65127793	      0.00523356	     -0.09478690
      0.59372332	      0.65127847	      0.00502627	     -0.09478690
      0.59528575	      0.65127920	      0.00481405	     -0.09478690
      0.59684818	      0.65128014	      0.00459720	     -0.09478690
      0.59841061	      0.65128131	      0.00437603	     -0.09478690
      0.59997304	      0.65128274	      0.00415084	     -0.09478690
      0.60153547	      0.65128443	      0.00392198	     -0.09478690
      0.60309790	      0.65128640	      0.00368976	     -0.09478690
      0.60466033	      0.65128867	      0.00345451	     -0.09478690
      0.60622276	      0.65129122	      0.00321656	     -0.09478690
      0.60778519	      0.65129408	      0.00297622	     -0.09478690
      0.60934762	      0.65129722	      0.00273379	     -0.09478690
      0.61091005	      0.65130067	      0.00248956	     -0.09478690
      0.61247248	      0.65130441	      0.00224381	     -0.09478690
      0.61403491	      0.65130843	      0.00199680	     -0.09478690
      0.61559734	      0.65131273	      0.00174878	     -0.09478690
      0.61715977	      0.65131731	      0.00150001	     -0.09478690
      0.61872220	      0.65132214	      0.00125069	     -0.09478690
      0.62028463	      0.65132724	      0.00100105	     -0.09478690
      0.62184706	      0.65133257	      0.00075129	     -0.09478690
      0.62340949	      0.65133814	      0.00050161	     -0.09478690
      0.62497192	      0.65134393	      0.00025219	     -0.09478690
      0.62653435	      0.65134994	      0.00000321	     -0.09478690
      0.62809677	      0.65135614	     -0.00024517	     -0.09478690
      0.62965920	      0.65136254	     -0.00049280	     -0.09478690
      0.63122163	      0.65136911	     -0.00073952	     -0.09478690
      0.63278406	      0.65137585	     -0.00098520	     -0.09478690
      0.63434649	      0.65138274	     -0.00122970	     -0.09478690
      0.63590892	      0.65138978	     -0.00147290	     -0.09478690
      0.63747135	      0.65139695	     -0.00171467	     -0.09478690
      0.63903378	      0.65140425	     -0.00195490	     -0.09478690
      0.64059621	      0.65141165	     -0.00219350	     -0.09478690
      0.64215864	      0.65141917	     -0.00243034	     -0.09478690
      0.64372107	      0.65142677	     -0.00266534	     -0.09478690
      0.64528350	      0.65143445	     -0.00289841	     -0.09478690
      0.64684593	      0.65144221	     -0.00312944	     -0.09478690
      0.64840836	      0.65145003	     -0.00335837	     -0.09478690
      0.64997079	      0.65145790	     -0.00358509	     -0.09478690
      0.65153322	      0.65146581	     -0.00380955	     -0.09478690
      0.65309565	      0.65147376	     -0.00403165	     -0.09478690
      0.65465808	      0.65148173	     -0.00425132	     -0.09478690
      0.65622051	      0.65148971	     -0.00446851	     -0.09478690
      0.65778294	      0.65149770	     -0.00468313	     -0.09478690
      0.65934537	      0.65150568	     -0.00489514	     -0.09478690
      0.66090780	      0.65151364	     -0.00510447	     -0.09478690
      0.66247023	      0.65152158	     -0.00531106	     -0.09478690
      0.66403266	      0.65152949	     -0.00551488	     -0.09478690
      0.66559509	      0.65153736	     -0.00571586	     -0.09478690
      0.66715752	      0.65154517	     -0.00591396	     -0.09478690
      0.66871995	      0.65155293	     -0.00610914	     -0.09478690
      0.67028238	      0.65156061	     -0.00630137	     -0.09478690
      0.67184481	      0.65156822	     -0.00649060	     -0.09478690
      0.67340724	      0.65157574	     -0.00667680	     -0.09478690
      0.67496967	      0.65158316	     -0.00685995	     -0.09478690
      0.67653210	      0.65159048	     -0.00704001	     -0.09478690
      0.67809453	      0.65159767	     -0.00721696	     -0.09478690
      0.67965696	      0.65160473	     -0.00739078	     -0.09478690
      0.68121939	      0.65161166	     -0.00756143	     -0.09478690
      0.68278182	      0.65161842	     -0.00772891	     -0.09478690
      0.68434425	      0.65162502	     -0.00789319	     -0.09478690
      0.68590668	      0.65163143	     -0.00805425	     -0.09478690
      0.68746911	      0.65163765	     -0.00821208	     -0.09478690
      0.68903154	      0.65164366	     -0.00836665	     -0.09478690
      0.69059397	      0.65164943	     -0.00851795	     -0.09478690
      0.69215640	      0.65165497	     -0.00866598	     -0.09478690
      0.69371883	      0.65166024	     -0.00881072	     -0.09478690
      0.69528126	      0.65166523	     -0.00895217	     -0.09478690
      0.69684369	      0.65166991	     -0.00909033	     -0.09478690
      0.69840612	      0.65167428	     -0.00922520	     -0.09478690
      0.69996855	      0.65167829	     -0.00935680	     -0.09478690
      0.70153098	      0.65168194	     -0.00948512	     -0.09478690
      0.70309340	      0.65168518	     -0.00961018	     -0.09478690
      0.70465583	      0.65168800	     -0.00973198	     -0.09478690
      0.70621826	      0.65169036	     -0.00985055	     -0.09478690
      0.70778069	      0.65169223	     -0.00996589	     -0.09478690
      0.70934312	      0.65169359	     -0.01007802	     -0.09478690
      0.71090555	      0.65169441	     -0.01018695	     -0.09478690
      0.71246798	      0.65169467	     -0.01029271	     -0.09478690
      0.71403041	      0.65169436	     -0.01039532	     -0.09478690
      0.71559284	      0.65169346	     -0.01049481	     -0.09478690
      0.71715527	      0.65169198	     -0.01059120	     -0.09478690
      0.71871770	      0.65168990	     -0.01068452	     -0.09478690
      0.72028013	      0.65168722	     -0.01077482	     -0.09478690
      0.72184256	      0.65168396	     -0.01086213	     -0.09478690
      0.72340499	      0.65168011	     -0.01094649	     -0.09478690
      0.72496742	      0.65167567	     -0.01102794	     -0.09478690
      0.72652985	      0.65167066	     -0.01110653	     -0.09478690
      0.72809228	      0.65166507	     -0.01118230	     -0.09478690
      0.72965471	      0.65165890	     -0.01125528	     -0.09478690
      0.73121714	      0.65165216	     -0.01132554	     -0.09478690
      0.73277957	      0.65164485	     -0.01139312	     -0.09478690
      0.73434200	      0.65163697	     -0.01145805	     -0.09478690
      0.73590443	      0.65162852	     -0.01152040	     -0.09478690
      0.73746686	      0.65161950	     -0.01158020	     -0.09478690
      0.73902929	      0.65160991	     -0.01163751	     -0.09478690
      0.74059172	      0.65159974	     -0.01169237	     -0.09478690
      0.74215415	      0.65158901	     -0.01174482	     -0.09478690
      0.74371658	      0.65157771	     -0.01179492	     -0.09478690
      0.74527901	      0.65156583	     -0.01184272	     -0.09478690
      0.74684144	      0.65155339	     -0.01188826	     -0.09478690
      0.74840387	      0.65154037	     -0.01193159	     -0.09478690
      0.74996630	      0.65152678	     -0.01197276	     -0.09478690
      0.75152873	      0.65151263	     -0.01201181	     -0.09478690
      0.75309116	      0.65149790	     -0.01204881	     -0.09478690
      0.75465359	      0.65148260	     -0.01208379	     -0.09478690
      0.75621602	      0.65146674	     -0.01211681	     -0.09478690
      0.75777845	      0.65145031	     -0.01214792	     -0.09478690
      0.75934088	      0.65143331	     -0.01217716	     -0.09478690
      0.76090331	      0.65141575	     -0.01220458	     -0.09478690
      0.76246574	      0.65139763	     -0.01223024	     -0.09478690
      0.76402817	      0.65137895	     -0.01225419	     -0.09478690
      0.76559060	      0.65135972	     -0.01227646	     -0.09478690
      0.76715303	      0.65133993	     -0.01229712	     -0.09478690
      0.76871546	      0.65131958	     -0.01231620	     -0.09478690
      0.77027789	      0.65129869	     -0.01233377	     -0.09478690
      0.77184032	      0.65127725	     -0.01234986	     -0.09478690
      0.77340275	      0.65125527	     -0.01236453	     -0.09478690
      0.77496518	      0.65123275	     -0.01237782	     -0.09478690
      0.77652760	      0.65120968	     -0.01238978	     -0.09478690
      0.77809003	      0.65118608	     -0.01240045	     -0.09478690
      0.77965246	      0.65116195	     -0.01240989	     -0.09478690
      0.78121489	      0.65113728	     -0.01241813	     -0.09478690
      0.78277732	      0.65111208	     -0.01242522	     -0.09478690
      0.78433975	      0.65108636	     -0.01243121	     -0.09478690
      0.78590218	      0.65106010	     -0.01243614	     -0.09478690
      0.78746461	      0.65103332	     -0.01244005	     -0.09478690
      0.78902704	      0.65100601	     -0.01244298	     -0.09478690
      0.79058947	      0.65097818	     -0.01244498	     -0.09478690
      0.79215190	      0.65094983	     -0.01244608	     -0.09478690
      0.79371433	      0.65092095	     -0.01244633	     -0.09478690
      0.79527676	      0.65089154	     -0.01244576	     -0.09478690
      0.79683919	      0.65086162	     -0.01244441	     -0.09478690
      0.79840162	      0.65083117	     -0.01244233	     -0.09478690
      0.79996405	      0.65080019	     -0.01243954	     -0.09478690
      0.80152648	      0.65076868	     -0.01243608	     -0.09478690
      0.80308891	      0.65073665	     -0.01243199	     -0.09478690
      0.80465134	      0.65070409	     -0.01242730	     -0.09478690
      0.80621377	      0.65067100	     -0.01242204	     -0.09478690
      0.80777620	      0.65063737	     -0.01241624	     -0.09478690
      0.80933863	      0.65060321	     -0.01240994	     -0.09478690
      0.81090106	      0.65056851	     -0.01240316	     -0.09478690
      0.81246349	      0.65053327	     -0.01239593	     -0.09478690
      0.81402592	      0.65049750	     -0.01238829	     -0.09478690
      0.81558835	      0.65046118	     -0.01238025	     -0.09478690
      0.81715078	      0.65042431	     -0.01237184	     -0.09478690
      0.81871321	      0.65038690	     -0.01236309	     -0.09478690
      0.82027564	      0.65034893	     -0.01235402	     -0.09478690
      0.82183807	      0.65031042	     -0.01234465	     -0.09478690
      0.82340050	      0.65027135	     -0.01233501	     -0.09478690
      0.82496293	      0.65023172	     -0.01232512	     -0.09478690
      0.82652536	      0.65019153	     -0.01231499	     -0.09478690
      0.82808779	      0.65015078	     -0.01230466	     -0.09478690
      0.82965022	      0.65010947	     -0.01229414	     -0.09478690
      0.83121265	      0.65006759	     -0.01228344	     -0.09478690
      0.83277508	      0.65002515	     -0.01227258	     -0.09478690
      0.83433751	      0.64998213	     -0.01226159	     -0.09478690
      0.83589994	      0.64993854	     -0.01225046	     -0.09478690
      0.83746237	      0.64989438	     -0.01223923	     -0.09478690
      0.83902480	      0.64984963	     -0.01222789	     -0.09478690
      0.84058723	      0.64980430	     -0.01221646	     -0.09478690
      0.84214966	      0.64975838	     -0.01220496	     -0.09478690
      0.84371209	      0.64971186	     -0.01219338	     -0.09478690
      0.84527452	      0.64966474	     -0.01218174	     -0.09478690
      0.84683695	      0.64961702	     -0.01217005	     -0.09478690
      0.84839938	      0.64956867	     -0.01215830	     -0.09478690
      0.84996180	      0.64951970	     -0.01214649	     -0.09478690
      0.85152423	      0.64947009	     -0.01213464	     -0.09478690
      0.85308666	      0.64941984	     -0.01212273	     -0.09478690
      0.85464909	      0.64936893	     -0.01211075	     -0.09478690
      0.85621152	      0.64931735	     -0.01209871	     -0.09478690
      0.85777395	      0.64926508	     -0.01208659	     -0.09478690
      0.85933638	      0.64921211	     -0.01207438	     -0.09478690
      0.86089881	      0.64915842	     -0.01206205	     -0.09478690
      0.86246124	      0.64910400	     -0.01204960	     -0.09478690
      0.86402367	      0.64904884	     -0.01203700	     -0.09478690
      0.86558610	      0.64899290	     -0.01202422	     -0.09478690
      0.86714853	      0.64893617	     -0.01201124	     -0.09478690
      0.86871096	      0.64887863	     -0.01199801	     -0.09478690
      0.87027339	      0.64882026	     -0.01198451	     -0.09478690
      0.87183582	      0.64876104	     -0.01197070	     -0.09478690
      0.87339825	      0.64870093	     -0.01195653	     -0.09478690
      0.87496068	      0.64863993	     -0.01194196	     -0.09478690
      0.87652311	      0.64857799	     -0.01192694	     -0.09478690
      0.87808554	      0.64851510	     -0.01191142	     -0.09478690
      0.87964797	      0.64845123	     -0.01189535	     -0.09478690
      0.88121040	      0.64838636	     -0.01187868	     -0.09478690
      0.88277283	      0.64832046	     -0.01186135	     -0.09478690
      0.88433526	      0.64825350	     -0.01184330	     -0.09478690
      0.88589769	      0.64818547	     -0.01182449	     -0.09478690
      0.88746012	      0.64811635	     -0.01180485	     -0.09478690
      0.88902255	      0.64804610	     -0.01178432	     -0.09478690
      0.89058498	      0.64797473	     -0.01176285	     -0.09478690
      0.89214741	      0.64790220	     -0.01174037	     -0.09478690
      0.89370984	      0.64782851	     -0.01171682	     -0.09478690
      0.89527227	      0.64775364	     -0.01169213	     -0.09478690
      0.89683470	      0.64767759	     -0.01166623	     -0.09478690
      0.89839713	      0.64760036	     -0.01163906	     -0.09478690
      0.89995956	      0.64752192	     -0.01161053	     -0.09478690
      0.90152199	      0.64744229	     -0.01158058	     -0.09478690
      0.90308442	      0.64736146	     -0.01154912	     -0.09478690
      0.90464685	      0.64727943	     -0.01151607	     -0.09478690
      0.90620928	      0.64719620	     -0.01148136	     -0.09478690
      0.90777171	      0.64711177	     -0.01144491	     -0.09478690
      0.90933414	      0.64702615	     -0.01140664	     -0.09478690
      0.91089657	      0.64693933	     -0.01136647	     -0.09478690
      0.91245900	      0.64685132	     -0.01132433	     -0.09478690
      0.91402143	      0.64676213	     -0.01128015	     -0.09478690
      0.91558386	      0.64667174	     -0.01123387	     -0.09478690
      0.91714629	      0.64658018	     -0.01118542	     -0.09478690
      0.91870872	      0.64648743	     -0.01113474	     -0.09478690
      0.92027115	      0.64639351	     -0.01108178	     -0.09478690
      0.92183358	      0.64629841	     -0.01102650	     -0.09478690
      0.92339600	      0.64620215	     -0.01096882	     -0.09478690
      0.92495843	      0.64610472	     -0.01090870	     -0.09478690
      0.92652086	      0.64600613	     -0.01084608	     -0.09478690
      0.92808329	      0.64590638	     -0.01078093	     -0.09478690
      0.92964572	      0.64580545	     -0.01071320	     -0.09478690
      0.93120815	      0.64570336	     -0.01064284	     -0.09478690
      0.93277058	      0.64560015	     -0.01056975	     -0.09478690
      0.93433301	      0.64549586	     -0.01049370	     -0.09478690
      0.93589544	      0.64539051	     -0.01041445	     -0.09478690
      0.93745787	      0.64528401	     -0.01033191	     -0.09478690
