PointAcceleration
version=1
nRows=601
nColumns=4
inDegrees=no
No description.
endheader
time	state_0	state_1	state_2
      0.00000000	     -3.38990045	     -4.62806597	      0.00000000
      0.00143549	     -4.35977579	     -3.73293733	      0.00000000
      0.00287099	     -5.48793539	     -2.65804407	      0.00000000
      0.00430648	     -6.75480171	     -1.40665636	      0.00000000
      0.00574197	     -8.10712028	     -0.00223803	      0.00000000
      0.00717746	     -8.38041896	      0.68168513	      0.00000000
      0.00861296	     -7.28784358	      0.35740573	      0.00000000
      0.01004845	     -8.66361311	      1.85049327	      0.00000000
      0.01148394	     -9.83696524	      3.21661917	      0.00000000
      0.01291943	    -10.97060062	      4.56215601	      0.00000000
      0.01435493	    -12.09980414	      5.89946233	      0.00000000
      0.01579042	    -13.12313860	      7.14302379	      0.00000000
      0.01722591	    -14.08051968	      8.31279943	      0.00000000
      0.01866140	    -14.91963056	      9.36178612	      0.00000000
      0.02009690	    -15.65209181	     10.29066744	      0.00000000
      0.02153239	    -16.26033676	     11.08332351	      0.00000000
      0.02296788	    -16.74857148	     11.74037360	      0.00000000
      0.02440337	    -17.11549871	     12.25884630	      0.00000000
      0.02583887	    -17.36754544	     12.64335825	      0.00000000
      0.02727436	    -17.51023865	     12.89834492	      0.00000000
      0.02870985	    -17.55408032	     13.03249652	      0.00000000
      0.03014534	    -17.50528618	     13.05482074	      0.00000000
      0.03158084	    -17.37452643	     12.97985064	      0.00000000
      0.03301633	    -17.18199599	     12.84276048	      0.00000000
      0.03445182	    -16.93674341	     12.66507366	      0.00000000
      0.03588732	    -16.63544164	     12.42389143	      0.00000000
      0.03732281	    -16.29100755	     12.12795997	      0.00000000
      0.03875830	    -15.91332267	     11.78499273	      0.00000000
      0.04019379	    -15.51108091	     11.40270095	      0.00000000
      0.04162929	    -15.09087491	     10.98850004	      0.00000000
      0.04306478	    -14.65943147	     10.54921795	      0.00000000
      0.04450027	    -14.22170947	     10.09116985	      0.00000000
      0.04593576	    -13.78267639	      9.62032836	      0.00000000
      0.04737126	    -13.34583854	      9.14206392	      0.00000000
      0.04880675	    -12.91457692	      8.66140746	      0.00000000
      0.05024224	    -12.49121409	      8.18248785	      0.00000000
      0.05167773	    -12.07786176	      7.70911410	      0.00000000
      0.05311323	    -11.67588325	      7.24408652	      0.00000000
      0.05454872	    -11.28640494	      6.78991349	      0.00000000
      0.05598421	    -10.91021233	      6.34823889	      0.00000000
      0.05741970	    -10.54784799	      5.92043964	      0.00000000
      0.05885520	    -10.19962703	      5.50736387	      0.00000000
      0.06029069	     -9.86564201	      5.10960802	      0.00000000
      0.06172618	     -9.54587760	      4.72751398	      0.00000000
      0.06316167	     -9.24012588	      4.36118385	      0.00000000
      0.06459717	     -8.94815141	      4.01063127	      0.00000000
      0.06603266	     -8.66955845	      3.67565137	      0.00000000
      0.06746815	     -8.40397850	      3.35604314	      0.00000000
      0.06890364	     -8.15091123	      3.05141531	      0.00000000
      0.07033914	     -7.90991535	      2.76143473	      0.00000000
      0.07177463	     -7.68044274	      2.48561017	      0.00000000
      0.07321012	     -7.46202003	      2.22354095	      0.00000000
      0.07464562	     -7.25408853	      1.97470097	      0.00000000
      0.07608111	     -7.05616794	      1.73865808	      0.00000000
      0.07751660	     -6.86771119	      1.51488499	      0.00000000
      0.07895209	     -6.68824650	      1.30291940	      0.00000000
      0.08038759	     -6.51725002	      1.10222318	      0.00000000
      0.08182308	     -6.35426641	      0.91228595	      0.00000000
      0.08325857	     -6.19879910	      0.73252609	      0.00000000
      0.08469406	     -6.05041583	      0.56240326	      0.00000000
      0.08612956	     -5.90866216	      0.40130947	      0.00000000
      0.08756505	     -5.77315390	      0.24874911	      0.00000000
      0.08900054	     -5.64346407	      0.10418960	      0.00000000
      0.09043603	     -5.51922732	     -0.03273880	      0.00000000
      0.09187153	     -5.40005897	     -0.16244655	      0.00000000
      0.09330702	     -5.28563012	     -0.28520444	      0.00000000
      0.09474251	     -5.17559366	     -0.40136244	      0.00000000
      0.09617800	     -5.06966604	     -0.51107628	      0.00000000
      0.09761350	     -4.96755636	     -0.61449541	      0.00000000
      0.09904899	     -4.86902500	     -0.71160681	      0.00000000
      0.10048448	     -4.77381563	     -0.80245839	      0.00000000
      0.10191997	     -4.68168969	     -0.88727302	      0.00000000
      0.10335547	     -4.59312505	     -0.96861815	      0.00000000
      0.10479096	     -4.50661895	     -1.04215070	      0.00000000
      0.10622645	     -4.42238266	     -1.11148230	      0.00000000
      0.10766195	     -4.34031550	     -1.17682562	      0.00000000
      0.10909744	     -4.26025748	     -1.23842096	      0.00000000
      0.11053293	     -4.18206796	     -1.29643520	      0.00000000
      0.11196842	     -4.10560831	     -1.35106557	      0.00000000
      0.11340392	     -4.03075865	     -1.40239386	      0.00000000
      0.11483941	     -3.95740643	     -1.45048849	      0.00000000
      0.11627490	     -3.88544651	     -1.49534452	      0.00000000
      0.11771039	     -3.81477732	     -1.53696562	      0.00000000
      0.11914589	     -3.74529255	     -1.57538073	      0.00000000
      0.12058138	     -3.67689145	     -1.61061976	      0.00000000
      0.12201687	     -3.60946761	     -1.64277631	      0.00000000
      0.12345236	     -3.54292081	     -1.67193689	      0.00000000
      0.12488786	     -3.47715224	     -1.69823007	      0.00000000
      0.12632335	     -3.41206827	     -1.72177600	      0.00000000
      0.12775884	     -3.34758382	     -1.74269905	      0.00000000
      0.12919433	     -3.28361735	     -1.76111928	      0.00000000
      0.13062983	     -3.22009884	     -1.77713821	      0.00000000
      0.13206532	     -3.15696069	     -1.79085743	      0.00000000
      0.13350081	     -3.09414583	     -1.80235649	      0.00000000
      0.13493630	     -3.03159929	     -1.81171689	      0.00000000
      0.13637180	     -2.96927407	     -1.81900437	      0.00000000
      0.13780729	     -2.90712533	     -1.82428639	      0.00000000
      0.13924278	     -2.84511393	     -1.82762134	      0.00000000
      0.14067828	     -2.78320303	     -1.82906848	      0.00000000
      0.14211377	     -2.72136030	     -1.82868135	      0.00000000
      0.14354926	     -2.65955563	     -1.82651382	      0.00000000
      0.14498475	     -2.59776303	     -1.82261475	      0.00000000
      0.14642025	     -2.53595856	     -1.81703328	      0.00000000
      0.14785574	     -2.47412207	     -1.80981351	      0.00000000
      0.14929123	     -2.41223523	     -1.80100001	      0.00000000
      0.15072672	     -2.35028303	     -1.79063257	      0.00000000
      0.15216222	     -2.28825201	     -1.77875176	      0.00000000
      0.15359771	     -2.22613129	     -1.76539409	      0.00000000
      0.15503320	     -2.16391130	     -1.75059710	      0.00000000
      0.15646869	     -2.10158447	     -1.73439481	      0.00000000
      0.15790419	     -2.03914442	     -1.71682250	      0.00000000
      0.15933968	     -1.97658661	     -1.69791216	      0.00000000
      0.16077517	     -1.91390745	     -1.67769726	      0.00000000
      0.16221066	     -1.85110491	     -1.65620847	      0.00000000
      0.16364616	     -1.78817772	     -1.63347814	      0.00000000
      0.16508165	     -1.72512528	     -1.60953624	      0.00000000
      0.16651714	     -1.66194583	     -1.58441348	      0.00000000
      0.16795263	     -1.59864035	     -1.55814073	      0.00000000
      0.16938813	     -1.53521067	     -1.53075097	      0.00000000
      0.17082362	     -1.47165846	     -1.50227688	      0.00000000
      0.17225911	     -1.40798579	     -1.47275296	      0.00000000
      0.17369461	     -1.34419414	     -1.44221431	      0.00000000
      0.17513010	     -1.28028536	     -1.41069766	      0.00000000
      0.17656559	     -1.21626035	     -1.37824130	      0.00000000
      0.17800108	     -1.15212038	     -1.34488496	      0.00000000
      0.17943658	     -1.08786563	     -1.31067118	      0.00000000
      0.18087207	     -1.02349655	     -1.27564385	      0.00000000
      0.18230756	     -0.95901285	     -1.23985060	      0.00000000
      0.18374305	     -0.89441431	     -1.20334066	      0.00000000
      0.18517855	     -0.82970082	     -1.16616642	      0.00000000
      0.18661404	     -0.76487209	     -1.12838224	      0.00000000
      0.18804953	     -0.69992893	     -1.09004328	      0.00000000
      0.18948502	     -0.63487157	     -1.05120692	      0.00000000
      0.19092052	     -0.56970235	     -1.01192833	      0.00000000
      0.19235601	     -0.50442362	     -0.97226311	      0.00000000
      0.19379150	     -0.43903780	     -0.93226867	      0.00000000
      0.19522699	     -0.37354728	     -0.89200568	      0.00000000
      0.19666249	     -0.30795824	     -0.85153411	      0.00000000
      0.19809798	     -0.24227679	     -0.81091786	      0.00000000
      0.19953347	     -0.17651097	     -0.77021381	      0.00000000
      0.20096896	     -0.11066928	     -0.72947972	      0.00000000
      0.20240446	     -0.04475958	     -0.68876615	      0.00000000
      0.20383995	      0.02121001	     -0.64812830	      0.00000000
      0.20527544	      0.08722920	     -0.60760964	      0.00000000
      0.20671093	      0.15328559	     -0.56725549	      0.00000000
      0.20814643	      0.21936528	     -0.52709971	      0.00000000
      0.20958192	      0.28545277	     -0.48717834	      0.00000000
      0.21101741	      0.35153205	     -0.44751788	      0.00000000
      0.21245291	      0.41758557	     -0.40814750	      0.00000000
      0.21388840	      0.48359514	     -0.36908652	      0.00000000
      0.21532389	      0.54954097	     -0.33035742	      0.00000000
      0.21675938	      0.61540166	     -0.29196777	      0.00000000
      0.21819488	      0.68115433	     -0.25392568	      0.00000000
      0.21963037	      0.74677542	     -0.21622414	      0.00000000
      0.22106586	      0.81224034	     -0.17885140	      0.00000000
      0.22250135	      0.87752571	     -0.14179922	      0.00000000
      0.22393685	      0.94260789	     -0.10505253	      0.00000000
      0.22537234	      1.00746153	     -0.06862761	      0.00000000
      0.22680783	      1.07205964	     -0.03252497	      0.00000000
      0.22824332	      1.13637381	      0.00318120	      0.00000000
      0.22967882	      1.20036190	      0.03844370	      0.00000000
      0.23111431	      1.26400400	      0.07308245	      0.00000000
      0.23254980	      1.32718481	      0.10698982	      0.00000000
      0.23398529	      1.38992517	      0.13986791	      0.00000000
      0.23542079	      1.45041322	      0.17097001	      0.00000000
      0.23685628	      1.51198485	      0.20146266	      0.00000000
      0.23829177	      1.57267225	      0.23100870	      0.00000000
      0.23972726	      1.63273900	      0.25909167	      0.00000000
      0.24116276	      1.69210587	      0.28578562	      0.00000000
      0.24259825	      1.75071873	      0.31107457	      0.00000000
      0.24403374	      1.80858108	      0.33479089	      0.00000000
      0.24546924	      1.86566014	      0.35699598	      0.00000000
      0.24690473	      1.92194037	      0.37761007	      0.00000000
      0.24834022	      1.97743174	      0.39704543	      0.00000000
      0.24977571	      2.03215890	      0.41582101	      0.00000000
      0.25121121	      2.08626899	      0.43460465	      0.00000000
      0.25264670	      2.13991716	      0.45418683	      0.00000000
      0.25408219	      2.19329327	      0.47474940	      0.00000000
      0.25551768	      2.24657608	      0.49635426	      0.00000000
      0.25695318	      2.29975191	      0.51866300	      0.00000000
      0.25838867	      2.35281597	      0.54141912	      0.00000000
      0.25982416	      2.40563780	      0.56426151	      0.00000000
      0.26125965	      2.45811609	      0.58690715	      0.00000000
      0.26269515	      2.51010963	      0.60902130	      0.00000000
      0.26413064	      2.56149645	      0.63026849	      0.00000000
      0.26556613	      2.61212710	      0.65023114	      0.00000000
      0.26700162	      2.66183915	      0.66837289	      0.00000000
      0.26843712	      2.71045532	      0.68437574	      0.00000000
      0.26987261	      2.75779895	      0.69788595	      0.00000000
      0.27130810	      2.80379624	      0.70896838	      0.00000000
      0.27274359	      2.84838449	      0.71773219	      0.00000000
      0.27417909	      2.89164236	      0.72440774	      0.00000000
      0.27561458	      2.93362857	      0.72914439	      0.00000000
      0.27705007	      2.97445393	      0.73210381	      0.00000000
      0.27848557	      3.01421756	      0.73344122	      0.00000000
      0.27992106	      3.05303478	      0.73328788	      0.00000000
      0.28135655	      3.09102074	      0.73179007	      0.00000000
      0.28279204	      3.12828281	      0.72906180	      0.00000000
      0.28422754	      3.16492945	      0.72523179	      0.00000000
      0.28566303	      3.20104713	      0.72039048	      0.00000000
      0.28709852	      3.23672773	      0.71464569	      0.00000000
      0.28853401	      3.27203737	      0.70806172	      0.00000000
      0.28996951	      3.30704879	      0.70071672	      0.00000000
      0.29140500	      3.34180805	      0.69264676	      0.00000000
      0.29284049	      3.37636638	      0.68389463	      0.00000000
      0.29427598	      3.41075223	      0.67447974	      0.00000000
      0.29571148	      3.44499678	      0.66442135	      0.00000000
      0.29714697	      3.47911741	      0.65374625	      0.00000000
      0.29858246	      3.51313578	      0.64248793	      0.00000000
      0.30001795	      3.54707493	      0.63069192	      0.00000000
      0.30145345	      3.58096711	      0.61842568	      0.00000000
      0.30288894	      3.61483280	      0.60569007	      0.00000000
      0.30432443	      3.64868189	      0.59246133	      0.00000000
      0.30575992	      3.68250138	      0.57868474	      0.00000000
      0.30719542	      3.71627642	      0.56431138	      0.00000000
      0.30863091	      3.74999191	      0.54929750	      0.00000000
      0.31006640	      3.78363302	      0.53360847	      0.00000000
      0.31150189	      3.81719149	      0.51720470	      0.00000000
      0.31293739	      3.85065722	      0.50004773	      0.00000000
      0.31437288	      3.88401494	      0.48207664	      0.00000000
      0.31580837	      3.91724410	      0.46322384	      0.00000000
      0.31724387	      3.95031029	      0.44341233	      0.00000000
      0.31867936	      3.98317113	      0.42255470	      0.00000000
      0.32011485	      4.01578596	      0.40059896	      0.00000000
      0.32155034	      4.04810291	      0.37747855	      0.00000000
      0.32298584	      4.08010234	      0.35321139	      0.00000000
      0.32442133	      4.11176157	      0.32782285	      0.00000000
      0.32585682	      4.14310919	      0.30138632	      0.00000000
      0.32729231	      4.17418780	      0.27401114	      0.00000000
      0.32872781	      4.20503228	      0.24569386	      0.00000000
      0.33016330	      4.23565044	      0.21639183	      0.00000000
      0.33159879	      4.26601124	      0.18599204	      0.00000000
      0.33303428	      4.29608999	      0.15439559	      0.00000000
      0.33446978	      4.32586151	      0.12149716	      0.00000000
      0.33590527	      4.35531639	      0.08719419	      0.00000000
      0.33734076	      4.38444995	      0.05142062	      0.00000000
      0.33877625	      4.41330132	      0.01407277	      0.00000000
      0.34021175	      4.43487469	     -0.02378577	      0.00000000
      0.34164724	      4.46207332	     -0.06521682	      0.00000000
      0.34308273	      4.48888179	     -0.10831861	      0.00000000
      0.34451822	      4.51527723	     -0.15316649	      0.00000000
      0.34595372	      4.54121699	     -0.19986474	      0.00000000
      0.34738921	      4.56658818	     -0.24849801	      0.00000000
      0.34882470	      4.59119732	     -0.29912009	      0.00000000
      0.35026020	      4.61480949	     -0.35178370	      0.00000000
      0.35169569	      4.63711130	     -0.40650420	      0.00000000
      0.35313118	      4.65768730	     -0.46329369	      0.00000000
      0.35456667	      4.67585369	     -0.52215708	      0.00000000
      0.35600217	      4.69046775	     -0.58308282	      0.00000000
      0.35743766	      4.69903104	     -0.64581926	      0.00000000
      0.35887315	      4.69697576	     -0.70970178	      0.00000000
      0.36030864	      4.67524510	     -0.77331756	      0.00000000
      0.36174414	      4.61894865	     -0.83403067	      0.00000000
      0.36317963	      4.50488975	     -0.88744069	      0.00000000
      0.36461512	      4.30751345	     -0.92754490	      0.00000000
      0.36605061	      4.01443363	     -0.94882523	      0.00000000
      0.36748611	      3.64559745	     -0.95029578	      0.00000000
      0.36892160	      3.20323557	     -0.92930359	      0.00000000
      0.37035709	      2.55059490	     -0.85471641	      0.00000000
      0.37179258	      1.52529039	     -0.67958498	      0.00000000
      0.37322808	      0.26259296	     -0.42262899	      0.00000000
      0.37466357	     -0.93471689	     -0.16195233	      0.00000000
      0.37609906	     -1.86356160	      0.02788211	      0.00000000
      0.37753455	     -2.48883576	      0.11456627	      0.00000000
      0.37897005	     -2.84002571	      0.11629764	      0.00000000
      0.38040554	     -2.96769792	      0.05334565	      0.00000000
      0.38184103	     -2.83574610	      0.01192714	      0.00000000
      0.38327653	     -2.22239731	      0.05371607	      0.00000000
      0.38471202	     -2.64210635	      0.05926638	      0.00000000
      0.38614751	     -3.09171384	      0.01336791	      0.00000000
      0.38758300	     -3.54844995	     -0.06138550	      0.00000000
      0.38901850	     -4.08708930	     -0.15074785	      0.00000000
      0.39045399	     -4.60467168	     -0.25365760	      0.00000000
      0.39188948	     -5.14112520	     -0.36695239	      0.00000000
      0.39332497	     -5.65770513	     -0.49077848	      0.00000000
      0.39476047	     -6.16425162	     -0.62498463	      0.00000000
      0.39619596	     -6.64771951	     -0.76964592	      0.00000000
      0.39763145	     -7.10900070	     -0.92463790	      0.00000000
      0.39906694	     -7.54319662	     -1.08946393	      0.00000000
      0.40050244	     -7.94959553	     -1.26324265	      0.00000000
      0.40193793	     -8.32634311	     -1.44458949	      0.00000000
      0.40337342	     -8.67289702	     -1.63175483	      0.00000000
      0.40480891	     -8.98884115	     -1.82265345	      0.00000000
      0.40624441	     -9.27454328	     -2.01538627	      0.00000000
      0.40767990	     -9.53135188	     -2.20889902	      0.00000000
      0.40911539	     -9.76176687	     -2.40548002	      0.00000000
      0.41055088	     -9.96717731	     -2.60315992	      0.00000000
      0.41198638	    -10.11975958	     -2.73628917	      0.00000000
      0.41342187	    -10.17984996	     -2.71051772	      0.00000000
      0.41485736	    -10.19589923	     -2.63614794	      0.00000000
      0.41629286	    -10.19797965	     -2.58301368	      0.00000000
      0.41772835	    -10.18596920	     -2.54754050	      0.00000000
      0.41916384	    -10.15859976	     -2.52419214	      0.00000000
      0.42059933	    -10.11630504	     -2.51087093	      0.00000000
      0.42203483	    -10.06008418	     -2.50671366	      0.00000000
      0.42347032	     -9.99105521	     -2.51098892	      0.00000000
      0.42490581	     -9.91025819	     -2.52297641	      0.00000000
      0.42634130	     -9.81865235	     -2.54188857	      0.00000000
      0.42777680	     -9.71726110	     -2.56690563	      0.00000000
      0.42921229	     -9.60712786	     -2.59726728	      0.00000000
      0.43064778	     -9.48931374	     -2.63217585	      0.00000000
      0.43208327	     -9.36485952	     -2.67096336	      0.00000000
      0.43351877	     -9.23479983	     -2.71292897	      0.00000000
      0.43495426	     -9.10006514	     -2.75751209	      0.00000000
      0.43638975	     -8.96157690	     -2.80413218	      0.00000000
      0.43782524	     -8.82011017	     -2.85232825	      0.00000000
      0.43926074	     -8.67643099	     -2.90163172	      0.00000000
      0.44069623	     -8.53115354	     -2.95167178	      0.00000000
      0.44213172	     -8.38488446	     -3.00208171	      0.00000000
      0.44356721	     -8.23810625	     -3.05257663	      0.00000000
      0.44500271	     -8.09128657	     -3.10288520	      0.00000000
      0.44643820	     -7.94480460	     -3.15280096	      0.00000000
      0.44787369	     -7.79896447	     -3.20211952	      0.00000000
      0.44930918	     -7.65365003	     -3.25058763	      0.00000000
      0.45074468	     -7.50901633	     -3.29804240	      0.00000000
      0.45218017	     -7.36521359	     -3.34439526	      0.00000000
      0.45361566	     -7.22237698	     -3.38957779	      0.00000000
      0.45505116	     -7.08056988	     -3.43357434	      0.00000000
      0.45648665	     -6.93984504	     -3.47638757	      0.00000000
      0.45792214	     -6.80019528	     -3.51806717	      0.00000000
      0.45935763	     -6.66160841	     -3.55868123	      0.00000000
      0.46079313	     -6.52403540	     -3.59833326	      0.00000000
      0.46222862	     -6.38742499	     -3.63714370	      0.00000000
      0.46366411	     -6.25170792	     -3.67525622	      0.00000000
      0.46509960	     -6.11681293	     -3.71283085	      0.00000000
      0.46653510	     -5.98266551	     -3.75003907	      0.00000000
      0.46797059	     -5.84918999	     -3.78706442	      0.00000000
      0.46940608	     -5.71630323	     -3.82409854	      0.00000000
      0.47084157	     -5.58388950	     -3.86133294	      0.00000000
      0.47227707	     -5.45188899	     -3.89892861	      0.00000000
      0.47371256	     -5.32028667	     -3.93708541	      0.00000000
      0.47514805	     -5.18889761	     -3.97590799	      0.00000000
      0.47658354	     -5.05766803	     -4.01555225	      0.00000000
      0.47801904	     -4.92657848	     -4.05614878	      0.00000000
      0.47945453	     -4.79561173	     -4.09783664	      0.00000000
      0.48089002	     -4.66479218	     -4.14073183	      0.00000000
      0.48232551	     -4.53415240	     -4.18496065	      0.00000000
      0.48376101	     -4.40374047	     -4.23062001	      0.00000000
      0.48519650	     -4.27358634	     -4.27778970	      0.00000000
      0.48663199	     -4.14373953	     -4.32652627	      0.00000000
      0.48806749	     -4.01427132	     -4.37690028	      0.00000000
      0.48950298	     -3.88527492	     -4.42897158	      0.00000000
      0.49093847	     -3.75684858	     -4.48279945	      0.00000000
      0.49237396	     -3.62909828	     -4.53842772	      0.00000000
      0.49380946	     -3.50213270	     -4.59589632	      0.00000000
      0.49524495	     -3.37606564	     -4.65523167	      0.00000000
      0.49668044	     -3.25101246	     -4.71645532	      0.00000000
      0.49811593	     -3.12709277	     -4.77957623	      0.00000000
      0.49955143	     -3.00443458	     -4.84460210	      0.00000000
      0.50098692	     -2.88318510	     -4.91153496	      0.00000000
      0.50242241	     -2.76346679	     -4.98036014	      0.00000000
      0.50385790	     -2.64540664	     -5.05104821	      0.00000000
      0.50529340	     -2.52912817	     -5.12356340	      0.00000000
      0.50672889	     -2.41476211	     -5.19786126	      0.00000000
      0.50816438	     -2.30242574	     -5.27389190	      0.00000000
      0.50959987	     -2.19224518	     -5.35158713	      0.00000000
      0.51103537	     -2.08433679	     -5.43087515	      0.00000000
      0.51247086	     -1.97882414	     -5.51166529	      0.00000000
      0.51390635	     -1.87530154	     -5.59399892	      0.00000000
      0.51534184	     -1.77500879	     -5.67753769	      0.00000000
      0.51677734	     -1.67742807	     -5.76226682	      0.00000000
      0.51821283	     -1.58265370	     -5.84806679	      0.00000000
      0.51964832	     -1.49076488	     -5.93481826	      0.00000000
      0.52108382	     -1.40183701	     -6.02239340	      0.00000000
      0.52251931	     -1.31592797	     -6.11066790	      0.00000000
      0.52395480	     -1.23310338	     -6.19950240	      0.00000000
      0.52539029	     -1.15340683	     -6.28876569	      0.00000000
      0.52682579	     -1.07690976	     -6.37829689	      0.00000000
      0.52826128	     -1.00366490	     -6.46794363	      0.00000000
      0.52969677	     -0.93375048	     -6.55751593	      0.00000000
      0.53113226	     -0.86724086	     -6.64682572	      0.00000000
      0.53256776	     -0.80416175	     -6.73567985	      0.00000000
      0.53400325	     -0.74451821	     -6.82389774	      0.00000000
      0.53543874	     -0.68825284	     -6.91132476	      0.00000000
      0.53687423	     -0.63529874	     -6.99781639	      0.00000000
      0.53830973	     -0.58556008	     -7.08325631	      0.00000000
      0.53974522	     -0.53894234	     -7.16753225	      0.00000000
      0.54118071	     -0.49534221	     -7.25055237	      0.00000000
      0.54261620	     -0.45465506	     -7.33222900	      0.00000000
      0.54405170	     -0.41677477	     -7.41248845	      0.00000000
      0.54548719	     -0.38159341	     -7.49126179	      0.00000000
      0.54692268	     -0.34900358	     -7.56848996	      0.00000000
      0.54835817	     -0.31889701	     -7.64411880	      0.00000000
      0.54979367	     -0.29116651	     -7.71810139	      0.00000000
      0.55122916	     -0.26570513	     -7.79039559	      0.00000000
      0.55266465	     -0.24240739	     -7.86096490	      0.00000000
      0.55410014	     -0.22116895	     -7.92977728	      0.00000000
      0.55553564	     -0.20188727	     -7.99680531	      0.00000000
      0.55697113	     -0.18446165	     -8.06202566	      0.00000000
      0.55840662	     -0.16879354	     -8.12541897	      0.00000000
      0.55984212	     -0.15478673	     -8.18696948	      0.00000000
      0.56127761	     -0.14234743	     -8.24666487	      0.00000000
      0.56271310	     -0.13138459	     -8.30449587	      0.00000000
      0.56414859	     -0.12180967	     -8.36045608	      0.00000000
      0.56558409	     -0.11353732	     -8.41454127	      0.00000000
      0.56701958	     -0.10648446	     -8.46674946	      0.00000000
      0.56845507	     -0.10057164	     -8.51707948	      0.00000000
      0.56989056	     -0.09572118	     -8.56553139	      0.00000000
      0.57132606	     -0.09185941	     -8.61210424	      0.00000000
      0.57276155	     -0.08891408	     -8.65679651	      0.00000000
      0.57419704	     -0.08681663	     -8.69960249	      0.00000000
      0.57563253	     -0.08549989	     -8.74051307	      0.00000000
      0.57706803	     -0.08490332	     -8.77951335	      0.00000000
      0.57850352	     -0.08496718	     -8.81658244	      0.00000000
      0.57993901	     -0.08563741	     -8.85168973	      0.00000000
      0.58137450	     -0.08685835	     -8.88479659	      0.00000000
      0.58281000	     -0.08857701	     -8.91585444	      0.00000000
      0.58424549	     -0.09074084	     -8.94480654	      0.00000000
      0.58568098	     -0.09328082	     -8.97159316	      0.00000000
      0.58711647	     -0.09619690	     -8.99614769	      0.00000000
      0.58855197	     -0.09951430	     -9.01841512	      0.00000000
      0.58998746	     -0.10323512	     -9.03836689	      0.00000000
      0.59142295	     -0.10734033	     -9.05601585	      0.00000000
      0.59285845	     -0.11177185	     -9.07142809	      0.00000000
      0.59429394	     -0.11645890	     -9.08473111	      0.00000000
      0.59572943	     -0.12132489	     -9.09611154	      0.00000000
      0.59716492	     -0.12629092	     -9.10580797	      0.00000000
      0.59860042	     -0.13129132	     -9.11408830	      0.00000000
      0.60003591	     -0.13626283	     -9.12122618	      0.00000000
      0.60147140	     -0.14115855	     -9.12747338	      0.00000000
      0.60290689	     -0.14594065	     -9.13304060	      0.00000000
      0.60434239	     -0.15058130	     -9.13808766	      0.00000000
      0.60577788	     -0.15506294	     -9.14272253	      0.00000000
      0.60721337	     -0.15937154	     -9.14700961	      0.00000000
      0.60864886	     -0.16350010	     -9.15097954	      0.00000000
      0.61008436	     -0.16744269	     -9.15464144	      0.00000000
      0.61151985	     -0.17119639	     -9.15799236	      0.00000000
      0.61295534	     -0.17475962	     -9.16102477	      0.00000000
      0.61439083	     -0.17813122	     -9.16373162	      0.00000000
      0.61582633	     -0.18131197	     -9.16610871	      0.00000000
      0.61726182	     -0.18430209	     -9.16815626	      0.00000000
      0.61869731	     -0.18710384	     -9.16987848	      0.00000000
      0.62013280	     -0.18971885	     -9.17128356	      0.00000000
      0.62156830	     -0.19215038	     -9.17238238	      0.00000000
      0.62300379	     -0.19440138	     -9.17318805	      0.00000000
      0.62443928	     -0.19647586	     -9.17371484	      0.00000000
      0.62587478	     -0.19837782	     -9.17397763	      0.00000000
      0.62731027	     -0.20011179	     -9.17399128	      0.00000000
      0.62874576	     -0.20168250	     -9.17377029	      0.00000000
      0.63018125	     -0.20309473	     -9.17332847	      0.00000000
      0.63161675	     -0.20435364	     -9.17267873	      0.00000000
      0.63305224	     -0.20546407	     -9.17183306	      0.00000000
      0.63448773	     -0.20643127	     -9.17080233	      0.00000000
      0.63592322	     -0.20725996	     -9.16959652	      0.00000000
      0.63735872	     -0.20795523	     -9.16822446	      0.00000000
      0.63879421	     -0.20852150	     -9.16669418	      0.00000000
      0.64022970	     -0.20896352	     -9.16501271	      0.00000000
      0.64166519	     -0.20928527	     -9.16318637	      0.00000000
      0.64310069	     -0.20949099	     -9.16122064	      0.00000000
      0.64453618	     -0.20958412	     -9.15912045	      0.00000000
      0.64597167	     -0.20956832	     -9.15689000	      0.00000000
      0.64740716	     -0.20944639	     -9.15453309	      0.00000000
      0.64884266	     -0.20922131	     -9.15205288	      0.00000000
      0.65027815	     -0.20889523	     -9.14945225	      0.00000000
      0.65171364	     -0.20847042	     -9.14673358	      0.00000000
      0.65314913	     -0.20794833	     -9.14389899	      0.00000000
      0.65458463	     -0.20733051	     -9.14095019	      0.00000000
      0.65602012	     -0.20661774	     -9.13788874	      0.00000000
      0.65745561	     -0.20581086	     -9.13471581	      0.00000000
      0.65889111	     -0.20490998	     -9.13143246	      0.00000000
      0.66032660	     -0.20391529	     -9.12803943	      0.00000000
      0.66176209	     -0.20282630	     -9.12453741	      0.00000000
      0.66319758	     -0.20164260	     -9.12092679	      0.00000000
      0.66463308	     -0.20036322	     -9.11720795	      0.00000000
      0.66606857	     -0.19898720	     -9.11338100	      0.00000000
      0.66750406	     -0.19751318	     -9.10944613	      0.00000000
      0.66893955	     -0.19593980	     -9.10540324	      0.00000000
      0.67037505	     -0.19426537	     -9.10125239	      0.00000000
      0.67181054	     -0.19248820	     -9.09699337	      0.00000000
      0.67324603	     -0.19060633	     -9.09262616	      0.00000000
      0.67468152	     -0.18861780	     -9.08815052	      0.00000000
      0.67611702	     -0.18652045	     -9.08356646	      0.00000000
      0.67755251	     -0.18431212	     -9.07887377	      0.00000000
      0.67898800	     -0.18199047	     -9.07407256	      0.00000000
      0.68042349	     -0.17955315	     -9.06916275	      0.00000000
      0.68185899	     -0.17699763	     -9.06414462	      0.00000000
      0.68329448	     -0.17432136	     -9.05901828	      0.00000000
      0.68472997	     -0.17152154	     -9.05378424	      0.00000000
      0.68616546	     -0.16859534	     -9.04844287	      0.00000000
      0.68760096	     -0.16554003	     -9.04299559	      0.00000000
      0.68903645	     -0.16235293	     -9.03744378	      0.00000000
      0.69047194	     -0.15903046	     -9.03178863	      0.00000000
      0.69190743	     -0.15556905	     -9.02603126	      0.00000000
      0.69334293	     -0.15196459	     -9.02017314	      0.00000000
      0.69477842	     -0.14821297	     -9.01421571	      0.00000000
      0.69621391	     -0.14430948	     -9.00816070	      0.00000000
      0.69764941	     -0.14024938	     -9.00200985	      0.00000000
      0.69908490	     -0.13602731	     -8.99576510	      0.00000000
      0.70052039	     -0.13163787	     -8.98942844	      0.00000000
      0.70195588	     -0.12707508	     -8.98300196	      0.00000000
      0.70339138	     -0.12233288	     -8.97648787	      0.00000000
      0.70482687	     -0.11740474	     -8.96988832	      0.00000000
      0.70626236	     -0.11228402	     -8.96320570	      0.00000000
      0.70769785	     -0.10696377	     -8.95644222	      0.00000000
      0.70913335	     -0.10143690	     -8.94960036	      0.00000000
      0.71056884	     -0.09569615	     -8.94268239	      0.00000000
      0.71200433	     -0.08973410	     -8.93569086	      0.00000000
      0.71343982	     -0.08354336	     -8.92862812	      0.00000000
      0.71487532	     -0.07711631	     -8.92149678	      0.00000000
      0.71631081	     -0.07044552	     -8.91429926	      0.00000000
      0.71774630	     -0.06352334	     -8.90703827	      0.00000000
      0.71918179	     -0.05634235	     -8.89971633	      0.00000000
      0.72061729	     -0.04889494	     -8.89233629	      0.00000000
      0.72205278	     -0.04117376	     -8.88490077	      0.00000000
      0.72348827	     -0.03317123	     -8.87741277	      0.00000000
      0.72492376	     -0.02488001	     -8.86987503	      0.00000000
      0.72635926	     -0.01629256	     -8.86229065	      0.00000000
      0.72779475	     -0.00740150	     -8.85466245	      0.00000000
      0.72923024	      0.00180072	     -8.84699363	      0.00000000
      0.73066574	      0.01132137	     -8.83928709	      0.00000000
      0.73210123	      0.02116793	     -8.83154610	      0.00000000
      0.73353672	      0.03134740	     -8.82377367	      0.00000000
      0.73497221	      0.04186698	     -8.81597320	      0.00000000
      0.73640771	      0.05273320	     -8.80814780	      0.00000000
      0.73784320	      0.06395286	     -8.80030104	      0.00000000
      0.73927869	      0.07553185	     -8.79243602	      0.00000000
      0.74071418	      0.08747673	     -8.78455615	      0.00000000
      0.74214968	      0.09979171	     -8.77666454	      0.00000000
      0.74358517	      0.11248168	     -8.76876485	      0.00000000
      0.74502066	      0.12467142	     -8.76094951	      0.00000000
      0.74645615	      0.13802957	     -8.75310885	      0.00000000
      0.74789165	      0.15176128	     -8.74527232	      0.00000000
      0.74932714	      0.16586808	     -8.73744444	      0.00000000
      0.75076263	      0.18035069	     -8.72962988	      0.00000000
      0.75219812	      0.19520822	     -8.72183339	      0.00000000
      0.75363362	      0.21043790	     -8.71406062	      0.00000000
      0.75506911	      0.22603642	     -8.70631739	      0.00000000
      0.75650460	      0.24199875	     -8.69861037	      0.00000000
      0.75794009	      0.25831899	     -8.69094640	      0.00000000
      0.75937559	      0.27499295	     -8.68332950	      0.00000000
      0.76081108	      0.29201385	     -8.67576526	      0.00000000
      0.76224657	      0.30937190	     -8.66826187	      0.00000000
      0.76368207	      0.32705411	     -8.66082801	      0.00000000
      0.76511756	      0.34504592	     -8.65347058	      0.00000000
      0.76655305	      0.36332739	     -8.64619695	      0.00000000
      0.76798854	      0.38187419	     -8.63901025	      0.00000000
      0.76942404	      0.40065348	     -8.63191369	      0.00000000
      0.77085953	      0.41962234	     -8.62490285	      0.00000000
      0.77229502	      0.43872520	     -8.61797220	      0.00000000
      0.77373051	      0.45788807	     -8.61110463	      0.00000000
      0.77516601	      0.47701998	     -8.60427978	      0.00000000
      0.77660150	      0.49600280	     -8.59746185	      0.00000000
      0.77803699	      0.51469906	     -8.59060900	      0.00000000
      0.77947248	      0.53293938	     -8.58366157	      0.00000000
      0.78090798	      0.55053802	     -8.57655140	      0.00000000
      0.78234347	      0.56728169	     -8.56919329	      0.00000000
      0.78377896	      0.58294010	     -8.56150416	      0.00000000
      0.78521445	      0.59727744	     -8.55338364	      0.00000000
      0.78664995	      0.61008415	     -8.54471469	      0.00000000
      0.78808544	      0.62116934	     -8.53538144	      0.00000000
      0.78952093	      0.63038281	     -8.52526971	      0.00000000
      0.79095642	      0.63762641	     -8.51428276	      0.00000000
      0.79239192	      0.64286307	     -8.50233583	      0.00000000
      0.79382741	      0.64613262	     -8.48937746	      0.00000000
      0.79526290	      0.64754028	     -8.47537738	      0.00000000
      0.79669839	      0.64727241	     -8.46034821	      0.00000000
      0.79813389	      0.64556335	     -8.44432717	      0.00000000
      0.79956938	      0.64270864	     -8.42739301	      0.00000000
      0.80100487	      0.63901764	     -8.40964457	      0.00000000
      0.80244037	      0.63482461	     -8.39120974	      0.00000000
      0.80387586	      0.63044062	     -8.37222594	      0.00000000
      0.80531135	      0.62616348	     -8.35284099	      0.00000000
      0.80674684	      0.62223839	     -8.33320308	      0.00000000
      0.80818234	      0.61885933	     -8.31346099	      0.00000000
      0.80961783	      0.61617899	     -8.29373783	      0.00000000
      0.81105332	      0.61429742	     -8.27413819	      0.00000000
      0.81248881	      0.61326332	     -8.25475052	      0.00000000
      0.81392431	      0.61306975	     -8.23564419	      0.00000000
      0.81535980	      0.61367255	     -8.21687145	      0.00000000
      0.81679529	      0.61497765	     -8.19846767	      0.00000000
      0.81823078	      0.61686854	     -8.18045234	      0.00000000
      0.81966628	      0.61918589	     -8.16283122	      0.00000000
      0.82110177	      0.62175851	     -8.14559611	      0.00000000
      0.82253726	      0.62437777	     -8.12872555	      0.00000000
      0.82397275	      0.62682804	     -8.11218460	      0.00000000
      0.82540825	      0.62885811	     -8.09592105	      0.00000000
      0.82684374	      0.63020872	     -8.07986762	      0.00000000
      0.82827923	      0.63058153	     -8.06393026	      0.00000000
      0.82971472	      0.62966271	     -8.04799467	      0.00000000
      0.83115022	      0.62708691	     -8.03190230	      0.00000000
      0.83258571	      0.62246128	     -8.01545991	      0.00000000
      0.83402120	      0.61530968	     -7.99840241	      0.00000000
      0.83545670	      0.60508908	     -7.98041315	      0.00000000
      0.83689219	      0.59111992	     -7.96104629	      0.00000000
      0.83832768	      0.57259852	     -7.93975061	      0.00000000
      0.83976317	      0.54848717	     -7.91575755	      0.00000000
      0.84119867	      0.51750624	     -7.88809340	      0.00000000
      0.84263416	      0.47798162	     -7.85542768	      0.00000000
      0.84406965	      0.42778925	     -7.81604183	      0.00000000
      0.84550514	      0.36414363	     -7.76761901	      0.00000000
      0.84694064	      0.28346668	     -7.70713976	      0.00000000
      0.84837613	      0.18106052	     -7.63054973	      0.00000000
      0.84981162	      0.05089101	     -7.53256501	      0.00000000
      0.85124711	     -0.11484946	     -7.40617275	      0.00000000
      0.85268261	     -0.32602354	     -7.24235722	      0.00000000
      0.85411810	     -0.59484100	     -7.02954646	      0.00000000
      0.85555359	     -0.93614423	     -6.75338193	      0.00000000
      0.85698908	     -1.36705995	     -6.39636426	      0.00000000
      0.85842458	     -1.90658130	     -5.93839119	      0.00000000
      0.85986007	     -2.57471924	     -5.35628020	      0.00000000
      0.86129556	     -3.38812037	     -4.62940556	      0.00000000
