PointVelocity
version=1
nRows=601
nColumns=4
inDegrees=no
No description.
endheader
time	state_0	state_1	state_2
      0.00000000	      1.27615540	     -0.46401808	      0.00000000
      0.00143549	      1.13993861	     -0.57858575	      0.00000000
      0.00287099	      0.99130728	     -0.72452567	      0.00000000
      0.00430648	      0.82987831	     -0.90564560	      0.00000000
      0.00574197	      0.65295245	     -1.13173273	      0.00000000
      0.00717746	      0.48815132	     -1.32713701	      0.00000000
      0.00861296	      0.39271294	     -1.34579787	      0.00000000
      0.01004845	      0.34462468	     -1.26485526	      0.00000000
      0.01148394	      0.30374420	     -1.20009666	      0.00000000
      0.01291943	      0.27175242	     -1.14437707	      0.00000000
      0.01435493	      0.24883420	     -1.09668500	      0.00000000
      0.01579042	      0.23263176	     -1.05767271	      0.00000000
      0.01722591	      0.22236644	     -1.02461900	      0.00000000
      0.01866140	      0.21613689	     -0.99658301	      0.00000000
      0.02009690	      0.21271055	     -0.97138633	      0.00000000
      0.02153239	      0.21106689	     -0.94814370	      0.00000000
      0.02296788	      0.21032370	     -0.92554555	      0.00000000
      0.02440337	      0.21006433	     -0.90328358	      0.00000000
      0.02583887	      0.20986559	     -0.88085080	      0.00000000
      0.02727436	      0.20963375	     -0.85832394	      0.00000000
      0.02870985	      0.20921034	     -0.83560597	      0.00000000
      0.03014534	      0.20856803	     -0.81282093	      0.00000000
      0.03158084	      0.20763711	     -0.79005623	      0.00000000
      0.03301633	      0.20641421	     -0.76742013	      0.00000000
      0.03445182	      0.20489623	     -0.74496003	      0.00000000
      0.03588732	      0.20308586	     -0.72261698	      0.00000000
      0.03732281	      0.20096699	     -0.70034630	      0.00000000
      0.03875830	      0.19852933	     -0.67810285	      0.00000000
      0.04019379	      0.19576510	     -0.65584367	      0.00000000
      0.04162929	      0.19269206	     -0.63357623	      0.00000000
      0.04306478	      0.18932732	     -0.61130629	      0.00000000
      0.04450027	      0.18570942	     -0.58908498	      0.00000000
      0.04593576	      0.18187143	     -0.56695686	      0.00000000
      0.04737126	      0.17785572	     -0.54498886	      0.00000000
      0.04880675	      0.17370051	     -0.52324448	      0.00000000
      0.05024224	      0.16944518	     -0.50178894	      0.00000000
      0.05167773	      0.16512679	     -0.48068866	      0.00000000
      0.05311323	      0.16077868	     -0.45999798	      0.00000000
      0.05454872	      0.15643304	     -0.43977520	      0.00000000
      0.05598421	      0.15211537	     -0.42005901	      0.00000000
      0.05741970	      0.14785083	     -0.40089327	      0.00000000
      0.05885520	      0.14365670	     -0.38230001	      0.00000000
      0.06029069	      0.13955055	     -0.36430670	      0.00000000
      0.06172618	      0.13554240	     -0.34692067	      0.00000000
      0.06316167	      0.13164294	     -0.33015423	      0.00000000
      0.06459717	      0.12785652	     -0.31400297	      0.00000000
      0.06603266	      0.12418828	     -0.29846658	      0.00000000
      0.06746815	      0.12063845	     -0.28353195	      0.00000000
      0.06890364	      0.11720803	     -0.26918905	      0.00000000
      0.07033914	      0.11389447	     -0.25541881	      0.00000000
      0.07177463	      0.11069585	     -0.24220420	      0.00000000
      0.07321012	      0.10760791	     -0.22952273	      0.00000000
      0.07464562	      0.10462683	     -0.21735294	      0.00000000
      0.07608111	      0.10174761	     -0.20567141	      0.00000000
      0.07751660	      0.09896544	     -0.19445484	      0.00000000
      0.07895209	      0.09627546	     -0.18368147	      0.00000000
      0.08038759	      0.09367281	     -0.17332889	      0.00000000
      0.08182308	      0.09115358	     -0.16337938	      0.00000000
      0.08325857	      0.08871373	     -0.15381412	      0.00000000
      0.08469406	      0.08635073	     -0.14462103	      0.00000000
      0.08612956	      0.08406188	     -0.13578676	      0.00000000
      0.08756505	      0.08184588	     -0.12730495	      0.00000000
      0.08900054	      0.07970121	     -0.11916806	      0.00000000
      0.09043603	      0.07762726	     -0.11137402	      0.00000000
      0.09187153	      0.07562320	     -0.10391969	      0.00000000
      0.09330702	      0.07368859	     -0.09680520	      0.00000000
      0.09474251	      0.07182309	     -0.09003012	      0.00000000
      0.09617800	      0.07002610	     -0.08359475	      0.00000000
      0.09761350	      0.06829708	     -0.07749963	      0.00000000
      0.09904899	      0.06663475	     -0.07174408	      0.00000000
      0.10048448	      0.06503781	     -0.06632760	      0.00000000
      0.10191997	      0.06350468	     -0.06124537	      0.00000000
      0.10335547	      0.06203432	     -0.05649747	      0.00000000
      0.10479096	      0.06062446	     -0.05207291	      0.00000000
      0.10622645	      0.05927395	     -0.04795477	      0.00000000
      0.10766195	      0.05797941	     -0.04412073	      0.00000000
      0.10909744	      0.05673683	     -0.04055387	      0.00000000
      0.11053293	      0.05554171	     -0.03723788	      0.00000000
      0.11196842	      0.05439025	     -0.03415575	      0.00000000
      0.11340392	      0.05327837	     -0.03129209	      0.00000000
      0.11483941	      0.05220220	     -0.02863067	      0.00000000
      0.11627490	      0.05115803	     -0.02615806	      0.00000000
      0.11771039	      0.05014222	     -0.02386023	      0.00000000
      0.11914589	      0.04915191	     -0.02172612	      0.00000000
      0.12058138	      0.04818421	     -0.01974402	      0.00000000
      0.12201687	      0.04723716	     -0.01790478	      0.00000000
      0.12345236	      0.04630869	     -0.01619860	      0.00000000
      0.12488786	      0.04539751	     -0.01461778	      0.00000000
      0.12632335	      0.04450222	     -0.01315406	      0.00000000
      0.12775884	      0.04362193	     -0.01180099	      0.00000000
      0.12919433	      0.04275567	     -0.01055164	      0.00000000
      0.13062983	      0.04190278	     -0.00940071	      0.00000000
      0.13206532	      0.04106260	     -0.00834251	      0.00000000
      0.13350081	      0.04023465	     -0.00737276	      0.00000000
      0.13493630	      0.03941847	     -0.00648687	      0.00000000
      0.13637180	      0.03861373	     -0.00568137	      0.00000000
      0.13780729	      0.03782016	     -0.00495258	      0.00000000
      0.13924278	      0.03703756	     -0.00429768	      0.00000000
      0.14067828	      0.03626580	     -0.00371368	      0.00000000
      0.14211377	      0.03550481	     -0.00319825	      0.00000000
      0.14354926	      0.03475455	     -0.00274895	      0.00000000
      0.14498475	      0.03401503	     -0.00236382	      0.00000000
      0.14642025	      0.03328630	     -0.00204084	      0.00000000
      0.14785574	      0.03256841	     -0.00177826	      0.00000000
      0.14929123	      0.03186144	     -0.00157434	      0.00000000
      0.15072672	      0.03116543	     -0.00142734	      0.00000000
      0.15216222	      0.03048047	     -0.00133558	      0.00000000
      0.15359771	      0.02980652	     -0.00129711	      0.00000000
      0.15503320	      0.02914362	     -0.00131008	      0.00000000
      0.15646869	      0.02849164	     -0.00137216	      0.00000000
      0.15790419	      0.02785052	     -0.00148117	      0.00000000
      0.15933968	      0.02722001	     -0.00163434	      0.00000000
      0.16077517	      0.02659994	     -0.00182904	      0.00000000
      0.16221066	      0.02598994	     -0.00206203	      0.00000000
      0.16364616	      0.02538969	     -0.00233020	      0.00000000
      0.16508165	      0.02479871	     -0.00262984	      0.00000000
      0.16651714	      0.02421654	     -0.00295736	      0.00000000
      0.16795263	      0.02364259	     -0.00330866	      0.00000000
      0.16938813	      0.02307630	     -0.00367976	      0.00000000
      0.17082362	      0.02251700	     -0.00406633	      0.00000000
      0.17225911	      0.02196405	     -0.00446413	      0.00000000
      0.17369461	      0.02141675	     -0.00486886	      0.00000000
      0.17513010	      0.02087441	     -0.00527616	      0.00000000
      0.17656559	      0.02033640	     -0.00568212	      0.00000000
      0.17800108	      0.01980203	     -0.00608259	      0.00000000
      0.17943658	      0.01927082	     -0.00647456	      0.00000000
      0.18087207	      0.01874222	     -0.00685467	      0.00000000
      0.18230756	      0.01821604	     -0.00722145	      0.00000000
      0.18374305	      0.01769203	     -0.00757311	      0.00000000
      0.18517855	      0.01717038	     -0.00790998	      0.00000000
      0.18661404	      0.01665120	     -0.00823213	      0.00000000
      0.18804953	      0.01613498	     -0.00854112	      0.00000000
      0.18948502	      0.01562212	     -0.00883825	      0.00000000
      0.19092052	      0.01511318	     -0.00912518	      0.00000000
      0.19235601	      0.01460852	     -0.00940276	      0.00000000
      0.19379150	      0.01410866	     -0.00967314	      0.00000000
      0.19522699	      0.01361411	     -0.00993875	      0.00000000
      0.19666249	      0.01312580	     -0.01020365	      0.00000000
      0.19809798	      0.01264474	     -0.01047234	      0.00000000
      0.19953347	      0.01217187	     -0.01074830	      0.00000000
      0.20096896	      0.01170808	     -0.01103451	      0.00000000
      0.20240446	      0.01125373	     -0.01133185	      0.00000000
      0.20383995	      0.01080934	     -0.01164228	      0.00000000
      0.20527544	      0.01037492	     -0.01196489	      0.00000000
      0.20671093	      0.00995061	     -0.01229936	      0.00000000
      0.20814643	      0.00953581	     -0.01264184	      0.00000000
      0.20958192	      0.00913005	     -0.01298918	      0.00000000
      0.21101741	      0.00873210	     -0.01333506	      0.00000000
      0.21245291	      0.00834096	     -0.01367413	      0.00000000
      0.21388840	      0.00795493	     -0.01399809	      0.00000000
      0.21532389	      0.00757263	     -0.01429999	      0.00000000
      0.21675938	      0.00719175	     -0.01456835	      0.00000000
      0.21819488	      0.00681023	     -0.01479249	      0.00000000
      0.21963037	      0.00642475	     -0.01495605	      0.00000000
      0.22106586	      0.00603192	     -0.01504189	      0.00000000
      0.22250135	      0.00562772	     -0.01503183	      0.00000000
      0.22393685	      0.00520790	     -0.01490606	      0.00000000
      0.22537234	      0.00476944	     -0.01465353	      0.00000000
      0.22680783	      0.00430880	     -0.01425860	      0.00000000
      0.22824332	      0.00382583	     -0.01372792	      0.00000000
      0.22967882	      0.00332095	     -0.01306333	      0.00000000
      0.23111431	      0.00279751	     -0.01230011	      0.00000000
      0.23254980	      0.00227001	     -0.01148540	      0.00000000
      0.23398529	      0.00174157	     -0.01067648	      0.00000000
      0.23542079	      0.00119104	     -0.00988759	      0.00000000
      0.23685628	      0.00066459	     -0.00915096	      0.00000000
      0.23829177	      0.00019525	     -0.00854360	      0.00000000
      0.23972726	     -0.00024196	     -0.00809484	      0.00000000
      0.24116276	     -0.00063695	     -0.00781873	      0.00000000
      0.24259825	     -0.00098001	     -0.00774454	      0.00000000
      0.24403374	     -0.00126592	     -0.00791771	      0.00000000
      0.24546924	     -0.00148985	     -0.00834319	      0.00000000
      0.24690473	     -0.00164393	     -0.00906114	      0.00000000
      0.24834022	     -0.00174136	     -0.00996904	      0.00000000
      0.24977571	     -0.00179825	     -0.01094328	      0.00000000
      0.25121121	     -0.00186193	     -0.01174498	      0.00000000
      0.25264670	     -0.00198374	     -0.01210769	      0.00000000
      0.25408219	     -0.00220889	     -0.01187819	      0.00000000
      0.25551768	     -0.00257730	     -0.01094054	      0.00000000
      0.25695318	     -0.00308464	     -0.00936127	      0.00000000
      0.25838867	     -0.00373113	     -0.00717963	      0.00000000
      0.25982416	     -0.00449152	     -0.00452085	      0.00000000
      0.26125965	     -0.00534791	     -0.00147480	      0.00000000
      0.26269515	     -0.00627441	      0.00183653	      0.00000000
      0.26413064	     -0.00724869	      0.00530370	      0.00000000
      0.26556613	     -0.00824197	      0.00878342	      0.00000000
      0.26700162	     -0.00922188	      0.01210721	      0.00000000
      0.26843712	     -0.01015561	      0.01513923	      0.00000000
      0.26987261	     -0.01100816	      0.01773408	      0.00000000
      0.27130810	     -0.01176623	      0.01987089	      0.00000000
      0.27274359	     -0.01241745	      0.02153956	      0.00000000
      0.27417909	     -0.01297532	      0.02281687	      0.00000000
      0.27561458	     -0.01344859	      0.02375358	      0.00000000
      0.27705007	     -0.01385248	      0.02441588	      0.00000000
      0.27848557	     -0.01420018	      0.02486305	      0.00000000
      0.27992106	     -0.01450341	      0.02514094	      0.00000000
      0.28135655	     -0.01477396	      0.02529679	      0.00000000
      0.28279204	     -0.01501932	      0.02535701	      0.00000000
      0.28422754	     -0.01524761	      0.02535142	      0.00000000
      0.28566303	     -0.01546267	      0.02529150	      0.00000000
      0.28709852	     -0.01566926	      0.02519296	      0.00000000
      0.28853401	     -0.01586885	      0.02505778	      0.00000000
      0.28996951	     -0.01606369	      0.02489092	      0.00000000
      0.29140500	     -0.01625353	      0.02468722	      0.00000000
      0.29284049	     -0.01643846	      0.02444225	      0.00000000
      0.29427598	     -0.01661712	      0.02414765	      0.00000000
      0.29571148	     -0.01678799	      0.02379363	      0.00000000
      0.29714697	     -0.01695019	      0.02337790	      0.00000000
      0.29858246	     -0.01710293	      0.02289881	      0.00000000
      0.30001795	     -0.01724805	      0.02236761	      0.00000000
      0.30145345	     -0.01738842	      0.02180144	      0.00000000
      0.30288894	     -0.01752726	      0.02120953	      0.00000000
      0.30432443	     -0.01766702	      0.02059589	      0.00000000
      0.30575992	     -0.01780592	      0.01994752	      0.00000000
      0.30719542	     -0.01794253	      0.01925395	      0.00000000
      0.30863091	     -0.01807314	      0.01849713	      0.00000000
      0.31006640	     -0.01819481	      0.01766319	      0.00000000
      0.31150189	     -0.01830386	      0.01673405	      0.00000000
      0.31293739	     -0.01839698	      0.01569307	      0.00000000
      0.31437288	     -0.01846962	      0.01451705	      0.00000000
      0.31580837	     -0.01851708	      0.01318132	      0.00000000
      0.31724387	     -0.01853360	      0.01165902	      0.00000000
      0.31867936	     -0.01851288	      0.00991984	      0.00000000
      0.32011485	     -0.01845030	      0.00794665	      0.00000000
      0.32155034	     -0.01834010	      0.00571612	      0.00000000
      0.32298584	     -0.01818266	      0.00323959	      0.00000000
      0.32442133	     -0.01797794	      0.00052824	      0.00000000
      0.32585682	     -0.01773456	     -0.00237230	      0.00000000
      0.32729231	     -0.01746222	     -0.00540884	      0.00000000
      0.32872781	     -0.01717203	     -0.00854178	      0.00000000
      0.33016330	     -0.01687329	     -0.01174236	      0.00000000
      0.33159879	     -0.01656707	     -0.01501567	      0.00000000
      0.33303428	     -0.01625487	     -0.01836297	      0.00000000
      0.33446978	     -0.01593374	     -0.02179941	      0.00000000
      0.33590527	     -0.01560154	     -0.02533647	      0.00000000
      0.33734076	     -0.01525628	     -0.02898073	      0.00000000
      0.33877625	     -0.01489639	     -0.03273805	      0.00000000
      0.34021175	     -0.01452298	     -0.03660202	      0.00000000
      0.34164724	     -0.01413639	     -0.04056785	      0.00000000
      0.34308273	     -0.01373953	     -0.04462165	      0.00000000
      0.34451822	     -0.01333515	     -0.04875153	      0.00000000
      0.34595372	     -0.01292730	     -0.05293764	      0.00000000
      0.34738921	     -0.01251929	     -0.05716284	      0.00000000
      0.34882470	     -0.01211617	     -0.06140174	      0.00000000
      0.35026020	     -0.01172251	     -0.06562955	      0.00000000
      0.35169569	     -0.01134503	     -0.06981277	      0.00000000
      0.35313118	     -0.01099026	     -0.07391602	      0.00000000
      0.35456667	     -0.01066585	     -0.07790350	      0.00000000
      0.35600217	     -0.01037930	     -0.08173643	      0.00000000
      0.35743766	     -0.01013644	     -0.08539108	      0.00000000
      0.35887315	     -0.00994261	     -0.08884342	      0.00000000
      0.36030864	     -0.00980048	     -0.09208930	      0.00000000
      0.36174414	     -0.00971215	     -0.09512723	      0.00000000
      0.36317963	     -0.00967946	     -0.09795399	      0.00000000
      0.36461512	     -0.00970479	     -0.10056444	      0.00000000
      0.36605061	     -0.00979189	     -0.10293024	      0.00000000
      0.36748611	     -0.00994135	     -0.10502826	      0.00000000
      0.36892160	     -0.01015553	     -0.10681242	      0.00000000
      0.37035709	     -0.01044583	     -0.10823938	      0.00000000
      0.37179258	     -0.01082397	     -0.10922208	      0.00000000
      0.37322808	     -0.01129837	     -0.10965027	      0.00000000
      0.37466357	     -0.01183243	     -0.10947149	      0.00000000
      0.37609906	     -0.01238880	     -0.10864994	      0.00000000
      0.37753455	     -0.01293876	     -0.10723960	      0.00000000
      0.37897005	     -0.01345621	     -0.10527307	      0.00000000
      0.38040554	     -0.01391961	     -0.10282041	      0.00000000
      0.38184103	     -0.01429697	     -0.09994505	      0.00000000
      0.38327653	     -0.01458922	     -0.09670239	      0.00000000
      0.38471202	     -0.01482622	     -0.09311382	      0.00000000
      0.38614751	     -0.01503627	     -0.08925770	      0.00000000
      0.38758300	     -0.01522688	     -0.08525025	      0.00000000
      0.38901850	     -0.01541938	     -0.08120499	      0.00000000
      0.39045399	     -0.01562481	     -0.07720968	      0.00000000
      0.39188948	     -0.01584080	     -0.07334258	      0.00000000
      0.39332497	     -0.01607110	     -0.06968593	      0.00000000
      0.39476047	     -0.01631490	     -0.06631999	      0.00000000
      0.39619596	     -0.01657473	     -0.06333027	      0.00000000
      0.39763145	     -0.01685765	     -0.06080086	      0.00000000
      0.39906694	     -0.01717184	     -0.05882650	      0.00000000
      0.40050244	     -0.01753728	     -0.05748528	      0.00000000
      0.40193793	     -0.01797484	     -0.05689482	      0.00000000
      0.40337342	     -0.01852077	     -0.05707068	      0.00000000
      0.40480891	     -0.01921223	     -0.05806762	      0.00000000
      0.40624441	     -0.02010067	     -0.05970851	      0.00000000
      0.40767990	     -0.02124398	     -0.06176272	      0.00000000
      0.40911539	     -0.02271369	     -0.06397575	      0.00000000
      0.41055088	     -0.02481380	     -0.06661870	      0.00000000
      0.41198638	     -0.02742068	     -0.06922863	      0.00000000
      0.41342187	     -0.02984972	     -0.07022623	      0.00000000
      0.41485736	     -0.03130369	     -0.06825488	      0.00000000
      0.41629286	     -0.03150759	     -0.06299033	      0.00000000
      0.41772835	     -0.03079445	     -0.05542187	      0.00000000
      0.41916384	     -0.02928010	     -0.04606857	      0.00000000
      0.42059933	     -0.02709861	     -0.03553075	      0.00000000
      0.42203483	     -0.02437032	     -0.02434595	      0.00000000
      0.42347032	     -0.02116948	     -0.01290022	      0.00000000
      0.42490581	     -0.01758977	     -0.00160091	      0.00000000
      0.42634130	     -0.01366608	      0.00935819	      0.00000000
      0.42777680	     -0.00945060	      0.01974433	      0.00000000
      0.42921229	     -0.00494798	      0.02951208	      0.00000000
      0.43064778	     -0.00017541	      0.03857734	      0.00000000
      0.43208327	      0.00487831	      0.04698419	      0.00000000
      0.43351877	      0.01021822	      0.05474776	      0.00000000
      0.43495426	      0.01586082	      0.06195402	      0.00000000
      0.43638975	      0.02182207	      0.06867170	      0.00000000
      0.43782524	      0.02811797	      0.07499804	      0.00000000
      0.43926074	      0.03476788	      0.08102283	      0.00000000
      0.44069623	      0.04178493	      0.08683758	      0.00000000
      0.44213172	      0.04918770	      0.09253308	      0.00000000
      0.44356721	      0.05698594	      0.09818656	      0.00000000
      0.44500271	      0.06519529	      0.10387864	      0.00000000
      0.44643820	      0.07382278	      0.10966839	      0.00000000
      0.44787369	      0.08287980	      0.11562052	      0.00000000
      0.44930918	      0.09237615	      0.12177407	      0.00000000
      0.45074468	      0.10232848	      0.12817347	      0.00000000
      0.45218017	      0.11274981	      0.13483834	      0.00000000
      0.45361566	      0.12365596	      0.14179370	      0.00000000
      0.45505116	      0.13505761	      0.14904357	      0.00000000
      0.45648665	      0.14696859	      0.15659634	      0.00000000
      0.45792214	      0.15939821	      0.16444539	      0.00000000
      0.45935763	      0.17235876	      0.17258761	      0.00000000
      0.46079313	      0.18585833	      0.18101169	      0.00000000
      0.46222862	      0.19990871	      0.18971135	      0.00000000
      0.46366411	      0.21451407	      0.19867231	      0.00000000
      0.46509960	      0.22968055	      0.20788247	      0.00000000
      0.46653510	      0.24540300	      0.21731961	      0.00000000
      0.46797059	      0.26167660	      0.22696294	      0.00000000
      0.46940608	      0.27848735	      0.23678575	      0.00000000
      0.47084157	      0.29583054	      0.24677268	      0.00000000
      0.47227707	      0.31370305	      0.25691027	      0.00000000
      0.47371256	      0.33209284	      0.26718032	      0.00000000
      0.47514805	      0.35095674	      0.27753201	      0.00000000
      0.47658354	      0.37025868	      0.28792455	      0.00000000
      0.47801904	      0.38996332	      0.29831307	      0.00000000
      0.47945453	      0.41003374	      0.30865569	      0.00000000
      0.48089002	      0.43043800	      0.31891342	      0.00000000
      0.48232551	      0.45114096	      0.32905089	      0.00000000
      0.48376101	      0.47211396	      0.33903860	      0.00000000
      0.48519650	      0.49332615	      0.34884900	      0.00000000
      0.48663199	      0.51475582	      0.35845246	      0.00000000
      0.48806749	      0.53637899	      0.36781951	      0.00000000
      0.48950298	      0.55817560	      0.37691999	      0.00000000
      0.49093847	      0.58012276	      0.38572542	      0.00000000
      0.49237396	      0.60219919	      0.39420868	      0.00000000
      0.49380946	      0.62438194	      0.40234354	      0.00000000
      0.49524495	      0.64664989	      0.41010647	      0.00000000
      0.49668044	      0.66898038	      0.41747407	      0.00000000
      0.49811593	      0.69135337	      0.42442720	      0.00000000
      0.49955143	      0.71374741	      0.43094645	      0.00000000
      0.50098692	      0.73614439	      0.43701876	      0.00000000
      0.50242241	      0.75852478	      0.44263055	      0.00000000
      0.50385790	      0.78087369	      0.44777539	      0.00000000
      0.50529340	      0.80317507	      0.45244595	      0.00000000
      0.50672889	      0.82541773	      0.45664164	      0.00000000
      0.50816438	      0.84758861	      0.46035994	      0.00000000
      0.50959987	      0.86968041	      0.46360555	      0.00000000
      0.51103537	      0.89167984	      0.46637634	      0.00000000
      0.51247086	      0.91358467	      0.46868323	      0.00000000
      0.51390635	      0.93540849	      0.47055323	      0.00000000
      0.51534184	      0.95715209	      0.47200121	      0.00000000
      0.51677734	      0.97880212	      0.47302723	      0.00000000
      0.51821283	      1.00035955	      0.47364380	      0.00000000
      0.51964832	      1.02182749	      0.47386526	      0.00000000
      0.52108382	      1.04320812	      0.47370276	      0.00000000
      0.52251931	      1.06450430	      0.47316802	      0.00000000
      0.52395480	      1.08571946	      0.47227134	      0.00000000
      0.52539029	      1.10685748	      0.47102322	      0.00000000
      0.52682579	      1.12792294	      0.46943347	      0.00000000
      0.52826128	      1.14892067	      0.46751182	      0.00000000
      0.52969677	      1.16985556	      0.46526750	      0.00000000
      0.53113226	      1.19073280	      0.46270960	      0.00000000
      0.53256776	      1.21155690	      0.45984683	      0.00000000
      0.53400325	      1.23233280	      0.45668781	      0.00000000
      0.53543874	      1.25306424	      0.45324082	      0.00000000
      0.53687423	      1.27375549	      0.44951412	      0.00000000
      0.53830973	      1.29440935	      0.44551559	      0.00000000
      0.53974522	      1.31502916	      0.44125312	      0.00000000
      0.54118071	      1.33561675	      0.43673432	      0.00000000
      0.54261620	      1.35617444	      0.43196682	      0.00000000
      0.54405170	      1.37670320	      0.42695816	      0.00000000
      0.54548719	      1.39720444	      0.42171594	      0.00000000
      0.54692268	      1.41767847	      0.41624781	      0.00000000
      0.54835817	      1.43812601	      0.41056155	      0.00000000
      0.54979367	      1.45854697	      0.40466504	      0.00000000
      0.55122916	      1.47894161	      0.39856636	      0.00000000
      0.55266465	      1.49930964	      0.39227370	      0.00000000
      0.55410014	      1.51965102	      0.38579544	      0.00000000
      0.55553564	      1.53996540	      0.37914005	      0.00000000
      0.55697113	      1.56025259	      0.37231622	      0.00000000
      0.55840662	      1.58051220	      0.36533267	      0.00000000
      0.55984212	      1.60074401	      0.35819835	      0.00000000
      0.56127761	      1.62094764	      0.35092215	      0.00000000
      0.56271310	      1.64112283	      0.34351322	      0.00000000
      0.56414859	      1.66126922	      0.33598059	      0.00000000
      0.56558409	      1.68138654	      0.32833355	      0.00000000
      0.56701958	      1.70147437	      0.32058113	      0.00000000
      0.56845507	      1.72153238	      0.31273267	      0.00000000
      0.56989056	      1.74156001	      0.30479709	      0.00000000
      0.57132606	      1.76155680	      0.29678364	      0.00000000
      0.57276155	      1.78152198	      0.28870101	      0.00000000
      0.57419704	      1.80145487	      0.28055821	      0.00000000
      0.57563253	      1.82135452	      0.27236353	      0.00000000
      0.57706803	      1.84122003	      0.26412555	      0.00000000
      0.57850352	      1.86105026	      0.25585215	      0.00000000
      0.57993901	      1.88084407	      0.24755148	      0.00000000
      0.58137450	      1.90060023	      0.23923104	      0.00000000
      0.58281000	      1.92031751	      0.23089862	      0.00000000
      0.58424549	      1.93999460	      0.22256143	      0.00000000
      0.58568098	      1.95963017	      0.21422694	      0.00000000
      0.58711647	      1.97922274	      0.20590205	      0.00000000
      0.58855197	      1.99877081	      0.19759382	      0.00000000
      0.58998746	      2.01827259	      0.18930870	      0.00000000
      0.59142295	      2.03772631	      0.18105324	      0.00000000
      0.59285845	      2.05712991	      0.17283337	      0.00000000
      0.59429394	      2.07648142	      0.16465512	      0.00000000
      0.59572943	      2.09577850	      0.15652384	      0.00000000
      0.59716492	      2.11501887	      0.14844497	      0.00000000
      0.59860042	      2.13419976	      0.14042320	      0.00000000
      0.60003591	      2.15331843	      0.13246328	      0.00000000
      0.60147140	      2.17237168	      0.12456926	      0.00000000
      0.60290689	      2.19135630	      0.11674522	      0.00000000
      0.60434239	      2.21026884	      0.10899477	      0.00000000
      0.60577788	      2.22910583	      0.10132144	      0.00000000
      0.60721337	      2.24786385	      0.09372854	      0.00000000
      0.60864886	      2.26653941	      0.08621931	      0.00000000
      0.61008436	      2.28512938	      0.07879696	      0.00000000
      0.61151985	      2.30363049	      0.07146457	      0.00000000
      0.61295534	      2.32204000	      0.06422540	      0.00000000
      0.61439083	      2.34035499	      0.05708254	      0.00000000
      0.61582633	      2.35857314	      0.05003936	      0.00000000
      0.61726182	      2.37669193	      0.04309903	      0.00000000
      0.61869731	      2.39470941	      0.03626504	      0.00000000
      0.62013280	      2.41262345	      0.02954069	      0.00000000
      0.62156830	      2.43043244	      0.02292963	      0.00000000
      0.62300379	      2.44813455	      0.01643526	      0.00000000
      0.62443928	      2.46572845	      0.01006136	      0.00000000
      0.62587478	      2.48321258	      0.00381148	      0.00000000
      0.62731027	      2.50058582	     -0.00231049	      0.00000000
      0.62874576	      2.51784682	     -0.00830087	      0.00000000
      0.63018125	      2.53499460	     -0.01415567	      0.00000000
      0.63161675	      2.55202799	     -0.01987110	      0.00000000
      0.63305224	      2.56894610	     -0.02544304	      0.00000000
      0.63448773	      2.58574785	     -0.03086760	      0.00000000
      0.63592322	      2.60243244	     -0.03614057	      0.00000000
      0.63735872	      2.61899884	     -0.04125793	      0.00000000
      0.63879421	      2.63544627	     -0.04621538	      0.00000000
      0.64022970	      2.65177371	     -0.05100881	      0.00000000
      0.64166519	      2.66798037	     -0.05563381	      0.00000000
      0.64310069	      2.68406524	     -0.06008613	      0.00000000
      0.64453618	      2.70002749	     -0.06436128	      0.00000000
      0.64597167	      2.71586606	     -0.06845489	      0.00000000
      0.64740716	      2.73158007	     -0.07236232	      0.00000000
      0.64884266	      2.74716839	     -0.07607908	      0.00000000
      0.65027815	      2.76263011	     -0.07960037	      0.00000000
      0.65171364	      2.77796400	     -0.08292154	      0.00000000
      0.65314913	      2.79316906	     -0.08603762	      0.00000000
      0.65458463	      2.80824400	     -0.08894377	      0.00000000
      0.65602012	      2.82318774	     -0.09163480	      0.00000000
      0.65745561	      2.83799887	     -0.09410566	      0.00000000
      0.65889111	      2.85267621	     -0.09635091	      0.00000000
      0.66032660	      2.86721825	     -0.09836527	      0.00000000
      0.66176209	      2.88162370	     -0.10014303	      0.00000000
      0.66319758	      2.89589092	     -0.10167862	      0.00000000
      0.66463308	      2.91001846	     -0.10296608	      0.00000000
      0.66606857	      2.92400452	     -0.10399957	      0.00000000
      0.66750406	      2.93784747	     -0.10477284	      0.00000000
      0.66893955	      2.95154529	     -0.10527981	      0.00000000
      0.67037505	      2.96509608	     -0.10551405	      0.00000000
      0.67181054	      2.97849755	     -0.10546926	      0.00000000
      0.67324603	      2.99174740	     -0.10513900	      0.00000000
      0.67468152	      3.00484299	     -0.10451685	      0.00000000
      0.67611702	      3.01778144	     -0.10359657	      0.00000000
      0.67755251	      3.03055963	     -0.10237187	      0.00000000
      0.67898800	      3.04317398	     -0.10083699	      0.00000000
      0.68042349	      3.05562068	     -0.09898606	      0.00000000
      0.68185899	      3.06789529	     -0.09681417	      0.00000000
      0.68329448	      3.07999319	     -0.09431624	      0.00000000
      0.68472997	      3.09190887	     -0.09148866	      0.00000000
      0.68616546	      3.10363676	     -0.08832756	      0.00000000
      0.68760096	      3.11517017	     -0.08483109	      0.00000000
      0.68903645	      3.12650242	     -0.08099706	      0.00000000
      0.69047194	      3.13762557	     -0.07682573	      0.00000000
      0.69190743	      3.14853184	     -0.07231703	      0.00000000
      0.69334293	      3.15921217	     -0.06747364	      0.00000000
      0.69477842	      3.16965773	     -0.06229792	      0.00000000
      0.69621391	      3.17985855	     -0.05679512	      0.00000000
      0.69764941	      3.18980497	     -0.05097019	      0.00000000
      0.69908490	      3.19948640	     -0.04483081	      0.00000000
      0.70052039	      3.20889266	     -0.03838453	      0.00000000
      0.70195588	      3.21801294	     -0.03164119	      0.00000000
      0.70339138	      3.22683691	     -0.02461067	      0.00000000
      0.70482687	      3.23535400	     -0.01730455	      0.00000000
      0.70626236	      3.24355413	     -0.00973462	      0.00000000
      0.70769785	      3.25142738	     -0.00191371	      0.00000000
      0.70913335	      3.25896434	      0.00614502	      0.00000000
      0.71056884	      3.26615609	      0.01442800	      0.00000000
      0.71200433	      3.27299421	      0.02292121	      0.00000000
      0.71343982	      3.27947105	      0.03161083	      0.00000000
      0.71487532	      3.28557941	      0.04048249	      0.00000000
      0.71631081	      3.29131304	      0.04952236	      0.00000000
      0.71774630	      3.29666613	      0.05871610	      0.00000000
      0.71918179	      3.30163381	      0.06805005	      0.00000000
      0.72061729	      3.30621166	      0.07751003	      0.00000000
      0.72205278	      3.31039615	      0.08708252	      0.00000000
      0.72348827	      3.31418420	      0.09675352	      0.00000000
      0.72492376	      3.31757348	      0.10650956	      0.00000000
      0.72635926	      3.32056216	      0.11633669	      0.00000000
      0.72779475	      3.32314905	      0.12622148	      0.00000000
      0.72923024	      3.32533345	      0.13615005	      0.00000000
      0.73066574	      3.32711526	      0.14610912	      0.00000000
      0.73210123	      3.32849492	      0.15608505	      0.00000000
      0.73353672	      3.32947333	      0.16606500	      0.00000000
      0.73497221	      3.33005193	      0.17603564	      0.00000000
      0.73640771	      3.33023258	      0.18598479	      0.00000000
      0.73784320	      3.33001748	      0.19589924	      0.00000000
      0.73927869	      3.32940946	      0.20576829	      0.00000000
      0.74071418	      3.32841132	      0.21557897	      0.00000000
      0.74214968	      3.32702746	      0.22532567	      0.00000000
      0.74358517	      3.32526102	      0.23499745	      0.00000000
      0.74502066	      3.32310559	      0.24455817	      0.00000000
      0.74645615	      3.32056509	      0.25400095	      0.00000000
      0.74789165	      3.31765515	      0.26335807	      0.00000000
      0.74932714	      3.31438061	      0.27262652	      0.00000000
      0.75076263	      3.31074193	      0.28178803	      0.00000000
      0.75219812	      3.30674304	      0.29083568	      0.00000000
      0.75363362	      3.30238580	      0.29975651	      0.00000000
      0.75506911	      3.29767337	      0.30854072	      0.00000000
      0.75650460	      3.29260708	      0.31717105	      0.00000000
      0.75794009	      3.28718956	      0.32563267	      0.00000000
      0.75937559	      3.28142134	      0.33389714	      0.00000000
      0.76081108	      3.27530495	      0.34193925	      0.00000000
      0.76224657	      3.26884055	      0.34971396	      0.00000000
      0.76368207	      3.26203120	      0.35718005	      0.00000000
      0.76511756	      3.25487749	      0.36427277	      0.00000000
      0.76655305	      3.24738407	      0.37093090	      0.00000000
      0.76798854	      3.23955291	      0.37707088	      0.00000000
      0.76942404	      3.23139123	      0.38261121	      0.00000000
      0.77085953	      3.22290262	      0.38745584	      0.00000000
      0.77229502	      3.21409683	      0.39150849	      0.00000000
      0.77373051	      3.20497766	      0.39467177	      0.00000000
      0.77516601	      3.19555543	      0.39684565	      0.00000000
      0.77660150	      3.18583079	      0.39794344	      0.00000000
      0.77803699	      3.17581045	      0.39787342	      0.00000000
      0.77947248	      3.16548746	      0.39656667	      0.00000000
      0.78090798	      3.15485971	      0.39394645	      0.00000000
      0.78234347	      3.14390925	      0.38996191	      0.00000000
      0.78377896	      3.13262091	      0.38455132	      0.00000000
      0.78521445	      3.12096517	      0.37768035	      0.00000000
      0.78664995	      3.10891258	      0.36930105	      0.00000000
      0.78808544	      3.09642613	      0.35939899	      0.00000000
      0.78952093	      3.08346533	      0.34794347	      0.00000000
      0.79095642	      3.06999217	      0.33495020	      0.00000000
      0.79239192	      3.05596104	      0.32041669	      0.00000000
      0.79382741	      3.04134011	      0.30440351	      0.00000000
      0.79526290	      3.02608602	      0.28695329	      0.00000000
      0.79669839	      3.01017872	      0.26818289	      0.00000000
      0.79813389	      2.99358377	      0.24819483	      0.00000000
      0.79956938	      2.97629522	      0.22716017	      0.00000000
      0.80100487	      2.95829202	      0.20524253	      0.00000000
      0.80244037	      2.93958156	      0.18264593	      0.00000000
      0.80387586	      2.92015804	      0.15957568	      0.00000000
      0.80531135	      2.90003960	      0.13623329	      0.00000000
      0.80674684	      2.87923530	      0.11283016	      0.00000000
      0.80818234	      2.85777013	      0.08953079	      0.00000000
      0.80961783	      2.83566490	      0.06651627	      0.00000000
      0.81105332	      2.81294711	      0.04389599	      0.00000000
      0.81248881	      2.78964492	      0.02179971	      0.00000000
      0.81392431	      2.76578335	      0.00028394	      0.00000000
      0.81535980	      2.74139160	     -0.02057472	      0.00000000
      0.81679529	      2.71648723	     -0.04075793	      0.00000000
      0.81823078	      2.69109432	     -0.06023108	      0.00000000
      0.81966628	      2.66521949	     -0.07899704	      0.00000000
      0.82110177	      2.63887725	     -0.09704803	      0.00000000
      0.82253726	      2.61206140	     -0.11439442	      0.00000000
      0.82397275	      2.58477439	     -0.13104190	      0.00000000
      0.82540825	      2.55699601	     -0.14699830	      0.00000000
      0.82684374	      2.52871546	     -0.16227252	      0.00000000
      0.82827923	      2.49989666	     -0.17686116	      0.00000000
      0.82971472	      2.47051432	     -0.19076793	      0.00000000
      0.83115022	      2.44051214	     -0.20396729	      0.00000000
      0.83258571	      2.40984777	     -0.21644734	      0.00000000
      0.83402120	      2.37843645	     -0.22814378	      0.00000000
      0.83545670	      2.34621182	     -0.23900968	      0.00000000
      0.83689219	      2.31304415	     -0.24892310	      0.00000000
      0.83832768	      2.27882697	     -0.25777023	      0.00000000
      0.83976317	      2.24336595	     -0.26537657	      0.00000000
      0.84119867	      2.20649506	     -0.27154565	      0.00000000
      0.84263416	      2.16793978	     -0.27614208	      0.00000000
      0.84406965	      2.12746516	     -0.27897545	      0.00000000
      0.84550514	      2.08470040	     -0.28016179	      0.00000000
      0.84694064	      2.03933850	     -0.27973995	      0.00000000
      0.84837613	      1.99085434	     -0.27829936	      0.00000000
      0.84981162	      1.93880621	     -0.27624128	      0.00000000
      0.85124711	      1.88238474	     -0.27480014	      0.00000000
      0.85268261	      1.82089141	     -0.27482634	      0.00000000
      0.85411810	      1.75310197	     -0.27866795	      0.00000000
      0.85555359	      1.67803052	     -0.28796791	      0.00000000
      0.85698908	      1.59390960	     -0.30725497	      0.00000000
      0.85842458	      1.49994566	     -0.33927630	      0.00000000
      0.85986007	      1.39298893	     -0.39271392	      0.00000000
      0.86129556	      1.27645023	     -0.46492169	      0.00000000
