PointVelocity
version=1
nRows=601
nColumns=4
inDegrees=no
No description.
endheader
time	state_0	state_1	state_2
      0.00000000	      1.63095075	     -0.30737577	      0.00000000
      0.00143549	      1.63115831	     -0.30863452	      0.00000000
      0.00287099	      1.63034925	     -0.30901865	      0.00000000
      0.00430648	      1.62793038	     -0.30792407	      0.00000000
      0.00574197	      1.62363059	     -0.30506651	      0.00000000
      0.00717746	      1.61828936	     -0.30092406	      0.00000000
      0.00861296	      1.61386266	     -0.29685405	      0.00000000
      0.01004845	      1.60939534	     -0.29212287	      0.00000000
      0.01148394	      1.60331528	     -0.28550809	      0.00000000
      0.01291943	      1.59575465	     -0.27708241	      0.00000000
      0.01435493	      1.58676750	     -0.26686286	      0.00000000
      0.01579042	      1.57642731	     -0.25494615	      0.00000000
      0.01722591	      1.56485070	     -0.24144589	      0.00000000
      0.01866140	      1.55216516	     -0.22653411	      0.00000000
      0.02009690	      1.53850490	     -0.21038198	      0.00000000
      0.02153239	      1.52401891	     -0.19318571	      0.00000000
      0.02296788	      1.50885994	     -0.17513671	      0.00000000
      0.02440337	      1.49316912	     -0.15642709	      0.00000000
      0.02583887	      1.47709601	     -0.13724537	      0.00000000
      0.02727436	      1.46075313	     -0.11777133	      0.00000000
      0.02870985	      1.44428417	     -0.09816653	      0.00000000
      0.03014534	      1.42771729	     -0.07863806	      0.00000000
      0.03158084	      1.41099566	     -0.05950048	      0.00000000
      0.03301633	      1.39411078	     -0.04091424	      0.00000000
      0.03445182	      1.37715521	     -0.02293302	      0.00000000
      0.03588732	      1.36033225	     -0.00546567	      0.00000000
      0.03732281	      1.34380930	      0.01150707	      0.00000000
      0.03875830	      1.32768704	      0.02798834	      0.00000000
      0.04019379	      1.31205954	      0.04397066	      0.00000000
      0.04162929	      1.29695305	      0.05942863	      0.00000000
      0.04306478	      1.28241300	      0.07434516	      0.00000000
      0.04450027	      1.26843883	      0.08869885	      0.00000000
      0.04593576	      1.25503801	      0.10246679	      0.00000000
      0.04737126	      1.24218816	      0.11562865	      0.00000000
      0.04880675	      1.22987296	      0.12816271	      0.00000000
      0.05024224	      1.21806446	      0.14005945	      0.00000000
      0.05167773	      1.20673815	      0.15130744	      0.00000000
      0.05311323	      1.19586926	      0.16191121	      0.00000000
      0.05454872	      1.18543416	      0.17187271	      0.00000000
      0.05598421	      1.17541252	      0.18120705	      0.00000000
      0.05741970	      1.16578361	      0.18992679	      0.00000000
      0.05885520	      1.15652960	      0.19805230	      0.00000000
      0.06029069	      1.14763191	      0.20560215	      0.00000000
      0.06172618	      1.13907393	      0.21259836	      0.00000000
      0.06316167	      1.13083845	      0.21906205	      0.00000000
      0.06459717	      1.12290988	      0.22501521	      0.00000000
      0.06603266	      1.11527215	      0.23047957	      0.00000000
      0.06746815	      1.10791091	      0.23547641	      0.00000000
      0.06890364	      1.10081133	      0.24002713	      0.00000000
      0.07033914	      1.09396036	      0.24415185	      0.00000000
      0.07177463	      1.08734443	      0.24787104	      0.00000000
      0.07321012	      1.08095169	      0.25120336	      0.00000000
      0.07464562	      1.07476976	      0.25416786	      0.00000000
      0.07608111	      1.06878801	      0.25678172	      0.00000000
      0.07751660	      1.06299524	      0.25906247	      0.00000000
      0.07895209	      1.05738227	      0.26102617	      0.00000000
      0.08038759	      1.05193942	      0.26268928	      0.00000000
      0.08182308	      1.04665920	      0.26406726	      0.00000000
      0.08325857	      1.04153378	      0.26517611	      0.00000000
      0.08469406	      1.03655719	      0.26603051	      0.00000000
      0.08612956	      1.03172314	      0.26664577	      0.00000000
      0.08756505	      1.02702631	      0.26703473	      0.00000000
      0.08900054	      1.02246099	      0.26721066	      0.00000000
      0.09043603	      1.01802188	      0.26718384	      0.00000000
      0.09187153	      1.01370346	      0.26696506	      0.00000000
      0.09330702	      1.00950061	      0.26656263	      0.00000000
      0.09474251	      1.00540840	      0.26598595	      0.00000000
      0.09617800	      1.00142187	      0.26524145	      0.00000000
      0.09761350	      0.99753568	      0.26433546	      0.00000000
      0.09904899	      0.99374461	      0.26327194	      0.00000000
      0.10048448	      0.99004317	      0.26205560	      0.00000000
      0.10191997	      0.98642823	      0.26069359	      0.00000000
      0.10335547	      0.98289584	      0.25918874	      0.00000000
      0.10479096	      0.97944571	      0.25755592	      0.00000000
      0.10622645	      0.97607812	      0.25581384	      0.00000000
      0.10766195	      0.97279131	      0.25396931	      0.00000000
      0.10909744	      0.96958335	      0.25202909	      0.00000000
      0.11053293	      0.96645232	      0.24999851	      0.00000000
      0.11196842	      0.96339639	      0.24788343	      0.00000000
      0.11340392	      0.96041344	      0.24568769	      0.00000000
      0.11483941	      0.95750127	      0.24341508	      0.00000000
      0.11627490	      0.95465750	      0.24106792	      0.00000000
      0.11771039	      0.95187978	      0.23864884	      0.00000000
      0.11914589	      0.94916596	      0.23616038	      0.00000000
      0.12058138	      0.94651390	      0.23360527	      0.00000000
      0.12201687	      0.94392183	      0.23098680	      0.00000000
      0.12345236	      0.94138793	      0.22830824	      0.00000000
      0.12488786	      0.93891075	      0.22557321	      0.00000000
      0.12632335	      0.93648879	      0.22278531	      0.00000000
      0.12775884	      0.93412083	      0.21994799	      0.00000000
      0.12919433	      0.93180560	      0.21706471	      0.00000000
      0.13062983	      0.92954205	      0.21413851	      0.00000000
      0.13206532	      0.92732911	      0.21117251	      0.00000000
      0.13350081	      0.92516587	      0.20816936	      0.00000000
      0.13493630	      0.92305141	      0.20513181	      0.00000000
      0.13637180	      0.92098495	      0.20206226	      0.00000000
      0.13780729	      0.91896570	      0.19896315	      0.00000000
      0.13924278	      0.91699298	      0.19583670	      0.00000000
      0.14067828	      0.91506609	      0.19268517	      0.00000000
      0.14211377	      0.91318446	      0.18951062	      0.00000000
      0.14354926	      0.91134749	      0.18631518	      0.00000000
      0.14498475	      0.90955470	      0.18310079	      0.00000000
      0.14642025	      0.90780558	      0.17986944	      0.00000000
      0.14785574	      0.90609975	      0.17662297	      0.00000000
      0.14929123	      0.90443680	      0.17336326	      0.00000000
      0.15072672	      0.90281644	      0.17009205	      0.00000000
      0.15216222	      0.90123835	      0.16681110	      0.00000000
      0.15359771	      0.89970231	      0.16352208	      0.00000000
      0.15503320	      0.89820807	      0.16022664	      0.00000000
      0.15646869	      0.89675544	      0.15692632	      0.00000000
      0.15790419	      0.89534424	      0.15362270	      0.00000000
      0.15933968	      0.89397434	      0.15031725	      0.00000000
      0.16077517	      0.89264560	      0.14701144	      0.00000000
      0.16221066	      0.89135795	      0.14370669	      0.00000000
      0.16364616	      0.89011130	      0.14040442	      0.00000000
      0.16508165	      0.88890562	      0.13710597	      0.00000000
      0.16651714	      0.88774086	      0.13381272	      0.00000000
      0.16795263	      0.88661702	      0.13052594	      0.00000000
      0.16938813	      0.88553410	      0.12724697	      0.00000000
      0.17082362	      0.88449209	      0.12397701	      0.00000000
      0.17225911	      0.88349102	      0.12071734	      0.00000000
      0.17369461	      0.88253087	      0.11746910	      0.00000000
      0.17513010	      0.88161165	      0.11423349	      0.00000000
      0.17656559	      0.88073338	      0.11101158	      0.00000000
      0.17800108	      0.87989605	      0.10780451	      0.00000000
      0.17943658	      0.87909970	      0.10461331	      0.00000000
      0.18087207	      0.87834439	      0.10143904	      0.00000000
      0.18230756	      0.87763021	      0.09828273	      0.00000000
      0.18374305	      0.87695729	      0.09514540	      0.00000000
      0.18517855	      0.87632580	      0.09202804	      0.00000000
      0.18661404	      0.87573593	      0.08893164	      0.00000000
      0.18804953	      0.87518787	      0.08585715	      0.00000000
      0.18948502	      0.87468180	      0.08280549	      0.00000000
      0.19092052	      0.87421792	      0.07977754	      0.00000000
      0.19235601	      0.87379643	      0.07677417	      0.00000000
      0.19379150	      0.87341767	      0.07379622	      0.00000000
      0.19522699	      0.87308204	      0.07084458	      0.00000000
      0.19666249	      0.87279012	      0.06792014	      0.00000000
      0.19809798	      0.87254250	      0.06502385	      0.00000000
      0.19953347	      0.87233965	      0.06215643	      0.00000000
      0.20096896	      0.87218198	      0.05931859	      0.00000000
      0.20240446	      0.87206960	      0.05651079	      0.00000000
      0.20383995	      0.87200266	      0.05373353	      0.00000000
      0.20527544	      0.87198114	      0.05098706	      0.00000000
      0.20671093	      0.87200506	      0.04827171	      0.00000000
      0.20814643	      0.87207438	      0.04558761	      0.00000000
      0.20958192	      0.87218910	      0.04293495	      0.00000000
      0.21101741	      0.87234912	      0.04031375	      0.00000000
      0.21245291	      0.87255437	      0.03772407	      0.00000000
      0.21388840	      0.87280468	      0.03516580	      0.00000000
      0.21532389	      0.87309991	      0.03263888	      0.00000000
      0.21675938	      0.87343974	      0.03014307	      0.00000000
      0.21819488	      0.87382386	      0.02767814	      0.00000000
      0.21963037	      0.87425182	      0.02524374	      0.00000000
      0.22106586	      0.87472308	      0.02283950	      0.00000000
      0.22250135	      0.87523724	      0.02046518	      0.00000000
      0.22393685	      0.87579376	      0.01812044	      0.00000000
      0.22537234	      0.87639282	      0.01580543	      0.00000000
      0.22680783	      0.87703438	      0.01352018	      0.00000000
      0.22824332	      0.87771970	      0.01126547	      0.00000000
      0.22967882	      0.87845020	      0.00904207	      0.00000000
      0.23111431	      0.87922814	      0.00685136	      0.00000000
      0.23254980	      0.88005844	      0.00469548	      0.00000000
      0.23398529	      0.88094304	      0.00257553	      0.00000000
      0.23542079	      0.88187674	      0.00049104	      0.00000000
      0.23685628	      0.88286315	     -0.00155780	      0.00000000
      0.23829177	      0.88390972	     -0.00356977	      0.00000000
      0.23972726	      0.88501290	     -0.00554718	      0.00000000
      0.24116276	      0.88617130	     -0.00749170	      0.00000000
      0.24259825	      0.88738483	     -0.00940498	      0.00000000
      0.24403374	      0.88865320	     -0.01128830	      0.00000000
      0.24546924	      0.88997503	     -0.01314421	      0.00000000
      0.24690473	      0.89134974	     -0.01497469	      0.00000000
      0.24834022	      0.89277194	     -0.01678479	      0.00000000
      0.24977571	      0.89423509	     -0.01858054	      0.00000000
      0.25121121	      0.89572973	     -0.02036875	      0.00000000
      0.25264670	      0.89724579	     -0.02215685	      0.00000000
      0.25408219	      0.89877833	     -0.02394744	      0.00000000
      0.25551768	      0.90032330	     -0.02574258	      0.00000000
      0.25695318	      0.90188414	     -0.02753916	      0.00000000
      0.25838867	      0.90346318	     -0.02933488	      0.00000000
      0.25982416	      0.90506628	     -0.03112547	      0.00000000
      0.26125965	      0.90669788	     -0.03290755	      0.00000000
      0.26269515	      0.90836370	     -0.03467732	      0.00000000
      0.26413064	      0.91006878	     -0.03643119	      0.00000000
      0.26556613	      0.91181992	     -0.03816537	      0.00000000
      0.26700162	      0.91362497	     -0.03987516	      0.00000000
      0.26843712	      0.91549119	     -0.04155741	      0.00000000
      0.26987261	      0.91742600	     -0.04320865	      0.00000000
      0.27130810	      0.91943209	     -0.04482926	      0.00000000
      0.27274359	      0.92151185	     -0.04641967	      0.00000000
      0.27417909	      0.92366343	     -0.04798299	      0.00000000
      0.27561458	      0.92588620	     -0.04952146	      0.00000000
      0.27705007	      0.92817753	     -0.05103848	      0.00000000
      0.27848557	      0.93053534	     -0.05253709	      0.00000000
      0.27992106	      0.93295623	     -0.05402092	      0.00000000
      0.28135655	      0.93543688	     -0.05549359	      0.00000000
      0.28279204	      0.93797348	     -0.05695872	      0.00000000
      0.28422754	      0.94056235	     -0.05841995	      0.00000000
      0.28566303	      0.94320029	     -0.05988035	      0.00000000
      0.28709852	      0.94588404	     -0.06134314	      0.00000000
      0.28853401	      0.94861136	     -0.06281072	      0.00000000
      0.28996951	      0.95137982	     -0.06428567	      0.00000000
      0.29140500	      0.95418834	     -0.06576965	      0.00000000
      0.29284049	      0.95703560	     -0.06726448	      0.00000000
      0.29427598	      0.95992159	     -0.06877121	      0.00000000
      0.29571148	      0.96284612	     -0.07029100	      0.00000000
      0.29714697	      0.96580978	     -0.07182445	      0.00000000
      0.29858246	      0.96881294	     -0.07337234	      0.00000000
      0.30001795	      0.97185615	     -0.07493512	      0.00000000
      0.30145345	      0.97493944	     -0.07651355	      0.00000000
      0.30288894	      0.97806361	     -0.07810787	      0.00000000
      0.30432443	      0.98122973	     -0.07971812	      0.00000000
      0.30575992	      0.98443969	     -0.08134404	      0.00000000
      0.30719542	      0.98769526	     -0.08298543	      0.00000000
      0.30863091	      0.99099803	     -0.08464235	      0.00000000
      0.31006640	      0.99434939	     -0.08631495	      0.00000000
      0.31150189	      0.99775034	     -0.08800362	      0.00000000
      0.31293739	      1.00120177	     -0.08970875	      0.00000000
      0.31437288	      1.00470482	     -0.09143062	      0.00000000
      0.31580837	      1.00826065	     -0.09316942	      0.00000000
      0.31724387	      1.01187121	     -0.09492501	      0.00000000
      0.31867936	      1.01553858	     -0.09669714	      0.00000000
      0.32011485	      1.01926513	     -0.09848557	      0.00000000
      0.32155034	      1.02305353	     -0.10028992	      0.00000000
      0.32298584	      1.02690514	     -0.10211029	      0.00000000
      0.32442133	      1.03082141	     -0.10394685	      0.00000000
      0.32585682	      1.03480139	     -0.10580042	      0.00000000
      0.32729231	      1.03884338	     -0.10767233	      0.00000000
      0.32872781	      1.04294592	     -0.10956324	      0.00000000
      0.33016330	      1.04710850	     -0.11147331	      0.00000000
      0.33159879	      1.05133256	     -0.11340153	      0.00000000
      0.33303428	      1.05561934	     -0.11534696	      0.00000000
      0.33446978	      1.05997063	     -0.11730829	      0.00000000
      0.33590527	      1.06438790	     -0.11928430	      0.00000000
      0.33734076	      1.06887242	     -0.12127408	      0.00000000
      0.33877625	      1.07342453	     -0.12327644	      0.00000000
      0.34021175	      1.07804086	     -0.12529054	      0.00000000
      0.34164724	      1.08272137	     -0.12731676	      0.00000000
      0.34308273	      1.08747190	     -0.12935620	      0.00000000
      0.34451822	      1.09229374	     -0.13140847	      0.00000000
      0.34595372	      1.09718954	     -0.13347307	      0.00000000
      0.34738921	      1.10216286	     -0.13554967	      0.00000000
      0.34882470	      1.10721969	     -0.13763867	      0.00000000
      0.35026020	      1.11236600	     -0.13974037	      0.00000000
      0.35169569	      1.11760872	     -0.14185614	      0.00000000
      0.35313118	      1.12295482	     -0.14398712	      0.00000000
      0.35456667	      1.12840992	     -0.14613535	      0.00000000
      0.35600217	      1.13398039	     -0.14830228	      0.00000000
      0.35743766	      1.13966927	     -0.15049096	      0.00000000
      0.35887315	      1.14548639	     -0.15270594	      0.00000000
      0.36030864	      1.15142473	     -0.15495044	      0.00000000
      0.36174414	      1.15748707	     -0.15723079	      0.00000000
      0.36317963	      1.16362743	     -0.15954174	      0.00000000
      0.36461512	      1.16980142	     -0.16188226	      0.00000000
      0.36605061	      1.17590654	     -0.16422643	      0.00000000
      0.36748611	      1.18189310	     -0.16656401	      0.00000000
      0.36892160	      1.18765367	     -0.16884281	      0.00000000
      0.37035709	      1.19303082	     -0.17101255	      0.00000000
      0.37179258	      1.19763708	     -0.17292951	      0.00000000
      0.37322808	      1.20099136	     -0.17442916	      0.00000000
      0.37466357	      1.20311326	     -0.17539526	      0.00000000
      0.37609906	      1.20415096	     -0.17574941	      0.00000000
      0.37753455	      1.20456419	     -0.17547702	      0.00000000
      0.37897005	      1.20471525	     -0.17454091	      0.00000000
      0.38040554	      1.20482122	     -0.17289114	      0.00000000
      0.38184103	      1.20534709	     -0.17038030	      0.00000000
      0.38327653	      1.20631986	     -0.16692701	      0.00000000
      0.38471202	      1.20719806	     -0.16259860	      0.00000000
      0.38614751	      1.20755080	     -0.15777691	      0.00000000
      0.38758300	      1.20743253	     -0.15271512	      0.00000000
      0.38901850	      1.20689115	     -0.14748835	      0.00000000
      0.39045399	      1.20589266	     -0.14219191	      0.00000000
      0.39188948	      1.20446547	     -0.13684447	      0.00000000
      0.39332497	      1.20260413	     -0.13148555	      0.00000000
      0.39476047	      1.20033167	     -0.12612625	      0.00000000
      0.39619596	      1.19766108	     -0.12078648	      0.00000000
      0.39763145	      1.19462006	     -0.11547568	      0.00000000
      0.39906694	      1.19123194	     -0.11020612	      0.00000000
      0.40050244	      1.18752842	     -0.10498656	      0.00000000
      0.40193793	      1.18353966	     -0.09982663	      0.00000000
      0.40337342	      1.17929985	     -0.09473604	      0.00000000
      0.40480891	      1.17484258	     -0.08972427	      0.00000000
      0.40624441	      1.17020123	     -0.08480356	      0.00000000
      0.40767990	      1.16540687	     -0.07999295	      0.00000000
      0.40911539	      1.16049024	     -0.07530566	      0.00000000
      0.41055088	      1.15546974	     -0.07079101	      0.00000000
      0.41198638	      1.15039298	     -0.06640488	      0.00000000
      0.41342187	      1.14534908	     -0.06201144	      0.00000000
      0.41485736	      1.14040393	     -0.05748682	      0.00000000
      0.41629286	      1.13558356	     -0.05280140	      0.00000000
      0.41772835	      1.13086329	     -0.04801532	      0.00000000
      0.41916384	      1.12623905	     -0.04314566	      0.00000000
      0.42059933	      1.12170422	     -0.03821226	      0.00000000
      0.42203483	      1.11725491	     -0.03323143	      0.00000000
      0.42347032	      1.11289137	     -0.02821963	      0.00000000
      0.42490581	      1.10861352	     -0.02319375	      0.00000000
      0.42634130	      1.10442526	     -0.01816987	      0.00000000
      0.42777680	      1.10032993	     -0.01316438	      0.00000000
      0.42921229	      1.09633206	     -0.00819127	      0.00000000
      0.43064778	      1.09243576	     -0.00326499	      0.00000000
      0.43208327	      1.08864385	      0.00160341	      0.00000000
      0.43351877	      1.08495912	      0.00640217	      0.00000000
      0.43495426	      1.08138215	      0.01112295	      0.00000000
      0.43638975	      1.07791376	      0.01575668	      0.00000000
      0.43782524	      1.07455289	      0.02029726	      0.00000000
      0.43926074	      1.07129880	      0.02473787	      0.00000000
      0.44069623	      1.06814960	      0.02907432	      0.00000000
      0.44213172	      1.06510366	      0.03330177	      0.00000000
      0.44356721	      1.06215877	      0.03741781	      0.00000000
      0.44500271	      1.05931282	      0.04141950	      0.00000000
      0.44643820	      1.05656345	      0.04530599	      0.00000000
      0.44787369	      1.05390822	      0.04907591	      0.00000000
      0.44930918	      1.05134517	      0.05272972	      0.00000000
      0.45074468	      1.04887263	      0.05626755	      0.00000000
      0.45218017	      1.04648890	      0.05969082	      0.00000000
      0.45361566	      1.04419223	      0.06300068	      0.00000000
      0.45505116	      1.04198039	      0.06619897	      0.00000000
      0.45648665	      1.03985125	      0.06928738	      0.00000000
      0.45792214	      1.03780208	      0.07226791	      0.00000000
      0.45935763	      1.03583031	      0.07514249	      0.00000000
      0.46079313	      1.03393274	      0.07791308	      0.00000000
      0.46222862	      1.03210638	      0.08058161	      0.00000000
      0.46366411	      1.03034766	      0.08314981	      0.00000000
      0.46509960	      1.02865312	      0.08561942	      0.00000000
      0.46653510	      1.02701879	      0.08799178	      0.00000000
      0.46797059	      1.02544083	      0.09026827	      0.00000000
      0.46940608	      1.02391501	      0.09244986	      0.00000000
      0.47084157	      1.02243707	      0.09453779	      0.00000000
      0.47227707	      1.02100277	      0.09653275	      0.00000000
      0.47371256	      1.01960791	      0.09843540	      0.00000000
      0.47514805	      1.01824886	      0.10024599	      0.00000000
      0.47658354	      1.01692205	      0.10196494	      0.00000000
      0.47801904	      1.01562428	      0.10359250	      0.00000000
      0.47945453	      1.01435225	      0.10512896	      0.00000000
      0.48089002	      1.01310294	      0.10657454	      0.00000000
      0.48232551	      1.01187330	      0.10792942	      0.00000000
      0.48376101	      1.01066048	      0.10919370	      0.00000000
      0.48519650	      1.00946162	      0.11036750	      0.00000000
      0.48663199	      1.00827409	      0.11145098	      0.00000000
      0.48806749	      1.00709523	      0.11244429	      0.00000000
      0.48950298	      1.00592256	      0.11334770	      0.00000000
      0.49093847	      1.00475354	      0.11416142	      0.00000000
      0.49237396	      1.00358576	      0.11488580	      0.00000000
      0.49380946	      1.00241680	      0.11552115	      0.00000000
      0.49524495	      1.00124433	      0.11606788	      0.00000000
      0.49668044	      1.00006600	      0.11652639	      0.00000000
      0.49811593	      0.99887961	      0.11689718	      0.00000000
      0.49955143	      0.99768291	      0.11718073	      0.00000000
      0.50098692	      0.99647379	      0.11737766	      0.00000000
      0.50242241	      0.99525010	      0.11748850	      0.00000000
      0.50385790	      0.99400992	      0.11751401	      0.00000000
      0.50529340	      0.99275132	      0.11745491	      0.00000000
      0.50672889	      0.99147263	      0.11731213	      0.00000000
      0.50816438	      0.99017207	      0.11708656	      0.00000000
      0.50959987	      0.98884829	      0.11677937	      0.00000000
      0.51103537	      0.98749978	      0.11639170	      0.00000000
      0.51247086	      0.98612569	      0.11592506	      0.00000000
      0.51390635	      0.98472541	      0.11538088	      0.00000000
      0.51534184	      0.98329841	      0.11476094	      0.00000000
      0.51677734	      0.98184372	      0.11406694	      0.00000000
      0.51821283	      0.98036128	      0.11330109	      0.00000000
      0.51964832	      0.97885093	      0.11246550	      0.00000000
      0.52108382	      0.97731301	      0.11156270	      0.00000000
      0.52251931	      0.97574767	      0.11059513	      0.00000000
      0.52395480	      0.97415570	      0.10956560	      0.00000000
      0.52539029	      0.97253763	      0.10847681	      0.00000000
      0.52682579	      0.97089501	      0.10733192	      0.00000000
      0.52826128	      0.96922914	      0.10613393	      0.00000000
      0.52969677	      0.96754279	      0.10488641	      0.00000000
      0.53113226	      0.96583878	      0.10359293	      0.00000000
      0.53256776	      0.96412086	      0.10225736	      0.00000000
      0.53400325	      0.96239257	      0.10088351	      0.00000000
      0.53543874	      0.96065733	      0.09947509	      0.00000000
      0.53687423	      0.95891845	      0.09803579	      0.00000000
      0.53830973	      0.95717883	      0.09656907	      0.00000000
      0.53974522	      0.95544144	      0.09507845	      0.00000000
      0.54118071	      0.95370900	      0.09356720	      0.00000000
      0.54261620	      0.95198427	      0.09203869	      0.00000000
      0.54405170	      0.95026985	      0.09049594	      0.00000000
      0.54548719	      0.94856835	      0.08894211	      0.00000000
      0.54692268	      0.94688220	      0.08737995	      0.00000000
      0.54835817	      0.94521389	      0.08581233	      0.00000000
      0.54979367	      0.94356570	      0.08424171	      0.00000000
      0.55122916	      0.94193996	      0.08267066	      0.00000000
      0.55266465	      0.94033879	      0.08110133	      0.00000000
      0.55410014	      0.93876438	      0.07953596	      0.00000000
      0.55553564	      0.93721871	      0.07797639	      0.00000000
      0.55697113	      0.93570379	      0.07642455	      0.00000000
      0.55840662	      0.93422146	      0.07488198	      0.00000000
      0.55984212	      0.93277359	      0.07335029	      0.00000000
      0.56127761	      0.93136185	      0.07183073	      0.00000000
      0.56271310	      0.92998796	      0.07032463	      0.00000000
      0.56414859	      0.92865343	      0.06883298	      0.00000000
      0.56558409	      0.92735981	      0.06735685	      0.00000000
      0.56701958	      0.92610843	      0.06589696	      0.00000000
      0.56845507	      0.92490070	      0.06445415	      0.00000000
      0.56989056	      0.92373774	      0.06302894	      0.00000000
      0.57132606	      0.92262076	      0.06162195	      0.00000000
      0.57276155	      0.92155069	      0.06023354	      0.00000000
      0.57419704	      0.92052852	      0.05886414	      0.00000000
      0.57563253	      0.91955499	      0.05751403	      0.00000000
      0.57706803	      0.91863090	      0.05618354	      0.00000000
      0.57850352	      0.91775681	      0.05487294	      0.00000000
      0.57993901	      0.91693337	      0.05358255	      0.00000000
      0.58137450	      0.91616096	      0.05231272	      0.00000000
      0.58281000	      0.91543998	      0.05106382	      0.00000000
      0.58424549	      0.91477046	      0.04983628	      0.00000000
      0.58568098	      0.91415191	      0.04863033	      0.00000000
      0.58711647	      0.91358476	      0.04744666	      0.00000000
      0.58855197	      0.91306996	      0.04628611	      0.00000000
      0.58998746	      0.91260960	      0.04514991	      0.00000000
      0.59142295	      0.91220558	      0.04403921	      0.00000000
      0.59285845	      0.91185953	      0.04295492	      0.00000000
      0.59429394	      0.91157298	      0.04189800	      0.00000000
      0.59572943	      0.91134668	      0.04086876	      0.00000000
      0.59716492	      0.91118153	      0.03986765	      0.00000000
      0.59860042	      0.91107772	      0.03889427	      0.00000000
      0.60003591	      0.91103561	      0.03794838	      0.00000000
      0.60147140	      0.91105500	      0.03702889	      0.00000000
      0.60290689	      0.91113579	      0.03613486	      0.00000000
      0.60434239	      0.91127750	      0.03526477	      0.00000000
      0.60577788	      0.91147971	      0.03441721	      0.00000000
      0.60721337	      0.91174176	      0.03359059	      0.00000000
      0.60864886	      0.91206302	      0.03278335	      0.00000000
      0.61008436	      0.91244273	      0.03199399	      0.00000000
      0.61151985	      0.91288019	      0.03122103	      0.00000000
      0.61295534	      0.91337460	      0.03046317	      0.00000000
      0.61439083	      0.91392523	      0.02971907	      0.00000000
      0.61582633	      0.91453132	      0.02898757	      0.00000000
      0.61726182	      0.91519212	      0.02826750	      0.00000000
      0.61869731	      0.91590692	      0.02755783	      0.00000000
      0.62013280	      0.91667501	      0.02685750	      0.00000000
      0.62156830	      0.91749572	      0.02616555	      0.00000000
      0.62300379	      0.91836838	      0.02548101	      0.00000000
      0.62443928	      0.91929239	      0.02480299	      0.00000000
      0.62587478	      0.92026712	      0.02413058	      0.00000000
      0.62731027	      0.92129203	      0.02346293	      0.00000000
      0.62874576	      0.92236655	      0.02279919	      0.00000000
      0.63018125	      0.92349020	      0.02213856	      0.00000000
      0.63161675	      0.92466248	      0.02148023	      0.00000000
      0.63305224	      0.92588298	      0.02082344	      0.00000000
      0.63448773	      0.92715128	      0.02016743	      0.00000000
      0.63592322	      0.92846701	      0.01951149	      0.00000000
      0.63735872	      0.92982983	      0.01885489	      0.00000000
      0.63879421	      0.93123945	      0.01819699	      0.00000000
      0.64022970	      0.93269558	      0.01753709	      0.00000000
      0.64166519	      0.93419801	      0.01687458	      0.00000000
      0.64310069	      0.93574650	      0.01620883	      0.00000000
      0.64453618	      0.93734091	      0.01553927	      0.00000000
      0.64597167	      0.93898106	      0.01486529	      0.00000000
      0.64740716	      0.94066685	      0.01418637	      0.00000000
      0.64884266	      0.94239817	      0.01350195	      0.00000000
      0.65027815	      0.94417497	      0.01281153	      0.00000000
      0.65171364	      0.94599717	      0.01211458	      0.00000000
      0.65314913	      0.94786477	      0.01141064	      0.00000000
      0.65458463	      0.94977775	      0.01069922	      0.00000000
      0.65602012	      0.95173612	      0.00997988	      0.00000000
      0.65745561	      0.95373991	      0.00925215	      0.00000000
      0.65889111	      0.95578917	      0.00851562	      0.00000000
      0.66032660	      0.95788396	      0.00776986	      0.00000000
      0.66176209	      0.96002435	      0.00701446	      0.00000000
      0.66319758	      0.96221043	      0.00624902	      0.00000000
      0.66463308	      0.96444232	      0.00547316	      0.00000000
      0.66606857	      0.96672015	      0.00468651	      0.00000000
      0.66750406	      0.96904404	      0.00388872	      0.00000000
      0.66893955	      0.97141417	      0.00307943	      0.00000000
      0.67037505	      0.97383072	      0.00225833	      0.00000000
      0.67181054	      0.97629387	      0.00142508	      0.00000000
      0.67324603	      0.97880384	      0.00057941	      0.00000000
      0.67468152	      0.98136086	     -0.00027899	      0.00000000
      0.67611702	      0.98396518	     -0.00115037	      0.00000000
      0.67755251	      0.98661706	     -0.00203499	      0.00000000
      0.67898800	      0.98931680	     -0.00293308	      0.00000000
      0.68042349	      0.99206467	     -0.00384486	      0.00000000
      0.68185899	      0.99486100	     -0.00477052	      0.00000000
      0.68329448	      0.99770611	     -0.00571026	      0.00000000
      0.68472997	      1.00060034	     -0.00666423	      0.00000000
      0.68616546	      1.00354402	     -0.00763258	      0.00000000
      0.68760096	      1.00653752	     -0.00861544	      0.00000000
      0.68903645	      1.00958118	     -0.00961294	      0.00000000
      0.69047194	      1.01267534	     -0.01062519	      0.00000000
      0.69190743	      1.01582035	     -0.01165230	      0.00000000
      0.69334293	      1.01901655	     -0.01269435	      0.00000000
      0.69477842	      1.02226426	     -0.01375143	      0.00000000
      0.69621391	      1.02556380	     -0.01482362	      0.00000000
      0.69764941	      1.02891548	     -0.01591100	      0.00000000
      0.69908490	      1.03231956	     -0.01701365	      0.00000000
      0.70052039	      1.03577633	     -0.01813165	      0.00000000
      0.70195588	      1.03928602	     -0.01926509	      0.00000000
      0.70339138	      1.04284887	     -0.02041405	      0.00000000
      0.70482687	      1.04646506	     -0.02157864	      0.00000000
      0.70626236	      1.05013479	     -0.02275895	      0.00000000
      0.70769785	      1.05385822	     -0.02395513	      0.00000000
      0.70913335	      1.05763550	     -0.02516728	      0.00000000
      0.71056884	      1.06146675	     -0.02639555	      0.00000000
      0.71200433	      1.06535210	     -0.02764009	      0.00000000
      0.71343982	      1.06929163	     -0.02890107	      0.00000000
      0.71487532	      1.07328544	     -0.03017865	      0.00000000
      0.71631081	      1.07733360	     -0.03147304	      0.00000000
      0.71774630	      1.08143618	     -0.03278441	      0.00000000
      0.71918179	      1.08559323	     -0.03411300	      0.00000000
      0.72061729	      1.08980479	     -0.03545901	      0.00000000
      0.72205278	      1.09407090	     -0.03682267	      0.00000000
      0.72348827	      1.09839158	     -0.03820424	      0.00000000
      0.72492376	      1.10276683	     -0.03960396	      0.00000000
      0.72635926	      1.10719665	     -0.04102212	      0.00000000
      0.72779475	      1.11168099	     -0.04245900	      0.00000000
      0.72923024	      1.11621983	     -0.04391490	      0.00000000
      0.73066574	      1.12081307	     -0.04539015	      0.00000000
      0.73210123	      1.12546063	     -0.04688509	      0.00000000
      0.73353672	      1.13016241	     -0.04840008	      0.00000000
      0.73497221	      1.13491828	     -0.04993549	      0.00000000
      0.73640771	      1.13972809	     -0.05149173	      0.00000000
      0.73784320	      1.14459168	     -0.05306918	      0.00000000
      0.73927869	      1.14950887	     -0.05466832	      0.00000000
      0.74071418	      1.15447941	     -0.05628960	      0.00000000
      0.74214968	      1.15950316	     -0.05793353	      0.00000000
      0.74358517	      1.16457988	     -0.05960061	      0.00000000
      0.74502066	      1.16970887	     -0.06129154	      0.00000000
      0.74645615	      1.17488988	     -0.06300689	      0.00000000
      0.74789165	      1.18012336	     -0.06474711	      0.00000000
      0.74932714	      1.18540909	     -0.06651274	      0.00000000
      0.75076263	      1.19074667	     -0.06830439	      0.00000000
      0.75219812	      1.19613583	     -0.07012260	      0.00000000
      0.75363362	      1.20157629	     -0.07196792	      0.00000000
      0.75506911	      1.20706777	     -0.07384092	      0.00000000
      0.75650460	      1.21260992	     -0.07574212	      0.00000000
      0.75794009	      1.21820238	     -0.07767206	      0.00000000
      0.75937559	      1.22384464	     -0.07963125	      0.00000000
      0.76081108	      1.22953621	     -0.08162017	      0.00000000
      0.76224657	      1.23527626	     -0.08363928	      0.00000000
      0.76368207	      1.24106404	     -0.08568902	      0.00000000
      0.76511756	      1.24689826	     -0.08776983	      0.00000000
      0.76655305	      1.25277777	     -0.08988213	      0.00000000
      0.76798854	      1.25870074	     -0.09202639	      0.00000000
      0.76942404	      1.26466550	     -0.09420304	      0.00000000
      0.77085953	      1.27066962	     -0.09641261	      0.00000000
      0.77229502	      1.27671087	     -0.09865561	      0.00000000
      0.77373051	      1.28278630	     -0.10093267	      0.00000000
      0.77516601	      1.28889313	     -0.10324442	      0.00000000
      0.77660150	      1.29502804	     -0.10559157	      0.00000000
      0.77803699	      1.30118784	     -0.10797487	      0.00000000
      0.77947248	      1.30736897	     -0.11039501	      0.00000000
      0.78090798	      1.31356798	     -0.11285275	      0.00000000
      0.78234347	      1.31978121	     -0.11534858	      0.00000000
      0.78377896	      1.32600505	     -0.11788308	      0.00000000
      0.78521445	      1.33223587	     -0.12045636	      0.00000000
      0.78664995	      1.33847000	     -0.12306864	      0.00000000
      0.78808544	      1.34470415	     -0.12571940	      0.00000000
      0.78952093	      1.35093492	     -0.12840823	      0.00000000
      0.79095642	      1.35715966	     -0.13113398	      0.00000000
      0.79239192	      1.36337548	     -0.13389559	      0.00000000
      0.79382741	      1.36958062	     -0.13669149	      0.00000000
      0.79526290	      1.37577301	     -0.13952014	      0.00000000
      0.79669839	      1.38195194	     -0.14237995	      0.00000000
      0.79813389	      1.38811635	     -0.14526924	      0.00000000
      0.79956938	      1.39426653	     -0.14818681	      0.00000000
      0.80100487	      1.40040246	     -0.15113130	      0.00000000
      0.80244037	      1.40652508	     -0.15410217	      0.00000000
      0.80387586	      1.41263516	     -0.15709873	      0.00000000
      0.80531135	      1.41873381	     -0.16012127	      0.00000000
      0.80674684	      1.42482210	     -0.16316988	      0.00000000
      0.80818234	      1.43090085	     -0.16624566	      0.00000000
      0.80961783	      1.43697085	     -0.16934953	      0.00000000
      0.81105332	      1.44303248	     -0.17248316	      0.00000000
      0.81248881	      1.44908620	     -0.17564803	      0.00000000
      0.81392431	      1.45513202	     -0.17884613	      0.00000000
      0.81535980	      1.46117008	     -0.18207931	      0.00000000
      0.81679529	      1.46720012	     -0.18534973	      0.00000000
      0.81823078	      1.47322197	     -0.18865950	      0.00000000
      0.81966628	      1.47923520	     -0.19201085	      0.00000000
      0.82110177	      1.48523942	     -0.19540598	      0.00000000
      0.82253726	      1.49123411	     -0.19884706	      0.00000000
      0.82397275	      1.49721876	     -0.20233627	      0.00000000
      0.82540825	      1.50319275	     -0.20587571	      0.00000000
      0.82684374	      1.50915549	     -0.20946747	      0.00000000
      0.82827923	      1.51510613	     -0.21311361	      0.00000000
      0.82971472	      1.52104391	     -0.21681618	      0.00000000
      0.83115022	      1.52696749	     -0.22057732	      0.00000000
      0.83258571	      1.53287579	     -0.22439912	      0.00000000
      0.83402120	      1.53876672	     -0.22828388	      0.00000000
      0.83545670	      1.54463864	     -0.23223391	      0.00000000
      0.83689219	      1.55048798	     -0.23625173	      0.00000000
      0.83832768	      1.55631198	     -0.24034019	      0.00000000
      0.83976317	      1.56210461	     -0.24450150	      0.00000000
      0.84119867	      1.56786128	     -0.24873891	      0.00000000
      0.84263416	      1.57357178	     -0.25305230	      0.00000000
      0.84406965	      1.57922817	     -0.25744358	      0.00000000
      0.84550514	      1.58481339	     -0.26190641	      0.00000000
      0.84694064	      1.59031390	     -0.26643775	      0.00000000
      0.84837613	      1.59570207	     -0.27101936	      0.00000000
      0.84981162	      1.60095644	     -0.27563919	      0.00000000
      0.85124711	      1.60603246	     -0.28025979	      0.00000000
      0.85268261	      1.61089660	     -0.28485497	      0.00000000
      0.85411810	      1.61547389	     -0.28935473	      0.00000000
      0.85555359	      1.61971252	     -0.29371067	      0.00000000
      0.85698908	      1.62347815	     -0.29779317	      0.00000000
      0.85842458	      1.62670111	     -0.30153539	      0.00000000
      0.85986007	      1.62911611	     -0.30467999	      0.00000000
      0.86129556	      1.63087921	     -0.30729552	      0.00000000
