moco_WoC_Solution_iter01_metabolic
nRows=601
nColumns=6
inDegrees=no
Body mass(kg)=90.0000
Distance(m)=1.0402
Total metabolic energy(J)=439.0677
Avg metabolic rate(W)=327.0085
endheader
time	met_rate_W	act_rate_W	maint_rate_W	short_rate_W	mech_rate_W
0.000000	513.274771	100.511168	109.754828	41.929666	152.908595
0.002238	508.244395	97.913524	106.895169	42.249707	152.935482
0.004476	503.213683	95.354110	104.068345	42.886046	152.577595
0.006713	498.721429	93.305533	101.835500	43.452873	151.805736
0.008951	493.709927	91.291916	99.623118	43.908265	150.571230
0.011189	487.420398	89.273370	97.388702	43.510387	148.939784
0.013427	480.775853	87.292578	95.174367	43.049723	146.959692
0.015665	473.258099	84.700592	92.339659	43.259215	144.670984
0.017902	465.575965	82.145576	89.533124	43.494798	142.129023
0.020140	456.482092	79.382819	86.583964	42.991152	139.270176
0.022378	447.294398	76.676319	83.668167	42.608531	136.107937
0.024616	437.367486	73.954206	80.752366	42.014988	132.477739
0.026854	427.717410	71.344223	77.895392	42.063433	128.317525
0.029091	417.069623	68.616827	74.771027	41.902070	123.805589
0.031329	406.276099	66.035858	71.723083	41.556484	118.972651
0.033567	395.982575	63.846427	69.650083	40.951695	113.524396
0.035805	385.471214	61.793732	67.661208	41.782681	106.242376
0.038043	381.209771	59.661038	65.695073	53.018897	94.834872
0.040280	377.857024	57.622280	63.796928	71.677137	76.765207
0.042518	373.677843	55.184696	60.998101	88.443744	60.947019
0.044756	371.313228	52.959918	58.330856	88.111320	63.835699
0.046994	369.037984	51.011169	55.922648	81.380689	72.649582
0.049232	365.852142	49.292828	53.642316	78.279573	76.568982
0.051469	357.173211	45.578764	49.778034	74.796320	78.954682
0.053707	346.506102	42.088366	46.044527	72.344016	77.967997
0.055945	332.936589	38.180364	41.941449	70.072429	74.684806
0.058183	317.867770	34.591089	38.017816	68.210197	68.995573
0.060421	302.185984	31.199508	34.318382	66.581402	62.038296
0.062658	286.038933	28.151375	30.819788	65.088724	53.935799
0.064896	272.609889	26.801929	29.307217	63.235667	45.226835
0.067134	262.596994	25.623290	27.896084	64.822256	36.222049
0.069372	270.487760	34.041019	37.395725	71.018130	20.004353
0.071610	286.395345	47.716753	49.602617	86.566262	-5.513646
0.073847	256.661585	37.614121	40.650058	89.481243	-19.101500
0.076085	230.189696	29.646395	32.865192	75.312912	-15.647168
0.078323	217.961163	28.332820	31.754325	58.108454	-8.415311
0.080561	209.680657	27.223861	30.783770	45.338816	-2.303171
0.082799	207.819665	26.773419	30.482561	37.542635	3.148069
0.085036	210.505482	26.351369	30.202845	36.926371	8.472003
0.087274	214.657842	26.331381	30.485514	35.828327	13.826608
0.089512	218.685898	26.326846	30.777853	34.497996	19.104048
0.091750	222.869487	26.433611	31.164717	33.144829	24.137288
0.093988	226.682633	26.552064	31.558974	31.787085	28.797703
0.096225	230.133055	26.699394	31.986218	30.475254	32.989292
0.098463	233.154073	26.857291	32.420006	29.238054	36.660593
0.100701	235.854766	27.032183	32.882607	28.178297	39.787208
0.102939	238.121466	27.218628	33.351662	27.215426	42.363177
0.105177	240.535377	27.515833	33.864710	26.758508	44.422237
0.107414	243.649537	27.820220	34.383848	27.433163	46.032851
0.109652	246.277464	28.112304	34.859143	28.049739	47.267378
0.111890	248.545604	28.409841	35.340016	28.602465	48.191786
0.114128	250.409591	28.605443	35.724980	29.225241	48.846300
0.116366	252.082064	28.805971	36.113839	29.904173	49.259215
0.118603	253.369665	28.934166	36.417095	30.593261	49.445590
0.120841	254.406313	29.067100	36.723752	31.234301	49.419311
0.123079	255.278156	29.191612	37.014677	31.939096	49.183123
0.125317	255.985480	29.321578	37.309783	32.656844	48.744306
0.127555	256.610789	29.465271	37.643254	33.422247	48.086278
0.129792	257.131029	29.615336	37.981177	34.275469	47.197753
0.132030	257.321847	29.740915	38.207569	34.973346	46.268096
0.134268	257.471252	29.870420	38.438053	35.503475	45.460421
0.136506	257.312750	29.928062	38.580472	35.720350	44.822186
0.138744	257.152019	29.987587	38.725185	35.734677	44.383891
0.140981	257.224186	30.049375	38.992803	35.971840	43.835044
0.143219	257.289231	30.118472	39.266472	36.546521	42.932380
0.145457	256.623516	29.897123	39.103205	37.142298	42.009276
0.147695	255.949476	29.677742	38.939632	37.500456	41.317946
0.149933	254.722797	29.237429	38.416922	37.488557	41.028494
0.152170	253.544104	28.801165	37.894344	37.005400	41.258907
0.154408	252.188964	28.229741	37.206316	36.239552	41.901108
0.156646	250.892867	27.664672	36.518510	35.203658	42.870196
0.158884	249.773822	27.177676	35.978239	33.978023	43.985458
0.161122	248.664047	26.699441	35.439090	32.754640	45.103472
0.163359	247.526683	26.252754	34.874992	31.429099	46.295138
0.165597	246.427745	25.813728	34.312515	30.004271	47.620926
0.167835	245.658388	25.467791	33.886324	28.653085	48.977046
0.170073	244.941986	25.127264	33.460802	27.398198	50.288235
0.172311	244.397373	24.817165	33.086542	26.307053	51.527906
0.174548	243.886785	24.512768	32.712572	25.341531	52.673572
0.176786	243.424137	24.199286	32.326860	24.550038	53.717405
0.179024	242.963508	23.892155	31.938722	23.867979	54.654233
0.181262	242.611150	23.551100	31.507368	23.489575	55.478754
0.183500	242.374875	23.216684	31.072265	23.347475	56.185333
0.185737	241.848815	22.806325	30.547295	23.221811	56.757905
0.187975	241.204657	22.404670	30.024054	23.119249	57.182188
0.190213	241.180258	22.285545	29.909619	23.066505	57.489241
0.192451	241.090951	22.172480	29.796128	23.026891	57.712970
0.194689	240.586921	21.907254	29.451741	23.029237	57.857756
0.196926	240.117208	21.647069	29.107099	23.114203	57.925314
0.199164	240.055416	21.428384	28.797200	23.562322	57.931118
0.201402	239.979810	21.214876	28.487778	24.027752	57.886568
0.203640	239.885280	21.075648	28.291405	24.336934	57.807079
0.205878	239.814803	20.938847	28.094864	24.829125	57.707268
0.208115	239.800906	20.851563	27.968997	25.307864	57.596085
0.210353	239.899704	20.766434	27.843031	25.834489	57.483561
0.212591	240.325010	20.752645	27.801911	26.393283	57.393606
0.214829	240.836777	20.740994	27.761166	27.001752	57.346831
0.217067	241.633584	20.819033	27.819482	27.629827	57.378801
0.219304	242.608166	20.900292	27.879626	28.316864	57.524318
0.221542	243.577380	20.939620	27.912444	28.993263	57.743923
0.223780	244.606298	20.979788	27.945932	29.695703	57.995333
0.226018	246.202160	21.209224	28.161845	30.437661	58.402388
0.228256	247.917697	21.444543	28.404266	31.232344	58.843988
0.230493	249.272418	21.492272	28.461080	32.019995	59.305150
0.232731	250.585607	21.540665	28.519274	32.823569	59.706955
0.234969	251.741912	21.549883	28.530240	33.615050	60.050566
0.237207	252.841733	21.559587	28.542379	34.401226	60.341502
0.239445	253.591319	21.455561	28.440107	35.154164	60.543734
0.241682	254.173714	21.352325	28.338045	35.858048	60.626973
0.243920	254.435015	21.193499	28.179354	36.477936	60.585453
0.246158	254.471917	21.038053	28.021031	36.999369	60.414350
0.248396	254.422535	20.953554	27.955454	37.396195	60.117963
0.250633	254.115290	20.873112	27.890274	37.653567	59.698784
0.252871	254.011332	20.896342	27.958639	37.981761	59.174904
0.255109	253.727883	20.922326	28.027166	38.214521	58.564093
0.257347	253.293297	21.008413	28.186507	38.235276	57.863261
0.259585	252.599007	21.098092	28.346832	38.071619	57.082594
0.261822	251.813874	21.311127	28.686322	37.600614	56.215983
0.264060	250.703733	21.530346	29.028860	36.860309	55.284740
0.266298	250.199865	22.030993	29.775239	36.086390	54.307287
0.268536	249.333436	22.542260	30.528684	34.916798	53.345726
0.270774	248.335683	23.020122	31.235127	33.546512	52.534002
0.273011	247.845085	23.506840	31.947661	32.341567	51.927345
0.275249	247.117032	23.725572	32.259015	30.984359	51.492205
0.277487	247.367338	23.945902	32.570166	30.139160	51.022622
0.279725	249.141645	24.100038	32.789062	33.249304	50.361963
0.281963	251.179435	24.255218	33.007638	36.018796	49.481399
0.284200	252.870666	24.488936	33.361709	38.312428	48.495787
0.286438	254.230130	24.725478	33.718621	40.240145	47.523425
0.288676	255.575767	25.054518	34.205734	41.692181	46.632290
0.290914	256.846622	25.390461	34.700414	42.888740	45.868021
0.293152	258.346995	25.628462	35.020585	44.525410	45.172636
0.295389	259.799728	25.871415	35.345890	46.089869	44.492574
0.297627	260.920254	26.176402	35.767116	47.218318	43.758433
0.299865	261.933466	26.484349	36.191841	48.358191	42.899107
0.302103	262.252482	26.614865	36.389767	49.400823	41.847067
0.304341	262.375758	26.749022	36.591546	50.505959	40.529330
0.306578	262.311665	26.932863	36.848211	51.972729	38.558102
0.308816	261.889836	27.132865	37.110953	54.098324	35.548307
0.311054	261.091037	27.284155	37.258950	57.462352	31.086736
0.313292	260.215268	27.494137	37.423048	62.404736	24.895578
0.315530	258.930389	27.517349	37.508388	67.844012	18.066326
0.317767	257.633740	27.554548	37.596855	73.200158	11.288020
0.320005	255.993448	27.353459	37.426896	78.271650	4.730951
0.322243	254.245484	27.158799	37.263216	82.446740	-1.048277
0.324481	251.490506	26.354520	36.714605	83.290570	-3.466407
0.326719	249.074420	25.735662	36.299995	79.110674	-0.797521
0.328956	249.462893	26.418733	37.406467	72.708140	4.109485
0.331194	249.918137	27.123746	38.506193	66.181103	9.237570
0.333432	248.624489	27.183609	38.600465	59.659259	14.301829
0.335670	247.137043	27.244916	38.697457	53.443408	18.887914
0.337908	243.607542	26.583926	37.704551	47.681717	22.800495
0.340145	239.893188	25.938107	36.722365	42.498788	25.921674
0.342383	237.337950	25.782572	36.484482	38.139505	28.148137
0.344621	234.806465	25.637094	36.251526	34.631347	29.543785
0.346859	234.095207	26.322609	36.927844	32.478031	29.655886
0.349097	233.667417	27.133504	37.652752	31.165708	28.985996
0.351334	231.067850	26.812637	37.348574	28.289089	29.803865
0.353572	228.335832	26.498668	37.035115	23.533040	32.331277
0.355810	225.028924	25.946851	36.581207	18.153755	35.274209
0.358048	224.066258	25.423733	36.147316	15.323675	37.475722
0.360286	224.554820	25.256384	36.178838	16.446662	38.424250
0.362523	225.230395	25.109838	36.222995	17.496755	38.223023
0.364761	224.704687	24.945723	36.149558	18.349491	37.161063
0.366999	224.153794	24.790892	36.080882	19.712271	35.555190
0.369237	222.408671	24.583089	35.787724	20.321098	33.731222
0.371475	220.424062	24.378063	35.496494	20.597752	31.957714
0.373712	218.935125	24.618052	35.734821	20.179182	30.404845
0.375950	217.596618	24.871391	35.983238	19.594745	29.148183
0.378188	215.672557	24.728881	35.665824	19.140769	28.137948
0.380426	214.500114	24.598633	35.355474	19.218314	27.328634
0.382664	214.620475	24.925019	35.747068	19.319209	26.630238
0.384901	214.927896	25.259766	36.142442	19.542916	25.983979
0.387139	214.530125	25.280953	36.133113	19.801020	25.316424
0.389377	214.155191	25.307119	36.126992	20.142731	24.579945
0.391615	213.664087	25.296551	36.067702	20.518346	23.783331
0.393853	213.180644	25.293372	36.013707	20.939061	22.936633
0.396090	212.801324	25.321374	36.007016	21.402605	22.072789
0.398328	212.487252	25.355922	36.005252	21.910310	21.218603
0.400566	212.359933	25.439812	36.058333	22.444515	20.420602
0.402804	212.373960	25.530063	36.117014	23.020945	19.712134
0.405042	213.664345	26.136890	36.850730	23.627110	19.066565
0.407279	215.153254	26.773095	37.602077	24.255847	18.495351
0.409517	216.961471	27.456483	38.399381	24.930188	18.068855
0.411755	219.030683	28.169233	39.214226	25.622862	17.845972
0.413993	221.485449	28.929398	40.069675	26.408013	17.881313
0.416231	224.298160	29.714108	40.940560	27.230146	18.219123
0.418468	227.179556	30.387205	41.635497	28.116400	18.901955
0.420706	230.451413	31.082286	42.345661	29.016481	19.955185
0.422944	234.147738	31.796299	43.046571	29.938015	21.390429
0.425182	238.379225	32.534709	43.765440	30.880770	23.211592
0.427420	243.193661	33.387269	44.600896	31.802099	25.414778
0.429657	248.408912	34.268520	45.458353	32.747187	27.946950
0.431895	254.434945	35.218529	46.356758	33.985206	30.887387
0.434133	261.156292	36.200975	47.281382	35.489464	34.198643
0.436371	268.041972	37.087263	48.096669	36.995368	37.878845
0.438609	275.336151	38.000215	48.936146	38.509731	41.910119
0.440846	282.593391	38.784148	49.632103	39.944345	46.258428
0.443084	290.155761	39.590720	50.351055	41.368458	50.873804
0.445322	298.520111	40.507438	51.252009	43.081853	55.693573
0.447560	307.159017	41.445712	52.173831	44.807631	60.711038
0.449798	314.999848	41.998121	52.659225	46.371486	65.911662
0.452035	322.943181	42.563056	53.162267	47.871607	71.247035
0.454273	330.131663	42.799650	53.324384	49.213759	76.652721
0.456511	338.267638	43.045458	53.499521	51.453301	82.069500
0.458749	347.010999	43.523388	54.113720	53.614347	87.488023
0.460987	355.778046	44.014091	54.740782	55.746184	92.926248
0.463224	363.369910	44.080113	54.746305	57.742925	98.379942
0.465462	370.951254	44.163733	54.766998	59.692967	103.839463
0.467700	377.799274	44.003746	54.612421	61.368686	109.266911
0.469938	384.486490	43.859801	54.469033	62.953467	114.612950
0.472176	389.933258	42.975680	53.400690	65.147645	119.872941
0.474413	395.201318	42.106668	52.332628	67.315148	125.004373
0.476651	400.912699	41.701099	52.027534	68.935858	129.892391
0.478889	406.134278	41.317703	51.727359	70.302672	134.468073
0.481127	410.606009	40.776825	51.224851	71.538735	138.741221
0.483365	414.516930	40.257531	50.725729	72.502031	142.695587
0.485602	416.842899	39.411593	49.839273	73.000725	146.243854
0.487840	418.384665	38.597711	48.962216	73.165423	149.296574
0.490078	419.435851	38.014801	48.296710	72.963724	151.842117
0.492316	419.681047	37.462163	47.627054	72.506914	153.871757
0.494554	420.523988	37.609548	47.880238	71.480216	155.441654
0.496791	420.741241	37.774104	48.123725	70.216648	156.602869
0.499029	420.202517	37.986444	48.420946	68.660736	157.157755
0.501267	419.115153	38.228145	48.705042	67.177083	157.032387
0.503505	415.682721	37.836977	48.061221	65.376735	156.429779
0.505743	411.246073	37.474010	47.430915	63.029735	155.329800
0.507980	406.624753	37.784002	47.826772	59.445036	153.585916
0.510218	402.235280	38.125265	48.231817	56.657438	151.239143
0.512456	396.614891	38.220448	48.235697	53.261449	148.289858
0.514694	393.876032	38.337100	48.231696	53.950193	144.737810
0.516932	396.076517	39.427979	49.369386	58.446148	140.628558
0.519169	397.926626	40.636447	50.588855	62.358715	136.056298
0.521407	401.547094	43.174668	53.183390	65.934459	130.874418
0.523645	404.609468	45.993095	55.997191	69.138018	125.002570
0.525883	408.516431	49.449526	59.361757	73.087744	118.274918
0.528121	416.127285	53.062020	62.828467	82.805854	109.227249
0.530358	428.747373	56.614237	66.221420	101.578190	96.258063
0.532596	444.021078	60.295215	69.708940	131.918734	74.117717
0.534834	454.972020	61.192882	70.225447	183.235786	32.341076
0.537072	461.494045	62.129891	70.749283	242.564878	-21.934489
0.539310	457.946012	61.020285	68.640063	281.815973	-61.517522
0.541547	440.798110	60.217013	66.764749	272.075780	-66.251631
0.543785	413.907204	58.213725	62.975584	169.631759	14.988349
0.546023	387.799438	57.332467	60.088492	51.449510	110.316520
0.548261	411.927375	62.678625	65.483938	47.746542	127.959125
0.550499	421.281804	68.564110	71.176927	54.921753	118.414411
0.552736	406.788841	66.509134	69.002738	55.121350	107.853713
0.554974	393.090339	64.601078	66.908638	51.545249	101.693886
0.557212	382.313447	63.334098	65.728041	48.010639	96.880157
0.559450	372.468707	62.109569	64.567083	44.729753	92.691789
0.561688	365.336579	61.291856	64.253389	42.535535	88.882220
0.563925	359.632695	60.492955	63.932765	41.216968	85.617413
0.566163	354.186315	58.986947	63.035190	40.350051	83.445336
0.568401	350.070014	57.524604	62.159203	39.817867	82.204473
0.570639	344.981691	55.288172	60.357213	39.430047	81.547651
0.572877	340.268801	53.095037	58.571788	39.137492	81.110155
0.575114	336.452661	51.066401	56.825573	39.375484	80.834194
0.577352	333.214201	49.069770	55.091060	39.954733	80.749897
0.579590	330.941665	47.683705	53.977997	40.240072	80.693780
0.581828	328.642075	46.320366	52.874499	40.522530	80.582100
0.584066	326.699128	45.321606	52.086432	40.585396	80.370352
0.586303	324.603388	44.340868	51.308035	40.604821	80.016721
0.588541	321.420760	43.065172	50.105264	40.375714	79.548715
0.590779	318.004586	41.811940	48.917132	40.029011	78.934140
0.593017	314.361095	40.590154	47.792040	39.659740	78.062325
0.595255	310.379444	39.392660	46.681660	39.229643	76.879378
0.597492	306.584236	38.444842	45.877396	38.903251	75.325376
0.599730	303.196929	37.519887	45.086077	39.211990	73.346085
0.601968	300.613164	36.946064	44.732576	39.895313	70.987220
0.604206	297.882861	36.390967	44.388837	40.694569	68.334501
0.606444	295.792872	36.200078	44.485731	41.675608	65.328111
0.608681	293.585387	36.024237	44.590819	42.897804	61.934411
0.610919	290.362556	35.513260	44.300856	44.242568	58.131450
0.613157	287.007778	35.017241	44.016769	45.868461	53.896005
0.615395	284.150229	34.829913	44.112024	47.258003	49.709966
0.617633	281.285494	34.658956	44.216523	48.164313	45.978723
0.619870	280.906925	35.232246	45.605602	51.044693	40.733640
0.622108	280.716278	35.907022	47.068189	56.889735	32.535841
0.624346	278.464186	35.698052	47.258730	63.877240	23.294034
0.626584	276.264836	35.523162	47.466493	70.419844	14.498998
0.628822	272.601390	35.105287	47.272097	74.868834	6.985234
0.631059	268.878211	34.710419	47.088304	77.475286	1.219994
0.633297	264.992044	34.481804	46.969406	77.991020	-2.853933
0.635535	261.055167	34.268316	46.860617	76.810115	-5.314593
0.637773	258.271037	34.573092	47.375947	74.280814	-6.420788
0.640011	255.591746	34.890774	47.898066	70.710635	-6.396526
0.642248	252.230145	34.877292	48.024056	66.314037	-5.494873
0.644486	248.926012	34.879894	48.156791	61.307036	-3.944648
0.646724	244.745357	34.309892	47.564956	56.356726	-2.027356
0.648962	240.558199	33.754627	46.975074	51.284941	-0.015873
0.651200	236.684143	33.101716	46.229836	46.857940	1.913237
0.653437	232.797255	32.469819	45.490088	42.552955	3.675275
0.655675	228.580485	31.503687	44.327098	38.887084	5.226397
0.657913	224.389854	30.566925	43.173719	35.501158	6.498032
0.660151	222.881603	30.715285	43.246195	32.942524	7.315725
0.662389	221.438618	30.971036	43.373088	30.660189	7.726437
0.664626	213.564051	28.110950	40.030743	28.646051	7.993822
0.666864	206.279139	25.513089	36.846679	27.080349	8.009740
0.669102	204.322235	25.439479	36.791899	25.699276	7.554490
0.671340	202.537868	25.398360	36.756015	24.807068	6.730184
0.673578	200.610382	25.244376	36.683934	24.150991	5.666868
0.675815	198.976374	25.119352	36.629600	23.893094	4.367117
0.678053	197.248553	24.934769	36.408141	23.817148	2.957392
0.680291	195.495418	24.764139	36.191557	23.713003	1.540829
0.682529	194.215733	25.139364	36.747088	22.810176	0.074925
0.684767	192.899833	25.529670	37.309074	21.922753	-1.467745
0.687004	192.664746	26.533817	38.673133	20.733771	-3.056851
0.689242	192.587153	27.577574	40.061389	19.653444	-4.631571
0.691480	192.816393	28.492298	41.222290	19.400222	-6.089266
0.693718	193.218508	29.440809	42.401956	19.073334	-7.347670
0.695956	192.617517	29.973888	42.987077	18.544266	-8.411391
0.698193	192.147168	30.526593	43.581521	17.947876	-9.312697
0.700431	190.386064	30.130579	42.828129	17.752199	-9.613867
0.702669	188.765971	29.773659	42.098554	16.792998	-9.078110
0.704907	189.287453	30.497887	42.845415	15.139142	-8.268889
0.707145	190.003888	31.244287	43.603780	13.696626	-7.513836
0.709382	190.248372	31.871307	44.148716	11.925455	-6.572484
0.711620	190.711593	32.523970	44.707847	10.014066	-5.313715
0.713858	191.627387	33.308469	45.425584	8.063837	-3.854169
0.716096	192.729558	34.119804	46.158057	6.145080	-2.279139
0.718334	194.724653	34.895285	46.800705	5.135175	-0.600685
0.720571	197.935640	35.702417	47.461562	5.160553	1.156399
0.722809	201.213415	36.521014	48.084710	5.198761	2.946568
0.725047	204.560973	37.376402	48.729658	5.245424	4.735961
0.727285	208.075552	38.329579	49.466591	5.294047	6.502780
0.729522	211.615977	39.320808	50.226030	5.344321	8.233309
0.731760	215.229917	40.382032	51.043081	5.389817	9.913914
0.733998	218.845822	41.481719	51.882597	5.433441	11.536892
0.736236	222.432212	42.613735	52.732681	5.469267	13.094981
0.738474	226.007519	43.783655	53.604520	5.501097	14.586325
0.740711	229.542061	44.976104	54.491750	5.520976	16.011128
0.742949	233.060918	46.203683	55.398633	5.531384	17.375348
0.745187	236.748696	47.465423	56.356593	5.680437	18.685081
0.747425	240.662451	48.758832	57.330236	6.053547	19.950009
0.749663	244.768917	50.096801	58.379673	6.533826	21.180669
0.751900	248.953227	51.463463	59.442771	7.073963	22.387687
0.754138	253.110239	52.878728	60.589131	7.473286	23.576823
0.756376	257.306916	54.319283	61.749829	7.886602	24.752736
0.758614	261.495013	55.797253	62.996437	8.180827	25.916323
0.760852	265.710633	57.297467	64.255865	8.480382	27.067824
0.763089	269.858641	58.773125	65.516255	8.742326	28.213460
0.765327	274.043545	60.268510	66.788166	9.012467	29.357295
0.767565	278.107972	61.690934	67.989900	9.304621	30.502551
0.769803	282.195400	63.130853	69.201951	9.590496	31.649865
0.772041	286.206122	64.510741	70.356564	9.903007	32.812568
0.774278	290.255420	65.905988	71.520270	10.208616	33.996854
0.776516	294.150127	67.212486	72.606454	10.521471	35.185528
0.778754	298.058102	68.531913	73.700430	10.832441	36.369087
0.780992	301.844880	69.789859	74.759185	11.126687	37.544704
0.783230	305.644195	71.058777	75.824703	11.421427	38.715167
0.785467	309.443265	72.299100	76.909599	11.711012	39.902050
0.787705	313.290220	73.548699	78.000374	12.011186	41.112077
0.789943	316.856690	74.652820	78.962575	12.302555	42.323163
0.792181	320.424197	75.764157	79.929575	12.598130	43.519386
0.794419	323.709629	76.744067	80.791801	12.866973	44.696577
0.796656	326.979360	77.729503	81.657935	13.133074	45.851594
0.798894	330.003047	78.602115	82.435037	13.376380	46.985372
0.801132	333.007156	79.479009	83.215337	13.613391	48.098554
0.803370	335.805171	80.258581	83.918734	13.838564	49.192017
0.805608	338.581109	81.041506	84.624724	14.055538	50.265806
0.807845	341.155822	81.726480	85.250825	14.271025	51.317924
0.810083	343.701564	82.414080	85.879000	14.476542	52.346467
0.812321	346.048351	83.006005	86.431514	14.680180	53.349419
0.814559	348.361722	83.600024	86.985703	14.874199	54.324841
0.816797	350.469222	84.102214	87.471262	15.051733	55.271278
0.819034	352.541134	84.606105	87.958199	15.220854	56.187301
0.821272	354.384981	85.008380	88.361454	15.377976	57.072284
0.823510	356.190560	85.412077	88.765867	15.525875	57.925315
0.825748	357.756319	85.695324	89.059765	15.700829	58.742141
0.827986	359.271433	85.979913	89.354697	15.863161	59.518226
0.830223	360.550197	86.149844	89.554022	16.046928	60.246556
0.832461	361.757403	86.321215	89.754335	16.211218	60.920150
0.834699	362.709296	86.396002	89.871034	16.361877	61.532108
0.836937	363.562276	86.472117	89.988522	16.478591	62.076875
0.839175	364.189537	86.502866	90.045145	16.540637	62.556824
0.841412	364.707172	86.534451	90.102157	16.552879	62.975967
0.843650	365.158549	86.603884	90.178950	16.490269	63.346750
0.845888	365.526057	86.674026	90.256034	16.380452	63.681420
0.848126	365.907040	86.793197	90.391039	16.209172	63.986042
0.850364	366.232727	86.913885	90.526936	16.003978	64.266677
0.852601	366.494112	87.023759	90.670584	15.746553	64.528558
0.854839	366.731365	87.135633	90.815348	15.454790	64.776571
0.857077	366.807597	87.186147	90.908042	15.110687	65.016331
0.859315	366.850052	87.238062	91.001541	14.726687	65.253004
0.861553	366.737748	87.227986	91.055234	14.294087	65.490264
0.863790	366.592998	87.219036	91.109420	13.824020	65.730556
0.866028	366.333830	87.160362	91.135499	13.312461	65.976502
0.868266	366.040851	87.103052	91.162146	12.771783	66.230028
0.870504	365.996621	86.989161	91.130186	12.501087	66.490996
0.872742	366.034580	86.877304	91.099222	12.552649	66.759532
0.874979	366.078898	86.756266	91.056417	12.610849	67.037763
0.877217	366.196662	86.637649	91.014856	12.674899	67.327845
0.879455	366.449664	86.549993	91.007510	12.742363	67.633567
0.881693	366.755737	86.464382	91.001148	12.816320	67.958721
0.883931	367.128042	86.397974	91.011906	12.892389	68.304824
0.886168	367.537239	86.333077	91.023299	12.978808	68.673208
0.888406	367.979921	86.270953	91.032563	13.076144	69.063665
0.890644	368.458758	86.209936	91.042199	13.190637	69.475260
0.892882	368.959658	86.147952	91.046380	13.316618	69.907713
0.895120	369.489303	86.086822	91.050703	13.451139	70.359765
0.897357	370.044384	86.028679	91.054650	13.587212	70.831511
0.899595	370.620666	85.971211	91.058615	13.723122	71.322137
0.901833	371.223463	85.919047	91.066983	13.856188	71.831242
0.904071	371.836537	85.867427	91.071263	13.985714	72.357749
0.906309	372.467078	85.819883	91.077181	14.111041	72.900294
0.908546	373.106379	85.772793	91.082933	14.231305	73.457091
0.910784	373.756877	85.727229	91.091888	14.346251	74.026083
0.913022	374.410833	85.682055	91.100681	14.455156	74.604903
0.915260	375.063618	85.634611	91.110149	14.557462	75.191057
0.917498	375.713981	85.587515	91.119471	14.652988	75.781688
0.919735	376.349042	85.534261	91.126230	14.740718	76.373802
0.921973	376.974546	85.481344	91.132871	14.821071	76.963925
0.924211	377.575078	85.421825	91.136101	14.892925	77.548385
0.926449	378.157162	85.362686	91.139268	14.957508	78.123043
0.928687	378.717356	85.303659	91.143842	15.014952	78.684139
0.930924	379.257873	85.245151	91.148456	15.067877	79.227751
0.933162	379.832205	85.204798	91.165909	15.118434	79.750673
0.935400	380.426419	85.165150	91.183542	15.169287	80.250089
0.937638	381.057529	85.157264	91.218808	15.220750	80.720959
0.939876	381.654880	85.150023	91.254327	15.271183	81.159173
0.942113	382.227856	85.154303	91.297826	15.320588	81.558967
0.944351	382.752065	85.159294	91.341743	15.381953	81.915491
0.946589	383.202047	85.147743	91.381486	15.471434	82.226264
0.948827	383.595635	85.137275	91.421958	15.575806	82.487885
0.951065	383.863572	85.101299	91.430400	15.673643	82.691988
0.953302	384.059064	85.066255	91.439587	15.757806	82.833416
0.955540	384.151830	85.022333	91.417949	15.829728	82.922013
0.957778	384.192499	84.978828	91.396526	15.891242	82.966972
0.960016	384.268649	84.967640	91.413690	15.945234	82.983126
0.962254	384.325012	84.956824	91.430867	15.994054	82.983763
0.964491	384.415152	84.961551	91.479113	16.038872	82.975020
0.966729	384.497861	84.966548	91.526615	16.080656	82.961977
0.968967	384.573328	84.967114	91.576203	16.119712	82.946158
0.971205	384.645367	84.967902	91.625680	16.156309	82.928783
0.973443	384.685539	84.954404	91.661261	16.190384	82.909540
0.975680	384.721746	84.941088	91.696682	16.221901	82.888235
0.977918	384.713507	84.909314	91.711787	16.250523	82.863291
0.980156	384.697875	84.877696	91.726709	16.275978	82.833315
0.982394	384.650125	84.835062	91.729207	16.298138	82.797075
0.984632	384.592412	84.792576	91.731524	16.317431	82.753533
0.986869	384.515209	84.745706	91.729460	16.335635	82.701935
0.989107	384.426521	84.698988	91.727237	16.356789	82.641645
0.991345	384.318468	84.648275	91.721982	16.386314	82.571893
0.993583	384.197208	84.597729	91.716605	16.426771	82.491922
0.995821	384.049858	84.540730	91.705890	16.474818	82.400888
0.998058	383.887115	84.483913	91.695095	16.524803	82.297913
1.000296	383.690469	84.418065	91.676117	16.573211	82.182226
1.002534	383.475903	84.352413	91.657097	16.619046	82.053011
1.004772	383.222193	84.276432	91.628063	16.662493	81.909754
1.007010	382.951332	84.200659	91.599018	16.703967	81.751888
1.009247	382.651513	84.114918	91.559786	16.743861	81.579254
1.011485	382.356267	84.029395	91.520564	16.782455	81.391617
1.013723	382.048931	83.935606	91.472453	16.820009	81.189125
1.015961	381.733863	83.842046	91.424368	16.856745	80.971836
1.018199	381.390304	83.742607	91.369455	16.892896	80.740098
1.020436	381.030534	83.643408	91.314584	16.928710	80.494214
1.022674	380.647688	83.540790	91.255298	16.964377	80.234425
1.024912	380.251041	83.438423	91.196073	17.000125	79.960938
1.027150	379.832501	83.332742	91.131887	17.036066	79.673763
1.029388	379.401018	83.227320	91.067784	17.072373	79.372923
1.031625	378.950004	83.119584	90.999811	17.109074	79.058260
1.033863	378.486025	83.012112	90.931948	17.146278	78.729665
1.036101	378.003519	82.902832	90.860990	17.183932	78.386890
1.038339	377.507661	82.793822	90.790177	17.222082	78.029759
1.040577	376.991707	82.682647	90.715626	17.260596	77.657963
1.042814	376.461758	82.571742	90.641254	17.299446	77.271294
1.045052	375.911760	82.458998	90.563588	17.338436	76.869467
1.047290	375.347036	82.346522	90.486141	17.377475	76.452290
1.049528	374.763060	82.232849	90.406222	17.416333	76.019614
1.051766	374.163802	82.119441	90.326561	17.454873	75.571366
1.054003	373.547063	82.006000	90.245428	17.492853	75.107611
1.056241	372.914886	81.892819	90.164592	17.530120	74.628498
1.058479	372.269003	81.781351	90.084117	17.566466	74.134437
1.060717	371.608276	81.670136	90.003976	17.601751	73.625937
1.062955	370.939760	81.563086	89.927195	17.635694	73.103399
1.065192	370.256749	81.456281	89.850792	17.668089	72.567235
1.067430	369.568989	81.355137	89.779270	17.698537	72.017692
1.069668	368.866546	81.254225	89.708170	17.726735	71.455017
1.071906	368.145939	81.153515	89.631640	17.752921	70.881347
1.074144	367.416650	81.053022	89.556766	17.777131	70.299044
1.076381	366.708541	80.969036	89.498402	17.798755	69.707502
1.078619	365.987669	80.885254	89.438567	17.817403	69.107434
1.080857	365.266963	80.808222	89.382808	17.832915	68.499843
1.083095	364.537154	80.731380	89.327475	17.845154	67.885824
1.085333	363.821215	80.666517	89.282731	17.853939	67.266588
1.087570	363.098366	80.601832	89.238453	17.859129	66.643440
1.089808	362.396190	80.551212	89.207368	17.860504	66.017586
1.092046	361.689213	80.500762	89.176794	17.857917	65.390291
1.094284	361.006215	80.464843	89.159940	17.851275	64.762877
1.096522	360.320932	80.429089	89.143639	17.840505	64.136700
1.098759	359.665772	80.409372	89.143202	17.825556	63.513059
1.100997	359.010911	80.389823	89.143365	17.806421	62.893287
1.103235	358.391639	80.387419	89.161065	17.783174	62.278705
1.105473	357.775539	80.385194	89.179415	17.755921	61.670661
1.107711	357.201669	80.401722	89.217296	17.724908	61.070527
1.109948	356.634280	80.418447	89.255879	17.690380	60.479711
1.112186	356.119533	80.457328	89.317447	17.652752	59.899730
1.114424	355.615232	80.496433	89.379772	17.612420	59.332168
1.116662	355.176432	80.562151	89.469287	17.569903	58.778750
1.118900	354.752716	80.628130	89.559622	17.525706	58.241291
1.121137	354.403131	80.722812	89.679172	17.480353	57.721490
1.123375	354.073174	80.817809	89.799615	17.434327	57.221083
1.125613	353.815103	80.938225	89.946413	17.388077	56.741321
1.127851	353.580020	81.059022	90.094183	17.341967	56.283375
1.130089	353.405697	81.198097	90.261764	17.296355	55.847932
1.132326	353.251476	81.337625	90.425501	17.251562	55.435498
1.134564	353.146240	81.490015	90.601083	17.207856	55.046602
1.136802	353.067537	81.642938	90.777557	17.165719	54.681597
1.139040	353.038571	81.807422	90.966228	17.125283	54.341235
1.141278	353.038513	81.972537	91.155868	17.087254	54.026149
1.143515	353.094765	82.151397	91.359965	17.051543	53.737244
1.145753	353.182647	82.331001	91.565115	17.019045	53.475356
1.147991	353.340085	82.529291	91.791014	16.989305	53.241247
1.150229	353.531577	82.728429	92.018031	16.963540	53.035672
1.152467	353.811232	82.953880	92.275366	16.940776	52.859064
1.154704	354.126774	83.180263	92.533836	16.922766	52.711964
1.156942	354.557244	83.445141	92.836047	16.907967	52.594816
1.159180	355.025720	83.711055	93.139381	16.898804	52.508350
1.161418	355.645032	84.032401	93.502662	16.893249	52.454254
1.163656	356.307411	84.354957	93.867073	16.894560	52.434546
1.165893	357.151994	84.746326	94.302230	16.901199	52.452739
1.168131	358.048476	85.139139	94.738552	16.916169	52.512503
1.170369	359.098886	85.582375	95.224513	16.942533	52.615361
1.172607	360.192923	86.027212	95.699230	16.977835	52.763230
1.174845	361.321807	86.464386	96.158903	17.028661	52.953769
1.177082	362.500938	86.903161	96.619622	17.087807	53.184262
1.179320	363.657855	87.301183	97.051320	17.156378	53.453527
1.181558	364.860151	87.700756	97.483897	17.233209	53.758062
1.183796	366.124421	88.098243	97.938767	17.316700	54.098186
1.186034	367.436143	88.497409	98.394331	17.409921	54.474129
1.188271	368.983697	88.982010	98.957721	17.511123	54.885332
1.190509	370.584223	89.468810	99.520417	17.623659	55.337273
1.192747	372.428220	90.051088	100.178329	17.745211	55.833498
1.194985	374.337838	90.636038	100.837062	17.879761	56.379538
1.197223	376.225024	91.191691	101.446624	18.026196	56.970417
1.199460	378.163943	91.749555	102.056859	18.183866	57.599489
1.201698	379.887091	92.193310	102.530772	18.349955	58.255286
1.203936	381.634201	92.638868	103.005429	18.522525	58.926343
1.206174	383.484771	93.127837	103.515340	18.701407	59.616088
1.208412	385.371043	93.619253	104.025780	18.888593	60.330304
1.210649	387.515996	94.218619	104.641778	19.085165	61.080171
1.212887	389.724022	94.820894	105.258979	19.293527	61.876880
1.215125	391.794299	95.329228	105.779140	19.511882	62.716240
1.217363	393.912831	95.840059	106.299893	19.739404	63.590869
1.219600	395.844887	96.233893	106.715878	19.974203	64.492839
1.221838	397.803732	96.629851	107.131962	20.215293	65.412712
1.224076	399.876253	97.062996	107.600630	20.463038	66.350040
1.226314	401.978264	97.498427	108.069285	20.718810	67.307406
1.228552	404.261519	98.014931	108.606290	20.983435	68.289251
1.230789	406.587368	98.534149	109.143345	21.258875	69.302024
1.233027	408.991351	99.070523	109.698542	21.544949	70.349188
1.235265	411.444228	99.609655	110.253895	21.842609	71.432749
1.237503	413.878207	100.118803	110.773751	22.151173	72.553921
1.239741	416.361651	100.630434	111.292196	22.471995	73.712647
1.241978	418.853019	101.128952	111.775192	22.810954	74.911078
1.244216	421.397661	101.629762	112.257842	23.160399	76.151336
1.246454	424.019833	102.145296	112.750985	23.520535	77.434232
1.248692	426.696834	102.663074	113.243620	23.891155	78.760468
1.250930	429.342578	103.132798	113.705880	24.271616	80.124436
1.253167	432.031067	103.604684	114.167617	24.661007	81.519836
1.255405	434.630941	104.010309	114.564340	25.059030	82.946867
1.257643	437.277814	104.417873	114.960259	25.465544	84.406380
1.259881	440.174009	104.920225	115.452123	25.882123	85.907544
1.262119	443.143221	105.424864	115.943213	26.310703	87.460761
1.264356	446.314186	105.980491	116.516133	26.751613	89.064693
1.266594	449.553703	106.539315	117.089114	27.205273	90.717901
1.268832	452.662666	107.011214	117.550575	27.671218	92.425858
1.271070	455.844196	107.485593	118.011486	28.149769	94.192654
1.273308	458.857612	107.847980	118.362749	28.637329	96.005188
1.275545	461.909542	108.212752	118.713644	29.130621	97.849453
1.277783	464.855699	108.507762	119.011832	29.625447	99.707198
1.280021	467.806440	108.805696	119.310441	30.118046	101.561821
1.282259	470.706614	109.076157	119.567938	30.609500	103.426335
1.284497	473.644032	109.349185	119.825771	31.103089	105.312623
1.286734	476.501904	109.567068	120.020556	31.599731	107.232048
1.288972	479.412216	109.787168	120.215749	32.102670	109.191923
1.291210	482.142936	109.903413	120.305825	32.608451	111.181272
1.293448	484.897007	110.021768	120.396720	33.116102	113.189387
1.295686	487.386091	110.014133	120.351574	33.621248	115.202149
1.297923	489.864265	110.008464	120.307557	34.122163	117.206659
1.300161	492.076376	109.890112	120.136387	34.616638	119.198248
1.302399	494.263597	109.773660	119.966562	35.104825	121.171036
1.304637	496.245196	109.575455	119.702216	35.586535	123.128457
1.306875	498.206718	109.379388	119.439504	36.063009	125.070570
1.309112	500.004061	109.117229	119.100373	36.533374	127.002232
1.311350	501.791286	108.857954	118.763391	36.998585	128.924028
1.313588	503.406244	108.521008	118.344135	37.455869	130.842007
1.315826	505.021515	108.188598	117.928019	37.908178	132.755132
1.318064	506.437016	107.754514	117.417640	38.349935	134.673633
1.320301	507.879644	107.328458	116.912437	38.792279	136.604042
1.322539	509.343253	106.884661	116.426907	39.226093	138.560103
1.324777	510.872852	106.453888	115.949427	39.670473	140.550466
1.327015	512.020120	105.830290	115.303982	40.099808	142.531019
1.329253	513.140451	105.223263	114.668791	40.523070	144.464387
1.331490	513.835170	104.449849	113.893066	40.909920	146.316505
1.333728	514.429544	103.694699	113.128075	41.277461	148.059284
1.335966	515.406087	103.254196	112.568162	41.628461	149.669282
1.338204	516.211494	102.831214	112.006417	41.931996	151.140714
1.340442	515.969221	102.234502	111.426463	41.854931	152.280756
1.342679	515.219332	101.666230	110.857227	41.748595	152.908595
