PointAcceleration
version=1
nRows=601
nColumns=4
inDegrees=no
No description.
endheader
time	state_0	state_1	state_2
      0.00000000	    -13.31797463	      9.25863252	      0.00000000
      0.00188492	    -13.15540812	      9.18649433	      0.00000000
      0.00376985	    -12.91144489	      9.00199403	      0.00000000
      0.00565477	    -12.61473375	      8.73922430	      0.00000000
      0.00753969	    -12.27741861	      8.41312744	      0.00000000
      0.00942462	    -11.91392563	      8.04285518	      0.00000000
      0.01130954	    -11.53661159	      7.64434158	      0.00000000
      0.01319446	    -11.15317257	      7.23033823	      0.00000000
      0.01507939	    -10.77118779	      6.81024093	      0.00000000
      0.01696431	    -10.39192059	      6.39519758	      0.00000000
      0.01884924	    -10.01622885	      5.99289805	      0.00000000
      0.02073416	     -9.64579681	      5.60645654	      0.00000000
      0.02261908	     -9.27826019	      5.23264279	      0.00000000
      0.02450401	     -8.96510325	      4.94541360	      0.00000000
      0.02638893	     -8.66156499	      4.68834140	      0.00000000
      0.02827385	     -8.36979775	      4.42714336	      0.00000000
      0.03015878	     -8.09661250	      4.16063511	      0.00000000
      0.03204370	     -7.83862205	      3.89918321	      0.00000000
      0.03392862	     -7.59174262	      3.64312891	      0.00000000
      0.03581355	     -7.35442061	      3.39434959	      0.00000000
      0.03769847	     -7.12656659	      3.15531472	      0.00000000
      0.03958339	     -6.90748544	      2.92565473	      0.00000000
      0.04146832	     -6.69568269	      2.70427145	      0.00000000
      0.04335324	     -6.49047506	      2.48984159	      0.00000000
      0.04523817	     -6.29101234	      2.28117702	      0.00000000
      0.04712309	     -6.09746030	      2.07838911	      0.00000000
      0.04900801	     -5.91021955	      1.88196689	      0.00000000
      0.05089294	     -5.72655449	      1.69285205	      0.00000000
      0.05277786	     -5.55155427	      1.50941829	      0.00000000
      0.05466278	     -5.38240173	      1.33214288	      0.00000000
      0.05654771	     -5.21907000	      1.16114822	      0.00000000
      0.05843263	     -5.06135836	      0.99641131	      0.00000000
      0.06031755	     -4.90914760	      0.83803367	      0.00000000
      0.06220248	     -4.76228789	      0.68617926	      0.00000000
      0.06408740	     -4.62054024	      0.54087764	      0.00000000
      0.06597232	     -4.48373508	      0.40215799	      0.00000000
      0.06785725	     -4.35166104	      0.26999724	      0.00000000
      0.06974217	     -4.22419362	      0.14438050	      0.00000000
      0.07162709	     -4.10117812	      0.02526966	      0.00000000
      0.07351202	     -3.98253543	     -0.08736150	      0.00000000
      0.07539694	     -3.86816618	     -0.19355536	      0.00000000
      0.07728187	     -3.75799740	     -0.29338354	      0.00000000
      0.07916679	     -3.65194168	     -0.38693146	      0.00000000
      0.08105171	     -3.54988908	     -0.47435114	      0.00000000
      0.08293664	     -3.45172121	     -0.55580529	      0.00000000
      0.08482156	     -3.35727823	     -0.63152041	      0.00000000
      0.08670648	     -3.26639885	     -0.70172981	      0.00000000
      0.08859141	     -3.17889211	     -0.76669045	      0.00000000
      0.09047633	     -3.09457039	     -0.82666254	      0.00000000
      0.09236125	     -3.01323784	     -0.88189013	      0.00000000
      0.09424618	     -2.93471131	     -0.93262922	      0.00000000
      0.09613110	     -2.85883528	     -0.97909844	      0.00000000
      0.09801602	     -2.78543249	     -1.02151716	      0.00000000
      0.09990095	     -2.71434113	     -1.06004305	      0.00000000
      0.10178587	     -2.64540124	     -1.09484908	      0.00000000
      0.10367080	     -2.57847619	     -1.12603142	      0.00000000
      0.10555572	     -2.51343519	     -1.15366941	      0.00000000
      0.10744064	     -2.45016440	     -1.17782556	      0.00000000
      0.10932557	     -2.38856019	     -1.19853273	      0.00000000
      0.11121049	     -2.32850710	     -1.21597542	      0.00000000
      0.11309541	     -2.26988415	     -1.23044672	      0.00000000
      0.11498034	     -2.21188488	     -1.24277837	      0.00000000
      0.11686526	     -2.15627196	     -1.25115069	      0.00000000
      0.11875018	     -2.10186651	     -1.25640159	      0.00000000
      0.12063511	     -2.04859725	     -1.25862530	      0.00000000
      0.12252003	     -1.99637981	     -1.25798655	      0.00000000
      0.12440495	     -1.94513488	     -1.25462996	      0.00000000
      0.12628988	     -1.89479355	     -1.24866457	      0.00000000
      0.12817480	     -1.84528310	     -1.24022094	      0.00000000
      0.13005972	     -1.79653703	     -1.22941600	      0.00000000
      0.13194465	     -1.74848699	     -1.21637892	      0.00000000
      0.13382957	     -1.70107419	     -1.20121029	      0.00000000
      0.13571450	     -1.65424517	     -1.18399823	      0.00000000
      0.13759942	     -1.60794619	     -1.16484165	      0.00000000
      0.13948434	     -1.56211808	     -1.14386483	      0.00000000
      0.14136927	     -1.51670333	     -1.12120066	      0.00000000
      0.14325419	     -1.47164230	     -1.09698850	      0.00000000
      0.14513911	     -1.42688949	     -1.07133187	      0.00000000
      0.14702404	     -1.38240127	     -1.04433161	      0.00000000
      0.14890896	     -1.33814570	     -1.01605957	      0.00000000
      0.15079388	     -1.29408962	     -0.98659837	      0.00000000
      0.15267881	     -1.25020173	     -0.95602914	      0.00000000
      0.15456373	     -1.20644817	     -0.92444630	      0.00000000
      0.15644865	     -1.16279749	     -0.89193868	      0.00000000
      0.15833358	     -1.11921754	     -0.85860274	      0.00000000
      0.16021850	     -1.07568600	     -0.82451022	      0.00000000
      0.16210343	     -1.03218167	     -0.78973812	      0.00000000
      0.16398835	     -0.98869548	     -0.75433558	      0.00000000
      0.16587327	     -0.94522046	     -0.71835712	      0.00000000
      0.16775820	     -0.90175540	     -0.68184483	      0.00000000
      0.16964312	     -0.85830058	     -0.64484749	      0.00000000
      0.17152804	     -0.81485449	     -0.60741546	      0.00000000
      0.17341297	     -0.77141612	     -0.56960578	      0.00000000
      0.17529789	     -0.72798231	     -0.53147474	      0.00000000
      0.17718281	     -0.68455041	     -0.49308363	      0.00000000
      0.17906774	     -0.64112046	     -0.45448192	      0.00000000
      0.18095266	     -0.59769322	     -0.41572331	      0.00000000
      0.18283758	     -0.55427496	     -0.37684443	      0.00000000
      0.18472251	     -0.51087240	     -0.33788677	      0.00000000
      0.18660743	     -0.46749578	     -0.29887835	      0.00000000
      0.18849235	     -0.42415554	     -0.25985226	      0.00000000
      0.19037728	     -0.38086127	     -0.22083311	      0.00000000
      0.19226220	     -0.33762181	     -0.18184868	      0.00000000
      0.19414713	     -0.29444768	     -0.14292493	      0.00000000
      0.19603205	     -0.25135060	     -0.10409047	      0.00000000
      0.19791697	     -0.20834039	     -0.06537333	      0.00000000
      0.19980190	     -0.16542814	     -0.02680313	      0.00000000
      0.20168682	     -0.12262299	      0.01158792	      0.00000000
      0.20357174	     -0.07993515	      0.04976671	      0.00000000
      0.20545667	     -0.03737327	      0.08769546	      0.00000000
      0.20734159	      0.00505314	      0.12533612	      0.00000000
      0.20922651	      0.04733528	      0.16264588	      0.00000000
      0.21111144	      0.08946378	      0.19958221	      0.00000000
      0.21299636	      0.13142907	      0.23609927	      0.00000000
      0.21488128	      0.17322131	      0.27215193	      0.00000000
      0.21676621	      0.21483013	      0.30769360	      0.00000000
      0.21865113	      0.25624517	      0.34267874	      0.00000000
      0.22053606	      0.29745578	      0.37706158	      0.00000000
      0.22242098	      0.33845150	      0.41079781	      0.00000000
      0.22430590	      0.37922206	      0.44384321	      0.00000000
      0.22619083	      0.41975752	      0.47615530	      0.00000000
      0.22807575	      0.46004834	      0.50769177	      0.00000000
      0.22996067	      0.50008554	      0.53841215	      0.00000000
      0.23184560	      0.53986036	      0.56827695	      0.00000000
      0.23373052	      0.57936492	      0.59724841	      0.00000000
      0.23561544	      0.61859105	      0.62529216	      0.00000000
      0.23750037	      0.65753183	      0.65237523	      0.00000000
      0.23938529	      0.69617955	      0.67847172	      0.00000000
      0.24127021	      0.73452803	      0.70355686	      0.00000000
      0.24315514	      0.77257014	      0.72761617	      0.00000000
      0.24504006	      0.81030036	      0.75063631	      0.00000000
      0.24692498	      0.84771268	      0.77261506	      0.00000000
      0.24880991	      0.88480249	      0.79355168	      0.00000000
      0.25069483	      0.92156564	      0.81345384	      0.00000000
      0.25257976	      0.95799909	      0.83233134	      0.00000000
      0.25446468	      0.99410104	      0.85019713	      0.00000000
      0.25634960	      1.02987070	      0.86706690	      0.00000000
      0.25823453	      1.06530850	      0.88295417	      0.00000000
      0.26011945	      1.10041598	      0.89787563	      0.00000000
      0.26200437	      1.13519498	      0.91184296	      0.00000000
      0.26388930	      1.16964870	      0.92487112	      0.00000000
      0.26577422	      1.20377940	      0.93697061	      0.00000000
      0.26765914	      1.23759100	      0.94815508	      0.00000000
      0.26954407	      1.27108567	      0.95843644	      0.00000000
      0.27142899	      1.30426741	      0.96782965	      0.00000000
      0.27331391	      1.33713908	      0.97635003	      0.00000000
      0.27519884	      1.36970522	      0.98401620	      0.00000000
      0.27708376	      1.40197103	      0.99084618	      0.00000000
      0.27896869	      1.43394309	      0.99686167	      0.00000000
      0.28085361	      1.46563057	      1.00207975	      0.00000000
      0.28273853	      1.49704376	      1.00652130	      0.00000000
      0.28462346	      1.52819615	      1.01019851	      0.00000000
      0.28650838	      1.55910237	      1.01312676	      0.00000000
      0.28839330	      1.58977898	      1.01531360	      0.00000000
      0.29027823	      1.62024395	      1.01676860	      0.00000000
      0.29216315	      1.65051501	      1.01750106	      0.00000000
      0.29404807	      1.68061144	      1.01752202	      0.00000000
      0.29593300	      1.71055203	      1.01684931	      0.00000000
      0.29781792	      1.74035680	      1.01550393	      0.00000000
      0.29970284	      1.77004810	      1.01350900	      0.00000000
      0.30158777	      1.79964906	      1.01089088	      0.00000000
      0.30347269	      1.82918647	      1.00766749	      0.00000000
      0.30535761	      1.85868821	      1.00385638	      0.00000000
      0.30724254	      1.88818063	      0.99947309	      0.00000000
      0.30912746	      1.91769028	      0.99453241	      0.00000000
      0.31101239	      1.94724057	      0.98906147	      0.00000000
      0.31289731	      1.97685518	      0.98309493	      0.00000000
      0.31478223	      2.00656558	      0.97665299	      0.00000000
      0.31666716	      2.03640456	      0.96975634	      0.00000000
      0.31855208	      2.06640545	      0.96240731	      0.00000000
      0.32043700	      2.09659918	      0.95459965	      0.00000000
      0.32232193	      2.12700904	      0.94635924	      0.00000000
      0.32420685	      2.15766281	      0.93772938	      0.00000000
      0.32609177	      2.18860298	      0.92871483	      0.00000000
      0.32797670	      2.21986824	      0.91930656	      0.00000000
      0.32986162	      2.25149026	      0.90951169	      0.00000000
      0.33174654	      2.28350372	      0.89934083	      0.00000000
      0.33363147	      2.31594415	      0.88881369	      0.00000000
      0.33551639	      2.34884729	      0.87795580	      0.00000000
      0.33740132	      2.38225204	      0.86678283	      0.00000000
      0.33928624	      2.41619598	      0.85532088	      0.00000000
      0.34117116	      2.45072448	      0.84353296	      0.00000000
      0.34305609	      2.48588390	      0.83137191	      0.00000000
      0.34494101	      2.52171324	      0.81876367	      0.00000000
      0.34682593	      2.55824825	      0.80558935	      0.00000000
      0.34871086	      2.59549109	      0.79196769	      0.00000000
      0.35059578	      2.63345463	      0.77811441	      0.00000000
      0.35248070	      2.67221764	      0.76402449	      0.00000000
      0.35436563	      2.71184364	      0.74963073	      0.00000000
      0.35625055	      2.75235119	      0.73482222	      0.00000000
      0.35813547	      2.79375971	      0.71945011	      0.00000000
      0.36002040	      2.83603579	      0.70360340	      0.00000000
      0.36190532	      2.87915282	      0.68746343	      0.00000000
      0.36379024	      2.92315532	      0.67102336	      0.00000000
      0.36567517	      2.96807215	      0.65421607	      0.00000000
      0.36756009	      3.01392146	      0.63705360	      0.00000000
      0.36944502	      3.06070029	      0.61968646	      0.00000000
      0.37132994	      3.10843895	      0.60201127	      0.00000000
      0.37321486	      3.15546420	      0.58347459	      0.00000000
      0.37509979	      3.20426234	      0.56472523	      0.00000000
      0.37698471	      3.25474875	      0.54601880	      0.00000000
      0.37886963	      3.30608464	      0.52699499	      0.00000000
      0.38075456	      3.35828627	      0.50763790	      0.00000000
      0.38263948	      3.41138067	      0.48789742	      0.00000000
      0.38452440	      3.46528327	      0.46771955	      0.00000000
      0.38640933	      3.51998191	      0.44708638	      0.00000000
      0.38829425	      3.56809626	      0.42561223	      0.00000000
      0.39017917	      3.62349342	      0.40324747	      0.00000000
      0.39206410	      3.67956569	      0.38038805	      0.00000000
      0.39394902	      3.73627982	      0.35699963	      0.00000000
      0.39583395	      3.79357496	      0.33308903	      0.00000000
      0.39771887	      3.85134789	      0.30868875	      0.00000000
      0.39960379	      3.90955706	      0.28379777	      0.00000000
      0.40148872	      3.96818679	      0.25840693	      0.00000000
      0.40337364	      4.02724148	      0.23250846	      0.00000000
      0.40525856	      4.08667872	      0.20611131	      0.00000000
      0.40714349	      4.14643187	      0.17924804	      0.00000000
      0.40902841	      4.20646336	      0.15193597	      0.00000000
      0.41091333	      4.26677896	      0.12416369	      0.00000000
      0.41279826	      4.32742635	      0.09589215	      0.00000000
      0.41468318	      4.39069000	      0.06740293	      0.00000000
      0.41656810	      4.45240994	      0.03826835	      0.00000000
      0.41845303	      4.51370126	      0.00838514	      0.00000000
      0.42033795	      4.57462925	     -0.02215399	      0.00000000
      0.42222287	      4.63420281	     -0.05317364	      0.00000000
      0.42410780	      4.69017115	     -0.08438236	      0.00000000
      0.42599272	      4.73855043	     -0.11492000	      0.00000000
      0.42787765	      4.77199326	     -0.14277885	      0.00000000
      0.42976257	      4.77919344	     -0.16429315	      0.00000000
      0.43164749	      4.74437215	     -0.17421489	      0.00000000
      0.43353242	      4.65049997	     -0.16591321	      0.00000000
      0.43541734	      4.48663018	     -0.13399734	      0.00000000
      0.43730226	      4.26042019	     -0.07820594	      0.00000000
      0.43918719	      3.99835454	     -0.00478779	      0.00000000
      0.44107211	      3.71378585	      0.08362360	      0.00000000
      0.44295703	      3.35538393	      0.20619531	      0.00000000
      0.44484196	      2.82903782	      0.40206112	      0.00000000
      0.44672688	      2.10734851	      0.68881487	      0.00000000
      0.44861180	      1.27334675	      1.03887437	      0.00000000
      0.45049673	      0.43417186	      1.40799072	      0.00000000
      0.45238165	     -0.34001962	      1.76014435	      0.00000000
      0.45426658	     -1.03126933	      2.07752723	      0.00000000
      0.45615150	     -1.64251079	      2.35028500	      0.00000000
      0.45803642	     -2.20083679	      2.58118752	      0.00000000
      0.45992135	     -2.69320164	      2.75433272	      0.00000000
      0.46180627	     -3.17408431	      2.88876587	      0.00000000
      0.46369119	     -2.50022525	      2.63022911	      0.00000000
      0.46557612	     -2.91199391	      2.78579782	      0.00000000
      0.46746104	     -3.89190951	      3.13671789	      0.00000000
      0.46934596	     -4.91174508	      3.48848625	      0.00000000
      0.47123089	     -5.90095233	      3.80487675	      0.00000000
      0.47311581	     -6.79608719	      4.04009271	      0.00000000
      0.47500073	     -7.57792922	      4.17374327	      0.00000000
      0.47688566	     -8.27802917	      4.22349920	      0.00000000
      0.47877058	     -8.89994192	      4.19831820	      0.00000000
      0.48065550	     -9.44813625	      4.10986732	      0.00000000
      0.48254043	     -9.92212858	      3.96894798	      0.00000000
      0.48442535	    -10.32460328	      3.78365304	      0.00000000
      0.48631028	    -10.65912407	      3.56514351	      0.00000000
      0.48819520	    -10.92939145	      3.32033295	      0.00000000
      0.49008012	    -11.14013178	      3.05823503	      0.00000000
      0.49196505	    -11.29646046	      2.78418677	      0.00000000
      0.49384997	    -11.40444484	      2.50402189	      0.00000000
      0.49573489	    -11.47022036	      2.21937721	      0.00000000
      0.49761982	    -11.50146603	      1.93079205	      0.00000000
      0.49950474	    -11.49524520	      1.65767034	      0.00000000
      0.50138966	    -11.41503476	      1.48603745	      0.00000000
      0.50327459	    -11.26143938	      1.41440239	      0.00000000
      0.50515951	    -11.08440950	      1.33932415	      0.00000000
      0.50704443	    -10.89772388	      1.24217144	      0.00000000
      0.50892936	    -10.70170147	      1.13062957	      0.00000000
      0.51081428	    -10.49779371	      1.00985129	      0.00000000
      0.51269921	    -10.28806776	      0.88271273	      0.00000000
      0.51458413	    -10.07447773	      0.75117030	      0.00000000
      0.51646905	     -9.85892400	      0.61692472	      0.00000000
      0.51835398	     -9.64282190	      0.48134031	      0.00000000
      0.52023890	     -9.42747107	      0.34566444	      0.00000000
      0.52212382	     -9.21376070	      0.21086882	      0.00000000
      0.52400875	     -9.00246634	      0.07781826	      0.00000000
      0.52589367	     -8.79427451	     -0.05284167	      0.00000000
      0.52777859	     -8.58982733	     -0.18058765	      0.00000000
      0.52966352	     -8.38947365	     -0.30497421	      0.00000000
      0.53154844	     -8.19345625	     -0.42565857	      0.00000000
      0.53343336	     -8.00203212	     -0.54229520	      0.00000000
      0.53531829	     -7.81537284	     -0.65462036	      0.00000000
      0.53720321	     -7.63372557	     -0.76231073	      0.00000000
      0.53908813	     -7.45731134	     -0.86506176	      0.00000000
      0.54097306	     -7.28626933	     -0.96264953	      0.00000000
      0.54285798	     -7.12059804	     -1.05499946	      0.00000000
      0.54474291	     -6.96025244	     -1.14204547	      0.00000000
      0.54662783	     -6.80517148	     -1.22371190	      0.00000000
      0.54851275	     -6.65535337	     -1.29983874	      0.00000000
      0.55039768	     -6.51077796	     -1.37027299	      0.00000000
      0.55228260	     -6.37140825	     -1.43490837	      0.00000000
      0.55416752	     -6.23716436	     -1.49367018	      0.00000000
      0.55605245	     -6.10786347	     -1.54663627	      0.00000000
      0.55793737	     -5.98332279	     -1.59387625	      0.00000000
      0.55982229	     -5.86323959	     -1.63563682	      0.00000000
      0.56170722	     -5.74728925	     -1.67216821	      0.00000000
      0.56359214	     -5.63475811	     -1.70373620	      0.00000000
      0.56547706	     -5.52522830	     -1.73068399	      0.00000000
      0.56736199	     -5.41843852	     -1.75338107	      0.00000000
      0.56924691	     -5.31415355	     -1.77222581	      0.00000000
      0.57113184	     -5.21223676	     -1.78751657	      0.00000000
      0.57301676	     -5.11254706	     -1.79958312	      0.00000000
      0.57490168	     -5.01502198	     -1.80861676	      0.00000000
      0.57678661	     -4.91956623	     -1.81483934	      0.00000000
      0.57867153	     -4.82612679	     -1.81835568	      0.00000000
      0.58055645	     -4.73461767	     -1.81929967	      0.00000000
      0.58244138	     -4.64497627	     -1.81772947	      0.00000000
      0.58432630	     -4.55712297	     -1.81372261	      0.00000000
      0.58621122	     -4.47098652	     -1.80731353	      0.00000000
      0.58809615	     -4.38648760	     -1.79854182	      0.00000000
      0.58998107	     -4.30354367	     -1.78743670	      0.00000000
      0.59186599	     -4.22207650	     -1.77402838	      0.00000000
      0.59375092	     -4.14199775	     -1.75836784	      0.00000000
      0.59563584	     -4.06322590	     -1.74050620	      0.00000000
      0.59752076	     -3.98563196	     -1.72051084	      0.00000000
      0.59940569	     -3.90893916	     -1.69838674	      0.00000000
      0.60129061	     -3.83301785	     -1.67421629	      0.00000000
      0.60317554	     -3.75776730	     -1.64809043	      0.00000000
      0.60506046	     -3.68308519	     -1.62011093	      0.00000000
      0.60694538	     -3.60887191	     -1.59038088	      0.00000000
      0.60883031	     -3.53503014	     -1.55900662	      0.00000000
      0.61071523	     -3.46146405	     -1.52609887	      0.00000000
      0.61260015	     -3.38808222	     -1.49176821	      0.00000000
      0.61448508	     -3.31479389	     -1.45613198	      0.00000000
      0.61637000	     -3.24151491	     -1.41930391	      0.00000000
      0.61825492	     -3.16816109	     -1.38140622	      0.00000000
      0.62013985	     -3.09465665	     -1.34255076	      0.00000000
      0.62202477	     -3.02092744	     -1.30285649	      0.00000000
      0.62390969	     -2.94691148	     -1.26243340	      0.00000000
      0.62579462	     -2.87254768	     -1.22140032	      0.00000000
      0.62767954	     -2.79778610	     -1.17986607	      0.00000000
      0.62956447	     -2.72257961	     -1.13794753	      0.00000000
      0.63144939	     -2.64689367	     -1.09575303	      0.00000000
      0.63333431	     -2.57069724	     -1.05339896	      0.00000000
      0.63521924	     -2.49397840	     -1.01099652	      0.00000000
      0.63710416	     -2.41674766	     -0.96867507	      0.00000000
      0.63898908	     -2.33900821	     -0.92654216	      0.00000000
      0.64087401	     -2.26076405	     -0.88471359	      0.00000000
      0.64275893	     -2.18203651	     -0.84328374	      0.00000000
      0.64464385	     -2.10285152	     -0.80235406	      0.00000000
      0.64652878	     -2.02324583	     -0.76200197	      0.00000000
      0.64841370	     -1.94326236	     -0.72230019	      0.00000000
      0.65029862	     -1.86292179	     -0.68334807	      0.00000000
      0.65218355	     -1.78224912	     -0.64524372	      0.00000000
      0.65406847	     -1.70124531	     -0.60816335	      0.00000000
      0.65595339	     -1.61903234	     -0.57234809	      0.00000000
      0.65783832	     -1.53761783	     -0.53790748	      0.00000000
      0.65972324	     -1.45608809	     -0.50494486	      0.00000000
      0.66160817	     -1.37459840	     -0.47339758	      0.00000000
      0.66349309	     -1.29330990	     -0.44312603	      0.00000000
      0.66537801	     -1.21218193	     -0.41419776	      0.00000000
      0.66726294	     -1.13119686	     -0.38672013	      0.00000000
      0.66914786	     -1.05038868	     -0.36087884	      0.00000000
      0.67103278	     -0.96979334	     -0.33686165	      0.00000000
      0.67291771	     -0.88950887	     -0.31483249	      0.00000000
      0.67480263	     -0.80962591	     -0.29493703	      0.00000000
      0.67668755	     -0.73022008	     -0.27735214	      0.00000000
      0.67857248	     -0.65137170	     -0.26229087	      0.00000000
      0.68045740	     -0.57322775	     -0.24986175	      0.00000000
      0.68234232	     -0.49592985	     -0.24016669	      0.00000000
      0.68422725	     -0.41960973	     -0.23326563	      0.00000000
      0.68611217	     -0.34440021	     -0.22920882	      0.00000000
      0.68799710	     -0.27039336	     -0.22812737	      0.00000000
      0.68988202	     -0.19769116	     -0.23018696	      0.00000000
      0.69176694	     -0.12645209	     -0.23548017	      0.00000000
      0.69365187	     -0.05682028	     -0.24408847	      0.00000000
      0.69553679	      0.01109131	     -0.25608159	      0.00000000
      0.69742171	      0.07717460	     -0.27153792	      0.00000000
      0.69930664	      0.14133066	     -0.29051823	      0.00000000
      0.70119156	      0.20346622	     -0.31309094	      0.00000000
      0.70307648	      0.26347555	     -0.33927935	      0.00000000
      0.70496141	      0.32126061	     -0.36909891	      0.00000000
      0.70684633	      0.37673168	     -0.40255213	      0.00000000
      0.70873125	      0.42979231	     -0.43961108	      0.00000000
      0.71061618	      0.48043111	     -0.48035044	      0.00000000
      0.71250110	      0.52864683	     -0.52484237	      0.00000000
      0.71438602	      0.57449123	     -0.57324416	      0.00000000
      0.71627095	      0.61804081	     -0.62574488	      0.00000000
      0.71815587	      0.65927149	     -0.68243063	      0.00000000
      0.72004080	      0.69814391	     -0.74337469	      0.00000000
      0.72192572	      0.73456388	     -0.80855023	      0.00000000
      0.72381064	      0.76844419	     -0.87792193	      0.00000000
      0.72569557	      0.79972757	     -0.95142965	      0.00000000
      0.72758049	      0.82837153	     -1.02901187	      0.00000000
      0.72946541	      0.85437613	     -1.11061079	      0.00000000
      0.73135034	      0.87774932	     -1.19615930	      0.00000000
      0.73323526	      0.89852445	     -1.28559634	      0.00000000
      0.73512018	      0.91674138	     -1.37884659	      0.00000000
      0.73700511	      0.93244684	     -1.47583974	      0.00000000
      0.73889003	      0.94569307	     -1.57649084	      0.00000000
      0.74077495	      0.95653111	     -1.68071775	      0.00000000
      0.74265988	      0.96501737	     -1.78842404	      0.00000000
      0.74454480	      0.97121176	     -1.89951333	      0.00000000
      0.74642973	      0.97518042	     -2.01387499	      0.00000000
      0.74831465	      0.97699760	     -2.13139600	      0.00000000
      0.75019957	      0.97674148	     -2.25195066	      0.00000000
      0.75208450	      0.97449561	     -2.37541093	      0.00000000
      0.75396942	      0.97034513	     -2.50163864	      0.00000000
      0.75585434	      0.96437600	     -2.63049253	      0.00000000
      0.75773927	      0.95667436	     -2.76182397	      0.00000000
      0.75962419	      0.94732358	     -2.89547971	      0.00000000
      0.76150911	      0.93640743	     -3.03130031	      0.00000000
      0.76339404	      0.92400621	     -3.16911928	      0.00000000
      0.76527896	      0.91020029	     -3.30876536	      0.00000000
      0.76716388	      0.89506728	     -3.45005928	      0.00000000
      0.76904881	      0.87868441	     -3.59281821	      0.00000000
      0.77093373	      0.86112744	     -3.73685156	      0.00000000
      0.77281865	      0.84247161	     -3.88196623	      0.00000000
      0.77470358	      0.82279202	     -4.02796284	      0.00000000
      0.77658850	      0.80216316	     -4.17464028	      0.00000000
      0.77847343	      0.78065991	     -4.32179353	      0.00000000
      0.78035835	      0.75835640	     -4.46921672	      0.00000000
      0.78224327	      0.73532714	     -4.61670231	      0.00000000
      0.78412820	      0.71164569	     -4.76404289	      0.00000000
      0.78601312	      0.68738583	     -4.91103121	      0.00000000
      0.78789804	      0.66262015	     -5.05746125	      0.00000000
      0.78978297	      0.63742136	     -5.20312859	      0.00000000
      0.79166789	      0.61186067	     -5.34783121	      0.00000000
      0.79355281	      0.58600944	     -5.49136993	      0.00000000
      0.79543774	      0.55993713	     -5.63354916	      0.00000000
      0.79732266	      0.53371344	     -5.77417738	      0.00000000
      0.79920758	      0.50740580	     -5.91306784	      0.00000000
      0.80109251	      0.48108176	     -6.05003942	      0.00000000
      0.80297743	      0.45480624	     -6.18491693	      0.00000000
      0.80486236	      0.42864376	     -6.31753283	      0.00000000
      0.80674728	      0.40265598	     -6.44772642	      0.00000000
      0.80863220	      0.37690333	     -6.57534695	      0.00000000
      0.81051713	      0.35144316	     -6.70025120	      0.00000000
      0.81240205	      0.32633074	     -6.82230795	      0.00000000
      0.81428697	      0.30161817	     -6.94139394	      0.00000000
      0.81617190	      0.27735478	     -7.05739936	      0.00000000
      0.81805682	      0.25358677	     -7.17022231	      0.00000000
      0.81994174	      0.23035705	     -7.27977520	      0.00000000
      0.82182667	      0.20770552	     -7.38597759	      0.00000000
      0.82371159	      0.18566835	     -7.48876345	      0.00000000
      0.82559651	      0.16427889	     -7.58807205	      0.00000000
      0.82748144	      0.14356647	     -7.68385590	      0.00000000
      0.82936636	      0.12355798	     -7.77606953	      0.00000000
      0.83125129	      0.10427628	     -7.86467739	      0.00000000
      0.83313621	      0.08574241	     -7.94964067	      0.00000000
      0.83502113	      0.06797419	     -8.03092435	      0.00000000
      0.83690606	      0.05098844	     -8.10848253	      0.00000000
      0.83879098	      0.03480069	     -8.18226438	      0.00000000
      0.84067590	      0.01942623	     -8.25219898	      0.00000000
      0.84256083	      0.00488322	     -8.31819961	      0.00000000
      0.84444575	     -0.00880915	     -8.38015113	      0.00000000
      0.84633067	     -0.02162564	     -8.43791627	      0.00000000
      0.84821560	     -0.03353907	     -8.49133116	      0.00000000
      0.85010052	     -0.04451706	     -8.54021752	      0.00000000
      0.85198544	     -0.05452643	     -8.58439731	      0.00000000
      0.85387037	     -0.06354109	     -8.62371694	      0.00000000
      0.85575529	     -0.07154080	     -8.65808898	      0.00000000
      0.85764021	     -0.07852454	     -8.68751948	      0.00000000
      0.85952514	     -0.08450483	     -8.71216549	      0.00000000
      0.86141006	     -0.08953453	     -8.73233880	      0.00000000
      0.86329499	     -0.09368428	     -8.74852800	      0.00000000
      0.86517991	     -0.09705939	     -8.76133787	      0.00000000
      0.86706483	     -0.09977189	     -8.77144278	      0.00000000
      0.86894976	     -0.10193718	     -8.77949025	      0.00000000
      0.87083468	     -0.10366109	     -8.78603752	      0.00000000
      0.87271960	     -0.10501817	     -8.79151327	      0.00000000
      0.87460453	     -0.10606786	     -8.79619789	      0.00000000
      0.87648945	     -0.10682964	     -8.80026077	      0.00000000
      0.87837437	     -0.10731248	     -8.80377297	      0.00000000
      0.88025930	     -0.10750821	     -8.80675562	      0.00000000
      0.88214422	     -0.10740694	     -8.80919795	      0.00000000
      0.88402914	     -0.10700290	     -8.81108169	      0.00000000
      0.88591407	     -0.10629226	     -8.81239342	      0.00000000
      0.88779899	     -0.10528031	     -8.81312819	      0.00000000
      0.88968392	     -0.10397390	     -8.81329515	      0.00000000
      0.89156884	     -0.10238485	     -8.81291283	      0.00000000
      0.89345376	     -0.10052577	     -8.81201024	      0.00000000
      0.89533869	     -0.09840908	     -8.81062216	      0.00000000
      0.89722361	     -0.09604767	     -8.80878755	      0.00000000
      0.89910853	     -0.09345184	     -8.80654758	      0.00000000
      0.90099346	     -0.09063283	     -8.80394270	      0.00000000
      0.90287838	     -0.08759831	     -8.80101313	      0.00000000
      0.90476330	     -0.08435688	     -8.79779583	      0.00000000
      0.90664823	     -0.08091202	     -8.79432626	      0.00000000
      0.90853315	     -0.07726656	     -8.79063612	      0.00000000
      0.91041807	     -0.07341970	     -8.78675466	      0.00000000
      0.91230300	     -0.06936992	     -8.78270767	      0.00000000
      0.91418792	     -0.06511670	     -8.77851760	      0.00000000
      0.91607284	     -0.06065973	     -8.77420388	      0.00000000
      0.91795777	     -0.05600101	     -8.76978201	      0.00000000
      0.91984269	     -0.05114244	     -8.76526499	      0.00000000
      0.92172762	     -0.04608547	     -8.76066360	      0.00000000
      0.92361254	     -0.04083150	     -8.75598691	      0.00000000
      0.92549746	     -0.03537742	     -8.75124320	      0.00000000
      0.92738239	     -0.02972006	     -8.74643990	      0.00000000
      0.92926731	     -0.02385819	     -8.74158220	      0.00000000
      0.93115223	     -0.01923302	     -8.73699784	      0.00000000
      0.93303716	     -0.01309739	     -8.73214163	      0.00000000
      0.93492208	     -0.00678421	     -8.72723787	      0.00000000
      0.93680700	     -0.00028801	     -8.72229004	      0.00000000
      0.93869193	      0.00640031	     -8.71730160	      0.00000000
      0.94057685	      0.01329038	     -8.71227483	      0.00000000
      0.94246177	      0.02039095	     -8.70721179	      0.00000000
      0.94434670	      0.02770529	     -8.70211298	      0.00000000
      0.94623162	      0.03523741	     -8.69697906	      0.00000000
      0.94811655	      0.04298734	     -8.69180992	      0.00000000
      0.95000147	      0.05095647	     -8.68660564	      0.00000000
      0.95188639	      0.05914571	     -8.68136453	      0.00000000
      0.95377132	      0.06756078	     -8.67608032	      0.00000000
      0.95565624	      0.07620093	     -8.67075309	      0.00000000
      0.95754116	      0.08506518	     -8.66538368	      0.00000000
      0.95942609	      0.09415109	     -8.65997278	      0.00000000
      0.96131101	      0.10345644	     -8.65452117	      0.00000000
      0.96319593	      0.11297756	     -8.64902927	      0.00000000
      0.96508086	      0.12271083	     -8.64349755	      0.00000000
      0.96696578	      0.13265093	     -8.63792594	      0.00000000
      0.96885070	      0.14279215	     -8.63231433	      0.00000000
      0.97073563	      0.15312655	     -8.62666203	      0.00000000
      0.97262055	      0.16364511	     -8.62096809	      0.00000000
      0.97450547	      0.17433576	     -8.61523100	      0.00000000
      0.97639040	      0.18518427	     -8.60944861	      0.00000000
      0.97827532	      0.19617239	     -8.60361822	      0.00000000
      0.98016025	      0.20727812	     -8.59773592	      0.00000000
      0.98204517	      0.21847436	     -8.59179706	      0.00000000
      0.98393009	      0.22972838	     -8.58579509	      0.00000000
      0.98581502	      0.24100134	     -8.57972225	      0.00000000
      0.98769994	      0.25224072	     -8.57357431	      0.00000000
      0.98958486	      0.26336647	     -8.56736415	      0.00000000
      0.99146979	      0.27431823	     -8.56107291	      0.00000000
      0.99335471	      0.28503276	     -8.55467570	      0.00000000
      0.99523963	      0.29543995	     -8.54814427	      0.00000000
      0.99712456	      0.30546454	     -8.54144780	      0.00000000
      0.99900948	      0.31502885	     -8.53455273	      0.00000000
      1.00089440	      0.32405349	     -8.52742280	      0.00000000
      1.00277933	      0.33246446	     -8.52002107	      0.00000000
      1.00466425	      0.34019199	     -8.51230888	      0.00000000
      1.00654918	      0.34718152	     -8.50425032	      0.00000000
      1.00843410	      0.35338994	     -8.49581010	      0.00000000
      1.01031902	      0.35879832	     -8.48695991	      0.00000000
      1.01220395	      0.36340512	     -8.47767562	      0.00000000
      1.01408887	      0.36723732	     -8.46794382	      0.00000000
      1.01597379	      0.37034098	     -8.45775874	      0.00000000
      1.01785872	      0.37278761	     -8.44712719	      0.00000000
      1.01974364	      0.37466360	     -8.43606505	      0.00000000
      1.02162856	      0.37605532	     -8.42461101	      0.00000000
      1.02351349	      0.37703669	     -8.41282319	      0.00000000
      1.02539841	      0.37772032	     -8.40073658	      0.00000000
      1.02728333	      0.37821460	     -8.38839097	      0.00000000
      1.02916826	      0.37861304	     -8.37582715	      0.00000000
      1.03105318	      0.37899541	     -8.36309063	      0.00000000
      1.03293810	      0.37941485	     -8.35022109	      0.00000000
      1.03482303	      0.37991131	     -8.33726290	      0.00000000
      1.03670795	      0.38049258	     -8.32425118	      0.00000000
      1.03859288	      0.38116112	     -8.31122214	      0.00000000
      1.04047780	      0.38189087	     -8.29820531	      0.00000000
      1.04236272	      0.38264773	     -8.28520658	      0.00000000
      1.04424765	      0.38337432	     -8.27222348	      0.00000000
      1.04613257	      0.38399182	     -8.25921059	      0.00000000
      1.04801749	      0.38439825	     -8.24610394	      0.00000000
      1.04990242	      0.38447676	     -8.23283413	      0.00000000
      1.05178734	      0.38409665	     -8.21931761	      0.00000000
      1.05367226	      0.38311683	     -8.20549254	      0.00000000
      1.05555719	      0.38139903	     -8.19127593	      0.00000000
      1.05744211	      0.37878883	     -8.17659739	      0.00000000
      1.05932703	      0.37509600	     -8.16138375	      0.00000000
      1.06121196	      0.37007490	     -8.14555124	      0.00000000
      1.06309688	      0.36346692	     -8.12899047	      0.00000000
      1.06498181	      0.35492572	     -8.11155377	      0.00000000
      1.06686673	      0.34408218	     -8.09305678	      0.00000000
      1.06875165	      0.33046014	     -8.07326029	      0.00000000
      1.07063658	      0.31353299	     -8.05187118	      0.00000000
      1.07252150	      0.29267581	     -8.02852099	      0.00000000
      1.07440642	      0.26716550	     -8.00276089	      0.00000000
      1.07629135	      0.23619227	     -7.97399334	      0.00000000
      1.07817627	      0.19879266	     -7.94144924	      0.00000000
      1.08006119	      0.15361822	     -7.90397267	      0.00000000
      1.08194612	      0.09872167	     -7.85987796	      0.00000000
      1.08383104	      0.03069695	     -7.80629975	      0.00000000
      1.08571596	     -0.05601561	     -7.73859292	      0.00000000
      1.08760089	     -0.17041356	     -7.64899464	      0.00000000
      1.08948581	     -0.32648257	     -7.52528456	      0.00000000
      1.09137073	     -0.54435718	     -7.34872477	      0.00000000
      1.09325566	     -0.85224347	     -7.09246959	      0.00000000
      1.09514058	     -1.28356263	     -6.72211139	      0.00000000
      1.09702551	     -1.87655483	     -6.19591314	      0.00000000
      1.09891043	     -2.66316111	     -5.47265072	      0.00000000
      1.10079535	     -3.66154957	     -4.51846380	      0.00000000
      1.10268028	     -4.85680450	     -3.31715964	      0.00000000
      1.10456520	     -6.20335084	     -1.88443879	      0.00000000
      1.10645012	     -5.22836726	     -2.11638342	      0.00000000
      1.10833505	     -5.89354859	     -1.12280325	      0.00000000
      1.11021997	     -7.23956374	      0.41362661	      0.00000000
      1.11210489	     -8.28030200	      1.75357923	      0.00000000
      1.11398982	     -9.40947389	      3.16958697	      0.00000000
      1.11587474	    -10.35162835	      4.43490094	      0.00000000
      1.11775966	    -11.22646309	      5.62151015	      0.00000000
      1.11964459	    -11.94655025	      6.64787849	      0.00000000
      1.12152951	    -12.53559114	      7.52090064	      0.00000000
      1.12341444	    -12.96042343	      8.20621763	      0.00000000
      1.12529936	    -13.23937243	      8.71246546	      0.00000000
      1.12718428	    -13.38146893	      9.04658551	      0.00000000
      1.12906921	    -13.40556093	      9.22609977	      0.00000000
      1.13095413	    -13.32011419	      9.26196435	      0.00000000
