PointVelocity
version=1
nRows=601
nColumns=4
inDegrees=no
No description.
endheader
time	state_0	state_1	state_2
      0.00000000	     -0.06938784	      0.17212896	      0.00000000
      0.00116640	     -0.06969059	      0.17695958	      0.00000000
      0.00233280	     -0.06992498	      0.18208377	      0.00000000
      0.00349920	     -0.07010210	      0.18731596	      0.00000000
      0.00466560	     -0.07021228	      0.19272271	      0.00000000
      0.00583200	     -0.07025227	      0.19827967	      0.00000000
      0.00699840	     -0.07022149	      0.20400465	      0.00000000
      0.00816479	     -0.07011816	      0.20989909	      0.00000000
      0.00933119	     -0.06995602	      0.21598253	      0.00000000
      0.01049759	     -0.06971678	      0.22224705	      0.00000000
      0.01166399	     -0.06946313	      0.22873528	      0.00000000
      0.01283039	     -0.06905132	      0.23531792	      0.00000000
      0.01399679	     -0.06823509	      0.24173031	      0.00000000
      0.01516319	     -0.06658048	      0.24777543	      0.00000000
      0.01632959	     -0.06373388	      0.25331830	      0.00000000
      0.01749599	     -0.05956192	      0.25843889	      0.00000000
      0.01866239	     -0.05389505	      0.26314895	      0.00000000
      0.01982879	     -0.04679959	      0.26763356	      0.00000000
      0.02099519	     -0.03834745	      0.27208270	      0.00000000
      0.02216159	     -0.02876267	      0.27676389	      0.00000000
      0.02332798	     -0.01839365	      0.28205590	      0.00000000
      0.02449438	     -0.00734585	      0.28822473	      0.00000000
      0.02566078	      0.00398385	      0.29508875	      0.00000000
      0.02682718	      0.01648013	      0.30306707	      0.00000000
      0.02799358	      0.02923045	      0.31233014	      0.00000000
      0.02915998	      0.04723470	      0.32335035	      0.00000000
      0.03032638	      0.08111431	      0.33703371	      0.00000000
      0.03149278	      0.13835165	      0.35385864	      0.00000000
      0.03265918	      0.21952896	      0.37312913	      0.00000000
      0.03382558	      0.31794328	      0.39297504	      0.00000000
      0.03499198	      0.43219050	      0.41235262	      0.00000000
      0.03615838	      0.56003866	      0.43022322	      0.00000000
      0.03732478	      0.69813348	      0.44594441	      0.00000000
      0.03849118	      0.84145876	      0.45904351	      0.00000000
      0.03965757	      0.98521246	      0.46944909	      0.00000000
      0.04082397	      1.12542076	      0.47732699	      0.00000000
      0.04199037	      1.25801771	      0.48298585	      0.00000000
      0.04315677	      1.38132304	      0.48685499	      0.00000000
      0.04432317	      1.49339686	      0.48929536	      0.00000000
      0.04548957	      1.59476171	      0.49067491	      0.00000000
      0.04665597	      1.68559960	      0.49122870	      0.00000000
      0.04782237	      1.76735039	      0.49116303	      0.00000000
      0.04898877	      1.84114932	      0.49058572	      0.00000000
      0.05015517	      1.90825704	      0.48958885	      0.00000000
      0.05132157	      1.96982127	      0.48821297	      0.00000000
      0.05248797	      2.02667600	      0.48649659	      0.00000000
      0.05365437	      2.07968530	      0.48445533	      0.00000000
      0.05482076	      2.12937657	      0.48210768	      0.00000000
      0.05598716	      2.17634522	      0.47946360	      0.00000000
      0.05715356	      2.22094006	      0.47653590	      0.00000000
      0.05831996	      2.26357043	      0.47333474	      0.00000000
      0.05948636	      2.30448008	      0.46987092	      0.00000000
      0.06065276	      2.34395572	      0.46615640	      0.00000000
      0.06181916	      2.38216824	      0.46220356	      0.00000000
      0.06298556	      2.41931764	      0.45802688	      0.00000000
      0.06415196	      2.45551926	      0.45364022	      0.00000000
      0.06531836	      2.49090881	      0.44905972	      0.00000000
      0.06648476	      2.52556117	      0.44429993	      0.00000000
      0.06765116	      2.55956569	      0.43937746	      0.00000000
      0.06881756	      2.59297048	      0.43430675	      0.00000000
      0.06998395	      2.62583359	      0.42910396	      0.00000000
      0.07115035	      2.65818699	      0.42378276	      0.00000000
      0.07231675	      2.69006911	      0.41835823	      0.00000000
      0.07348315	      2.72150281	      0.41284292	      0.00000000
      0.07464955	      2.75251503	      0.40725050	      0.00000000
      0.07581595	      2.78312322	      0.40159222	      0.00000000
      0.07698235	      2.81334728	      0.39588022	      0.00000000
      0.07814875	      2.84320052	      0.39012431	      0.00000000
      0.07931515	      2.87269765	      0.38433498	      0.00000000
      0.08048155	      2.90184829	      0.37852052	      0.00000000
      0.08164795	      2.93066308	      0.37268972	      0.00000000
      0.08281435	      2.95914872	      0.36684934	      0.00000000
      0.08398075	      2.98731297	      0.36100616	      0.00000000
      0.08514714	      3.01515963	      0.35516572	      0.00000000
      0.08631354	      3.04269321	      0.34933378	      0.00000000
      0.08747994	      3.06991355	      0.34351535	      0.00000000
      0.08864634	      3.09682022	      0.33771562	      0.00000000
      0.08981274	      3.12341004	      0.33193814	      0.00000000
      0.09097914	      3.14967981	      0.32618590	      0.00000000
      0.09214554	      3.17562767	      0.32046001	      0.00000000
      0.09331194	      3.20125186	      0.31476143	      0.00000000
      0.09447834	      3.22655290	      0.30909032	      0.00000000
      0.09564474	      3.25153069	      0.30344673	      0.00000000
      0.09681114	      3.27618649	      0.29783058	      0.00000000
      0.09797754	      3.30052088	      0.29224154	      0.00000000
      0.09914394	      3.32453543	      0.28667917	      0.00000000
      0.10031033	      3.34823121	      0.28114276	      0.00000000
      0.10147673	      3.37161032	      0.27563147	      0.00000000
      0.10264313	      3.39467442	      0.27014428	      0.00000000
      0.10380953	      3.41742638	      0.26467984	      0.00000000
      0.10497593	      3.43986866	      0.25923651	      0.00000000
      0.10614233	      3.46200511	      0.25381237	      0.00000000
      0.10730873	      3.48383916	      0.24840537	      0.00000000
      0.10847513	      3.50537570	      0.24301340	      0.00000000
      0.10964153	      3.52661919	      0.23763433	      0.00000000
      0.11080793	      3.54757569	      0.23226567	      0.00000000
      0.11197433	      3.56825103	      0.22690458	      0.00000000
      0.11314073	      3.58865254	      0.22154811	      0.00000000
      0.11430713	      3.60878741	      0.21619324	      0.00000000
      0.11547353	      3.62866357	      0.21083738	      0.00000000
      0.11663992	      3.64828907	      0.20547773	      0.00000000
      0.11780632	      3.66767152	      0.20011205	      0.00000000
      0.11897272	      3.68681885	      0.19473786	      0.00000000
      0.12013912	      3.70573741	      0.18935326	      0.00000000
      0.12130552	      3.72443406	      0.18395608	      0.00000000
      0.12247192	      3.74291327	      0.17854482	      0.00000000
      0.12363832	      3.76118006	      0.17311766	      0.00000000
      0.12480472	      3.77923707	      0.16767343	      0.00000000
      0.12597112	      3.79708729	      0.16221061	      0.00000000
      0.12713752	      3.81473240	      0.15672840	      0.00000000
      0.12830392	      3.83217408	      0.15122552	      0.00000000
      0.12947032	      3.84941491	      0.14570166	      0.00000000
      0.13063672	      3.86645697	      0.14015599	      0.00000000
      0.13180311	      3.88330618	      0.13458918	      0.00000000
      0.13296951	      3.89996761	      0.12900145	      0.00000000
      0.13413591	      3.91645260	      0.12339526	      0.00000000
      0.13530231	      3.93277163	      0.11777286	      0.00000000
      0.13646871	      3.94894163	      0.11213912	      0.00000000
      0.13763511	      3.96497919	      0.10649906	      0.00000000
      0.13880151	      3.98090403	      0.10085965	      0.00000000
      0.13996791	      3.99673620	      0.09522834	      0.00000000
      0.14113431	      4.01249279	      0.08961274	      0.00000000
      0.14230071	      4.02819173	      0.08402106	      0.00000000
      0.14346711	      4.04384235	      0.07845972	      0.00000000
      0.14463351	      4.05945526	      0.07293567	      0.00000000
      0.14579991	      4.07503077	      0.06745335	      0.00000000
      0.14696630	      4.09057105	      0.06201767	      0.00000000
      0.14813270	      4.10606988	      0.05663145	      0.00000000
      0.14929910	      4.12152374	      0.05129813	      0.00000000
      0.15046550	      4.13692180	      0.04601910	      0.00000000
      0.15163190	      4.15225656	      0.04079649	      0.00000000
      0.15279830	      4.16750978	      0.03562863	      0.00000000
      0.15396470	      4.18266530	      0.03051361	      0.00000000
      0.15513110	      4.19769382	      0.02544459	      0.00000000
      0.15629750	      4.21258425	      0.02041868	      0.00000000
      0.15746390	      4.22742501	      0.01546587	      0.00000000
      0.15863030	      4.24220604	      0.01058791	      0.00000000
      0.15979670	      4.25681482	      0.00575429	      0.00000000
      0.16096310	      4.27125506	      0.00097056	      0.00000000
      0.16212949	      4.28556115	     -0.00374802	      0.00000000
      0.16329589	      4.29972553	     -0.00840088	      0.00000000
      0.16446229	      4.31374370	     -0.01298809	      0.00000000
      0.16562869	      4.32761002	     -0.01750966	      0.00000000
      0.16679509	      4.34132674	     -0.02196292	      0.00000000
      0.16796149	      4.35490028	     -0.02634267	      0.00000000
      0.16912789	      4.36833384	     -0.03064596	      0.00000000
      0.17029429	      4.38162827	     -0.03487065	      0.00000000
      0.17146069	      4.39477027	     -0.03902274	      0.00000000
      0.17262709	      4.40773549	     -0.04311439	      0.00000000
      0.17379349	      4.42051737	     -0.04715023	      0.00000000
      0.17495989	      4.43312440	     -0.05112680	      0.00000000
      0.17612629	      4.44558419	     -0.05503079	      0.00000000
      0.17729269	      4.45791819	     -0.05885081	      0.00000000
      0.17845908	      4.47013657	     -0.06258204	      0.00000000
      0.17962548	      4.48224647	     -0.06622066	      0.00000000
      0.18079188	      4.49424170	     -0.06977120	      0.00000000
      0.18195828	      4.50611809	     -0.07323709	      0.00000000
      0.18312468	      4.51786901	     -0.07662408	      0.00000000
      0.18429108	      4.52948771	     -0.07993819	      0.00000000
      0.18545748	      4.54097470	     -0.08318179	      0.00000000
      0.18662388	      4.55232853	     -0.08635833	      0.00000000
      0.18779028	      4.56356270	     -0.08946228	      0.00000000
      0.18895668	      4.57469368	     -0.09248531	      0.00000000
      0.19012308	      4.58574334	     -0.09541523	      0.00000000
      0.19128948	      4.59673881	     -0.09823502	      0.00000000
      0.19245588	      4.60767908	     -0.10094560	      0.00000000
      0.19362227	      4.61854646	     -0.10355938	      0.00000000
      0.19478867	      4.62931625	     -0.10609448	      0.00000000
      0.19595507	      4.63997750	     -0.10856062	      0.00000000
      0.19712147	      4.65053931	     -0.11095351	      0.00000000
      0.19828787	      4.66101207	     -0.11326754	      0.00000000
      0.19945427	      4.67140696	     -0.11549590	      0.00000000
      0.20062067	      4.68172949	     -0.11763558	      0.00000000
      0.20178707	      4.69197698	     -0.11968908	      0.00000000
      0.20295347	      4.70215000	     -0.12165751	      0.00000000
      0.20411987	      4.71224650	     -0.12354158	      0.00000000
      0.20528627	      4.72231498	     -0.12530810	      0.00000000
      0.20645267	      4.73235327	     -0.12695376	      0.00000000
      0.20761907	      4.74221683	     -0.12857091	      0.00000000
      0.20878546	      4.75192765	     -0.13014548	      0.00000000
      0.20995186	      4.76162082	     -0.13158533	      0.00000000
      0.21111826	      4.77127662	     -0.13290646	      0.00000000
      0.21228466	      4.78086058	     -0.13413490	      0.00000000
      0.21345106	      4.79036136	     -0.13527815	      0.00000000
      0.21461746	      4.79976632	     -0.13634544	      0.00000000
      0.21578386	      4.80907540	     -0.13733435	      0.00000000
      0.21695026	      4.81828515	     -0.13824576	      0.00000000
      0.21811666	      4.82739379	     -0.13907814	      0.00000000
      0.21928306	      4.83639831	     -0.13983140	      0.00000000
      0.22044946	      4.84529405	     -0.14050621	      0.00000000
      0.22161586	      4.85407652	     -0.14110353	      0.00000000
      0.22278226	      4.86273977	     -0.14162504	      0.00000000
      0.22394865	      4.87127831	     -0.14207252	      0.00000000
      0.22511505	      4.87968586	     -0.14244794	      0.00000000
      0.22628145	      4.88795647	     -0.14275351	      0.00000000
      0.22744785	      4.89608374	     -0.14299129	      0.00000000
      0.22861425	      4.90406156	     -0.14316373	      0.00000000
      0.22978065	      4.91188352	     -0.14327301	      0.00000000
      0.23094705	      4.91954340	     -0.14332169	      0.00000000
      0.23211345	      4.92703489	     -0.14331203	      0.00000000
      0.23327985	      4.93435182	     -0.14324668	      0.00000000
      0.23444625	      4.94148810	     -0.14312783	      0.00000000
      0.23561265	      4.94843773	     -0.14295816	      0.00000000
      0.23677905	      4.95519496	     -0.14273978	      0.00000000
      0.23794545	      4.96175408	     -0.14247529	      0.00000000
      0.23911185	      4.96810975	     -0.14216675	      0.00000000
      0.24027824	      4.97425657	     -0.14181671	      0.00000000
      0.24144464	      4.98018975	     -0.14142713	      0.00000000
      0.24261104	      4.98590430	     -0.14100049	      0.00000000
      0.24377744	      4.99139609	     -0.14053858	      0.00000000
      0.24494384	      4.99666074	     -0.14004370	      0.00000000
      0.24611024	      5.00169497	     -0.13951747	      0.00000000
      0.24727664	      5.00649517	     -0.13896195	      0.00000000
      0.24844304	      5.01105892	     -0.13837848	      0.00000000
      0.24960944	      5.01538340	     -0.13776885	      0.00000000
      0.25077584	      5.01946712	     -0.13713411	      0.00000000
      0.25194224	      5.02330809	     -0.13647573	      0.00000000
      0.25310864	      5.02690589	     -0.13579446	      0.00000000
      0.25427504	      5.03025947	     -0.13509141	      0.00000000
      0.25544143	      5.03336964	     -0.13436691	      0.00000000
      0.25660783	      5.03623647	     -0.13362161	      0.00000000
      0.25777423	      5.03886220	     -0.13285523	      0.00000000
      0.25894063	      5.04124821	     -0.13206778	      0.00000000
      0.26010703	      5.04339847	     -0.13125802	      0.00000000
      0.26127343	      5.04531589	     -0.13042498	      0.00000000
      0.26243983	      5.04700644	     -0.12956597	      0.00000000
      0.26360623	      5.04847486	     -0.12867855	      0.00000000
      0.26477263	      5.04972937	     -0.12775799	      0.00000000
      0.26593903	      5.05077685	     -0.12679971	      0.00000000
      0.26710543	      5.05162797	     -0.12579640	      0.00000000
      0.26827183	      5.05229192	     -0.12474072	      0.00000000
      0.26943823	      5.05278197	     -0.12362252	      0.00000000
      0.27060462	      5.05310971	     -0.12243140	      0.00000000
      0.27177102	      5.05329097	     -0.12115443	      0.00000000
      0.27293742	      5.05333981	     -0.11977822	      0.00000000
      0.27410382	      5.05327451	     -0.11828735	      0.00000000
      0.27527022	      5.05311160	     -0.11666568	      0.00000000
      0.27643662	      5.05287158	     -0.11489533	      0.00000000
      0.27760302	      5.05257330	     -0.11295741	      0.00000000
      0.27876942	      5.05223890	     -0.11083115	      0.00000000
      0.27993582	      5.05188912	     -0.10849450	      0.00000000
      0.28110222	      5.05154670	     -0.10592321	      0.00000000
      0.28226862	      5.05123300	     -0.10309139	      0.00000000
      0.28343502	      5.05097000	     -0.09997147	      0.00000000
      0.28460142	      5.05077891	     -0.09653414	      0.00000000
      0.28576781	      5.05068030	     -0.09275008	      0.00000000
      0.28693421	      5.05069425	     -0.08858802	      0.00000000
      0.28810061	      5.05083828	     -0.08401835	      0.00000000
      0.28926701	      5.05112988	     -0.07900938	      0.00000000
      0.29043341	      5.05158178	     -0.07353188	      0.00000000
      0.29159981	      5.05220726	     -0.06755457	      0.00000000
      0.29276621	      5.05301257	     -0.06104855	      0.00000000
      0.29393261	      5.05400519	     -0.05398324	      0.00000000
      0.29509901	      5.05518307	     -0.04632978	      0.00000000
      0.29626541	      5.05654628	     -0.03805826	      0.00000000
      0.29743181	      5.05808221	     -0.02913953	      0.00000000
      0.29859821	      5.05978161	     -0.01954415	      0.00000000
      0.29976461	      5.06161785	     -0.00924272	      0.00000000
      0.30093100	      5.06356933	      0.00179348	      0.00000000
      0.30209740	      5.06558990	      0.01359281	      0.00000000
      0.30326380	      5.06764094	      0.02618160	      0.00000000
      0.30443020	      5.06964888	      0.03958440	      0.00000000
      0.30559660	      5.07155137	      0.05382200	      0.00000000
      0.30676300	      5.07323628	      0.06891119	      0.00000000
      0.30792940	      5.07460685	      0.08486355	      0.00000000
      0.30909580	      5.07549662	      0.10168226	      0.00000000
      0.31026220	      5.07575832	      0.11936451	      0.00000000
      0.31142860	      5.07515664	      0.13788701	      0.00000000
      0.31259500	      5.07347665	      0.15722033	      0.00000000
      0.31376140	      5.07040768	      0.17729082	      0.00000000
      0.31492780	      5.06565519	      0.19801749	      0.00000000
      0.31609420	      5.05885167	      0.21924524	      0.00000000
      0.31726059	      5.04963521	      0.24080675	      0.00000000
      0.31842699	      5.03764084	      0.26244828	      0.00000000
      0.31959339	      5.02249472	      0.28389468	      0.00000000
      0.32075979	      5.00393161	      0.30482399	      0.00000000
      0.32192619	      4.98166471	      0.32488876	      0.00000000
      0.32309259	      4.95562088	      0.34378591	      0.00000000
      0.32425899	      4.92569850	      0.36119451	      0.00000000
      0.32542539	      4.89205142	      0.37692202	      0.00000000
      0.32659179	      4.85480549	      0.39076733	      0.00000000
      0.32775819	      4.81426405	      0.40266414	      0.00000000
      0.32892459	      4.77070567	      0.41254445	      0.00000000
      0.33009099	      4.72445024	      0.42041910	      0.00000000
      0.33125739	      4.67580399	      0.42629591	      0.00000000
      0.33242378	      4.62500143	      0.43021484	      0.00000000
      0.33359018	      4.57227807	      0.43221088	      0.00000000
      0.33475658	      4.51775731	      0.43236817	      0.00000000
      0.33592298	      4.46157583	      0.43077680	      0.00000000
      0.33708938	      4.40376884	      0.42760453	      0.00000000
      0.33825578	      4.34438885	      0.42304141	      0.00000000
      0.33942218	      4.28340463	      0.41729312	      0.00000000
      0.34058858	      4.22080419	      0.41058629	      0.00000000
      0.34175498	      4.15649457	      0.40303032	      0.00000000
      0.34292138	      4.09040920	      0.39477570	      0.00000000
      0.34408778	      4.02238046	      0.38572523	      0.00000000
      0.34525418	      3.95227807	      0.37584362	      0.00000000
      0.34642058	      3.87983209	      0.36475268	      0.00000000
      0.34758697	      3.80482718	      0.35215906	      0.00000000
      0.34875337	      3.72685710	      0.33736086	      0.00000000
      0.34991977	      3.64559292	      0.31974287	      0.00000000
      0.35108617	      3.56044809	      0.29824907	      0.00000000
      0.35225257	      3.47092601	      0.27188225	      0.00000000
      0.35341897	      3.37620145	      0.23927780	      0.00000000
      0.35458537	      3.27555771	      0.19909328	      0.00000000
      0.35575177	      3.16787220	      0.14984242	      0.00000000
      0.35691817	      3.05210179	      0.09003782	      0.00000000
      0.35808457	      2.92679417	      0.01830978	      0.00000000
      0.35925097	      2.79048473	     -0.06672686	      0.00000000
      0.36041737	      2.64148346	     -0.16619265	      0.00000000
      0.36158377	      2.47788275	     -0.28131802	      0.00000000
      0.36275016	      2.29816056	     -0.41287439	      0.00000000
      0.36391656	      2.10024595	     -0.56199605	      0.00000000
      0.36508296	      1.88375354	     -0.72842902	      0.00000000
      0.36624936	      1.64747471	     -0.91255890	      0.00000000
      0.36741576	      1.39370193	     -1.11125325	      0.00000000
      0.36858216	      1.12433288	     -1.32121961	      0.00000000
      0.36974856	      0.84509959	     -1.53519706	      0.00000000
      0.37091496	      0.56699265	     -1.73621068	      0.00000000
      0.37208136	      0.36192651	     -1.82777039	      0.00000000
      0.37324776	      0.27921247	     -1.75897087	      0.00000000
      0.37441416	      0.24261305	     -1.65077633	      0.00000000
      0.37558056	      0.20906901	     -1.56589395	      0.00000000
      0.37674696	      0.18473473	     -1.48894740	      0.00000000
      0.37791336	      0.16444067	     -1.42258363	      0.00000000
      0.37907975	      0.14819650	     -1.35997082	      0.00000000
      0.38024615	      0.13408219	     -1.29978969	      0.00000000
      0.38141255	      0.12162738	     -1.23826460	      0.00000000
      0.38257895	      0.10973227	     -1.16718838	      0.00000000
      0.38374535	      0.09711511	     -1.07727474	      0.00000000
      0.38491175	      0.08221901	     -0.96232790	      0.00000000
      0.38607815	      0.06619979	     -0.83458353	      0.00000000
      0.38724455	      0.05052579	     -0.70680523	      0.00000000
      0.38841095	      0.03654694	     -0.58815226	      0.00000000
      0.38957735	      0.02506858	     -0.48526286	      0.00000000
      0.39074375	      0.01584816	     -0.39741917	      0.00000000
      0.39191015	      0.00884574	     -0.32477689	      0.00000000
      0.39307655	      0.00354411	     -0.26422937	      0.00000000
      0.39424294	     -0.00041503	     -0.21356644	      0.00000000
      0.39540934	     -0.00337729	     -0.17058203	      0.00000000
      0.39657574	     -0.00565967	     -0.13332528	      0.00000000
      0.39774214	     -0.00741576	     -0.10074936	      0.00000000
      0.39890854	     -0.00882427	     -0.07171713	      0.00000000
      0.40007494	     -0.00995824	     -0.04576659	      0.00000000
      0.40124134	     -0.01092316	     -0.02225396	      0.00000000
      0.40240774	     -0.01173383	     -0.00096433	      0.00000000
      0.40357414	     -0.01243703	      0.01841657	      0.00000000
      0.40474054	     -0.01304343	      0.03602428	      0.00000000
      0.40590694	     -0.01357499	      0.05204420	      0.00000000
      0.40707334	     -0.01403665	      0.06656915	      0.00000000
      0.40823974	     -0.01443787	      0.07971558	      0.00000000
      0.40940613	     -0.01477962	      0.09154939	      0.00000000
      0.41057253	     -0.01506488	      0.10214884	      0.00000000
      0.41173893	     -0.01529237	      0.11156235	      0.00000000
      0.41290533	     -0.01546168	      0.11984561	      0.00000000
      0.41407173	     -0.01557006	      0.12703212	      0.00000000
      0.41523813	     -0.01561480	      0.13315803	      0.00000000
      0.41640453	     -0.01559189	      0.13824388	      0.00000000
      0.41757093	     -0.01549695	      0.14230957	      0.00000000
      0.41873733	     -0.01532601	      0.14537282	      0.00000000
      0.41990373	     -0.01507490	      0.14745081	      0.00000000
      0.42107013	     -0.01474185	      0.14856985	      0.00000000
      0.42223653	     -0.01432479	      0.14875441	      0.00000000
      0.42340293	     -0.01382496	      0.14804200	      0.00000000
      0.42456932	     -0.01324315	      0.14646710	      0.00000000
      0.42573572	     -0.01258340	      0.14407691	      0.00000000
      0.42690212	     -0.01184939	      0.14091503	      0.00000000
      0.42806852	     -0.01104748	      0.13703848	      0.00000000
      0.42923492	     -0.01018424	      0.13250384	      0.00000000
      0.43040132	     -0.00926804	      0.12737562	      0.00000000
      0.43156772	     -0.00830779	      0.12172108	      0.00000000
      0.43273412	     -0.00731197	      0.11559751	      0.00000000
      0.43390052	     -0.00628922	      0.10906221	      0.00000000
      0.43506692	     -0.00524530	      0.10215282	      0.00000000
      0.43623332	     -0.00418684	      0.09490935	      0.00000000
      0.43739972	     -0.00311641	      0.08735591	      0.00000000
      0.43856612	     -0.00203687	      0.07952088	      0.00000000
      0.43973251	     -0.00094942	      0.07142025	      0.00000000
      0.44089891	      0.00014412	      0.06307447	      0.00000000
      0.44206531	      0.00124194	      0.05449008	      0.00000000
      0.44323171	      0.00234126	      0.04567334	      0.00000000
      0.44439811	      0.00344235	      0.03662309	      0.00000000
      0.44556451	      0.00454644	      0.02733327	      0.00000000
      0.44673091	      0.00565522	      0.01781377	      0.00000000
      0.44789731	      0.00677071	      0.00807850	      0.00000000
      0.44906371	      0.00788777	     -0.00184116	      0.00000000
      0.45023011	      0.00900060	     -0.01191311	      0.00000000
      0.45139651	      0.01010245	     -0.02210544	      0.00000000
      0.45256291	      0.01118695	     -0.03239193	      0.00000000
      0.45372931	      0.01225117	     -0.04275172	      0.00000000
      0.45489571	      0.01329313	     -0.05316610	      0.00000000
      0.45606210	      0.01431275	     -0.06360973	      0.00000000
      0.45722850	      0.01531018	     -0.07405775	      0.00000000
      0.45839490	      0.01628379	     -0.08446844	      0.00000000
      0.45956130	      0.01723262	     -0.09480095	      0.00000000
      0.46072770	      0.01815213	     -0.10500065	      0.00000000
      0.46189410	      0.01903897	     -0.11501381	      0.00000000
      0.46306050	      0.01988698	     -0.12478479	      0.00000000
      0.46422690	      0.02069135	     -0.13425746	      0.00000000
      0.46539330	      0.02144626	     -0.14338615	      0.00000000
      0.46655970	      0.02214703	     -0.15212324	      0.00000000
      0.46772610	      0.02278970	     -0.16043813	      0.00000000
      0.46889250	      0.02337101	     -0.16829681	      0.00000000
      0.47005890	      0.02388926	     -0.17568313	      0.00000000
      0.47122529	      0.02434305	     -0.18257700	      0.00000000
      0.47239169	      0.02473266	     -0.18897446	      0.00000000
      0.47355809	      0.02505836	     -0.19486797	      0.00000000
      0.47472449	      0.02532199	     -0.20026375	      0.00000000
      0.47589089	      0.02552517	     -0.20516508	      0.00000000
      0.47705729	      0.02567092	     -0.20958617	      0.00000000
      0.47822369	      0.02576185	     -0.21353901	      0.00000000
      0.47939009	      0.02580173	     -0.21704313	      0.00000000
      0.48055649	      0.02579384	     -0.22011661	      0.00000000
      0.48172289	      0.02574225	     -0.22278161	      0.00000000
      0.48288929	      0.02565053	     -0.22505956	      0.00000000
      0.48405569	      0.02552267	     -0.22697306	      0.00000000
      0.48522209	      0.02536218	     -0.22854451	      0.00000000
      0.48638848	      0.02517274	     -0.22979548	      0.00000000
      0.48755488	      0.02495756	     -0.23074775	      0.00000000
      0.48872128	      0.02471979	     -0.23142109	      0.00000000
      0.48988768	      0.02446222	     -0.23183572	      0.00000000
      0.49105408	      0.02418747	     -0.23200937	      0.00000000
      0.49222048	      0.02389783	     -0.23196032	      0.00000000
      0.49338688	      0.02359539	     -0.23170423	      0.00000000
      0.49455328	      0.02328195	     -0.23125734	      0.00000000
      0.49571968	      0.02295910	     -0.23063333	      0.00000000
      0.49688608	      0.02262818	     -0.22984641	      0.00000000
      0.49805248	      0.02229037	     -0.22890839	      0.00000000
      0.49921888	      0.02194662	     -0.22783160	      0.00000000
      0.50038528	      0.02159779	     -0.22662615	      0.00000000
      0.50155167	      0.02124457	     -0.22530260	      0.00000000
      0.50271807	      0.02088771	     -0.22386959	      0.00000000
      0.50388447	      0.02052781	     -0.22233612	      0.00000000
      0.50505087	      0.02016558	     -0.22070951	      0.00000000
      0.50621727	      0.01980160	     -0.21899742	      0.00000000
      0.50738367	      0.01943651	     -0.21720598	      0.00000000
      0.50855007	      0.01907083	     -0.21534161	      0.00000000
      0.50971647	      0.01870501	     -0.21340939	      0.00000000
      0.51088287	      0.01833941	     -0.21141462	      0.00000000
      0.51204927	      0.01797424	     -0.20936151	      0.00000000
      0.51321567	      0.01760966	     -0.20725444	      0.00000000
      0.51438207	      0.01724570	     -0.20509692	      0.00000000
      0.51554847	      0.01688235	     -0.20289264	      0.00000000
      0.51671487	      0.01651949	     -0.20064459	      0.00000000
      0.51788126	      0.01615697	     -0.19835591	      0.00000000
      0.51904766	      0.01579459	     -0.19602921	      0.00000000
      0.52021406	      0.01543210	     -0.19366718	      0.00000000
      0.52138046	      0.01506921	     -0.19127212	      0.00000000
      0.52254686	      0.01470560	     -0.18884640	      0.00000000
      0.52371326	      0.01434093	     -0.18639202	      0.00000000
      0.52487966	      0.01397481	     -0.18391108	      0.00000000
      0.52604606	      0.01360686	     -0.18140537	      0.00000000
      0.52721246	      0.01323664	     -0.17887673	      0.00000000
      0.52837886	      0.01286373	     -0.17632679	      0.00000000
      0.52954526	      0.01248766	     -0.17375721	      0.00000000
      0.53071166	      0.01210796	     -0.17116947	      0.00000000
      0.53187806	      0.01172415	     -0.16856506	      0.00000000
      0.53304445	      0.01133573	     -0.16594539	      0.00000000
      0.53421085	      0.01094220	     -0.16331183	      0.00000000
      0.53537725	      0.01054304	     -0.16066571	      0.00000000
      0.53654365	      0.01013773	     -0.15800833	      0.00000000
      0.53771005	      0.00972575	     -0.15534096	      0.00000000
      0.53887645	      0.00930657	     -0.15266482	      0.00000000
      0.54004285	      0.00887967	     -0.14998114	      0.00000000
      0.54120925	      0.00844451	     -0.14729109	      0.00000000
      0.54237565	      0.00800058	     -0.14459582	      0.00000000
      0.54354205	      0.00754734	     -0.14189647	      0.00000000
      0.54470845	      0.00708428	     -0.13919411	      0.00000000
      0.54587485	      0.00661084	     -0.13648981	      0.00000000
      0.54704125	      0.00612653	     -0.13378462	      0.00000000
      0.54820764	      0.00563076	     -0.13107955	      0.00000000
      0.54937404	      0.00512311	     -0.12837560	      0.00000000
      0.55054044	      0.00460294	     -0.12567376	      0.00000000
      0.55170684	      0.00407013	     -0.12297507	      0.00000000
      0.55287324	      0.00352422	     -0.12028050	      0.00000000
      0.55403964	      0.00296603	     -0.11759118	      0.00000000
      0.55520604	      0.00239613	     -0.11490813	      0.00000000
      0.55637244	      0.00181693	     -0.11223278	      0.00000000
      0.55753884	      0.00123085	     -0.10956653	      0.00000000
      0.55870524	      0.00064103	     -0.10691130	      0.00000000
      0.55987164	      0.00005051	     -0.10426906	      0.00000000
      0.56103804	     -0.00053888	     -0.10164179	      0.00000000
      0.56220444	     -0.00112533	     -0.09903151	      0.00000000
      0.56337083	     -0.00170856	     -0.09643969	      0.00000000
      0.56453723	     -0.00228811	     -0.09386787	      0.00000000
      0.56570363	     -0.00286431	     -0.09131697	      0.00000000
      0.56687003	     -0.00343731	     -0.08878803	      0.00000000
      0.56803643	     -0.00400753	     -0.08628159	      0.00000000
      0.56920283	     -0.00457526	     -0.08379834	      0.00000000
      0.57036923	     -0.00514083	     -0.08133857	      0.00000000
      0.57153563	     -0.00570455	     -0.07890266	      0.00000000
      0.57270203	     -0.00626665	     -0.07649066	      0.00000000
      0.57386843	     -0.00682739	     -0.07410267	      0.00000000
      0.57503483	     -0.00738694	     -0.07173850	      0.00000000
      0.57620123	     -0.00794550	     -0.06939802	      0.00000000
      0.57736763	     -0.00850322	     -0.06708091	      0.00000000
      0.57853403	     -0.00906031	     -0.06478686	      0.00000000
      0.57970042	     -0.00961698	     -0.06251543	      0.00000000
      0.58086682	     -0.01017349	     -0.06026614	      0.00000000
      0.58203322	     -0.01073004	     -0.05803852	      0.00000000
      0.58319962	     -0.01128683	     -0.05583206	      0.00000000
      0.58436602	     -0.01184399	     -0.05364629	      0.00000000
      0.58553242	     -0.01240171	     -0.05148070	      0.00000000
      0.58669882	     -0.01296006	     -0.04933484	      0.00000000
      0.58786522	     -0.01351918	     -0.04720820	      0.00000000
      0.58903162	     -0.01407912	     -0.04510035	      0.00000000
      0.59019802	     -0.01463994	     -0.04301082	      0.00000000
      0.59136442	     -0.01520166	     -0.04093918	      0.00000000
      0.59253082	     -0.01576432	     -0.03888496	      0.00000000
      0.59369722	     -0.01632790	     -0.03684775	      0.00000000
      0.59486361	     -0.01689241	     -0.03482707	      0.00000000
      0.59603001	     -0.01745782	     -0.03282248	      0.00000000
      0.59719641	     -0.01802412	     -0.03083352	      0.00000000
      0.59836281	     -0.01859127	     -0.02885972	      0.00000000
      0.59952921	     -0.01915925	     -0.02690062	      0.00000000
      0.60069561	     -0.01972802	     -0.02495573	      0.00000000
      0.60186201	     -0.02029754	     -0.02302459	      0.00000000
      0.60302841	     -0.02086778	     -0.02110671	      0.00000000
      0.60419481	     -0.02143871	     -0.01920162	      0.00000000
      0.60536121	     -0.02201027	     -0.01730885	      0.00000000
      0.60652761	     -0.02258241	     -0.01542795	      0.00000000
      0.60769401	     -0.02315505	     -0.01355846	      0.00000000
      0.60886041	     -0.02372810	     -0.01169994	      0.00000000
      0.61002680	     -0.02430144	     -0.00985194	      0.00000000
      0.61119320	     -0.02487494	     -0.00801398	      0.00000000
      0.61235960	     -0.02544847	     -0.00618555	      0.00000000
      0.61352600	     -0.02602184	     -0.00436610	      0.00000000
      0.61469240	     -0.02659497	     -0.00255492	      0.00000000
      0.61585880	     -0.02716770	     -0.00075126	      0.00000000
      0.61702520	     -0.02774016	      0.00104582	      0.00000000
      0.61819160	     -0.02831244	      0.00283737	      0.00000000
      0.61935800	     -0.02888495	      0.00462447	      0.00000000
      0.62052440	     -0.02945800	      0.00640829	      0.00000000
      0.62169080	     -0.03003216	      0.00818981	      0.00000000
      0.62285720	     -0.03060740	      0.00996995	      0.00000000
      0.62402360	     -0.03118418	      0.01174963	      0.00000000
      0.62518999	     -0.03176463	      0.01352995	      0.00000000
      0.62635639	     -0.03234653	      0.01530946	      0.00000000
      0.62752279	     -0.03292681	      0.01708783	      0.00000000
      0.62868919	     -0.03350687	      0.01886726	      0.00000000
      0.62985559	     -0.03408763	      0.02064915	      0.00000000
      0.63102199	     -0.03466938	      0.02243406	      0.00000000
      0.63218839	     -0.03525260	      0.02422295	      0.00000000
      0.63335479	     -0.03583731	      0.02601612	      0.00000000
      0.63452119	     -0.03642349	      0.02781411	      0.00000000
      0.63568759	     -0.03701094	      0.02961708	      0.00000000
      0.63685399	     -0.03759933	      0.03142542	      0.00000000
      0.63802039	     -0.03818853	      0.03323935	      0.00000000
      0.63918679	     -0.03877824	      0.03505929	      0.00000000
      0.64035318	     -0.03936858	      0.03688568	      0.00000000
      0.64151958	     -0.03995954	      0.03871914	      0.00000000
      0.64268598	     -0.04055151	      0.04056033	      0.00000000
      0.64385238	     -0.04114475	      0.04241017	      0.00000000
      0.64501878	     -0.04173974	      0.04426939	      0.00000000
      0.64618518	     -0.04233680	      0.04613903	      0.00000000
      0.64735158	     -0.04293638	      0.04801983	      0.00000000
      0.64851798	     -0.04353880	      0.04991294	      0.00000000
      0.64968438	     -0.04414449	      0.05181919	      0.00000000
      0.65085078	     -0.04475392	      0.05374006	      0.00000000
      0.65201718	     -0.04536712	      0.05567609	      0.00000000
      0.65318358	     -0.04598415	      0.05762851	      0.00000000
      0.65434998	     -0.04660430	      0.05959681	      0.00000000
      0.65551638	     -0.04722669	      0.06158087	      0.00000000
      0.65668277	     -0.04785018	      0.06357964	      0.00000000
      0.65784917	     -0.04847360	      0.06559290	      0.00000000
      0.65901557	     -0.04909553	      0.06762008	      0.00000000
      0.66018197	     -0.04971392	      0.06966064	      0.00000000
      0.66134837	     -0.05032787	      0.07171419	      0.00000000
      0.66251477	     -0.05093720	      0.07378140	      0.00000000
      0.66368117	     -0.05153966	      0.07585945	      0.00000000
      0.66484757	     -0.05213264	      0.07794601	      0.00000000
      0.66601397	     -0.05271879	      0.08004623	      0.00000000
      0.66718037	     -0.05329972	      0.08216440	      0.00000000
      0.66834677	     -0.05387724	      0.08430514	      0.00000000
      0.66951317	     -0.05445157	      0.08647334	      0.00000000
      0.67067957	     -0.05502631	      0.08867663	      0.00000000
      0.67184596	     -0.05560643	      0.09092297	      0.00000000
      0.67301236	     -0.05619325	      0.09321792	      0.00000000
      0.67417876	     -0.05678800	      0.09556867	      0.00000000
      0.67534516	     -0.05739085	      0.09798153	      0.00000000
      0.67651156	     -0.05800187	      0.10046343	      0.00000000
      0.67767796	     -0.05862017	      0.10302001	      0.00000000
      0.67884436	     -0.05924545	      0.10565790	      0.00000000
      0.68001076	     -0.05987664	      0.10838235	      0.00000000
      0.68117716	     -0.06051291	      0.11119896	      0.00000000
      0.68234356	     -0.06115259	      0.11411239	      0.00000000
      0.68350996	     -0.06179468	      0.11712775	      0.00000000
      0.68467636	     -0.06243707	      0.12024957	      0.00000000
      0.68584276	     -0.06307834	      0.12348255	      0.00000000
      0.68700915	     -0.06371482	      0.12682986	      0.00000000
      0.68817555	     -0.06434226	      0.13029316	      0.00000000
      0.68934195	     -0.06495577	      0.13387488	      0.00000000
      0.69050835	     -0.06555118	      0.13757715	      0.00000000
      0.69167475	     -0.06612627	      0.14140440	      0.00000000
      0.69284115	     -0.06667960	      0.14536172	      0.00000000
      0.69400755	     -0.06720959	      0.14945275	      0.00000000
      0.69517395	     -0.06771369	      0.15368680	      0.00000000
      0.69634035	     -0.06818930	      0.15805523	      0.00000000
      0.69750675	     -0.06863326	      0.16258598	      0.00000000
      0.69867315	     -0.06904044	      0.16721611	      0.00000000
      0.69983955	     -0.06938800	      0.17212632	      0.00000000
