PointAcceleration
version=1
nRows=601
nColumns=4
inDegrees=no
No description.
endheader
time	state_0	state_1	state_2
      0.00000000	   -182.78312558	   -382.63977033	      0.00000000
      0.00116640	   -181.41109225	   -384.83811680	      0.00000000
      0.00233280	   -180.88005087	   -387.66107798	      0.00000000
      0.00349920	   -181.49627871	   -391.29470357	      0.00000000
      0.00466560	   -183.56998553	   -395.92854104	      0.00000000
      0.00583200	   -187.41146955	   -401.71142597	      0.00000000
      0.00699840	   -193.29419110	   -408.68095575	      0.00000000
      0.00816479	   -201.34083508	   -416.68908246	      0.00000000
      0.00933119	   -211.52694114	   -425.29480546	      0.00000000
      0.01049759	   -223.59996504	   -433.78462790	      0.00000000
      0.01166399	   -237.34723599	   -441.29001319	      0.00000000
      0.01283039	   -252.89651004	   -447.17798182	      0.00000000
      0.01399679	   -271.27526840	   -451.46500737	      0.00000000
      0.01516319	   -294.28058830	   -454.67311451	      0.00000000
      0.01632959	   -323.60512514	   -456.47226905	      0.00000000
      0.01749599	   -358.64861127	   -454.32538421	      0.00000000
      0.01866239	   -395.02620360	   -441.82513292	      0.00000000
      0.01982879	   -425.37248744	   -412.81291026	      0.00000000
      0.02099519	   -440.24634738	   -363.10135155	      0.00000000
      0.02216159	   -436.15177612	   -299.93997919	      0.00000000
      0.02332798	   -409.89287469	   -222.94872479	      0.00000000
      0.02449438	   -369.32639895	   -149.31446151	      0.00000000
      0.02566078	   -122.41881932	     47.57842132	      0.00000000
      0.02682718	   -105.77991186	    -22.21071900	      0.00000000
      0.02799358	    -95.10299521	    -56.04389754	      0.00000000
      0.02915998	    -85.69011361	    -70.75053503	      0.00000000
      0.03032638	    -84.33680087	    -83.81010413	      0.00000000
      0.03149278	    -80.58875294	    -85.61036240	      0.00000000
      0.03265918	    -80.26085084	    -88.95188786	      0.00000000
      0.03382558	    -78.99842234	    -88.55967301	      0.00000000
      0.03499198	    -78.80864846	    -89.12862820	      0.00000000
      0.03615838	    -78.38381645	    -88.78701775	      0.00000000
      0.03732478	    -78.28355400	    -88.93954912	      0.00000000
      0.03849118	    -78.15781967	    -88.99831062	      0.00000000
      0.03965757	    -78.14365793	    -89.32913694	      0.00000000
      0.04082397	    -78.15238148	    -89.76063229	      0.00000000
      0.04199037	    -78.20527064	    -90.36230385	      0.00000000
      0.04315677	    -78.28206257	    -91.08665841	      0.00000000
      0.04432317	    -78.37640980	    -91.92667188	      0.00000000
      0.04548957	    -78.48377826	    -92.86749396	      0.00000000
      0.04665597	    -78.59431134	    -93.88572668	      0.00000000
      0.04782237	    -78.70494722	    -94.97225569	      0.00000000
      0.04898877	    -78.80781050	    -96.10246209	      0.00000000
      0.05015517	    -78.89812371	    -97.26651755	      0.00000000
      0.05132157	    -78.97111433	    -98.44332964	      0.00000000
      0.05248797	    -79.02075080	    -99.62138763	      0.00000000
      0.05365437	    -79.04440304	   -100.78251382	      0.00000000
      0.05482076	    -79.03540929	   -101.91344282	      0.00000000
      0.05598716	    -78.99222887	   -102.99773200	      0.00000000
      0.05715356	    -78.90825534	   -104.02211550	      0.00000000
      0.05831996	    -78.78310785	   -104.97395898	      0.00000000
      0.05948636	    -78.61099642	   -105.84098538	      0.00000000
      0.06065276	    -78.39169028	   -106.61280051	      0.00000000
      0.06181916	    -78.11966938	   -107.27662705	      0.00000000
      0.06298556	    -77.79388031	   -107.82150127	      0.00000000
      0.06415196	    -77.40926001	   -108.23431429	      0.00000000
      0.06531836	    -76.96408116	   -108.50374108	      0.00000000
      0.06648476	    -76.45405982	   -108.61766883	      0.00000000
      0.06765116	    -75.87710031	   -108.56532202	      0.00000000
      0.06881756	    -75.22977845	   -108.33646247	      0.00000000
      0.06998395	    -74.51001560	   -107.92197774	      0.00000000
      0.07115035	    -73.71486650	   -107.31285250	      0.00000000
      0.07231675	    -72.84206447	   -106.50069903	      0.00000000
      0.07348315	    -71.88864407	   -105.47623420	      0.00000000
      0.07464955	    -70.85166988	   -104.22973118	      0.00000000
      0.07581595	    -69.72851216	   -102.75233823	      0.00000000
      0.07698235	    -68.51601592	   -101.03387860	      0.00000000
      0.07814875	    -67.21254906	    -99.06846024	      0.00000000
      0.07931515	    -65.81540004	    -96.84724558	      0.00000000
      0.08048155	    -64.32576809	    -94.37334023	      0.00000000
      0.08164795	    -62.74390860	    -91.64728599	      0.00000000
      0.08281435	    -61.07919941	    -88.69692895	      0.00000000
      0.08398075	    -59.34686678	    -85.57631359	      0.00000000
      0.08514714	    -57.52615054	    -82.24220575	      0.00000000
      0.08631354	    -55.59137632	    -78.62140111	      0.00000000
      0.08747994	    -53.52884523	    -74.65460812	      0.00000000
      0.08864634	    -51.31228500	    -70.24769181	      0.00000000
      0.08981274	    -48.98441397	    -65.50406739	      0.00000000
      0.09097914	    -46.59823047	    -60.58069007	      0.00000000
      0.09214554	    -44.16650672	    -55.56797509	      0.00000000
      0.09331194	    -41.70724866	    -50.54395104	      0.00000000
      0.09447834	    -39.21987207	    -45.52423566	      0.00000000
      0.09564474	    -36.70415786	    -40.52604244	      0.00000000
      0.09681114	    -34.15792314	    -35.54490465	      0.00000000
      0.09797754	    -31.57869881	    -30.58001642	      0.00000000
      0.09914394	    -28.96792546	    -25.63094870	      0.00000000
      0.10031033	    -26.32714697	    -20.69739230	      0.00000000
      0.10147673	    -23.65835523	    -15.78247590	      0.00000000
      0.10264313	    -20.96076644	    -10.88806807	      0.00000000
      0.10380953	    -18.24111334	     -6.01965842	      0.00000000
      0.10497593	    -15.50750101	     -1.17836045	      0.00000000
      0.10614233	    -12.76469218	      3.63492971	      0.00000000
      0.10730873	    -10.01381959	      8.42067057	      0.00000000
      0.10847513	     -7.25787895	     13.17570503	      0.00000000
      0.10964153	     -4.49563779	     17.89907309	      0.00000000
      0.11080793	     -1.74290840	     22.58549563	      0.00000000
      0.11197433	      0.97976155	     27.23402099	      0.00000000
      0.11314073	      3.66182132	     31.84783646	      0.00000000
      0.11430713	      6.29738611	     36.42827438	      0.00000000
      0.11547353	      8.88690640	     40.97436917	      0.00000000
      0.11663992	     11.42963870	     45.48499595	      0.00000000
      0.11780632	     13.92792823	     49.95952440	      0.00000000
      0.11897272	     16.38268686	     54.39603598	      0.00000000
      0.12013912	     18.79630744	     58.79458744	      0.00000000
      0.12130552	     21.17025957	     63.15344152	      0.00000000
      0.12247192	     23.50686713	     67.47306370	      0.00000000
      0.12363832	     25.80772885	     71.75204779	      0.00000000
      0.12480472	     28.07513195	     75.99113530	      0.00000000
      0.12597112	     30.31051600	     80.18906547	      0.00000000
      0.12713752	     32.51616679	     84.34680403	      0.00000000
      0.12830392	     34.69302701	     88.46289846	      0.00000000
      0.12947032	     36.84336715	     92.53849093	      0.00000000
      0.13063672	     38.96731913	     96.57165071	      0.00000000
      0.13180311	     41.06693386	    100.56351034	      0.00000000
      0.13296951	     43.14170985	    104.51189328	      0.00000000
      0.13413591	     45.19298692	    108.41740228	      0.00000000
      0.13530231	     47.22097347	    112.27880603	      0.00000000
      0.13646871	     49.22596807	    116.09556944	      0.00000000
      0.13763511	     51.21107008	    119.86886503	      0.00000000
      0.13880151	     53.17639232	    123.59746925	      0.00000000
      0.13996791	     55.12790379	    127.28437571	      0.00000000
      0.14113431	     57.06672320	    130.92970121	      0.00000000
      0.14230071	     58.99779700	    134.53590511	      0.00000000
      0.14346711	     60.92332693	    138.10598429	      0.00000000
      0.14463351	     62.84454278	    141.64116780	      0.00000000
      0.14579991	     64.76418223	    145.14646143	      0.00000000
      0.14696630	     66.68150563	    148.62312427	      0.00000000
      0.14813270	     68.59932085	    152.07601395	      0.00000000
      0.14929910	     70.51734196	    155.50702181	      0.00000000
      0.15046550	     72.43800754	    158.91956977	      0.00000000
      0.15163190	     74.36208462	    162.31578823	      0.00000000
      0.15279830	     76.29146313	    165.69760940	      0.00000000
      0.15396470	     78.22753211	    169.06690379	      0.00000000
      0.15513110	     80.17171862	    172.42452403	      0.00000000
      0.15629750	     82.12546378	    175.77179174	      0.00000000
      0.15746390	     84.09038049	    179.10880665	      0.00000000
      0.15863030	     86.06676929	    182.43700697	      0.00000000
      0.15979670	     88.05639420	    185.75582909	      0.00000000
      0.16096310	     90.06030432	    189.06566659	      0.00000000
      0.16212949	     92.07926071	    192.36635143	      0.00000000
      0.16329589	     94.11444166	    195.65817398	      0.00000000
      0.16446229	     96.16642328	    198.94053534	      0.00000000
      0.16562869	     98.23613125	    202.21339238	      0.00000000
      0.16679509	    100.32403480	    205.47606756	      0.00000000
      0.16796149	    102.43088344	    208.72834744	      0.00000000
      0.16912789	    104.55705895	    211.96954548	      0.00000000
      0.17029429	    106.70316960	    215.19934508	      0.00000000
      0.17146069	    108.86943675	    218.41693964	      0.00000000
      0.17262709	    111.05625888	    221.62179718	      0.00000000
      0.17379349	    113.26365918	    224.81295394	      0.00000000
      0.17495989	    115.49180208	    227.98968407	      0.00000000
      0.17612629	    117.74076470	    231.15125204	      0.00000000
      0.17729269	    120.01069441	    234.29705124	      0.00000000
      0.17845908	    122.30158048	    237.42627019	      0.00000000
      0.17962548	    124.61348094	    240.53819591	      0.00000000
      0.18079188	    126.94627557	    243.63185405	      0.00000000
      0.18195828	    129.29989806	    246.70636235	      0.00000000
      0.18312468	    131.67416048	    249.76067763	      0.00000000
      0.18429108	    134.06891328	    252.79382443	      0.00000000
      0.18545748	    136.48392402	    255.80475150	      0.00000000
      0.18662388	    138.91898168	    258.79244707	      0.00000000
      0.18779028	    141.37382836	    261.75589429	      0.00000000
      0.18895668	    143.84822356	    264.69410989	      0.00000000
      0.19012308	    146.34192626	    267.60616330	      0.00000000
      0.19128948	    148.85472337	    270.49117387	      0.00000000
      0.19245588	    151.38634175	    273.34819495	      0.00000000
      0.19362227	    153.93652680	    276.17628874	      0.00000000
      0.19478867	    156.50478959	    278.97425896	      0.00000000
      0.19595507	    159.09070803	    281.74101182	      0.00000000
      0.19712147	    161.69387509	    284.47556260	      0.00000000
      0.19828787	    164.31391725	    287.17698159	      0.00000000
      0.19945427	    166.95044074	    289.84437902	      0.00000000
      0.20062067	    169.60307860	    292.47689370	      0.00000000
      0.20178707	    172.27134699	    295.07357015	      0.00000000
      0.20295347	    174.95477163	    297.63348968	      0.00000000
      0.20411987	    177.65284681	    300.15571668	      0.00000000
      0.20528627	    180.36499741	    302.63939508	      0.00000000
      0.20645267	    183.09086167	    305.08376278	      0.00000000
      0.20761907	    185.82939009	    307.48847943	      0.00000000
      0.20878546	    188.58161934	    309.85169285	      0.00000000
      0.20995186	    191.34569898	    312.17324175	      0.00000000
      0.21111826	    194.12131574	    314.45223093	      0.00000000
      0.21228466	    196.90788073	    316.68761203	      0.00000000
      0.21345106	    199.70471823	    318.87844755	      0.00000000
      0.21461746	    202.51122580	    321.02385129	      0.00000000
      0.21578386	    205.32675368	    323.12298718	      0.00000000
      0.21695026	    208.15068609	    325.17504703	      0.00000000
      0.21811666	    210.98237084	    327.17921924	      0.00000000
      0.21928306	    213.82116166	    329.13470825	      0.00000000
      0.22044946	    216.66640520	    331.04071626	      0.00000000
      0.22161586	    219.51744006	    332.89645400	      0.00000000
      0.22278226	    222.37362877	    334.70115352	      0.00000000
      0.22394865	    225.23432235	    336.45404874	      0.00000000
      0.22511505	    228.09889417	    338.15440773	      0.00000000
      0.22628145	    230.96668790	    339.80149377	      0.00000000
      0.22744785	    233.83708681	    341.39460776	      0.00000000
      0.22861425	    236.70945276	    342.93304145	      0.00000000
      0.22978065	    239.58318318	    344.41611960	      0.00000000
      0.23094705	    242.45766034	    345.84315463	      0.00000000
      0.23211345	    245.33224340	    347.21348300	      0.00000000
      0.23327985	    248.20625055	    348.52642675	      0.00000000
      0.23444625	    251.07899367	    349.78133619	      0.00000000
      0.23561265	    253.94976416	    350.97754767	      0.00000000
      0.23677905	    256.81785771	    352.11442309	      0.00000000
      0.23794545	    259.68253833	    353.19130826	      0.00000000
      0.23911185	    262.54307855	    354.20757514	      0.00000000
      0.24027824	    265.39871390	    355.16257668	      0.00000000
      0.24144464	    268.24869970	    356.05569797	      0.00000000
      0.24261104	    271.09225097	    356.88630129	      0.00000000
      0.24377744	    273.92861096	    357.65378860	      0.00000000
      0.24494384	    276.75697781	    358.35753482	      0.00000000
      0.24611024	    279.57657039	    358.99695735	      0.00000000
      0.24727664	    282.38655811	    359.57144207	      0.00000000
      0.24844304	    285.18612524	    360.08042528	      0.00000000
      0.24960944	    287.97440581	    360.52330878	      0.00000000
      0.25077584	    290.75054568	    360.89955423	      0.00000000
      0.25194224	    293.51363674	    361.20858464	      0.00000000
      0.25310864	    296.26278412	    361.44989268	      0.00000000
      0.25427504	    298.99703643	    361.62292908	      0.00000000
      0.25544143	    301.71545594	    361.72722146	      0.00000000
      0.25660783	    304.41704629	    361.76225216	      0.00000000
      0.25777423	    307.10082048	    361.72758551	      0.00000000
      0.25894063	    309.76573071	    361.62273709	      0.00000000
      0.26010703	    312.41073063	    361.44731137	      0.00000000
      0.26127343	    315.03471098	    361.20086070	      0.00000000
      0.26243983	    317.63655410	    360.88303616	      0.00000000
      0.26360623	    320.21507869	    360.49343516	      0.00000000
      0.26477263	    322.76908669	    360.03176414	      0.00000000
      0.26593903	    325.29731719	    359.49767791	      0.00000000
      0.26710543	    327.79848206	    358.89093775	      0.00000000
      0.26827183	    330.27122822	    358.21125686	      0.00000000
      0.26943823	    332.71416739	    357.45842917	      0.00000000
      0.27060462	    335.12583087	    356.63219758	      0.00000000
      0.27177102	    337.50473161	    355.73234331	      0.00000000
      0.27293742	    339.84925938	    354.75857416	      0.00000000
      0.27410382	    342.15786915	    353.71061228	      0.00000000
      0.27527022	    344.42881647	    352.58805658	      0.00000000
      0.27643662	    346.66060267	    351.39056224	      0.00000000
      0.27760302	    348.85144235	    350.11759622	      0.00000000
      0.27876942	    351.00002944	    348.76880490	      0.00000000
      0.27993582	    353.10470875	    347.34359144	      0.00000000
      0.28110222	    355.16441750	    345.84166469	      0.00000000
      0.28226862	    357.17769196	    344.26244751	      0.00000000
      0.28343502	    359.14352329	    342.60567994	      0.00000000
      0.28460142	    361.06038908	    340.87073461	      0.00000000
      0.28576781	    362.92697721	    339.05720553	      0.00000000
      0.28693421	    364.74136711	    337.16424360	      0.00000000
      0.28810061	    366.50182504	    335.19122729	      0.00000000
      0.28926701	    368.20591305	    333.13701507	      0.00000000
      0.29043341	    369.85156490	    331.00083684	      0.00000000
      0.29159981	    371.43589808	    328.78132237	      0.00000000
      0.29276621	    372.95661710	    326.47767567	      0.00000000
      0.29393261	    374.41049586	    324.08842644	      0.00000000
      0.29509901	    375.79502066	    321.61286046	      0.00000000
      0.29626541	    377.10664970	    319.04953264	      0.00000000
      0.29743181	    378.34259989	    316.39789115	      0.00000000
      0.29859821	    379.49897508	    313.65661682	      0.00000000
      0.29976461	    380.57268787	    310.82538515	      0.00000000
      0.30093100	    381.55944696	    307.90308177	      0.00000000
      0.30209740	    382.45591885	    304.88967095	      0.00000000
      0.30326380	    383.25746566	    301.78431360	      0.00000000
      0.30443020	    383.96066348	    298.58731617	      0.00000000
      0.30559660	    384.56068192	    295.29817582	      0.00000000
      0.30676300	    385.05412901	    291.91755052	      0.00000000
      0.30792940	    385.43611825	    288.44530246	      0.00000000
      0.30909580	    385.70324577	    284.88238574	      0.00000000
      0.31026220	    385.85054070	    281.22897795	      0.00000000
      0.31142860	    385.87418485	    277.48608168	      0.00000000
      0.31259500	    385.76871968	    273.65394454	      0.00000000
      0.31376140	    385.52940233	    269.73335358	      0.00000000
      0.31492780	    385.14987558	    265.72436298	      0.00000000
      0.31609420	    384.62411328	    261.62712968	      0.00000000
      0.31726059	    383.94440895	    257.44103479	      0.00000000
      0.31842699	    383.10309433	    253.16534970	      0.00000000
      0.31959339	    382.09083695	    248.79846356	      0.00000000
      0.32075979	    380.89834364	    244.33873220	      0.00000000
      0.32192619	    379.51485961	    239.78354231	      0.00000000
      0.32309259	    377.92939485	    235.13088458	      0.00000000
      0.32425899	    376.12954521	    230.37798076	      0.00000000
      0.32542539	    374.10250579	    225.52335958	      0.00000000
      0.32659179	    371.83391986	    220.56554362	      0.00000000
      0.32775819	    369.31118848	    215.50396095	      0.00000000
      0.32892459	    366.52243142	    210.33837558	      0.00000000
      0.33009099	    363.45867329	    205.06933025	      0.00000000
      0.33125739	    360.11209579	    199.69834247	      0.00000000
      0.33242378	    356.47552832	    194.22771614	      0.00000000
      0.33359018	    352.54401190	    188.66141881	      0.00000000
      0.33475658	    348.31166309	    183.00397730	      0.00000000
      0.33592298	    343.77607956	    177.26185289	      0.00000000
      0.33708938	    338.93490073	    171.44204102	      0.00000000
      0.33825578	    333.78849824	    165.55322371	      0.00000000
      0.33942218	    328.33902255	    159.60460495	      0.00000000
      0.34058858	    322.58907698	    153.60619866	      0.00000000
      0.34175498	    316.54387189	    147.56873442	      0.00000000
      0.34292138	    310.20641840	    141.50267720	      0.00000000
      0.34408778	    303.58038452	    135.41956826	      0.00000000
      0.34525418	    296.66779654	    129.32964582	      0.00000000
      0.34642058	    289.46639494	    123.24704812	      0.00000000
      0.34758697	    281.97553383	    117.18736194	      0.00000000
      0.34875337	    274.18126825	    111.16770621	      0.00000000
      0.34991977	    266.08186747	    105.20766898	      0.00000000
      0.35108617	    257.66155968	     99.32506342	      0.00000000
      0.35225257	    248.92394631	     93.54240258	      0.00000000
      0.35341897	    239.85720509	     87.87723813	      0.00000000
      0.35458537	    230.47269273	     82.35271132	      0.00000000
      0.35575177	    220.76612851	     76.98484075	      0.00000000
      0.35691817	    210.75591206	     71.79392761	      0.00000000
      0.35808457	    200.44761195	     66.79622763	      0.00000000
      0.35925097	    189.86731988	     62.00620016	      0.00000000
      0.36041737	    179.05702177	     57.45855539	      0.00000000
      0.36158377	    168.13370115	     53.20907216	      0.00000000
      0.36275016	    157.14862513	     49.29879139	      0.00000000
      0.36391656	    146.25727012	     45.79577557	      0.00000000
      0.36508296	    135.37431058	     42.64597564	      0.00000000
      0.36624936	    124.21666132	     39.72791020	      0.00000000
      0.36741576	    112.87261849	     36.98550268	      0.00000000
      0.36858216	    101.45200722	     34.41349773	      0.00000000
      0.36974856	     90.04779836	     32.04387250	      0.00000000
      0.37091496	     78.67838312	     29.90781299	      0.00000000
      0.37208136	     67.68798390	     26.78740152	      0.00000000
      0.37324776	     58.02789459	     24.93006699	      0.00000000
      0.37441416	     53.38435501	     24.93037420	      0.00000000
      0.37558056	     55.99909693	     25.69216700	      0.00000000
      0.37674696	     59.02462034	     26.29786501	      0.00000000
      0.37791336	     60.76994745	     26.45594690	      0.00000000
      0.37907975	     61.89386089	     26.30607898	      0.00000000
      0.38024615	     62.51718020	     25.77893016	      0.00000000
      0.38141255	     62.60167004	     24.87988495	      0.00000000
      0.38257895	     62.10882751	     23.67075448	      0.00000000
      0.38374535	     61.12695926	     22.30319956	      0.00000000
      0.38491175	     59.74240019	     20.86622441	      0.00000000
      0.38607815	     58.08102619	     19.40404125	      0.00000000
      0.38724455	     56.24106738	     17.94532234	      0.00000000
      0.38841095	     54.28409493	     16.52835053	      0.00000000
      0.38957735	     52.27152342	     15.17674993	      0.00000000
      0.39074375	     50.23080947	     13.90679377	      0.00000000
      0.39191015	     48.20722857	     12.72682463	      0.00000000
      0.39307655	     46.22382768	     11.63380077	      0.00000000
      0.39424294	     44.32816865	     10.62235200	      0.00000000
      0.39540934	     42.54106468	      9.67645476	      0.00000000
      0.39657574	     40.89150204	      8.78380990	      0.00000000
      0.39774214	     39.37040152	      7.92971529	      0.00000000
      0.39890854	     37.96372525	      7.10572268	      0.00000000
      0.40007494	     36.65127526	      6.30585798	      0.00000000
      0.40124134	     35.41714399	      5.52765687	      0.00000000
      0.40240774	     34.25437952	      4.76980549	      0.00000000
      0.40357414	     33.15338915	      4.03283729	      0.00000000
      0.40474054	     32.10871996	      3.31681890	      0.00000000
      0.40590694	     31.11136226	      2.62313709	      0.00000000
      0.40707334	     30.15407317	      1.95257568	      0.00000000
      0.40823974	     29.22736214	      1.30671196	      0.00000000
      0.40940613	     28.32413817	      0.68642524	      0.00000000
      0.41057253	     27.43548199	      0.09302281	      0.00000000
      0.41173893	     26.55578336	     -0.47294664	      0.00000000
      0.41290533	     25.67798494	     -1.01073917	      0.00000000
      0.41407173	     24.79873419	     -1.52037136	      0.00000000
      0.41523813	     23.91359135	     -2.00180937	      0.00000000
      0.41640453	     23.02131356	     -2.45565031	      0.00000000
      0.41757093	     22.11993400	     -2.88252321	      0.00000000
      0.41873733	     21.20948666	     -3.28343332	      0.00000000
      0.41990373	     20.28963093	     -3.65945115	      0.00000000
      0.42107013	     19.36073174	     -4.01176387	      0.00000000
      0.42223653	     18.42306766	     -4.34163354	      0.00000000
      0.42340293	     17.47672484	     -4.65025240	      0.00000000
      0.42456932	     16.52186689	     -4.93888117	      0.00000000
      0.42573572	     15.55813010	     -5.20862274	      0.00000000
      0.42690212	     14.58526230	     -5.46063398	      0.00000000
      0.42806852	     13.60259898	     -5.69590203	      0.00000000
      0.42923492	     12.60953979	     -5.91544523	      0.00000000
      0.43040132	     11.60539628	     -6.12012349	      0.00000000
      0.43156772	     10.58946325	     -6.31074290	      0.00000000
      0.43273412	      9.56124878	     -6.48818136	      0.00000000
      0.43390052	      8.52017155	     -6.65331613	      0.00000000
      0.43506692	      7.46610710	     -6.80703977	      0.00000000
      0.43623332	      6.39882384	     -6.95022862	      0.00000000
      0.43739972	      5.31863520	     -7.08376487	      0.00000000
      0.43856612	      4.22576222	     -7.20849849	      0.00000000
      0.43973251	      3.12090375	     -7.32529296	      0.00000000
      0.44089891	      2.00459955	     -7.43496644	      0.00000000
      0.44206531	      0.87789828	     -7.53838017	      0.00000000
      0.44323171	     -0.25824876	     -7.63636510	      0.00000000
      0.44439811	     -1.40187349	     -7.72983055	      0.00000000
      0.44556451	     -2.54653914	     -7.82026955	      0.00000000
      0.44673091	     -3.68900285	     -7.90858099	      0.00000000
      0.44789731	     -4.49389237	     -8.03440702	      0.00000000
      0.44906371	     -5.62405682	     -8.11449555	      0.00000000
      0.45023011	     -6.74603937	     -8.19436309	      0.00000000
      0.45139651	     -7.86064734	     -8.27418025	      0.00000000
      0.45256291	     -8.97151871	     -8.35376303	      0.00000000
      0.45372931	    -10.07978550	     -8.43326673	      0.00000000
      0.45489571	    -11.18573407	     -8.51296830	      0.00000000
      0.45606210	    -12.28679786	     -8.59347565	      0.00000000
      0.45722850	    -13.38097357	     -8.67528414	      0.00000000
      0.45839490	    -14.46671339	     -8.75877812	      0.00000000
      0.45956130	    -15.54326153	     -8.84421756	      0.00000000
      0.46072770	    -16.61060136	     -8.93175686	      0.00000000
      0.46189410	    -17.66841729	     -9.02158246	      0.00000000
      0.46306050	    -18.71632905	     -9.11389026	      0.00000000
      0.46422690	    -19.75398618	     -9.20885935	      0.00000000
      0.46539330	    -20.78121902	     -9.30665145	      0.00000000
      0.46655970	    -21.79798657	     -9.40740154	      0.00000000
      0.46772610	    -22.80457932	     -9.51121082	      0.00000000
      0.46889250	    -23.80138715	     -9.61816452	      0.00000000
      0.47005890	    -24.78893862	     -9.72833660	      0.00000000
      0.47122529	    -25.76780365	     -9.84179601	      0.00000000
      0.47239169	    -26.73849194	     -9.95861978	      0.00000000
      0.47355809	    -27.70155267	    -10.07888047	      0.00000000
      0.47472449	    -28.65747224	    -10.20265566	      0.00000000
      0.47589089	    -29.60678761	    -10.33001771	      0.00000000
      0.47705729	    -30.55003036	    -10.46103674	      0.00000000
      0.47822369	    -31.48777442	    -10.59578019	      0.00000000
      0.47939009	    -32.42055234	    -10.73431654	      0.00000000
      0.48055649	    -33.34889524	    -10.87671620	      0.00000000
      0.48172289	    -34.27322489	    -11.02305552	      0.00000000
      0.48288929	    -35.19393798	    -11.17341296	      0.00000000
      0.48405569	    -36.11133297	    -11.32787017	      0.00000000
      0.48522209	    -37.02568875	    -11.48650840	      0.00000000
      0.48638848	    -37.93721511	    -11.64940902	      0.00000000
      0.48755488	    -38.84604727	    -11.81665522	      0.00000000
      0.48872128	    -39.75232070	    -11.98832436	      0.00000000
      0.48988768	    -40.65610735	    -12.16449383	      0.00000000
      0.49105408	    -41.55756988	    -12.34523037	      0.00000000
      0.49222048	    -42.45679655	    -12.53060290	      0.00000000
      0.49338688	    -43.35399825	    -12.72067058	      0.00000000
      0.49455328	    -44.24931102	    -12.91549702	      0.00000000
      0.49571968	    -45.14299266	    -13.11513934	      0.00000000
      0.49688608	    -46.03524723	    -13.31966072	      0.00000000
      0.49805248	    -46.92637355	    -13.52912242	      0.00000000
      0.49921888	    -47.81665005	    -13.74359306	      0.00000000
      0.50038528	    -48.70636701	    -13.96314524	      0.00000000
      0.50155167	    -49.59580135	    -14.18785983	      0.00000000
      0.50271807	    -50.48514944	    -14.41782481	      0.00000000
      0.50388447	    -51.37459836	    -14.65313492	      0.00000000
      0.50505087	    -52.26424018	    -14.89389064	      0.00000000
      0.50621727	    -53.15417395	    -15.14019713	      0.00000000
      0.50738367	    -54.04444409	    -15.39216323	      0.00000000
      0.50855007	    -54.93510566	    -15.64990194	      0.00000000
      0.50971647	    -55.82618775	    -15.91352932	      0.00000000
      0.51088287	    -56.71772464	    -16.18316591	      0.00000000
      0.51204927	    -57.60973621	    -16.45894102	      0.00000000
      0.51321567	    -58.50224776	    -16.74099602	      0.00000000
      0.51438207	    -59.39528229	    -17.02946015	      0.00000000
      0.51554847	    -60.28886888	    -17.32446737	      0.00000000
      0.51671487	    -61.18304736	    -17.62615458	      0.00000000
      0.51788126	    -62.07786000	    -17.93466476	      0.00000000
      0.51904766	    -62.97339234	    -18.25014483	      0.00000000
      0.52021406	    -63.86974982	    -18.57274996	      0.00000000
      0.52138046	    -64.76709198	    -18.90264139	      0.00000000
      0.52254686	    -65.66559440	    -19.23999096	      0.00000000
      0.52371326	    -66.56546778	    -19.58497789	      0.00000000
      0.52487966	    -67.46694690	    -19.93779405	      0.00000000
      0.52604606	    -68.37028346	    -20.29863989	      0.00000000
      0.52721246	    -69.27576808	    -20.66773058	      0.00000000
      0.52837886	    -70.18367430	    -21.04529035	      0.00000000
      0.52954526	    -71.09431124	    -21.43155851	      0.00000000
      0.53071166	    -72.00793720	    -21.82678272	      0.00000000
      0.53187806	    -72.92485258	    -22.23122550	      0.00000000
      0.53304445	    -73.84528888	    -22.64515696	      0.00000000
      0.53421085	    -74.76951809	    -23.06886099	      0.00000000
      0.53537725	    -75.69773040	    -23.50262749	      0.00000000
      0.53654365	    -76.63014009	    -23.94675728	      0.00000000
      0.53771005	    -77.56689903	    -24.40155685	      0.00000000
      0.53887645	    -78.50818624	    -24.86734269	      0.00000000
      0.54004285	    -79.45415001	    -25.34443817	      0.00000000
      0.54120925	    -80.40495204	    -25.83317535	      0.00000000
      0.54237565	    -81.36074553	    -26.33389392	      0.00000000
      0.54354205	    -82.32168946	    -26.84694192	      0.00000000
      0.54470845	    -83.28796012	    -27.37267691	      0.00000000
      0.54587485	    -84.25973944	    -27.91146615	      0.00000000
      0.54704125	    -85.23724379	    -28.46368852	      0.00000000
      0.54820764	    -86.22069061	    -29.02973402	      0.00000000
      0.54937404	    -87.21033944	    -29.61000571	      0.00000000
      0.55054044	    -88.20645457	    -30.20491952	      0.00000000
      0.55170684	    -89.20934494	    -30.81490405	      0.00000000
      0.55287324	    -90.21933936	    -31.44040087	      0.00000000
      0.55403964	    -91.23678229	    -32.08185555	      0.00000000
      0.55520604	    -92.26205621	    -32.73972265	      0.00000000
      0.55637244	    -93.29547555	    -33.41444499	      0.00000000
      0.55753884	    -94.33739298	    -34.10647708	      0.00000000
      0.55870524	    -95.38799679	    -34.81625984	      0.00000000
      0.55987164	    -96.44749677	    -35.54425906	      0.00000000
      0.56103804	    -97.51591034	    -36.29093310	      0.00000000
      0.56220444	    -98.59326655	    -37.05676328	      0.00000000
      0.56337083	    -99.67945726	    -37.84222478	      0.00000000
      0.56453723	   -100.77436802	    -38.64780102	      0.00000000
      0.56570363	   -101.87783805	    -39.47397622	      0.00000000
      0.56687003	   -102.98967891	    -40.32123220	      0.00000000
      0.56803643	   -104.10974062	    -41.19006235	      0.00000000
      0.56920283	   -105.23782151	    -42.08095534	      0.00000000
      0.57036923	   -106.37384540	    -42.99441794	      0.00000000
      0.57153563	   -107.51769306	    -43.93095531	      0.00000000
      0.57270203	   -108.66942659	    -44.89109525	      0.00000000
      0.57386843	   -109.82906780	    -45.87537124	      0.00000000
      0.57503483	   -110.99681569	    -46.88435368	      0.00000000
      0.57620123	   -112.17285792	    -47.91863794	      0.00000000
      0.57736763	   -113.35748236	    -48.97886337	      0.00000000
      0.57853403	   -114.55098744	    -50.06570410	      0.00000000
      0.57970042	   -115.75363830	    -51.17985935	      0.00000000
      0.58086682	   -116.96570677	    -52.32206067	      0.00000000
      0.58203322	   -118.18735172	    -53.49304586	      0.00000000
      0.58319962	   -119.41874231	    -54.69358207	      0.00000000
      0.58436602	   -120.65995105	    -55.92444340	      0.00000000
      0.58553242	   -121.91106530	    -57.18643228	      0.00000000
      0.58669882	   -123.17211672	    -58.48036615	      0.00000000
      0.58786522	   -124.44313721	    -59.80708695	      0.00000000
      0.58903162	   -125.72413304	    -61.16745841	      0.00000000
      0.59019802	   -127.01509131	    -62.56236443	      0.00000000
      0.59136442	   -128.31601482	    -63.99272186	      0.00000000
      0.59253082	   -129.62688072	    -65.45946877	      0.00000000
      0.59369722	   -130.94773624	    -66.96359376	      0.00000000
      0.59486361	   -132.27860469	    -68.50611352	      0.00000000
      0.59603001	   -133.61961523	    -70.08811144	      0.00000000
      0.59719641	   -134.97087866	    -71.71071056	      0.00000000
      0.59836281	   -136.33260891	    -73.37510798	      0.00000000
      0.59952921	   -137.70500982	    -75.08255421	      0.00000000
      0.60069561	   -139.08835700	    -76.83437212	      0.00000000
      0.60186201	   -140.48292892	    -78.63195244	      0.00000000
      0.60302841	   -141.88903282	    -80.47675191	      0.00000000
      0.60419481	   -143.30700579	    -82.37031443	      0.00000000
      0.60536121	   -144.73713541	    -84.31423035	      0.00000000
      0.60652761	   -146.17975346	    -86.31018923	      0.00000000
      0.60769401	   -147.63502262	    -88.35988672	      0.00000000
      0.60886041	   -149.10314865	    -90.46511590	      0.00000000
      0.61002680	   -150.58405520	    -92.62762843	      0.00000000
      0.61119320	   -152.07767788	    -94.84924908	      0.00000000
      0.61235960	   -153.58364719	    -97.13174241	      0.00000000
      0.61352600	   -155.10157085	    -99.47691536	      0.00000000
      0.61469240	   -156.63084389	   -101.88654583	      0.00000000
      0.61585880	   -158.17084590	   -104.36244707	      0.00000000
      0.61702520	   -159.72078841	   -106.90642090	      0.00000000
      0.61819160	   -161.27982092	   -109.52027436	      0.00000000
      0.61935800	   -162.84689989	   -112.20578492	      0.00000000
      0.62052440	   -164.42093835	   -114.96473096	      0.00000000
      0.62169080	   -166.00062315	   -117.79882863	      0.00000000
      0.62285720	   -167.58534360	   -120.71015651	      0.00000000
      0.62402360	   -169.17339241	   -123.70035373	      0.00000000
      0.62518999	   -170.76840881	   -126.76318890	      0.00000000
      0.62635639	   -172.35360023	   -129.91295215	      0.00000000
      0.62752279	   -173.93640085	   -133.14570048	      0.00000000
      0.62868919	   -175.51428621	   -136.46257834	      0.00000000
      0.62985559	   -177.08460859	   -139.86455274	      0.00000000
      0.63102199	   -178.64594621	   -143.35325279	      0.00000000
      0.63218839	   -180.19687321	   -146.93034435	      0.00000000
      0.63335479	   -181.73603835	   -150.59760872	      0.00000000
      0.63452119	   -183.26224410	   -154.35696781	      0.00000000
      0.63568759	   -184.77286773	   -158.20956896	      0.00000000
      0.63685399	   -186.26518190	   -162.15634756	      0.00000000
      0.63802039	   -187.73474784	   -166.19707903	      0.00000000
      0.63918679	   -189.17712006	   -170.33106995	      0.00000000
      0.64035318	   -190.58696058	   -174.55672837	      0.00000000
      0.64151958	   -191.95873376	   -178.87159956	      0.00000000
      0.64268598	   -193.28740250	   -183.27298813	      0.00000000
      0.64385238	   -194.56803456	   -187.75736278	      0.00000000
      0.64501878	   -195.79757946	   -192.32176086	      0.00000000
      0.64618518	   -196.97429989	   -196.96321082	      0.00000000
      0.64735158	   -198.09762399	   -201.67891468	      0.00000000
      0.64851798	   -199.16885949	   -206.46632689	      0.00000000
      0.64968438	   -200.18788944	   -211.32104344	      0.00000000
      0.65085078	   -201.15323701	   -216.23547603	      0.00000000
      0.65201718	   -202.06899566	   -221.20411358	      0.00000000
      0.65318358	   -202.94233736	   -226.22132664	      0.00000000
      0.65434998	   -203.79511439	   -231.29155067	      0.00000000
      0.65551638	   -204.66113028	   -236.42936489	      0.00000000
      0.65668277	   -205.56923416	   -241.64746305	      0.00000000
      0.65784917	   -206.54447965	   -246.95506163	      0.00000000
      0.65901557	   -207.60107868	   -252.35122696	      0.00000000
      0.66018197	   -208.77196946	   -257.84908367	      0.00000000
      0.66134837	   -210.07195268	   -263.44987146	      0.00000000
      0.66251477	   -213.60242888	   -271.78221809	      0.00000000
      0.66368117	   -215.23586208	   -277.62249144	      0.00000000
      0.66484757	   -217.06316013	   -283.58979834	      0.00000000
      0.66601397	   -219.03680628	   -289.65568784	      0.00000000
      0.66718037	   -221.08470209	   -295.77068791	      0.00000000
      0.66834677	   -223.12346824	   -301.88141455	      0.00000000
      0.66951317	   -225.02481405	   -307.93309586	      0.00000000
      0.67067957	   -226.73330676	   -313.83769815	      0.00000000
      0.67184596	   -228.11260652	   -319.53454669	      0.00000000
      0.67301236	   -229.07477872	   -324.96349811	      0.00000000
      0.67417876	   -229.56291102	   -330.08194439	      0.00000000
      0.67534516	   -229.56042695	   -334.86698746	      0.00000000
      0.67651156	   -229.08860235	   -339.31574995	      0.00000000
      0.67767796	   -228.19755676	   -343.44161043	      0.00000000
      0.67884436	   -226.95412091	   -347.26470601	      0.00000000
      0.68001076	   -225.42471138	   -350.80849753	      0.00000000
      0.68117716	   -223.66945846	   -354.09151840	      0.00000000
      0.68234356	   -221.73191041	   -357.12864080	      0.00000000
      0.68350996	   -219.64312826	   -359.92868677	      0.00000000
      0.68467636	   -217.42020301	   -362.49766265	      0.00000000
      0.68584276	   -215.07290291	   -364.84014646	      0.00000000
      0.68700915	   -212.60599868	   -366.96184385	      0.00000000
      0.68817555	   -210.02227677	   -368.87223042	      0.00000000
      0.68934195	   -207.32759238	   -370.58465258	      0.00000000
      0.69050835	   -204.53062254	   -372.11824442	      0.00000000
      0.69167475	   -201.64874764	   -373.49682516	      0.00000000
      0.69284115	   -198.70511847	   -374.75180452	      0.00000000
      0.69400755	   -195.73505248	   -375.92089763	      0.00000000
      0.69517395	   -192.78294270	   -377.05246195	      0.00000000
      0.69634035	   -189.91306588	   -378.20566900	      0.00000000
      0.69750675	   -187.21023400	   -379.45440320	      0.00000000
      0.69867315	   -184.78785854	   -380.89395704	      0.00000000
      0.69983955	   -182.79178950	   -382.63621172	      0.00000000
